{"type": "FeatureCollection", "features": [{"type": "Feature", "id": 126301, "geometry": {"type": "LineString", "coordinates": [[-59.96175579389811, 45.9624475307149], [-59.96175555824646, 45.96247542698077], [-59.961753256766784, 45.962480928243835], [-59.96174070363689, 45.962511034970305], [-59.96164859275321, 45.9625904912885], [-59.96163519996647, 45.962599144711014], [-59.9615053735887, 45.96266048669974], [-59.961360373486166, 45.96273943535202], [-59.961268891049095, 45.96278380489764], [-59.96120328221481, 45.96282706283292], [-59.961045461576326, 45.96295159203923], [-59.96100581566101, 45.96296852043906], [-59.960940649053086, 45.963003690157464], [-59.96084932700992, 45.96302106118185], [-59.96080236716536, 45.963025886746415], [-59.96077277407665, 45.96302892436872], [-59.96073358463639, 45.96303420876555], [-59.960655764335385, 45.963044711380675], [-59.96045901649333, 45.963065243181624], [-59.96042209958544, 45.96306909383372], [-59.960407265984294, 45.96307034608582], [-59.9603326325355, 45.963076621928664], [-59.96018929301459, 45.96310160839294], [-59.960014453149505, 45.96312061650712], [-59.95996986697034, 45.9631254599244], [-59.959762343852674, 45.96316763861686], [-59.95943774792845, 45.96322650109656], [-59.95933405526939, 45.96323454065468], [-59.9592183206466, 45.963250360149985], [-59.95908556258133, 45.96328455584693], [-59.958983987376655, 45.96331072512462], [-59.958840951038475, 45.96335371960567], [-59.958758345619714, 45.96338087999715], [-59.958737119336334, 45.96338785728998], [-59.95873315392188, 45.963390505915314], [-59.95869692997259, 45.96341468931336], [-59.95863493787568, 45.96345006738527], [-59.958605001329815, 45.96346714557319], [-59.95852178615497, 45.96354737637508], [-59.95851234291216, 45.96355648567223], [-59.95837891248378, 45.96370684519269], [-59.95829796831744, 45.96384150126755], [-59.958230640982016, 45.963939625698515], [-59.95820284164688, 45.96398530231012], [-59.95817674390703, 45.96402818899021], [-59.95814922014092, 45.96407001157926], [-59.95808241841808, 45.96417148922717], [-59.95794467266828, 45.964322822361055], [-59.957936843962365, 45.96433143457785], [-59.95781718076651, 45.96441914551814], [-59.95778157283323, 45.96443913265501], [-59.957581466190476, 45.96455147734363], [-59.95750137715469, 45.964580486038976], [-59.9574379460163, 45.96460345798895], [-59.95728200424473, 45.96464610661096], [-59.95726901638045, 45.96465229508637], [-59.9571905647465, 45.964689573945925], [-59.9571647956012, 45.96470736587096], [-59.95715166249606, 45.96471643972454], [-59.95711182438919, 45.964760382100756], [-59.95708482234356, 45.96483599840086], [-59.95708285489415, 45.964841517471996], [-59.957082477258744, 45.96489551230853], [-59.957053860610095, 45.96499375862663], [-59.95704871913028, 45.96500608773075], [-59.957039015146925, 45.965029366242156], [-59.95697129391987, 45.96518147532133], [-59.95694232396989, 45.96526261064116], [-59.95693229772141, 45.965275988656586], [-59.95691586558452, 45.96529791772974], [-59.95689040941894, 45.96531164056387], [-59.956850694235875, 45.96533307508118], [-59.956821243133035, 45.965340795887926], [-59.95678521868952, 45.96535023165551], [-59.95673639026728, 45.965366499785496], [-59.956707651090014, 45.9653760667043], [-59.956448691348974, 45.96539076598494], [-59.956420689824846, 45.96539040659263], [-59.95638421383972, 45.96538994730051], [-59.95635793183113, 45.9653982475114], [-59.956243433392125, 45.96548277317315], [-59.95622612196274, 45.96549554287779], [-59.95617433042333, 45.965522064712054], [-59.956134490949175, 45.965566006708066], [-59.95612552012218, 45.96558484928226], [-59.95607907383462, 45.965682440005864], [-59.95599679321276, 45.965888165244166], [-59.95590264820463, 45.96600446602281], [-59.95583698213382, 45.96604861942068], [-59.95576732134818, 45.966087472800915], [-59.9557584275773, 45.966092429141085], [-59.955748192286656, 45.966106080503394], [-59.95573196852297, 45.96612772693447], [-59.955704474578916, 45.96618189884129], [-59.955702880473815, 45.96618366550155], [-59.95558490409084, 45.96631462298109], [-59.9555189341958, 45.966340766462736], [-59.95545474591605, 45.96635795659784], [-59.95535591527916, 45.96636901145319], [-59.95531188881839, 45.96637394898431], [-59.955104540145534, 45.96638912141042], [-59.95497586017751, 45.96640549145514], [-59.95487166818996, 45.96642251446034], [-59.954754636987985, 45.96643829484998], [-59.954638352308415, 45.96646399592832], [-59.95461524665941, 45.966474378639724], [-59.95459865170593, 45.96648183872413], [-59.95445590680781, 45.96654283710945], [-59.954412726624156, 45.966571874048945], [-59.954390238969744, 45.96658698962672], [-59.95437537844833, 45.96662259649015], [-59.954375188263754, 45.96664959386373], [-59.9544197151865, 45.96668754092788], [-59.954450406383486, 45.96671370588654], [-59.95450487031718, 45.966753097083505], [-59.954513722132845, 45.96675949875113], [-59.95453756505887, 45.96676391506491], [-59.95456483253431, 45.96676896276576], [-59.954737298566236, 45.96663675043329], [-59.954788598882494, 45.96661921696682], [-59.95487940984594, 45.966610837977925], [-59.955038428959455, 45.96661317977865], [-59.95533080288549, 45.966617475371834], [-59.95537204002642, 45.96662292240076], [-59.95540769031731, 45.96662762638415], [-59.955423196855484, 45.9666348354904], [-59.955446708280014, 45.96664576836543], [-59.95547467596933, 45.96665311172631], [-59.95548488096655, 45.9666557870603], [-59.955498131514354, 45.96667989353624], [-59.95550951908785, 45.96670054802669], [-59.955515558831856, 45.96672386817214], [-59.95552124521178, 45.966745864775895], [-59.955520057035464, 45.96679083716905], [-59.95550285944328, 45.96691639001003], [-59.955472331661696, 45.9670964923671], [-59.95545918987544, 45.9671711457287], [-59.95544234480131, 45.96726672624172], [-59.95541342215532, 45.96734693533476], [-59.95531623920034, 45.96758917500621], [-59.955313205547164, 45.96771510550757], [-59.95532306113996, 45.967841370715824], [-59.955320533730955, 45.96785003410856], [-59.955294439120024, 45.967939625421195], [-59.95527802363453, 45.968074199881315], [-59.95528161955962, 45.96840004421382], [-59.9552816976973, 45.968407327955454], [-59.95532662887368, 45.96862364554662], [-59.95533478416869, 45.96870418627286], [-59.955336686725126, 45.968722922694454], [-59.95533867726492, 45.96873770110448], [-59.95534770460838, 45.96880422381475], [-59.95538337432277, 45.96893028627818], [-59.955417238884024, 45.96906620148667], [-59.95547888920507, 45.96916596326126], [-59.955541513572356, 45.96924773134704], [-59.955550465908864, 45.96927396440093], [-59.95556598888065, 45.969319490379746], [-59.95557073615618, 45.969330840974536], [-59.95557739941902, 45.969346797068056], [-59.95570267380307, 45.96951035177638], [-59.95575225865285, 45.969547686092426], [-59.955764515183375, 45.96958310704708], [-59.95578813264932, 45.96964674242558], [-59.95579586709348, 45.96966976570034], [-59.95581254576353, 45.96971940882462], [-59.95582356496214, 45.96980070092138], [-59.95582043128565, 45.96988162467526], [-59.95580871104807, 45.96990916070142], [-59.95575228236877, 45.97004182228004], [-59.95574186995443, 45.97008058117713], [-59.95573766272939, 45.97009633743179], [-59.955735687767486, 45.97017213461012], [-59.95573178657121, 45.97032119203505], [-59.955666797120486, 45.970329369117266], [-59.95558889300277, 45.97033719280668], [-59.955486740379754, 45.97031736743033], [-59.95542146165455, 45.970307517035465], [-59.95528656615728, 45.97028971663432], [-59.955267676194445, 45.97028722372284], [-59.955246469271735, 45.97028037563512], [-59.955152243448445, 45.970249942366465], [-59.955025426215094, 45.97018535484789], [-59.95492504511035, 45.97008546898942], [-59.95489731625634, 45.97006526970979], [-59.95481085128169, 45.9700023161877], [-59.9547217038846, 45.96995673462794], [-59.95464939987645, 45.96992789371836], [-59.95458147976866, 45.96990078983967], [-59.954364580351104, 45.969807696447916], [-59.95422387678653, 45.96976073924025], [-59.954155980948904, 45.969737200075734], [-59.95400726832298, 45.96968565455076], [-59.95385367620658, 45.96963835304502], [-59.9538027653613, 45.969626382816706], [-59.95377593989542, 45.96962007761587], [-59.95358299634651, 45.96960773809745], [-59.95338951134271, 45.96960526669657], [-59.95336637741317, 45.969610490933164], [-59.95335030129021, 45.969614121332036], [-59.95329586541803, 45.969627106077745], [-59.953207737704744, 45.969648120547006], [-59.95312984717695, 45.96965594291783], [-59.95282032257888, 45.969651282996594], [-59.95270403078896, 45.969676972913604], [-59.95261277003745, 45.969693447902465], [-59.95257435537445, 45.969711324312776], [-59.95250838003045, 45.969737465904636], [-59.95240434085735, 45.96979860372028], [-59.95227269234791, 45.9698688873593], [-59.952036639294235, 45.96998319702913], [-59.95190648318767, 45.97002651764771], [-59.95184824317024, 45.97003895010551], [-59.95179023858904, 45.97005132581341], [-59.95170639337553, 45.97005450583379], [-59.95160914751368, 45.97005819208935], [-59.951583369011615, 45.970057503829985], [-59.95147228348736, 45.9698943324313], [-59.951448115020256, 45.969872553221], [-59.951421856584346, 45.96984887303566], [-59.95138338071473, 45.96982084326572], [-59.951371786766394, 45.969809840731344], [-59.951345348590316, 45.96978473360043], [-59.9513215449514, 45.96974808576047], [-59.95132469892523, 45.9696175501782], [-59.95132763103054, 45.96949622550224], [-59.951357055836155, 45.96940700304814], [-59.951397636524405, 45.969326179188414], [-59.95141288314989, 45.969236578149584], [-59.951427142656264, 45.96916495237828], [-59.95143886139388, 45.9687872310969], [-59.95140676055947, 45.968525350378485], [-59.951407964778596, 45.96847920835471], [-59.95140910512243, 45.96843540483686], [-59.95138854893611, 45.9683621923965], [-59.9513864437539, 45.96835469251278], [-59.95137392539673, 45.96830035337419], [-59.95133640118289, 45.968255247443466], [-59.9512232031424, 45.968154124972244], [-59.95111365507251, 45.968084323679534], [-59.95102116706042, 45.96802540979943], [-59.950765552636206, 45.96793217573922], [-59.950598092260925, 45.967902501081696], [-59.95055022720993, 45.96790232980169], [-59.950520661099056, 45.967902233202416], [-59.95043913554705, 45.96792692318315], [-59.950351335556114, 45.96795351570322], [-59.95029074695365, 45.967984534323655], [-59.950247742378885, 45.96800655374036], [-59.95020808868515, 45.96802349617909], [-59.95019552106716, 45.968036103654214], [-59.950154810834206, 45.96807697802272], [-59.9500967040803, 45.96817301271573], [-59.95007388946857, 45.96821072875549], [-59.95005867060909, 45.96822084417509], [-59.94998145110544, 45.96827216525479], [-59.9498619099895, 45.9683565587966], [-59.9496927373448, 45.96847597157147], [-59.94961288573386, 45.96851974240525], [-59.94958879536207, 45.96853274402929], [-59.94954770608473, 45.968554895359176], [-59.94953462411933, 45.96858155729263], [-59.949506023410656, 45.96862895652025], [-59.94948065861222, 45.968671023705824], [-59.94943865643027, 45.96877791127644], [-59.949401707010736, 45.96882290921925], [-59.94935840591738, 45.968875676160295], [-59.949265229151514, 45.96897400468744], [-59.94911882254519, 45.9691248976933], [-59.94909827595033, 45.96912907409872], [-59.94907966162103, 45.96913285209198], [-59.94902192009857, 45.96913246126562], [-59.948989326908844, 45.96913223837779], [-59.948810770775026, 45.969093263788864], [-59.948771259459, 45.9690841071707], [-59.94874597593463, 45.969074421681114], [-59.948693238443866, 45.96901610016195], [-59.948671748993476, 45.968992339767496], [-59.94864586319125, 45.968977408686584], [-59.94860795468361, 45.968955531691336], [-59.94859554682114, 45.96894619927315], [-59.948591231594406, 45.96885186341972], [-59.948587332608625, 45.968766863533304], [-59.94860213897027, 45.96868535182368], [-59.9486210198981, 45.96864853904185], [-59.94868454647355, 45.968524639407896], [-59.94880699371696, 45.96829299041753], [-59.948818288927164, 45.96825656893827], [-59.94882111272723, 45.9682474635682], [-59.94883735097517, 45.968139887723694], [-59.948891510328814, 45.968023415340966], [-59.948916229961874, 45.967982051107604], [-59.94904076957866, 45.9677735898641], [-59.949122186583054, 45.96763085228221], [-59.94912286033909, 45.96759486702175], [-59.949163899656696, 45.967505964456876], [-59.949127402521185, 45.967441974519566], [-59.94910181806433, 45.967414288433105], [-59.9489778567776, 45.967250761472684], [-59.94894246809671, 45.96714335415238], [-59.948930288973116, 45.96710637737193], [-59.94891528895009, 45.96708503163322], [-59.94890514927609, 45.96707060238983], [-59.94881842240334, 45.96693417261294], [-59.9488072085606, 45.96687986803888], [-59.948808883204975, 45.96682590789001], [-59.948849959877855, 45.96673608834459], [-59.94893088082806, 45.96660235644512], [-59.948983929036075, 45.966576771560796], [-59.948987220539, 45.96657442029488], [-59.94899734832183, 45.96656722025062], [-59.949023010858745, 45.96655683499419], [-59.94906201914712, 45.966541054826784], [-59.94917994453244, 45.96646228945137], [-59.949234436964524, 45.96644142346546], [-59.949272237355096, 45.96642695207309], [-59.94936220420808, 45.966410454189464], [-59.94942718929063, 45.96640228958871], [-59.94960820623916, 45.966396324898135], [-59.949710931149376, 45.966406269959585], [-59.94981295706953, 45.966452199523324], [-59.949855740443304, 45.966457212813324], [-59.94990273147048, 45.96646269852307], [-59.95004498732107, 45.96646496851134], [-59.95007037939051, 45.96646537677483], [-59.95014825285282, 45.96645755604292], [-59.950162002012455, 45.96645444899152], [-59.950187461103674, 45.9664487024604], [-59.950226367860566, 45.96642183917723], [-59.9502541193391, 45.9663865771788], [-59.950306106059436, 45.966333069794516], [-59.95040070792669, 45.9662086760887], [-59.95041527982557, 45.96616638342211], [-59.95042834972275, 45.96612840703157], [-59.95047041000146, 45.96602062053723], [-59.95047257659198, 45.96595767268287], [-59.95039873565757, 45.965821588262514], [-59.9503356165756, 45.96574879589866], [-59.95024918903403, 45.96563038582205], [-59.95018607085068, 45.965557584396095], [-59.95013762300297, 45.96547618299081], [-59.95011340337192, 45.965449973711884], [-59.950112038886346, 45.96544849713265], [-59.95010047317576, 45.96537708172365], [-59.95007667211322, 45.965340433667414], [-59.95000095389659, 45.96528531519495], [-59.94993459237343, 45.96525183256847], [-59.94987286518923, 45.965220687907426], [-59.94984906434118, 45.96518403980829], [-59.9498488165154, 45.965168344761125], [-59.949848775361964, 45.96516603945219], [-59.949863144604166, 45.96513942086243], [-59.94999445779137, 45.96505112038342], [-59.95011169225118, 45.96500834785542], [-59.950255232768015, 45.96495637696817], [-59.95035764074288, 45.96494831135011], [-59.95037211535599, 45.96495666369076], [-59.95042144468183, 45.96498511872869], [-59.950497149554465, 45.96504024556826], [-59.95060016040464, 45.96506820810877], [-59.95065584503767, 45.9650831785396], [-59.950741343047135, 45.96510617281928], [-59.95081474309366, 45.96510762001761], [-59.95087027333757, 45.96510871595935], [-59.950890096475554, 45.965106167064754], [-59.95093396789899, 45.9651005160371], [-59.95096990138093, 45.96509110669063], [-59.95099944478314, 45.96508336285685], [-59.951043716069904, 45.965058676733605], [-59.95107800145888, 45.96503955646355], [-59.951157100865345, 45.96498586360844], [-59.951275801418205, 45.96491613557918], [-59.95132439246022, 45.96489974643659], [-59.95137967722012, 45.964881096780985], [-59.951392578156096, 45.96488144124875], [-59.95143776416333, 45.964910613291], [-59.95150601052897, 45.96495467632539], [-59.951596578285915, 45.9649741959973], [-59.95171538610859, 45.96497585586458], [-59.95173844528063, 45.9649761924729], [-59.95176681868659, 45.964966482028025], [-59.95178974540668, 45.96495865134772], [-59.951809937845326, 45.96495454601027], [-59.95182890301404, 45.96495069593089], [-59.95186280715565, 45.96492487763893], [-59.95193395614006, 45.96487069296894], [-59.95197936004858, 45.964851932255236], [-59.95203830028242, 45.964827583339215], [-59.952101745618286, 45.964842490213044], [-59.95211602982227, 45.96484585079569], [-59.95214122969651, 45.964857036448784], [-59.95224328850346, 45.9649023526696], [-59.95231245864577, 45.96493571090369], [-59.95239543565928, 45.96497572020213], [-59.952408177293265, 45.964978967566985], [-59.95243489541792, 45.9649857742783], [-59.95246348254536, 45.96498604227113], [-59.95248648419955, 45.964986251181394], [-59.952511170535786, 45.964982103653085], [-59.95253730323088, 45.96497770669785], [-59.95259082865381, 45.964943132054294], [-59.952628512437784, 45.96489288718622], [-59.95265767334605, 45.96485400788536], [-59.95266010937446, 45.964845603132716], [-59.95268634696045, 45.96475486409459], [-59.95280022570424, 45.96460220726031], [-59.952806160885764, 45.964594246923674], [-59.95280929209306, 45.96459222429948], [-59.95284630455189, 45.964568315837404], [-59.95297714434702, 45.96448900011044], [-59.95313425286262, 45.964401384416014], [-59.95325349271081, 45.96432175881856], [-59.9532546804624, 45.96427635438131], [-59.95325584664352, 45.96423181344674], [-59.953250905628735, 45.96422118664311], [-59.95324314939046, 45.964204472168966], [-59.95317983753219, 45.96415867868073], [-59.953039833066576, 45.96407573533159], [-59.95296393605125, 45.964047607505364], [-59.95287411550968, 45.964038009758475], [-59.95269948358738, 45.964154257055206], [-59.952610211482984, 45.96421368301632], [-59.952570320917, 45.96425852249518], [-59.952565623697254, 45.96443841349683], [-59.95255135429239, 45.96451003918445], [-59.95254535525834, 45.96468989543325], [-59.95251914783063, 45.96474410092383], [-59.95249238520516, 45.96476138823453], [-59.95240113305067, 45.9647778542789], [-59.952272949521365, 45.96478523370285], [-59.95216895110387, 45.96477525694904], [-59.95206727806445, 45.96474643145693], [-59.951990683591404, 45.964696673401995], [-59.95194016140467, 45.964663839803094], [-59.95187734353446, 45.96460905796201], [-59.95176262253837, 45.964535788848124], [-59.9515978303007, 45.96443418031263], [-59.95148459035599, 45.964333948001865], [-59.951459100611025, 45.96428197175149], [-59.9514358396522, 45.964234537412814], [-59.95137252930353, 45.96418874295855], [-59.95118196308389, 45.96408644561675], [-59.95108024200218, 45.96405852703844], [-59.95105515152494, 45.96402185374925], [-59.95101975443672, 45.96395686767176], [-59.951005908335695, 45.96393143063886], [-59.95100741336514, 45.963880751211185], [-59.95101043113485, 45.963778546483674], [-59.95100609685556, 45.963481394681224], [-59.950999137236906, 45.96339212771175], [-59.950996251861476, 45.963355120294025], [-59.950960883490296, 45.96324707503425], [-59.950888223909125, 45.96306600932439], [-59.95083504510784, 45.963014841614], [-59.95081221902252, 45.96299288207411], [-59.95073651700782, 45.96293774650078], [-59.950700040242964, 45.962876457818425], [-59.95068807043026, 45.96285634533395], [-59.95065072923817, 45.96278424156422], [-59.950614425091295, 45.962693254753574], [-59.950553282813786, 45.96258452098798], [-59.95048668920504, 45.9624643635592], [-59.95044290024285, 45.962385354888966], [-59.95042288935136, 45.96236078821581], [-59.950405417023916, 45.962339349622624], [-59.950389420533334, 45.96233380989365], [-59.95038007346843, 45.96233057196204], [-59.95027880235264, 45.96224775966234], [-59.950267779840594, 45.96216645784598], [-59.95028302572197, 45.96207685685772], [-59.95031096803522, 45.96198097039056], [-59.950311648989924, 45.96197844134659], [-59.95031617726726, 45.96182571933937], [-59.950321195560825, 45.961818004663385], [-59.95035705491928, 45.96176290535636], [-59.95037321281107, 45.961736361470315], [-59.95038400867674, 45.96171862118024], [-59.95048079374663, 45.961602494412524], [-59.95058434819619, 45.961478249601036], [-59.95072905783371, 45.961381305222815], [-59.95089959073062, 45.961284150201216], [-59.95103056752131, 45.96117873795737], [-59.951057884485785, 45.9611515648824], [-59.95108482448356, 45.96110728017116], [-59.95108765035584, 45.96100903064402], [-59.95108767497058, 45.961008347238796], [-59.95107663853551, 45.96092704511777], [-59.951069377324174, 45.96090744544093], [-59.95105304260563, 45.96086340925221], [-59.951030249428705, 45.96083310686443], [-59.95097847189018, 45.960764208997766], [-59.95096128970155, 45.96073231927649], [-59.95095387632148, 45.96071854806149], [-59.95085210077611, 45.9606447236034], [-59.9508312502034, 45.96064086346764], [-59.95080099667862, 45.96063525807398], [-59.950761566347545, 45.96063460106628], [-59.950710738432946, 45.9606337386586], [-59.950593668711214, 45.96065042282243], [-59.95047709295745, 45.9606581102353], [-59.950456430723676, 45.9606519958546], [-59.95035008502848, 45.960620514766156], [-59.95019653385647, 45.96057320932262], [-59.950160327672585, 45.96056766077335], [-59.95013254291921, 45.96056339926451], [-59.95011490965345, 45.96055712270964], [-59.95008064393326, 45.96054491135477], [-59.95002909582787, 45.96054353435946], [-59.94985586228004, 45.96054677335176], [-59.9497319538089, 45.96054909763889], [-59.949371364097715, 45.960534963266205], [-59.94931976666323, 45.96053448471439], [-59.949207068214236, 45.96048005173075], [-59.949205358537554, 45.96047922297605], [-59.94916689007752, 45.960451192609504], [-59.949155978078124, 45.96041489773734], [-59.94909267386997, 45.96036910214785], [-59.94905338239976, 45.96034642324254], [-59.948965065326085, 45.96029548578487], [-59.948856420060594, 45.96022625539695], [-59.94876307425326, 45.960166785627365], [-59.948699313725406, 45.960135882987586], [-59.948686390415766, 45.96012962407317], [-59.948684387226464, 45.960128265418675], [-59.94866026616163, 45.960111824336884], [-59.94856689121507, 45.95998195817625], [-59.94856195170503, 45.95997508454556], [-59.94848812272305, 45.95983899908223], [-59.9484459693392, 45.95979302134722], [-59.94843820040351, 45.95978455995036], [-59.948427908456296, 45.95977269181403], [-59.94837507751938, 45.959711766327345], [-59.9483122815082, 45.959656983055545], [-59.948236585946994, 45.95960185495967], [-59.94823679180327, 45.95957485798609], [-59.94825694587959, 45.95953572104073], [-59.94826422706465, 45.95952158634267], [-59.94835837606018, 45.959405291876514], [-59.948426207989456, 45.9592981948624], [-59.948465747682754, 45.95923624585995], [-59.94853357918483, 45.95912914876893], [-59.94855594337447, 45.959099575709104], [-59.94861429707279, 45.95902239603256], [-59.94866936948018, 45.95891849518924], [-59.94870932368247, 45.958843118944806], [-59.94873677098511, 45.95878984750592], [-59.94874402249506, 45.95877953733429], [-59.94883055431098, 45.95865644130077], [-59.94888501693123, 45.95855798755559], [-59.94904614809912, 45.95832647172415], [-59.94905330449536, 45.95831930027927], [-59.94909941715047, 45.9582729901122], [-59.94917895275811, 45.958211209509436], [-59.94942821834634, 45.95804325372352], [-59.94950775375123, 45.95798146388445], [-59.94967704911767, 45.957930181817446], [-59.94980632890703, 45.9578997384987], [-59.94989669939023, 45.957878453541895], [-59.95002812999617, 45.957835160243704], [-59.950390364522434, 45.957751569526295], [-59.95046861973228, 45.957733515843685], [-59.95052734132714, 45.95772406722853], [-59.95072772335365, 45.95769183155779], [-59.951385372697594, 45.957701292766835], [-59.95145064925778, 45.95771113645735], [-59.951553345704596, 45.95772107913624], [-59.951581359648536, 45.957725373424246], [-59.951617333683295, 45.95773088832633], [-59.95173662273069, 45.95777475692218], [-59.951770398033, 45.95778717971327], [-59.95178289419272, 45.95779628013819], [-59.95180886607574, 45.95781520920024], [-59.95199631132128, 45.957997529645034], [-59.95204672893308, 45.95804297962343], [-59.95211101956893, 45.9580707982666], [-59.95217451484213, 45.95808959481575], [-59.9522418933352, 45.958102536440336], [-59.95227795827331, 45.958109457688465], [-59.95230666783765, 45.95810272635273], [-59.95231587160853, 45.958100568809456], [-59.952320422786755, 45.9580961808805], [-59.95234312416184, 45.95807429378282], [-59.952344505288785, 45.95800232404175], [-59.952329248896405, 45.9579788476877], [-59.95232069225304, 45.95796568509838], [-59.952291697750276, 45.957950329805506], [-59.95198961497277, 45.95779033187812], [-59.951812399252255, 45.957680291131524], [-59.95178898428961, 45.95766485964867], [-59.95167289316403, 45.95758835848254], [-59.95160979357513, 45.957515576256725], [-59.9515348636141, 45.95745636640115], [-59.951458882381345, 45.95739632735243], [-59.95137099786013, 45.95730487256142], [-59.951340761435986, 45.95726607271214], [-59.95132156814352, 45.9572414470022], [-59.95127942515199, 45.95721125802908], [-59.95127065897851, 45.95720497539686], [-59.95124833634569, 45.957186107650635], [-59.95111897888172, 45.95707672267798], [-59.95108658462341, 45.95705302253095], [-59.95103087810323, 45.95701226432668], [-59.95089119626309, 45.956947328497336], [-59.95069942723147, 45.95689090231026], [-59.95057164535325, 45.956844285557764], [-59.95051117015019, 45.95682034829208], [-59.95043018239622, 45.9567883024174], [-59.9503773106306, 45.956760328775324], [-59.95034239740001, 45.95674185361971], [-59.950073647511346, 45.95663026527236], [-59.94993299356254, 45.95658330395067], [-59.94991050219204, 45.95657551145161], [-59.949907652668124, 45.956574526245106], [-59.949893485393886, 45.956567667179776], [-59.949830971876175, 45.95653738352001], [-59.94978490814338, 45.95653654895804], [-59.949727834259825, 45.9565355192418], [-59.94962345449411, 45.95657953490946], [-59.94957725221241, 45.956584277075606], [-59.949546896894674, 45.95658738142436], [-59.949505682431806, 45.956594119994485], [-59.94949480900064, 45.9565958996706], [-59.949491347678396, 45.95659618522616], [-59.9494040632694, 45.95660337601288], [-59.949261723730146, 45.956610373795236], [-59.94887533817972, 45.956596448619166], [-59.94883869372388, 45.956596108411055], [-59.948823744419826, 45.95659596993444], [-59.94880331998761, 45.95658132881749], [-59.94879767109868, 45.95657727149719], [-59.94865749931777, 45.956521320655746], [-59.94859469407457, 45.956466528264244], [-59.94849421689608, 45.95639275434362], [-59.948442322321554, 45.95637426578837], [-59.94818607892853, 45.95631700321051], [-59.94811164918039, 45.956289415368445], [-59.948110182057846, 45.95628887210579], [-59.94808454619151, 45.95627490163164], [-59.94795733112615, 45.95620558799714], [-59.94791931164362, 45.95616945044202], [-59.94788391416397, 45.956126461327685], [-59.947844307516185, 45.95607834621909], [-59.94778813979121, 45.95603124650683], [-59.94775671897897, 45.95600489818335], [-59.94771889189118, 45.95594178121629], [-59.94765776261467, 45.955833037128876]]}, "properties": {"OBJECTID": 126301, "FEAT_CODE": "WALK20", "FEAT_DESC": "Lake - Water to the right line", "RIVNAME_1": " ", "RIVNAME_2": " ", "ZVALUE": 39.5, "FID": null, "SHAPE_Length": 4976.925736429189}}, {"type": "Feature", "id": 154137, "geometry": {"type": "LineString", "coordinates": [[-59.95138140711531, 45.966213263982134], [-59.951353643542895, 45.96624852593151], [-59.95135865693563, 45.96625195409411], [-59.951367340141424, 45.966257892463524], [-59.95145455949556, 45.966337493295406], [-59.95146689986175, 45.966348758779006], [-59.95150487998685, 45.96638577611746], [-59.95152928630213, 45.9664029622611], [-59.95154340297402, 45.966412907038915], [-59.95158747078245, 45.9664135705748], [-59.95162078275361, 45.9664140729368], [-59.95162778169998, 45.96641048845845], [-59.951672577217245, 45.96638755324764], [-59.951712420767294, 45.96634361291758], [-59.95171382615, 45.966294740000784], [-59.951715283773005, 45.96624468037059], [-59.95167978339686, 45.96620293187157], [-59.951653438420884, 45.966171922750384], [-59.95153502008765, 45.96618992200569], [-59.95138140711531, 45.966213263982134]]}, "properties": {"OBJECTID": 154137, "FEAT_CODE": "WALKIS10", "FEAT_DESC": "Lake Island - Island to the left line", "RIVNAME_1": " ", "RIVNAME_2": " ", "ZVALUE": 39.5, "FID": null, "SHAPE_Length": 86.73453597922258}}, {"type": "Feature", "id": 154138, "geometry": {"type": "LineString", "coordinates": [[-59.95211293095141, 45.96588986291898], [-59.95203524979917, 45.965870687674524], [-59.95201228694322, 45.96587047070876], [-59.95198364732188, 45.965870210203015], [-59.951979017625625, 45.96587460502007], [-59.95191828045029, 45.96593237097041], [-59.951842665107904, 45.96593152240291], [-59.9518021870941, 45.965931071813515], [-59.9518779439677, 45.96598529903131], [-59.951929497209015, 45.96598667531776], [-59.95198250609389, 45.96600832427687], [-59.95201912887937, 45.966023280211225], [-59.952109396957745, 45.966024780835035], [-59.95214875942284, 45.965989828326016], [-59.9521498427038, 45.96595434001973], [-59.95215041786123, 45.965935867695066], [-59.952125312991484, 45.96589919426866], [-59.95211895439271, 45.96589440710993], [-59.95211293095141, 45.96588986291898]]}, "properties": {"OBJECTID": 154138, "FEAT_CODE": "WALKIS10", "FEAT_DESC": "Lake Island - Island to the left line", "RIVNAME_1": " ", "RIVNAME_2": " ", "ZVALUE": 39.5, "FID": null, "SHAPE_Length": 72.3080167669626}}, {"type": "Feature", "id": 186223, "geometry": {"type": "LineString", "coordinates": [[-59.9623590934541, 45.97097745310189], [-59.962058501276466, 45.9711931976971], [-59.9616214482755, 45.97150687534519], [-59.961503492992044, 45.97158654381579], [-59.961496712940765, 45.971599099528206], [-59.96148912743058, 45.971613163942614], [-59.961465200999214, 45.97163333707527], [-59.96143634753065, 45.97165768146807], [-59.96135680607617, 45.97171945237229], [-59.961224297211835, 45.97185273808049], [-59.9611316774101, 45.971941181178174], [-59.9610132284641, 45.97202983680843], [-59.96094296467804, 45.972069019310474], [-59.96093466910277, 45.972073649943084], [-59.960911738266574, 45.97208907003001], [-59.96073764696613, 45.97220611799878], [-59.960512234839456, 45.972409836415316], [-59.96043267739394, 45.97247162424829], [-59.96034049821309, 45.97255197770357], [-59.960300656631276, 45.972595921063736], [-59.96026204229424, 45.97267897858682], [-59.96024651648571, 45.97271239027751], [-59.960227152006055, 45.972735987897856], [-59.960166291470514, 45.9728101633785], [-59.95999148679158, 45.97303232963461], [-59.95985710642253, 45.97324657117203], [-59.95981371629207, 45.97331852039239], [-59.9598031523865, 45.97333604270457], [-59.95974889367463, 45.97340750448547], [-59.95968204915118, 45.97349663271971], [-59.959636376519704, 45.97358125723354], [-59.95960015725842, 45.973648365867625], [-59.95956394385508, 45.973684727892255], [-59.95954688255673, 45.97370185214121], [-59.95953134657073, 45.97371469661857], [-59.95949414928705, 45.97374545192117]]}, "properties": {"OBJECTID": 186223, "FEAT_CODE": "WARV50", "FEAT_DESC": "River - Single Line", "RIVNAME_1": " ", "RIVNAME_2": " ", "ZVALUE": 9999, "FID": null, "SHAPE_Length": 384.2464275827634}}, {"type": "Feature", "id": 186224, "geometry": {"type": "LineString", "coordinates": [[-59.9627134559876, 45.97634415945259], [-59.962701007793164, 45.97633572759307], [-59.96263786047746, 45.976262950437594], [-59.96257969445745, 45.976220404443694], [-59.96254974281631, 45.97619849177263], [-59.96248212550428, 45.97614323718805], [-59.96244840295312, 45.976115688678], [-59.96244738831151, 45.976115121636795], [-59.962398266250126, 45.976088252526324], [-59.962244343680794, 45.97602295201288], [-59.9622266357879, 45.97596532579011], [-59.96219722662494, 45.97586958487184], [-59.96217529214994, 45.97577856121907], [-59.96216250859157, 45.97572554840064], [-59.96215360833761, 45.97558129874987], [-59.962145110225116, 45.97551862507478], [-59.962142579610834, 45.97549999808833], [-59.96210885910484, 45.97533797752609], [-59.962061424793504, 45.9751666002655], [-59.96205672986606, 45.975146241540926], [-59.962050993319984, 45.97512132769742], [-59.96202638275938, 45.97507566886141], [-59.962008326135376, 45.975051075269064], [-59.96192667190993, 45.9749398038864], [-59.96191220517169, 45.97490788013511], [-59.961877146501564, 45.97483046744659], [-59.961846986281785, 45.97477983646989], [-59.96182868624789, 45.97474907982092], [-59.96182445831666, 45.974740002518715], [-59.96181596919824, 45.97472174802007], [-59.96168641737528, 45.97459147035084], [-59.96165322167029, 45.97455809409516], [-59.96162764061093, 45.97453041095234], [-59.96149024501927, 45.97437553214541], [-59.9614094692744, 45.97432441813462], [-59.961286872258526, 45.97424681778217], [-59.96113572124546, 45.97415458709147], [-59.96087839746492, 45.974115335199684], [-59.96072497425527, 45.974041045091695], [-59.96052741263176, 45.97398990897658], [-59.960469127791065, 45.97397482918173], [-59.96036639891281, 45.97396490274918], [-59.9603431991577, 45.97395622040409], [-59.960314533683466, 45.97394551137584], [-59.960123188609096, 45.97388011176551], [-59.96002841136998, 45.97385558140577], [-59.95986734366437, 45.97381389454122], [-59.959709860673854, 45.97378501203899], [-59.95949414928705, 45.97374545192117]]}, "properties": {"OBJECTID": 186224, "FEAT_CODE": "WARV50", "FEAT_DESC": "River - Single Line", "RIVNAME_1": " ", "RIVNAME_2": " ", "ZVALUE": 9999, "FID": null, "SHAPE_Length": 420.52227650652867}}, {"type": "Feature", "id": 186386, "geometry": {"type": "LineString", "coordinates": [[-59.95949414928705, 45.97374545192117], [-59.95942927368849, 45.97379862021161], [-59.95934967617, 45.973861315297576], [-59.95915338638287, 45.97395689680124], [-59.95908819206037, 45.97399207279857], [-59.958921584128504, 45.97404727473269], [-59.95880158436227, 45.97408703937624], [-59.95876706608174, 45.97410045823958], [-59.95871057275784, 45.97412242757653], [-59.95860592441167, 45.97414753357078], [-59.9584876550729, 45.97420918893368], [-59.95843536373013, 45.97424469927027], [-59.958408915576584, 45.97427998894212], [-59.958395026896845, 45.97429762957244], [-59.95836730321457, 45.97438635004105], [-59.95836685059501, 45.97438777811243], [-59.95833891093842, 45.974450048453164], [-59.958299321128905, 45.974512899507005], [-59.95827255536711, 45.97453018807516], [-59.95817362139919, 45.9745607743819], [-59.958076893298674, 45.97459068130541], [-59.95802558644661, 45.974608216071175], [-59.95756795318354, 45.97480844171712], [-59.95755193948604, 45.97481986006847], [-59.9575424139438, 45.974826662876715], [-59.95746305100783, 45.974861460397555], [-59.95743563973048, 45.97487709342131], [-59.957371115114015, 45.97491390642713], [-59.9573590210411, 45.97492258494744], [-59.95730897130988, 45.974946849489974], [-59.957267514983826, 45.974966950623816], [-59.957209417815896, 45.975014852799895], [-59.95716070406177, 45.97505501229925], [-59.95708771391134, 45.975129204901954], [-59.95705543617747, 45.9751620166883], [-59.95701559007252, 45.975205958772854], [-59.95698125248567, 45.97523795957277], [-59.95694891521292, 45.97526808750202], [-59.956902358897125, 45.97535436150902], [-59.95688139480226, 45.97539319929053], [-59.956813728378755, 45.975515552899644], [-59.956772487013104, 45.97559011445104], [-59.95669274437211, 45.97567889714163], [-59.956560593399786, 45.975758182108905], [-59.95653026194612, 45.97578350294937], [-59.95645506837433, 45.97584628639548], [-59.95643549260942, 45.97586591738096], [-59.956401788989716, 45.97589976206743], [-59.95621749230862, 45.97605867283767], [-59.95612451817536, 45.97612999187064], [-59.95604575951172, 45.97620079872911], [-59.955807586860516, 45.97637716519167], [-59.95574122526074, 45.976457303170065], [-59.95567338455062, 45.97656440408365], [-59.955528262453235, 45.97671534843255], [-59.95549209935696, 45.97675164749321], [-59.955474980826935, 45.97676883260941], [-59.95545551719595, 45.97679252577793], [-59.95539474134306, 45.97686660194067], [-59.955275286037136, 45.97697323535973], [-59.95524818105857, 45.97700043305576], [-59.95522200440564, 45.977026710416496], [-59.95519753505874, 45.97705881181598], [-59.95518166191312, 45.97707964842158], [-59.95516808832487, 45.977115280663334], [-59.95516592597182, 45.977178228622776], [-59.95517435122761, 45.977315274512684], [-59.955174787292776, 45.97732262179597], [-59.95517293578152, 45.97740343563659], [-59.95516406937076, 45.97742150682626], [-59.95515985467474, 45.97743008920695], [-59.955150056616446, 45.97743666852774], [-59.95509417404588, 45.97747424174945], [-59.95504913252955, 45.977504813407435], [-59.95501505988533, 45.97752793688319], [-59.954887383202944, 45.97758248801023], [-59.95483262701331, 45.977605878876076], [-59.95467586330263, 45.97763950120483], [-59.95453329246127, 45.97767350188443], [-59.95435098676257, 45.97772534417048], [-59.95423367815757, 45.977769028134816], [-59.95411545897444, 45.9778297712113], [-59.954063161404555, 45.97786527937039], [-59.953918222176206, 45.9779892241281], [-59.95373190213824, 45.978184971171984], [-59.95369441269496, 45.97821811099389], [-59.95365183544469, 45.97825574147008], [-59.95363259167487, 45.97826881924416], [-59.95357407013036, 45.978308571510496], [-59.95354626503353, 45.97834473292061], [-59.95341440558821, 45.97844202361542], [-59.953256078737326, 45.97857461111063], [-59.953178268172174, 45.97865599921839], [-59.9531369178787, 45.97869925174059], [-59.953042793717515, 45.97881464149227], [-59.95303345413692, 45.9788262643141], [-59.952936066174104, 45.97894771442629], [-59.95286940843227, 45.979009832211425], [-59.95284406372967, 45.97903831842051], [-59.95282950632568, 45.97905468040823], [-59.95276264411786, 45.979143795079224], [-59.952709850935555, 45.97918829018979], [-59.952683383305036, 45.97922358700243], [-59.95262094885479, 45.979361136065094], [-59.95261436758788, 45.97937565872219], [-59.95254699771497, 45.97947376951721], [-59.95250714484759, 45.97951770983283], [-59.952467229176754, 45.979562557539026], [-59.95238699359211, 45.97966031583792], [-59.95234684071821, 45.979726876103626], [-59.952279048071084, 45.97983925072342], [-59.95221267708124, 45.979919386377794], [-59.952210887452004, 45.97992258789603], [-59.95215825962049, 45.98001694259935], [-59.952103490661734, 45.9800973878894], [-59.95201133588745, 45.98017683514545], [-59.951984213823685, 45.9802040496053], [-59.95195804745874, 45.98023031748497], [-59.95193839617754, 45.980246093333974], [-59.951891867298656, 45.98028345564225], [-59.9518264825158, 45.98034561579555], [-59.951694121537535, 45.9804518919006], [-59.95169220984545, 45.98045284895238], [-59.95164102444114, 45.98047837679739], [-59.951638605424954, 45.98048104845736], [-59.95160117010976, 45.98052231675408], [-59.95153529100379, 45.98059346434232], [-59.95151159263169, 45.98060981612439], [-59.95149637456684, 45.98062032778207], [-59.95142921892681, 45.98069144122577], [-59.951335086705164, 45.98080684733669], [-59.95127451146929, 45.9808742660466], [-59.951255315231656, 45.980895616422146], [-59.951227808913195, 45.980949786838], [-59.95118776176053, 45.981020723900414], [-59.951168254398546, 45.98105008566624], [-59.95113427953321, 45.98110120307724], [-59.951128013327484, 45.98111279979852], [-59.95111990636516, 45.98112782167498], [-59.951105834784876, 45.98117244992406], [-59.95107931576177, 45.981208645066474], [-59.95106623172103, 45.98123529808088], [-59.951040848021464, 45.98126892229976], [-59.95095901414375, 45.981377347852884], [-59.95093120573398, 45.98141350852823], [-59.95091713391878, 45.98145813674653], [-59.95092540043152, 45.98162137998203], [-59.95092579988829, 45.98162938335927], [-59.95092566307609, 45.98163398811513], [-59.95092077855069, 45.98179126365659], [-59.950924857042516, 45.98187188472005], [-59.950929444530715, 45.98196251026202], [-59.950920690871165, 45.98228630526244], [-59.95092841855175, 45.98247462831759], [-59.95093036457597, 45.98285605311089], [-59.95093038914336, 45.98286171526895], [-59.950916015379235, 45.98288833382013], [-59.95083719082682, 45.982960035367675], [-59.950823310857764, 45.982977666295824], [-59.95082262461276, 45.98301365116137], [-59.95080756449689, 45.98307625456095], [-59.95080687823718, 45.98311223942558], [-59.950688388571656, 45.983200883183606], [-59.950570441831005, 45.983279640440784], [-59.95045235314812, 45.98332690899431], [-59.95043974561306, 45.98333195474177], [-59.95043642187086, 45.983334170173265], [-59.95039953744296, 45.983358783301576], [-59.95034575033256, 45.983421252352265], [-59.95023951388095, 45.983545335030044], [-59.950134409245535, 45.98362532593094], [-59.95006822317498, 45.98367846285887], [-59.950041257599416, 45.98372274654097], [-59.95004058370568, 45.98375873172927], [-59.94993403231126, 45.98386479511131], [-59.94991640955029, 45.983916447968625], [-59.94990633024706, 45.98394596235538], [-59.94989352458597, 45.98395789736039], [-59.94983964902859, 45.98400809572036], [-59.949815994966464, 45.984027832629685], [-59.949734098268046, 45.9840961750496], [-59.94967713670392, 45.98415647079163], [-59.94966692309216, 45.984167286913205], [-59.94957638374904, 45.98419367063258], [-59.94934787272411, 45.98426044491132], [-59.949107918248046, 45.984330567284]]}, "properties": {"OBJECTID": 186386, "FEAT_CODE": "WARV50", "FEAT_DESC": "River - Single Line", "RIVNAME_1": " ", "RIVNAME_2": " ", "ZVALUE": 9999, "FID": null, "SHAPE_Length": 1509.4483057979273}}]}