{"type": "FeatureCollection", "features": [{"type": "Feature", "id": 5699, "geometry": {"type": "LineString", "coordinates": [[-60.02928487487163, 46.24171591274241], [-60.02917164753157, 46.241718962306315], [-60.02906403169695, 46.24172186969172], [-60.029005013430414, 46.241727805072756]]}, "properties": {"OBJECTID": 5699, "FEAT_CODE": "WACO20", "FEAT_DESC": "Coast - Water to the right line", "RIVNAME_1": " ", "RIVNAME_2": " ", "ZVALUE": 0.5, "FID": null, "SHAPE_Length": 21.650125280385275}}, {"type": "Feature", "id": 5728, "geometry": {"type": "LineString", "coordinates": [[-60.03325552908195, 46.23866264016211], [-60.03326783851858, 46.23869895277801], [-60.0332673371499, 46.23872700324768], [-60.033266549984255, 46.238770932138586], [-60.03331728164666, 46.238816352080576], [-60.033348229975644, 46.23886181622953], [-60.03336655894118, 46.23888873566201], [-60.033365471197236, 46.23892813850615], [-60.03336382949989, 46.23898767003283], [-60.0333679594857, 46.239097709130476], [-60.03337128479987, 46.239185874168264], [-60.03336564027864, 46.239410748512874], [-60.0333768211212, 46.23949203418886], [-60.0333753666426, 46.239518997846346], [-60.033391385353276, 46.239541618047255], [-60.033400677505384, 46.23955475705747], [-60.03342650703833, 46.2395734468272], [-60.03343936497647, 46.23958276323255], [-60.03345371764073, 46.23960861632987], [-60.03346420453315, 46.239627501665694], [-60.03346927095038, 46.239644194120295], [-60.033475218487254, 46.23966378961025], [-60.03347408925831, 46.23970877166976], [-60.03344731878079, 46.239771970816044], [-60.033418197532406, 46.23987922924215], [-60.03341173002193, 46.240095072717935], [-60.03339766083012, 46.2401397097117], [-60.03337062532752, 46.240184009953936], [-60.03333107279831, 46.2402198846752], [-60.03326263298912, 46.24027330709115], [-60.03317262010739, 46.24034358507453], [-60.033141829410226, 46.240358905199805], [-60.03311931694008, 46.24037009310043], [-60.0330826771731, 46.24039092258918], [-60.033026994228095, 46.24042258903661], [-60.03294501991554, 46.240455660654874], [-60.032897031124406, 46.24047502523179], [-60.03279217762757, 46.24051910405801], [-60.03273886067286, 46.24054562054854], [-60.032541718443476, 46.24064130460863], [-60.032423737814675, 46.24071205250278], [-60.032265143002896, 46.24079072756656], [-60.03217372693023, 46.240826154463306], [-60.03205181526384, 46.240914683784105], [-60.0320157679257, 46.240940865605516], [-60.03197540418109, 46.24096770930171], [-60.03193627545852, 46.24098296545943], [-60.03191047675884, 46.240993023677824], [-60.03175293574887, 46.2410276320792], [-60.031741800545305, 46.24103133893816], [-60.0316750190814, 46.24105350883853], [-60.03154361122378, 46.241132898377394], [-60.03148338583312, 46.24116505805862], [-60.03134593110529, 46.241238467817475], [-60.03117187208968, 46.241295975365404], [-60.03105799898952, 46.24133358984578], [-60.03100099234283, 46.241350811137664], [-60.030887902195786, 46.2413849716151], [-60.03084405622981, 46.24140734116631], [-60.030835878865254, 46.24141152084176], [-60.03078649268481, 46.24144136076467], [-60.03070446896214, 46.24149090936127], [-60.03066883344297, 46.24152217773061], [-60.03066361839448, 46.241526749415186], [-60.03062508228686, 46.24154374861986], [-60.03057006577565, 46.24156422559999], [-60.03053241711577, 46.24157824168421], [-60.030415091391205, 46.24161299362235], [-60.030336350336874, 46.24162984756065], [-60.03015218622968, 46.241656327217584], [-60.03005004502991, 46.2416709974844], [-60.02994388612686, 46.24168343908257], [-60.02984247968695, 46.24169531111926], [-60.029763468793796, 46.24170370619907], [-60.02968593232175, 46.24171194155372], [-60.02938811562958, 46.24172579805315], [-60.02928487487163, 46.24171591274241]]}, "properties": {"OBJECTID": 5728, "FEAT_CODE": "WACO20", "FEAT_DESC": "Coast - Water to the right line", "RIVNAME_1": " ", "RIVNAME_2": " ", "ZVALUE": 0.5, "FID": null, "SHAPE_Length": 544.3007443980841}}, {"type": "Feature", "id": 7861, "geometry": {"type": "LineString", "coordinates": [[-60.029005013430414, 46.241727805072756], [-60.028985775697784, 46.2417297348379], [-60.02873735824905, 46.2417898768622], [-60.02858018578365, 46.241841591377515], [-60.02855928985066, 46.24185020129164], [-60.02847538788126, 46.24188476763834], [-60.02838013704722, 46.24193274641011], [-60.02837004261049, 46.24193783008712], [-60.028264583969644, 46.24201699087029], [-60.028239120339876, 46.24203450937069], [-60.02822551252804, 46.24204387586197], [-60.02819895762071, 46.2420791869053], [-60.028131550021214, 46.24215033703562], [-60.02808180200124, 46.24219379309573], [-60.027999486921196, 46.24226570735258], [-60.02796891493932, 46.24228605403891], [-60.02792009658314, 46.24231854463549], [-60.027801310382394, 46.24238025731599], [-60.02770993749599, 46.24241478171507], [-60.02770646668052, 46.24241707652801], [-60.02765613051346, 46.24245028355701], [-60.02765003957644, 46.24246265372585], [-60.027643014657535, 46.242476943693745], [-60.027676855630084, 46.242666834266544], [-60.02767845881334, 46.24267077318892], [-60.027713498485, 46.242756892453066], [-60.02774960707151, 46.24285683724764], [-60.027774429843845, 46.24290158547182], [-60.02781264378617, 46.24293858169886], [-60.027871595393826, 46.24297638750818], [-60.027926735388206, 46.24301175398956], [-60.027965499723905, 46.24303952999755], [-60.02801665197046, 46.243076196753925], [-60.02802684106934, 46.24308136711244], [-60.02810630590603, 46.24312174061607], [-60.028251212011156, 46.243183302627365], [-60.02825973348113, 46.243186926500655], [-60.02826355539895, 46.24318845700662], [-60.02837528331827, 46.24323313485083], [-60.028423892100314, 46.243260464765804], [-60.02842564219353, 46.243261446342814], [-60.02850427352885, 46.243270683243054], [-60.02859753272011, 46.243280489612935], [-60.02869775748824, 46.243291026124375], [-60.02883986309764, 46.24330192287022], [-60.0289643641043, 46.243303721094485], [-60.02899540791008, 46.24330417751143], [-60.02905460005295, 46.24331690463878], [-60.02917622780343, 46.24334307318979]]}, "properties": {"OBJECTID": 7861, "FEAT_CODE": "WACO20", "FEAT_DESC": "Coast - Water to the right line", "RIVNAME_1": " ", "RIVNAME_2": " ", "ZVALUE": 0.5, "FID": null, "SHAPE_Length": 310.09180037028716}}, {"type": "Feature", "id": 8921, "geometry": {"type": "LineString", "coordinates": [[-60.03655537147397, 46.236224923468015], [-60.036523346730164, 46.23624804290972], [-60.03648298866635, 46.23627488835294], [-60.03637771020461, 46.236327059883216], [-60.03636801286409, 46.23633395466672], [-60.03635208352816, 46.236345296005005], [-60.03634508172904, 46.23635415982413], [-60.036338162001044, 46.23636294476787], [-60.03633799239521, 46.2363899238062], [-60.036349552902635, 46.236416334138724], [-60.03642570581173, 46.236471412747306], [-60.03642973682182, 46.236486872148426], [-60.03643753218008, 46.236516721975114], [-60.03645622881984, 46.23653346191365], [-60.03648826454384, 46.23656214053667], [-60.036655800710896, 46.23667514975893], [-60.036679755602876, 46.23669131503449], [-60.036844579776016, 46.236809896920924], [-60.03696130195017, 46.236936078289574], [-60.03697082528188, 46.23694637885779], [-60.0369711526353, 46.236964379306826]]}, "properties": {"OBJECTID": 8921, "FEAT_CODE": "WACO20", "FEAT_DESC": "Coast - Water to the right line", "RIVNAME_1": " ", "RIVNAME_2": " ", "ZVALUE": 0.5, "FID": null, "SHAPE_Length": 107.9465402663767}}, {"type": "Feature", "id": 8922, "geometry": {"type": "LineString", "coordinates": [[-60.0369711526353, 46.236964379306826], [-60.036945198496724, 46.236964615108796], [-60.03694027492695, 46.23696283130334], [-60.03691848220606, 46.236954921607065], [-60.0368075608354, 46.236887672804215], [-60.03676545426259, 46.236877148000424], [-60.03675754543675, 46.23687516073811], [-60.03674370590785, 46.236868897403234], [-60.03670968336802, 46.23685349702152], [-60.036679092557755, 46.23683771763165], [-60.03663892353451, 46.23681699149948], [-60.03656238707798, 46.236779130004244], [-60.03648014849248, 46.23673588224202], [-60.03633687332407, 46.23664948660864], [-60.03620909693541, 46.23655517648915], [-60.03611908204699, 46.23651856706106], [-60.03602862886432, 46.236527641624946], [-60.035916632809524, 46.23653885724715], [-60.03579367288058, 46.236553991470686], [-60.035760860209024, 46.23655802723516]]}, "properties": {"OBJECTID": 8922, "FEAT_CODE": "WACO20", "FEAT_DESC": "Coast - Water to the right line", "RIVNAME_1": " ", "RIVNAME_2": " ", "ZVALUE": 0.5, "FID": null, "SHAPE_Length": 111.29120254220325}}, {"type": "Feature", "id": 8923, "geometry": {"type": "LineString", "coordinates": [[-60.03571273549614, 46.232107479846725], [-60.03572424695401, 46.23213478003492], [-60.03573566275495, 46.23214291570682], [-60.03575046345475, 46.23215346134305], [-60.03579614122362, 46.23216335017036], [-60.03584020358983, 46.23217289104337], [-60.03586648152988, 46.232190673870456], [-60.035878464423185, 46.23220898579125], [-60.03585294139923, 46.2322335158355], [-60.035851108555256, 46.232235277371124], [-60.035850968632985, 46.23224341017853], [-60.0358498244556, 46.23230724792788], [-60.03587475887994, 46.23232589593717], [-60.03590300347399, 46.232326196844795], [-60.035991419364564, 46.23232712306706], [-60.03604150187728, 46.23236334450389], [-60.03606756644238, 46.232382201805365], [-60.03607552235983, 46.23238932061625], [-60.036118307798205, 46.23242762079782], [-60.03620820465423, 46.2324920566956], [-60.036207719924576, 46.23250105360346], [-60.0361647944377, 46.23252962342194], [-60.036128352240404, 46.23255388820761], [-60.036127383721194, 46.23257186404598], [-60.036129001557036, 46.23257409314217], [-60.03614064898578, 46.23259020921204], [-60.036203700341616, 46.23267194951125], [-60.0362406665899, 46.23270801054391], [-60.03628983345163, 46.232724164032795], [-60.03635663775033, 46.23274612139794], [-60.03636306121324, 46.232755927574935], [-60.03636862140552, 46.232764424284596], [-60.036380495018356, 46.23280884371962], [-60.03640559908034, 46.23287249843197], [-60.03642956551404, 46.232909122171115], [-60.036468808604724, 46.23292724123219], [-60.03648960131708, 46.2329363491435], [-60.03653214978485, 46.23295498596092], [-60.03655837989817, 46.23297366743309], [-60.03655996725618, 46.23297742581456], [-60.03656989194015, 46.23300096754675], [-60.03660749927326, 46.23307304702463], [-60.036624707614365, 46.23315543386358], [-60.036630182768604, 46.233181641305336], [-60.036641415576625, 46.233262037019145], [-60.0366511474306, 46.23337029529045], [-60.03670021887603, 46.233470573640744], [-60.03677513314424, 46.23359673272817], [-60.03681173780447, 46.23368767813436], [-60.03682021602059, 46.23373711270992], [-60.036822595675545, 46.233750963180654], [-60.03682376428609, 46.233773089681016], [-60.03683157755156, 46.23392130530364], [-60.036842919645274, 46.23397560242468], [-60.036914566473726, 46.23421059148575], [-60.03692542598961, 46.23427384955873], [-60.03693225082748, 46.234462811707374], [-60.036933233691705, 46.23449007266134], [-60.03693374202218, 46.234547571925205], [-60.03693636984907, 46.23484117279993], [-60.03694599354235, 46.23497552961241], [-60.036934924083646, 46.235079171027], [-60.03692767938194, 46.23514696373262], [-60.03691154141589, 46.23525488390035], [-60.03690752531209, 46.23528176316329], [-60.03689722209233, 46.235335543781765], [-60.03688269741538, 46.235411347074454], [-60.03683877517843, 46.235530130104024], [-60.03677739315541, 46.23564532801651], [-60.03676769900277, 46.23566348251819], [-60.0366813997488, 46.23578471233941], [-60.03654439424162, 46.235908910835384], [-60.03653328069328, 46.235918982063204], [-60.036461124331325, 46.23599725032039]]}, "properties": {"OBJECTID": 8923, "FEAT_CODE": "WACO20", "FEAT_DESC": "Coast - Water to the right line", "RIVNAME_1": " ", "RIVNAME_2": " ", "ZVALUE": 0.5, "FID": null, "SHAPE_Length": 485.61068722834443}}, {"type": "Feature", "id": 11413, "geometry": {"type": "LineString", "coordinates": [[-60.03528382957478, 46.23620688704052], [-60.03525652628851, 46.23625453797389], [-60.03523443712892, 46.236293044738005], [-60.03515346375319, 46.23644508527216], [-60.03510117086502, 46.23657204780799], [-60.035060217093694, 46.236633988159106], [-60.03498002763411, 46.23674981298102], [-60.03493919640642, 46.236785655076936], [-60.03484670974381, 46.2368651586784], [-60.03475452236238, 46.236927317048604], [-60.03467576735642, 46.236980427546754], [-60.03455640557416, 46.23707723419422], [-60.03449046628323, 46.23712142477795], [-60.034415780207986, 46.237176521832005], [-60.03437025820115, 46.23721009982682], [-60.03434688711814, 46.23723627847929], [-60.034330223425776, 46.23725497186217], [-60.03428784591172, 46.237300953120574], [-60.034224126121465, 46.2373701235033], [-60.03413163742844, 46.237449626470415], [-60.034107375543876, 46.23747091268475], [-60.03409079216766, 46.23748546789726], [-60.03407872283521, 46.237517097218145], [-60.03406359985625, 46.23755676568148], [-60.03395439883961, 46.23775374084183], [-60.03390092630952, 46.23780725527589], [-60.033834341990556, 46.237887430646126], [-60.0338090362052, 46.23792109234933], [-60.0338077927612, 46.237922743149866], [-60.033796621530385, 46.23795815796127], [-60.033793711578966, 46.23796737989175], [-60.03377914563695, 46.2380210045225], [-60.03376696289144, 46.2380826294598], [-60.03374883627541, 46.23817413464304], [-60.03367838151736, 46.23839820806941], [-60.033675417534425, 46.238405304480395], [-60.033663476605646, 46.238433822923426], [-60.03363068371635, 46.23844829014501], [-60.03362495702867, 46.238450814570776], [-60.03359803266694, 46.238469025373625], [-60.033533545259196, 46.23848625167031], [-60.0334548095804, 46.23850310789663], [-60.033424536552076, 46.23851101614887], [-60.03338903975007, 46.238520300806535], [-60.033362636102865, 46.2385286155506], [-60.03336124944748, 46.23858341945243], [-60.033360378565376, 46.23861856170351], [-60.033373172875635, 46.2386458864226], [-60.03336021990491, 46.23864555001745], [-60.03334326565684, 46.238647251805624], [-60.033281968290765, 46.23865342721862], [-60.03325552908195, 46.23866264016211]]}, "properties": {"OBJECTID": 11413, "FEAT_CODE": "WACO20", "FEAT_DESC": "Coast - Water to the right line", "RIVNAME_1": " ", "RIVNAME_2": " ", "ZVALUE": 0.5, "FID": null, "SHAPE_Length": 331.9079776616758}}, {"type": "Feature", "id": 11438, "geometry": {"type": "LineString", "coordinates": [[-60.02917622780343, 46.24334307318979], [-60.029275583877194, 46.24335816784139], [-60.02930488112994, 46.24336261996444], [-60.029615859630624, 46.243393208249685], [-60.02964933784641, 46.243397588996174], [-60.029693146954415, 46.24340331842741], [-60.02973867876894, 46.243413178852364], [-60.029782902880655, 46.24342275324227], [-60.029911408625765, 46.243469296916004], [-60.029952206431226, 46.243486828574994], [-60.029976066561034, 46.24349707946718], [-60.03000810570208, 46.24350648995778], [-60.03003992754779, 46.24351584078677], [-60.030129565838244, 46.24352520973958], [-60.03023468304861, 46.24353620511659], [-60.03033707252876, 46.24356288031106], [-60.030415067345146, 46.24358319692778], [-60.030569157548115, 46.24361240402529], [-60.03086665037508, 46.243652538845886], [-60.03096936870842, 46.24365391268793], [-60.031009242762224, 46.243654445064365], [-60.03102827700876, 46.24364812643759], [-60.03106207784187, 46.24363692633413], [-60.03111313318245, 46.243628343794974], [-60.03117795229526, 46.243629128431635], [-60.031281531921216, 46.24362560111891], [-60.031372894878814, 46.243622494258105], [-60.03141619815109, 46.243627507843584], [-60.03146313702695, 46.24363293991087], [-60.03163147753898, 46.243662515903935], [-60.031818473463076, 46.24371057734969], [-60.03188865369668, 46.243728601787424], [-60.03202147491303, 46.24375243901064], [-60.032211134939125, 46.24378648329162], [-60.03235261084453, 46.24383336118542], [-60.03247009241215, 46.24384362266858], [-60.03259924672242, 46.24385416926228], [-60.03266058036726, 46.24386834521863], [-60.03276582113493, 46.243892698170306], [-60.032841083735, 46.243918477441525], [-60.03301035817407, 46.24397645414302], [-60.03305659232138, 46.24398341532968], [-60.03314032292614, 46.24399603064605], [-60.033263894552945, 46.24401220078904], [-60.03329490082156, 46.244016246248], [-60.03342405525534, 46.244026800909786], [-60.033462917969786, 46.244027810189], [-60.03347635757956, 46.24401914974508], [-60.033490003931256, 46.24398261120613], [-60.033516869191565, 46.243965307948706], [-60.033569232402385, 46.24395676727597], [-60.033590647216556, 46.243962345664556], [-60.03360761020876, 46.243966764385355], [-60.033735794917966, 46.24399529445555], [-60.03376206514613, 46.24401306852914], [-60.03379257734039, 46.24404094327298], [-60.03381276583883, 46.24405939645226], [-60.03381228100682, 46.24406838433445], [-60.033853438709464, 46.2441129433547], [-60.033862532979946, 46.244122792007104], [-60.033863012364584, 46.24412352449288], [-60.033874517599656, 46.244141104151005], [-60.03388619710534, 46.2442134112012], [-60.033906005455215, 46.244257190819944], [-60.03391051476952, 46.244267145425574], [-60.034036456164166, 46.244385621619266], [-60.03413012209071, 46.244495447255424], [-60.034137723381704, 46.24450435707381], [-60.034143465632965, 46.24450949242807], [-60.03418846084026, 46.2445497767323], [-60.03423877046862, 46.24457859739157], [-60.0342526375323, 46.24458654482368], [-60.034329799940686, 46.24462355101678], [-60.03436771084065, 46.24464173517522], [-60.03437905266152, 46.24469602345923], [-60.034403506751325, 46.244723668750396], [-60.034455685890826, 46.244742124304025], [-60.03458582470025, 46.244734702259045], [-60.03459588174578, 46.24473127314973], [-60.0346373648205, 46.24471713925693], [-60.03466425601225, 46.244699836404024], [-60.03466522541915, 46.24468186062774], [-60.034704111200696, 46.24468197003457], [-60.03480635384583, 46.244710725500546], [-60.03494879082541, 46.24473962416456], [-60.03497045560031, 46.24475140110463], [-60.03499920303679, 46.24476703407529], [-60.03501544428769, 46.24477858922557], [-60.03505042610038, 46.244803465480814], [-60.03512708645396, 46.24484955757583], [-60.0351518226536, 46.24486019013764], [-60.035191735806286, 46.24487733693289], [-60.03533190879656, 46.244924177295275], [-60.03537287030557, 46.24493704001027], [-60.03542248025637, 46.24495262929438], [-60.03544795309316, 46.24496139081078], [-60.0354750626123, 46.244994415062905], [-60.03548570207076, 46.24500737284566], [-60.03559659633885, 46.24508742079735], [-60.035701710055605, 46.24516328642097], [-60.03576588849803, 46.24520005369954], [-60.036073173956126, 46.24534754361026], [-60.03623019187724, 46.2454113898042], [-60.036278823936144, 46.24543117456128], [-60.03643179609919, 46.245505347050795], [-60.0364344302318, 46.24550629743697], [-60.03666340447707, 46.24558875972202], [-60.03676670731576, 46.24561955702988], [-60.036792357339486, 46.245627206782366], [-60.03694683223997, 46.24567351610525], [-60.037164954229375, 46.24576648743693], [-60.0372148846895, 46.24580287533285], [-60.03727354463135, 46.245839768635484], [-60.03741941179596, 46.24593148643337], [-60.03757174540386, 46.24604164269462], [-60.03764793547347, 46.24608112353985], [-60.03766135096468, 46.24608807779218], [-60.037853567215365, 46.2461803579707], [-60.0378946267942, 46.24619504041217], [-60.03795667410425, 46.24621723342946], [-60.03807566241813, 46.246255267634346], [-60.03816198970352, 46.24628286035617], [-60.038253049088226, 46.24630232227784], [-60.03830788897169, 46.24630948555683], [-60.03840763618291, 46.24632252126351], [-60.038562598088724, 46.24635984954578], [-60.03871702822065, 46.246407055344875], [-60.038762622955346, 46.24641461866614], [-60.03883275067799, 46.24642625611915], [-60.03891925389912, 46.2464392720694], [-60.03896272358088, 46.24644582617479], [-60.03902694906839, 46.24646179274376], [-60.03911634283946, 46.2464840099448], [-60.03914728976086, 46.24648870930314], [-60.03918068166042, 46.24649377804269], [-60.03927028984518, 46.24654020293635], [-60.03936135008784, 46.2465596639929], [-60.03945204271142, 46.246576316303525], [-60.03946411821184, 46.24657852836905], [-60.03951631384991, 46.2465969820229], [-60.03958016895124, 46.24661573782515], [-60.03961839349398, 46.24665273033047], [-60.039642851580425, 46.246680365586705], [-60.039647897940554, 46.246694825110666], [-60.039655214712965, 46.2467157878081], [-60.03967278315003, 46.24674127340453], [-60.039680484420856, 46.246752444556456], [-60.03968951359072, 46.24675678276491], [-60.03975762240076, 46.24678954542422], [-60.03984658317043, 46.24681620605987], [-60.03991210321632, 46.24683585086433], [-60.03998074066754, 46.24686940112863], [-60.03998794597611, 46.246872918011576], [-60.040026654835565, 46.24690092246147], [-60.04016716512957, 46.24696576652127], [-60.04021887754575, 46.246993207796685], [-60.040270093231655, 46.247029636644136], [-60.040303357244284, 46.247041668100884], [-60.040321007031494, 46.24704805671418]]}, "properties": {"OBJECTID": 11438, "FEAT_CODE": "WACO20", "FEAT_DESC": "Coast - Water to the right line", "RIVNAME_1": " ", "RIVNAME_2": " ", "ZVALUE": 0.5, "FID": null, "SHAPE_Length": 1014.1412675054169}}, {"type": "Feature", "id": 14546, "geometry": {"type": "LineString", "coordinates": [[-60.035364821101, 46.236122116473666], [-60.035336590280984, 46.236140293781155], [-60.035308937227434, 46.2361580990565], [-60.03529744707651, 46.23618044604558], [-60.03528382957478, 46.23620688704052]]}, "properties": {"OBJECTID": 14546, "FEAT_CODE": "WACO25", "FEAT_DESC": "Coastline Indefinite - Water to the right line", "RIVNAME_1": " ", "RIVNAME_2": " ", "ZVALUE": 0.5, "FID": null, "SHAPE_Length": 11.641604849916066}}, {"type": "Feature", "id": 14733, "geometry": {"type": "LineString", "coordinates": [[-60.035760860209024, 46.23655802723516], [-60.035752188510614, 46.23655455302783], [-60.03573784087505, 46.2365488164134], [-60.035729924333154, 46.23653782839941], [-60.035704858814356, 46.236503048110364], [-60.0356174352713, 46.23636806728162], [-60.035558342088144, 46.23627684391601], [-60.03547472703719, 46.23616988130136], [-60.03541542156862, 46.23612664291133], [-60.035364821101, 46.236122116473666]]}, "properties": {"OBJECTID": 14733, "FEAT_CODE": "WACO25", "FEAT_DESC": "Coastline Indefinite - Water to the right line", "RIVNAME_1": " ", "RIVNAME_2": " ", "ZVALUE": 0.5, "FID": null, "SHAPE_Length": 59.41547276636556}}, {"type": "Feature", "id": 14734, "geometry": {"type": "LineString", "coordinates": [[-60.036461124331325, 46.23599725032039], [-60.03645657228906, 46.23600662772775], [-60.036456848560235, 46.23601907355916], [-60.03645690381513, 46.2360283994903], [-60.036456949043384, 46.23603478200422], [-60.03646785055203, 46.23605994216296], [-60.0364722267192, 46.23606731008604], [-60.036486021482425, 46.236090529198336], [-60.03650087667483, 46.236111399693755], [-60.036508823941126, 46.236122541459906], [-60.03651753298183, 46.23613374799119], [-60.03652647214158, 46.236145257507744], [-60.03655072999562, 46.23618516493802], [-60.036555157303795, 46.23620819501982], [-60.03655537147397, 46.236224923468015]]}, "properties": {"OBJECTID": 14734, "FEAT_CODE": "WACO25", "FEAT_DESC": "Coastline Indefinite - Water to the right line", "RIVNAME_1": " ", "RIVNAME_2": " ", "ZVALUE": 0.5, "FID": null, "SHAPE_Length": 26.928422184081136}}, {"type": "Feature", "id": 35227, "geometry": {"type": "LineString", "coordinates": [[-60.035689208510924, 46.2368762248849], [-60.035701671920755, 46.23685964542129], [-60.03571576896747, 46.2368409122334], [-60.035720198450456, 46.236837904015275], [-60.035742678391465, 46.23682270954277], [-60.03579502149642, 46.236814167333684], [-60.03585395076929, 46.236800143707626], [-60.03593823834143, 46.236780090715094], [-60.03599414716207, 46.236774458090814], [-60.036016474032834, 46.236772211282634], [-60.03604325630418, 46.23677249220688], [-60.03613315690961, 46.23677343882772], [-60.0361641496351, 46.236781515382056], [-60.03617153027492, 46.23678343497801], [-60.03619699951858, 46.236792196250924], [-60.03622323128036, 46.23681087783007], [-60.036223614766485, 46.23681146381079], [-60.03623521522516, 46.23682918972735], [-60.03624048293772, 46.23684937947247], [-60.036247041497944, 46.236874498970515], [-60.03624550557239, 46.23691744540863], [-60.03624446224719, 46.236946435883695], [-60.03624309904583, 46.23700061940099], [-60.03624220961463, 46.23703638222903]]}, "properties": {"OBJECTID": 35227, "FEAT_CODE": "WALK20", "FEAT_DESC": "Lake - Water to the right line", "RIVNAME_1": " ", "RIVNAME_2": " ", "ZVALUE": 4.8, "FID": null, "SHAPE_Length": 71.87350508545798}}, {"type": "Feature", "id": 35291, "geometry": {"type": "LineString", "coordinates": [[-60.03624220961463, 46.23703638222903], [-60.03620335173831, 46.23703537401112], [-60.03607324428602, 46.23704279868351], [-60.035789388090784, 46.23703903313323], [-60.0357367183053, 46.23702956590366], [-60.03572812254573, 46.23702660669286], [-60.035711249031976, 46.23702080452753], [-60.0356996611757, 46.23700308788536], [-60.0356992652258, 46.23700249257895], [-60.03568743938495, 46.23695718329003], [-60.035688993309975, 46.23688599382102], [-60.035689208510924, 46.2368762248849]]}, "properties": {"OBJECTID": 35291, "FEAT_CODE": "WALK20", "FEAT_DESC": "Lake - Water to the right line", "RIVNAME_1": " ", "RIVNAME_2": " ", "ZVALUE": 4.8, "FID": null, "SHAPE_Length": 57.72404660488789}}, {"type": "Feature", "id": 35292, "geometry": {"type": "LineString", "coordinates": [[-60.03654615257994, 46.23885703624331], [-60.036566061733204, 46.23886549117301], [-60.03658439861341, 46.23887327527629], [-60.03658062672431, 46.2388905573429], [-60.03655575764121, 46.23900400220434], [-60.036550372932936, 46.239121507738496], [-60.0365305716508, 46.23911586375382], [-60.03651206023398, 46.23911059524762], [-60.03648903118619, 46.23910780167097], [-60.03648489736978, 46.23912915156012], [-60.03645777518872, 46.23914502677958]]}, "properties": {"OBJECTID": 35292, "FEAT_CODE": "WALK20", "FEAT_DESC": "Lake - Water to the right line", "RIVNAME_1": " ", "RIVNAME_2": " ", "ZVALUE": 11.824, "FID": null, "SHAPE_Length": 41.363118620120005}}, {"type": "Feature", "id": 35293, "geometry": {"type": "LineString", "coordinates": [[-60.03645777518872, 46.23914502677958], [-60.03642300062297, 46.2391351331017], [-60.036400311659726, 46.239128676135955], [-60.03639030671079, 46.23912249424694], [-60.03636978220918, 46.23910981109871], [-60.03637007758868, 46.23908844263002], [-60.036370272296296, 46.23907351589072], [-60.03637046724034, 46.239059066182804], [-60.03635394319088, 46.239048691939686], [-60.036336153021914, 46.23903750180293], [-60.03629553796664, 46.23902310032214], [-60.03626725603758, 46.23901307803566], [-60.03626560737111, 46.239003233740306], [-60.03626368707575, 46.238991690307614], [-60.03627746790529, 46.23898605354454], [-60.03630233711619, 46.23897588021846], [-60.03633716210169, 46.23896004287827], [-60.036422029467744, 46.23893915852508], [-60.03641979598404, 46.2389141692574], [-60.03641868880557, 46.23890173787498], [-60.036401139810366, 46.23889088702285], [-60.036388172423706, 46.2388828731809], [-60.03638851393327, 46.23888207199836], [-60.036396104498785, 46.23886421397667], [-60.03641507724449, 46.23886212308032], [-60.03646543117104, 46.2388565891157], [-60.03654615257994, 46.23885703624331]]}, "properties": {"OBJECTID": 35293, "FEAT_CODE": "WALK20", "FEAT_DESC": "Lake - Water to the right line", "RIVNAME_1": " ", "RIVNAME_2": " ", "ZVALUE": 11.824, "FID": null, "SHAPE_Length": 60.26956309048719}}, {"type": "Feature", "id": 178492, "geometry": {"type": "LineString", "coordinates": [[-60.05023575356114, 46.24005067185502], [-60.05006165278773, 46.24004072158489], [-60.04980027508407, 46.24002578983011], [-60.049777787448, 46.24002303992412], [-60.04975475769665, 46.2400202400103], [-60.0497128465839, 46.24000791595534], [-60.04969920850758, 46.24000390052047], [-60.04963577016297, 46.240003567086774], [-60.04959447961747, 46.240001195536614], [-60.0495334428685, 46.23999768390696], [-60.049418577042765, 46.23995834602572], [-60.04933672485441, 46.23992720519825], [-60.04908755904664, 46.23983240205518], [-60.04885297438675, 46.23968030005309], [-60.048668849488465, 46.239489764220785], [-60.0485951763438, 46.23938527332025], [-60.04853583485129, 46.23920878887776], [-60.04853485269783, 46.239204128257384], [-60.048516225776126, 46.23911591036393], [-60.04851677424263, 46.23907064315821], [-60.048517136322104, 46.23904117596613], [-60.04851764576762, 46.23899977795495], [-60.04851765142387, 46.2389984640321], [-60.0485109769948, 46.23891569423769], [-60.0485100918324, 46.238902458672506], [-60.048508984000755, 46.2388861211912], [-60.0485080023167, 46.23887154206152], [-60.048507719432706, 46.238867628547055], [-60.048517636957456, 46.23885564415737], [-60.048542843738836, 46.23882511781949], [-60.048543145007244, 46.23880016729255], [-60.04854346377882, 46.23877440717523], [-60.0485423833684, 46.238756108299434], [-60.04854101635342, 46.23873348179124], [-60.048540272012566, 46.23872100590427], [-60.04844877416614, 46.23865912160003], [-60.04841631317094, 46.23865635673441], [-60.04839021782249, 46.23865413436482], [-60.04831308205476, 46.23866615492434], [-60.04816684132822, 46.238688954339054], [-60.0480260470012, 46.23872821217404], [-60.04797898493089, 46.238741072692946], [-60.04788719010334, 46.23876616983525], [-60.04774012933663, 46.23884676654958], [-60.04773200960453, 46.23885449511035], [-60.04765651133626, 46.23892637469182], [-60.04762565859222, 46.23893230962327], [-60.04756210448806, 46.23894454570222], [-60.04752946686503, 46.23893854484943], [-60.047487311505286, 46.238930794899716], [-60.04742465380161, 46.23886907018276], [-60.04739448473322, 46.23886251206562], [-60.04733647997147, 46.23884990614589], [-60.04721174414535, 46.23883454017401], [-60.04716251621223, 46.23884279913015], [-60.04712700555619, 46.23884875752594], [-60.04702348556442, 46.238828170484425], [-60.04692228718942, 46.238774251611666], [-60.04685676693365, 46.23878856057971], [-60.046847602876895, 46.23880317444253], [-60.04683260783177, 46.23882709705276], [-60.04675751780516, 46.23883869242486], [-60.046655281767435, 46.238868837910836], [-60.04662284966814, 46.238887998435196], [-60.046592680964345, 46.23890583139818], [-60.04653823806331, 46.238890185000244], [-60.04651224323665, 46.23888270852364], [-60.04647496109641, 46.23888324763043], [-60.046444974571635, 46.238883678349225], [-60.04640747418312, 46.238889972093844], [-60.046383338000794, 46.238894019250296], [-60.04633858345007, 46.238937810382836], [-60.046312401874246, 46.23898477289569], [-60.04629926810628, 46.23900832954246], [-60.04627343799945, 46.239027975697184], [-60.04625399163023, 46.23904275565383], [-60.04620203033591, 46.23904780235069], [-60.0461540521112, 46.23904220545739], [-60.04613102298883, 46.239039404826414], [-60.046111019146274, 46.23902085059028], [-60.04609047144418, 46.23900179626094], [-60.04606203916597, 46.238999611931796], [-60.04603478370074, 46.23899749403004], [-60.0460093758036, 46.23899382181629], [-60.04597722388203, 46.23898916514952], [-60.045937609112954, 46.2389940089871], [-60.04590407928903, 46.238998101127905], [-60.04582879632139, 46.2390243886727], [-60.04577864147768, 46.23903878838469], [-60.045762052106014, 46.23908272267641], [-60.045734785604466, 46.23907911933947], [-60.045719844845685, 46.239077148845475], [-60.045714160128206, 46.23907044947723], [-60.045702887791215, 46.239049447850974], [-60.045689728830574, 46.23902493224712], [-60.04561098520424, 46.23902050153299], [-60.04558383975229, 46.23903903345528], [-60.045578136087855, 46.23905272866329], [-60.04556997454271, 46.239072336614285], [-60.045539236333454, 46.23907082155206], [-60.045530609196106, 46.23906166994531], [-60.04550888814109, 46.239038624954226], [-60.045504748049794, 46.23902973340937], [-60.045503283008145, 46.23902658135246], [-60.04547482126359, 46.23899572960609], [-60.04545948222464, 46.238967611400696], [-60.04544852344421, 46.2389475359073], [-60.045397944861854, 46.2389135649463], [-60.04537037658147, 46.238895057932], [-60.04535734166309, 46.238889725507185], [-60.045297715132996, 46.238865303980845], [-60.045263524580285, 46.23886431157567], [-60.04523938375068, 46.238863615120195], [-60.045164333633565, 46.23886987319528], [-60.045111034453996, 46.23889668393476], [-60.045090824246536, 46.23890684469251], [-60.045040135282804, 46.23890921463055], [-60.045020373862506, 46.23890643530347], [-60.04497106746997, 46.23889948948418], [-60.044930693127014, 46.238900605127014], [-60.04487933347161, 46.23892463078426], [-60.044863020651846, 46.23893226418982], [-60.04482027644827, 46.238968069314254], [-60.044814194260155, 46.238993392304664], [-60.04479200236722, 46.23899070306768], [-60.044779643529395, 46.23898920426869], [-60.04476298638973, 46.238988278301754], [-60.04475204441609, 46.238987689201885], [-60.04470619792977, 46.23896608100397], [-60.04468287006716, 46.23898598054721], [-60.04467066573639, 46.23903929862019], [-60.04464505326657, 46.23908988466677], [-60.04464649493948, 46.23912726493221], [-60.044634680215694, 46.23913350260164], [-60.044603936111606, 46.239149718068255], [-60.044565016153825, 46.239188214176664], [-60.04456279822842, 46.239210900989384], [-60.04459695758247, 46.23924578858104], [-60.04461764933238, 46.239281947806624], [-60.044596081027564, 46.23931520455646], [-60.04453559651177, 46.239330884546305], [-60.04447182801417, 46.2393572261004], [-60.04445166489485, 46.239370367120024], [-60.044429189274425, 46.2393850233848], [-60.04442864905457, 46.239386386479474], [-60.04440734198567, 46.23943964000455], [-60.044405953714836, 46.23947223080038], [-60.04440462581957, 46.239503698099064], [-60.044391980287756, 46.239534323530606], [-60.04435169186845, 46.23952876284131], [-60.04432102641383, 46.23952057998293], [-60.044318391767426, 46.239517469650956], [-60.0442983019943, 46.239493764602706], [-60.044289749950664, 46.239476460416334], [-60.044287047083145, 46.239470999194765], [-60.04418741893747, 46.2394450919988], [-60.044169317114125, 46.23944159942925], [-60.04413755569896, 46.23943546727108], [-60.04409506018796, 46.23944635624707], [-60.04406619005817, 46.2394537635958], [-60.044052097540906, 46.239473658983314], [-60.04404075593318, 46.239489674348185], [-60.04399824391663, 46.23954358512479], [-60.04399778457342, 46.23954416726918], [-60.04397774125774, 46.239550731959156], [-60.043916469997406, 46.239530362365784], [-60.04388819476555, 46.239486158347894], [-60.04381613525194, 46.23942372931173], [-60.043790479053214, 46.23940150920196], [-60.043715913763016, 46.23936904983358], [-60.043685565149815, 46.23935956093461], [-60.04355508772511, 46.23931876903641], [-60.04347103542776, 46.23932067078756], [-60.04341277544003, 46.239321988999805], [-60.043401985260964, 46.23933208726211], [-60.043360247504985, 46.239371104058044], [-60.04328328078511, 46.23941757940874], [-60.043226585461404, 46.23945179875669], [-60.043175910564855, 46.239463546725155], [-60.04291732034277, 46.239523510279525], [-60.04273759121175, 46.239585478912495], [-60.04268483140581, 46.23960367102889], [-60.04266720257135, 46.23961743537443], [-60.04264406393933, 46.23963548530259], [-60.04255974571463, 46.239642563771284], [-60.042509670815406, 46.23964676658025], [-60.04237869050365, 46.239641620195066], [-60.04235130111666, 46.23964054200095], [-60.04226648091607, 46.23965743577315], [-60.042238469346465, 46.239679985686955], [-60.042184201493406, 46.239682558703], [-60.042162627345064, 46.23968357514506], [-60.04210626668471, 46.23973133031517], [-60.04207050482281, 46.23975785571683], [-60.0420277175547, 46.23975558667585], [-60.041985951670476, 46.2397533800701], [-60.04197008959201, 46.23973887456803], [-60.04195364723788, 46.23972382300897], [-60.04195216163611, 46.23969042878094], [-60.041926185310274, 46.23968068361881], [-60.04190156889263, 46.23967145969303], [-60.041832053887546, 46.239669317466856], [-60.04179585905386, 46.23966820011439], [-60.04178254180125, 46.2396743895769], [-60.04175329930264, 46.239687988024095], [-60.04170518191931, 46.239691728148095], [-60.04169105101374, 46.23968507085211], [-60.04166504123627, 46.23967281363173], [-60.04166926660786, 46.23964345550956], [-60.041650315974614, 46.23962198461101], [-60.04164732430489, 46.239618279939805], [-60.04162866990161, 46.23959516062221], [-60.04161414734916, 46.239587827138266], [-60.04160192283033, 46.23958166022766], [-60.0415570888234, 46.239562705124506], [-60.04151266928784, 46.23957848456864], [-60.041464317814984, 46.239599598444066], [-60.04143054156316, 46.239597166544726], [-60.04140392402988, 46.23959524406883], [-60.04139786229586, 46.23958953377251], [-60.04136972753038, 46.239563009696305], [-60.0413065923322, 46.239537280140745], [-60.04128207903389, 46.23952397253624], [-60.041236997563985, 46.239499493606125], [-60.04113935907842, 46.2394655618552], [-60.04107961974116, 46.239449046617715], [-60.041075274147865, 46.2394478449937], [-60.041033336458455, 46.23941821814197], [-60.04093582200661, 46.23940681761726], [-60.04091343152382, 46.23940420348542], [-60.04088860470729, 46.23939069866409], [-60.040805547888986, 46.23937337222345], [-60.04079654322325, 46.23937149186127], [-60.04068260449138, 46.23934013459909], [-60.04067278744868, 46.239309719676044], [-60.040669653096195, 46.239299989964586], [-60.04066702505615, 46.23929097540723], [-60.040656774450134, 46.23925584200169], [-60.04055616945372, 46.23917773956647], [-60.040123083598786, 46.23921272670934], [-60.04010218140593, 46.239210177983885], [-60.04010002886635, 46.239209924196416], [-60.040073362454145, 46.23919107924915], [-60.040046671121296, 46.23917221564888], [-60.04001928647575, 46.23913731323026], [-60.03996798165347, 46.23908893827614], [-60.03993174814036, 46.239064688106616], [-60.03989699404775, 46.23902572448362], [-60.039886241476054, 46.239013664218525], [-60.039824341637114, 46.23897054993043], [-60.03978068015428, 46.23892621616752], [-60.039775352729535, 46.238891444276305], [-60.039777707403935, 46.23885805952966], [-60.03977684095958, 46.2388548779087], [-60.03976668919949, 46.23881791988479], [-60.03974786144275, 46.23878575028409], [-60.03974308640999, 46.23875059668513], [-60.039742593890615, 46.238746974730454], [-60.03973305320072, 46.238723245237814], [-60.03971836431675, 46.238686718656254], [-60.03971229328561, 46.23866383511978], [-60.039696354687365, 46.23860377590467], [-60.03969006674554, 46.23849551722818], [-60.03968062628772, 46.23844847909413], [-60.03960787549416, 46.23808621458549], [-60.03933798050626, 46.23781214836011], [-60.039177901569296, 46.23764959977014], [-60.03917387895122, 46.2375436138849], [-60.039168603787374, 46.237404995801214], [-60.03913324224132, 46.23734867226754], [-60.03908946848058, 46.23727898997066], [-60.03905363225743, 46.237270518648664], [-60.03899647074922, 46.237257012286136], [-60.038717011789494, 46.23722599755714], [-60.03866734327508, 46.237221001722304], [-60.038449033724646, 46.237199051005874], [-60.038371331956704, 46.23720014158907], [-60.03831243880478, 46.23720097275024], [-60.038129434802954, 46.237197829767865], [-60.037963368706095, 46.237194963701626], [-60.03763727982243, 46.2371902156142], [-60.03751495698724, 46.23719326257321], [-60.0371202920387, 46.237007921956945], [-60.03703830079491, 46.23700027791018], [-60.03700184625651, 46.236981142336816], [-60.03699941467159, 46.23697981019524], [-60.0369711526353, 46.236964379306826]]}, "properties": {"OBJECTID": 178492, "FEAT_CODE": "WARV50", "FEAT_DESC": "River - Single Line", "RIVNAME_1": " ", "RIVNAME_2": " ", "ZVALUE": 9999, "FID": null, "SHAPE_Length": 1486.8874470252977}}]}