{"type": "FeatureCollection", "features": [{"type": "Feature", "id": 16554, "geometry": {"type": "LineString", "coordinates": [[-59.6644094640391, 46.03874986629455], [-59.66446161169533, 46.038742389056424], [-59.66450016294764, 46.038724613651375], [-59.66451306454415, 46.038724990586665], [-59.66453999143328, 46.0387068755488], [-59.6645795838742, 46.03867202896734], [-59.66458258048407, 46.0386649788601], [-59.66459465036625, 46.0386364658392], [-59.664596066337204, 46.03859150307864], [-59.6645829441667, 46.03857311805693], [-59.66455823640588, 46.0385543945528], [-59.66453573042429, 46.03854653636125], [-59.66453292040244, 46.03854555418125], [-59.66450711729266, 46.03854480031593], [-59.66440325535731, 46.03855256681089], [-59.66436553982732, 46.03855797246375], [-59.66435110733373, 46.038560053012205], [-59.66433350184036, 46.03857189675546], [-59.66429858549092, 46.038595412825984], [-59.66428404719826, 46.038621990522685], [-59.66428317224905, 46.038657968261575], [-59.66426831315071, 46.03871153906007], [-59.66428033978538, 46.03874789375975], [-59.66429270010717, 46.038757255730644], [-59.664370705110585, 46.03874963394989], [-59.6644094640391, 46.03874986629455]]}, "properties": {"OBJECTID": 16554, "FEAT_CODE": "WACOIS10", "FEAT_DESC": "Coastal Island - Water to the right line", "RIVNAME_1": " ", "RIVNAME_2": " ", "ZVALUE": 0.6, "FID": null, "SHAPE_Length": 80.73757357080768}}, {"type": "Feature", "id": 17302, "geometry": {"type": "LineString", "coordinates": [[-59.67302941024071, 46.03531753185542], [-59.67298823142875, 46.035321264288896], [-59.672945987179574, 46.03532509166987], [-59.67289972898965, 46.035335714693176], [-59.67286330295826, 46.03534638121392], [-59.67285079288121, 46.035350040002115], [-59.67283544744425, 46.03535722548896], [-59.67276648539525, 46.03538952684423], [-59.67274010687471, 46.03541558053366], [-59.67272884762412, 46.03542767353363], [-59.672714964977885, 46.035442561339224], [-59.672708949417974, 46.03546524811907], [-59.67270410630557, 46.03548347765643], [-59.67270384990068, 46.035491831951326], [-59.67270369224844, 46.03549660679543], [-59.672700810733495, 46.03550606369143], [-59.67267023207128, 46.03553297604401], [-59.672668744887694, 46.03553428282452], [-59.6726668953974, 46.03553559704738], [-59.67264485151545, 46.03555123707847], [-59.672637648627486, 46.035556688670816], [-59.6726066724902, 46.03558010610216], [-59.672480356103314, 46.03567433550494], [-59.67245838395071, 46.03569071565832], [-59.672445857691585, 46.0356982982907], [-59.67240447031472, 46.035723347391944], [-59.672329849352764, 46.03576378230445], [-59.67227141936407, 46.03579543625649], [-59.6722131336803, 46.03582189190737], [-59.672199142868806, 46.035828252714694], [-59.671986545118465, 46.03594014639491], [-59.67194070291896, 46.0359782426762], [-59.671900153855134, 46.03606588977448], [-59.67190118065174, 46.03608536149112], [-59.67190257710595, 46.03610943440495], [-59.67193540056343, 46.036154423288664], [-59.67195021853164, 46.0361747290707], [-59.67197705043236, 46.0361942599626], [-59.67199169848184, 46.03620492090142], [-59.6720279447235, 46.036229730673305], [-59.67206535190871, 46.03623930887447], [-59.672074401490335, 46.03624162485694], [-59.67207853038805, 46.03624173621273], [-59.672140594488155, 46.036243383337116], [-59.67219349559537, 46.03624266614548], [-59.672247933844055, 46.0362206707783], [-59.67226402914907, 46.03621068996953], [-59.67229008474473, 46.036194536888054], [-59.67231409332362, 46.03618857607524], [-59.67236822257957, 46.03617602251121], [-59.672380431119834, 46.03617308405384], [-59.67243156021552, 46.03616077604415], [-59.67247289798087, 46.036149892787385], [-59.672501812631815, 46.03614229276551], [-59.67254925053236, 46.03612710486478], [-59.67260332143471, 46.0361090679856], [-59.67270113194921, 46.036087706429406], [-59.67274178587934, 46.03608088952012], [-59.672759240320644, 46.03607796889615], [-59.672784567276054, 46.03607673583705], [-59.67286241345199, 46.03607296497495], [-59.67288030256911, 46.03607291926273], [-59.67292200083922, 46.03607281133677], [-59.67298413714215, 46.036071102798175], [-59.673013110210384, 46.03605951698333], [-59.673031940307105, 46.03605198297957], [-59.67305031083288, 46.03603359858617], [-59.67305710339648, 46.03602680288842], [-59.673115426492174, 46.0359984307211], [-59.67312789924067, 46.03599625595231], [-59.673177449399894, 46.03598763693976], [-59.67332261613944, 46.03598061599778], [-59.67340954610551, 46.03597062885889], [-59.67351678191072, 46.03596296146906], [-59.67356050745865, 46.03596180527716], [-59.67357923521948, 46.03596135185104], [-59.67360955904195, 46.03596062423346], [-59.67366889720098, 46.03595923883099], [-59.673672973991955, 46.03595914159188], [-59.673757351698455, 46.035950978999765], [-59.6737990530007, 46.03594457926431], [-59.673833776126806, 46.03593924532521], [-59.673941061336784, 46.03592451332759], [-59.67395001341471, 46.03592328899608], [-59.673953184430005, 46.03592321036275], [-59.674005543075424, 46.0359218365679], [-59.67406759792366, 46.03592062011111], [-59.674075542384784, 46.03592046451619], [-59.67409003795375, 46.03591796153602], [-59.674134046092405, 46.035910377766385], [-59.67413538491035, 46.03588808572066], [-59.67410720546782, 46.03586537479296], [-59.67407572236301, 46.03584000237976], [-59.67406592936269, 46.035835216674116], [-59.6740536062315, 46.03582306658999], [-59.6740434577546, 46.035800529899355], [-59.67404336015829, 46.035797205751486], [-59.6740432860041, 46.03579478236911], [-59.67405873960068, 46.0357754667581], [-59.674070531965675, 46.03576073391495], [-59.67409319890309, 46.03575752389845], [-59.67410309227151, 46.035749018306355], [-59.67414213343496, 46.03571546646683], [-59.674141911158905, 46.03570733224603], [-59.67414164243505, 46.03569781954578], [-59.674050366653454, 46.03564439583265], [-59.67403271463891, 46.035628661187424], [-59.67402903297532, 46.03562411652357], [-59.67402297121865, 46.035616595254254], [-59.674024071582245, 46.035600425824484], [-59.67403225029368, 46.03558905302728], [-59.67403287087229, 46.035587973005654], [-59.674042935662385, 46.03557037257775], [-59.674086312843684, 46.0355147600405], [-59.67411364379248, 46.03547972396027], [-59.67411513454993, 46.03547211668697], [-59.67411478089833, 46.03546724593842], [-59.67418494071083, 46.03542230549827], [-59.67419463052033, 46.03541740329928], [-59.674212799454395, 46.03540817568644], [-59.67422135720163, 46.035407920936436], [-59.67427662778157, 46.035406254710914], [-59.67432965658566, 46.03540554924965], [-59.674421002198656, 46.035401639514426], [-59.67446184586533, 46.03539423346462], [-59.67448045099163, 46.03539086905176], [-59.67450641793853, 46.035384352766194], [-59.674548943746665, 46.035373683379575], [-59.67459375753242, 46.03535482686349], [-59.67462399172809, 46.03532050528383], [-59.67463050963703, 46.03528083047614], [-59.67461240009072, 46.035233759719134], [-59.67458775643559, 46.03521953166622], [-59.67457892576452, 46.03521443200336], [-59.674562676483895, 46.03520934127117], [-59.674534909577424, 46.03520063874799], [-59.674489895716476, 46.03520130774454], [-59.6744462029137, 46.03521010694715], [-59.67438418874819, 46.035222710838646], [-59.67433390114533, 46.035222965127545], [-59.67431074881841, 46.035222425709335], [-59.67429015141192, 46.03522195171154], [-59.67422663136515, 46.035216591005614], [-59.67408370951762, 46.03519487585087], [-59.67407815374675, 46.03519377791278], [-59.674001588311114, 46.03517861317342], [-59.67388462249002, 46.03513120051292], [-59.673816609896996, 46.035084664923964], [-59.67372833376664, 46.03502241752166], [-59.67368546748745, 46.03498948567954], [-59.67360529292411, 46.03494727604406], [-59.673570225646976, 46.034928873706505], [-59.673547912563, 46.03491716155745], [-59.673485510676024, 46.03488888990981], [-59.67342545049115, 46.03487778803116], [-59.67339118291805, 46.03487146104696], [-59.67335258248006, 46.034868635131794], [-59.67330052711843, 46.03487164571171], [-59.67325452665931, 46.03487432865873], [-59.673239933652766, 46.034882760237984], [-59.673226826068586, 46.03489034401839], [-59.67320624793885, 46.03489944726575], [-59.67319894629885, 46.034902672811874], [-59.67318122220384, 46.03490858292036], [-59.67312048073151, 46.03492882890942], [-59.67310052332617, 46.03494480885606], [-59.67308277438231, 46.03496619064633], [-59.67308199417897, 46.034967130998865], [-59.673090209703744, 46.03500247363176], [-59.67310097262746, 46.035009825919765], [-59.67311317483585, 46.03501817423623], [-59.67311605501897, 46.03502013933971], [-59.6731268313902, 46.03502748301628], [-59.67319631897618, 46.03504966975992], [-59.673210814364666, 46.03505362047918], [-59.67322709104642, 46.03505803714108], [-59.67326170586425, 46.03506912672926], [-59.67332969721187, 46.03507749852703], [-59.67334681284819, 46.035082578676636], [-59.67336702718305, 46.03508856819048], [-59.67337407474047, 46.035091293777185], [-59.67337940502231, 46.03509334826773], [-59.6733513601257, 46.03511896650759], [-59.67335027996599, 46.03511995212656], [-59.67334336376303, 46.035133971903186], [-59.67332936190516, 46.03517343756707], [-59.67330398874748, 46.03517845874822], [-59.67326694488126, 46.03518629013602], [-59.67323180668886, 46.0352024127988], [-59.673215114682854, 46.03521007214517], [-59.67321140263489, 46.03521356430712], [-59.67319127992489, 46.035232509725034], [-59.67318411119508, 46.035239330472955], [-59.673168799470595, 46.035253915666345], [-59.673144617497314, 46.03528901628202], [-59.67313651973121, 46.035300760408845], [-59.67312288412243, 46.03531282920345], [-59.67311536273034, 46.03531949655703], [-59.67308543314332, 46.03531646418458], [-59.67306138885887, 46.03531657358198], [-59.67302941024071, 46.03531753185542]]}, "properties": {"OBJECTID": 17302, "FEAT_CODE": "WACOIS10", "FEAT_DESC": "Coastal Island - Water to the right line", "RIVNAME_1": " ", "RIVNAME_2": " ", "ZVALUE": 0.6, "FID": null, "SHAPE_Length": 641.0472229781305}}, {"type": "Feature", "id": 18458, "geometry": {"type": "LineString", "coordinates": [[-59.689654561773224, 46.030857359149856], [-59.68965366126097, 46.03088366945457], [-59.68964931482242, 46.031010230045574], [-59.68961739701896, 46.031198321892894], [-59.68957338318651, 46.0313509597689], [-59.689547858938745, 46.03140029124449], [-59.689517864084074, 46.03145825988411], [-59.68936887730759, 46.03168076042175], [-59.6892479975377, 46.03182216834198], [-59.68908798785334, 46.031991234984645], [-59.68878000323395, 46.03230094100467], [-59.68868708403032, 46.03240087339894], [-59.68849964391855, 46.03260243765989], [-59.68840541984415, 46.03270861454934], [-59.68820509088854, 46.03290352188513], [-59.68801766109873, 46.0330988030726], [-59.68786744453768, 46.03321095185421], [-59.68780528808055, 46.0332573570086], [-59.68772643375326, 46.033300973471654], [-59.687648116693126, 46.03333560464434], [-59.6875913772571, 46.03335430929799], [-59.68757033694016, 46.033361250529], [-59.6875221208346, 46.033365576104615], [-59.68747938749155, 46.03336941268147], [-59.687468479992354, 46.03336920421286], [-59.68729867144806, 46.03336596027772], [-59.68717063188555, 46.033346052489314], [-59.686925949651155, 46.03328854756409], [-59.686809790820256, 46.033286067706435], [-59.68674491087217, 46.03331209638846], [-59.686679649223905, 46.03333672782905], [-59.68656113036526, 46.033381469555216], [-59.68648333718368, 46.033407114309014], [-59.68635391336786, 46.03343216054581], [-59.686291416102584, 46.03343715119399], [-59.68626301743843, 46.03343942319871], [-59.686215279643726, 46.03343899166798], [-59.68617260535732, 46.03343859908177], [-59.68606988404675, 46.03342751668623], [-59.685927654695604, 46.03340718661046], [-59.685866408670414, 46.033388028132386], [-59.68583885574065, 46.03337940658231], [-59.68579734176459, 46.03336416017496], [-59.68576172174731, 46.03335105603347], [-59.6856851244677, 46.03331373819051], [-59.68563747083776, 46.033279078725705], [-59.685621966153164, 46.033267800618155], [-59.68561317724554, 46.03325983176032], [-59.685571708535164, 46.03322223753721], [-59.68554784366138, 46.03316753975543], [-59.685529809413715, 46.033133749141975], [-59.68552344110167, 46.03312182718275], [-59.68549844707337, 46.03308599834003], [-59.68541742301952, 46.03305982082861], [-59.685409702633436, 46.03305731947508], [-59.68540666413201, 46.03305259583382], [-59.685397877581096, 46.03303897450955], [-59.68537987348853, 46.033029297956546], [-59.68534654483667, 46.033011381762634], [-59.685282526130365, 46.03300142231831], [-59.68524410763217, 46.03300614840389], [-59.6852174318936, 46.033009433259984], [-59.68518434274581, 46.03302033561258], [-59.685164700392285, 46.0330268039426], [-59.68511225000204, 46.033061284330145], [-59.68502445459916, 46.03314867135337], [-59.685005051502046, 46.03316798177905], [-59.68496995669051, 46.03321217388758], [-59.684884855822105, 46.03331930584483], [-59.68481873871381, 46.0333443974252], [-59.684804394653064, 46.03334935439271], [-59.68479234639245, 46.03335352294622], [-59.68475544009426, 46.033361479071026], [-59.684715103265454, 46.03337018164234], [-59.684624732276184, 46.03336845740751], [-59.684546535542104, 46.033358085822975], [-59.684417959783595, 46.03334715119131], [-59.684302822618044, 46.03332760588215], [-59.68425171726713, 46.03331802089601], [-59.68419843433843, 46.03334437594161], [-59.684158871306444, 46.03337922118342], [-59.6840518968431, 46.0335039348935], [-59.68391949882834, 46.03359999849673], [-59.68386777224711, 46.03363467035106], [-59.68377407916884, 46.03369748386889], [-59.683731465700895, 46.03372218643414], [-59.68356256712004, 46.033820051624836], [-59.683418827226006, 46.0338896827833], [-59.68340223158919, 46.03389684237318], [-59.68311769314538, 46.03401955603599], [-59.68292154396921, 46.03407955416713], [-59.6826608361852, 46.034138585184095], [-59.68250506937129, 46.0341718624266], [-59.68234906303175, 46.03418713084683], [-59.682194898478414, 46.03419344185244], [-59.6820262746462, 46.03418224976181], [-59.68196574406046, 46.03417035564381], [-59.68192409133553, 46.034162178441235], [-59.68186694654857, 46.034146188289256], [-59.681719457231814, 46.03410493518376], [-59.68128466137874, 46.03396358510594], [-59.68126469733158, 46.03395966546175], [-59.68118246641099, 46.033943503778595], [-59.68112611100568, 46.03393957930509], [-59.681026757762446, 46.03393267664872], [-59.68096788706851, 46.03392565469679], [-59.68093692462247, 46.03392196430103], [-59.68084604031571, 46.03392922297249], [-59.68059259505149, 46.03397314099828], [-59.68056135851129, 46.03397855136637], [-59.680458045185816, 46.03397734760608], [-59.68042812147186, 46.03397185110618], [-59.680405637032585, 46.0339677230145], [-59.68036894235785, 46.03395962640065], [-59.680316355474254, 46.033948025390174], [-59.68026750896744, 46.03393007952627], [-59.68023922320283, 46.0339196801509], [-59.68012164470464, 46.0338679986864], [-59.68011205030955, 46.03386377732623], [-59.68009102097257, 46.03385132971876], [-59.68004964762507, 46.03382685945841], [-59.67979595427512, 46.03366107625999], [-59.67964405915241, 46.03358644327781], [-59.679583116346755, 46.03356700221046], [-59.679554027152555, 46.03355772240183], [-59.67929774230102, 46.0334998636259], [-59.679202140630125, 46.033487956026704], [-59.67905272877681, 46.03346934362054], [-59.678953317451985, 46.03346730691086], [-59.67894949673028, 46.033467231770985], [-59.67884563275525, 46.03347501135464], [-59.67859916854412, 46.03353354735309], [-59.678490171291266, 46.033564642426654], [-59.67839011553175, 46.03359317128519], [-59.67812854011615, 46.03368817000126], [-59.67808065567685, 46.03370095300931], [-59.67790658543759, 46.03374741764941], [-59.67780964402669, 46.03376947501988], [-59.67742574802512, 46.0338567361968], [-59.67713890760875, 46.03394199652823]]}, "properties": {"OBJECTID": 18458, "FEAT_CODE": "WACOIS10", "FEAT_DESC": "Coastal Island - Water to the right line", "RIVNAME_1": " ", "RIVNAME_2": " ", "ZVALUE": 0.6, "FID": null, "SHAPE_Length": 1252.0077565964045}}, {"type": "Feature", "id": 18459, "geometry": {"type": "LineString", "coordinates": [[-59.67404369544504, 46.03258815058177], [-59.673980008355215, 46.03255119195438], [-59.67398054794552, 46.03254220684541], [-59.67395773514126, 46.03253108326865], [-59.67390396067835, 46.032504872350266], [-59.67381360481568, 46.03250313997636], [-59.673804656935786, 46.03250946788894], [-59.67378796109796, 46.03252129459207], [-59.67376129207452, 46.032556520904784], [-59.67375689276822, 46.03256457448374], [-59.67374677290671, 46.03258310037249], [-59.67374659213649, 46.0325975144338], [-59.67374644404858, 46.03261009327817], [-59.67375258167502, 46.03262495245171], [-59.673757725460554, 46.03263742445195], [-59.673782117972365, 46.032683139274845], [-59.67384472583956, 46.03273806822739], [-59.67392504833749, 46.03276722181873], [-59.673947168010194, 46.032775255925586], [-59.6739858690192, 46.03277638341622], [-59.673993206721754, 46.0327738429331], [-59.674012263241494, 46.03276725144958], [-59.67403914362116, 46.03275002389321], [-59.67404661670797, 46.032726722438795], [-59.67405345129016, 46.03270544557068], [-59.674053799010764, 46.03268695899747], [-59.674054648292575, 46.03264247464061], [-59.67404369544504, 46.03258815058177]]}, "properties": {"OBJECTID": 18459, "FEAT_CODE": "WACOIS10", "FEAT_DESC": "Coastal Island - Water to the right line", "RIVNAME_1": " ", "RIVNAME_2": " ", "ZVALUE": 0.6, "FID": null, "SHAPE_Length": 86.71044751748762}}, {"type": "Feature", "id": 18461, "geometry": {"type": "LineString", "coordinates": [[-59.67713890760875, 46.03394199652823], [-59.67703587135168, 46.033962453716974], [-59.67696888092152, 46.033975751249], [-59.676697096623045, 46.0340254454002], [-59.676538215525, 46.03405715670182], [-59.67627984906493, 46.03410871659662], [-59.676007852634676, 46.0341403922754], [-59.67576726509259, 46.03415539424257], [-59.675555137959506, 46.03416861421465], [-59.67530894174592, 46.03420104850972], [-59.67513950666805, 46.03422491682211], [-59.67498258989304, 46.0342770520346]]}, "properties": {"OBJECTID": 18461, "FEAT_CODE": "WACOIS10", "FEAT_DESC": "Coastal Island - Water to the right line", "RIVNAME_1": " ", "RIVNAME_2": " ", "ZVALUE": 0.6, "FID": null, "SHAPE_Length": 171.8884053827504}}, {"type": "Feature", "id": 18462, "geometry": {"type": "LineString", "coordinates": [[-59.67498258989304, 46.0342770520346], [-59.674971317339505, 46.03428937889038], [-59.67494246763095, 46.0343208876255], [-59.67491824685488, 46.034353647273285], [-59.674915757349595, 46.03435701308237], [-59.674915429002446, 46.034384005999584], [-59.674926180443265, 46.03441781121075], [-59.67493825870859, 46.03445577744282], [-59.67495117974323, 46.03447174319597], [-59.67497555367794, 46.03450186777718], [-59.67503979545248, 46.03452985016253], [-59.67511562325997, 46.03455815193278], [-59.67524441062496, 46.03458710487495], [-59.67534907133327, 46.03460333897443], [-59.67550177446807, 46.034627002527834], [-59.67591330542952, 46.03466058747179], [-59.675963803959625, 46.03467317380609], [-59.67610557290067, 46.03470848928986], [-59.67616980315442, 46.034736461699396], [-59.676219303293664, 46.034773006054074], [-59.67626950039399, 46.03481947158606], [-59.67630685064996, 46.03486466300687], [-59.67632009978309, 46.03490467035964], [-59.67633091850084, 46.03493737029126], [-59.67632819380123, 46.03501291590561], [-59.67632702760955, 46.03504526692533], [-59.67633906157372, 46.03508162056638], [-59.67637620046215, 46.03510880415817], [-59.676415168723096, 46.03512704016851], [-59.67649833673867, 46.03512888525382], [-59.67654423181325, 46.0351298972684], [-59.67662125995648, 46.03511776526282], [-59.676751674955206, 46.03509723233326], [-59.677115168785875, 46.03504840718327], [-59.67713089856891, 46.03504686682423], [-59.67719316725704, 46.03504077644352], [-59.677225896790276, 46.03504517634629], [-59.6772700875016, 46.03505111592002], [-59.677307883549325, 46.03506067671594], [-59.67734646868558, 46.035070440481135], [-59.677347007238595, 46.03506146433057], [-59.67746289668602, 46.03509003038101]]}, "properties": {"OBJECTID": 18462, "FEAT_CODE": "WACOIS10", "FEAT_DESC": "Coastal Island - Water to the right line", "RIVNAME_1": " ", "RIVNAME_2": " ", "ZVALUE": 0.6, "FID": null, "SHAPE_Length": 258.789892120904}}, {"type": "Feature", "id": 20374, "geometry": {"type": "LineString", "coordinates": [[-59.67746289668602, 46.03509003038101], [-59.677616397507315, 46.03513770150762], [-59.67785958775672, 46.035177181352886], [-59.67819441618665, 46.03521842695083], [-59.67828423786454, 46.03522914112279], [-59.67856935248158, 46.03521583429972], [-59.67863674166755, 46.03520754288463], [-59.67869954766449, 46.035199820161274], [-59.6788965515119, 46.035159547956574], [-59.678984775500254, 46.03514152047059], [-59.679035670142724, 46.035136529351554], [-59.67906277445568, 46.03513387946443], [-59.67909902315308, 46.03514080241766], [-59.67926848631791, 46.03517316618521], [-59.679372340553805, 46.03516538592798], [-59.6794753895434, 46.035149481413605], [-59.67947869488311, 46.035149532544935], [-59.679539948224324, 46.035150458996185], [-59.67959180568219, 46.03516906879072], [-59.67962965668467, 46.03520617293604], [-59.67967969831196, 46.03523373070378], [-59.679733636359025, 46.03523445329974], [-59.67979591490953, 46.03523531041988], [-59.679883585574935, 46.035221982578456], [-59.67990025348961, 46.03521945202609], [-59.6800431376559, 46.03518578571273], [-59.680225854071395, 46.03513440275387], [-59.68032949527113, 46.03510861378133], [-59.68035249009443, 46.035105313045484], [-59.68038165062496, 46.0351011294879], [-59.68039946544559, 46.03510447374602], [-59.680432756838165, 46.0351107162312], [-59.680471187927175, 46.03513793605649], [-59.68058346789589, 46.03524831047817], [-59.680660668927, 46.035275757392604], [-59.68071532156515, 46.035285042081924], [-59.68072462250886, 46.03528661761681], [-59.6807372477258, 46.03528728170804], [-59.68095651760612, 46.03529875997818], [-59.68109357872308, 46.035301007363756], [-59.6810985235821, 46.03530108810838], [-59.681163621535966, 46.03529307062288], [-59.68122534375913, 46.035284450923186], [-59.68128092766464, 46.03527668784989], [-59.68135218357294, 46.03526964133493], [-59.68143563430281, 46.03526138310814], [-59.68151853245714, 46.03526924723538], [-59.6816682144967, 46.03528344484089], [-59.681898520620074, 46.03532254157028], [-59.68207782831992, 46.03537095671376], [-59.682123522549816, 46.035393229588585], [-59.68215442526383, 46.03540828596332], [-59.68228601845688, 46.0354795893385], [-59.68230713499956, 46.035491030978186], [-59.68237061764584, 46.03550997733234], [-59.68250625154889, 46.03554792381131], [-59.68257525706328, 46.03556722855407], [-59.68266056698215, 46.03558640395683], [-59.6827040511178, 46.0355961732416], [-59.6828836978714, 46.03561759449525], [-59.68302584422699, 46.035625792836306], [-59.68310393024435, 46.03563029370288], [-59.683169253364944, 46.03562563892009], [-59.68331029579988, 46.0356155871694], [-59.683402326167, 46.03558944909361], [-59.68346551430493, 46.035564120234994], [-59.68346722213492, 46.03556344078057], [-59.68361149161897, 46.035484824127124], [-59.68366428273951, 46.0354524785255], [-59.683796629041005, 46.03537139109683], [-59.683864771686366, 46.0353187813233], [-59.68388876816774, 46.03530026157468], [-59.68404648832347, 46.035213034237266], [-59.68413846335874, 46.03518780304367], [-59.68422973998727, 46.03515265058683], [-59.68437262003355, 46.035119005731644], [-59.6845673192964, 46.035104849194184], [-59.68503299385223, 46.03507606766204], [-59.68510621927926, 46.0350680588946], [-59.685176088259105, 46.03506042066896], [-59.68521907526152, 46.03505237093293], [-59.685267578545606, 46.03504327523068], [-59.68546190153896, 46.03499221186871], [-59.68561875753575, 46.03494096056033], [-59.685728169331135, 46.03488931282937], [-59.68589537887548, 46.034810378146226], [-59.68601605716782, 46.03474818419488], [-59.686302084276136, 46.03460076325578], [-59.68639458703324, 46.03455177438725], [-59.68643421182453, 46.034530791434584], [-59.686592682606296, 46.03447368111448], [-59.68672084025916, 46.03442749993042], [-59.68700926945057, 46.03431525913901], [-59.687165584693986, 46.03427299083444], [-59.68725626677625, 46.03424771960883], [-59.687412850058436, 46.03422256930717], [-59.687606308785526, 46.03420748050659], [-59.68781362393952, 46.034219786844886], [-59.68797544804452, 46.03422844189168], [-59.68807127782282, 46.03423356211822], [-59.68853468880033, 46.03428570802473], [-59.688702548508225, 46.034287876494524], [-59.68899926800057, 46.03427488016889], [-59.689163924057745, 46.034265136969196], [-59.68947913812133, 46.034246492168435], [-59.68981515073033, 46.034224732194964], [-59.68989464164536, 46.03421694701926], [-59.68997114278358, 46.03420945314066], [-59.690137284287694, 46.03419041774977], [-59.6901780388829, 46.0341857487389], [-59.690437345150535, 46.03417166401684], [-59.690467376583314, 46.03416953731185], [-59.69064498122178, 46.03415698104029], [-59.690889505763145, 46.0341523677162], [-59.6913550794791, 46.03416856154709], [-59.69150951440363, 46.03417933764324], [-59.691792155203956, 46.03422893180405], [-59.69202313865204, 46.03427793759609], [-59.69220230311062, 46.03430742192391], [-59.692331419763676, 46.0343093626111], [-59.69251322631798, 46.034294827974094], [-59.69255680598873, 46.034283534344674], [-59.69257884495996, 46.034277827235], [-59.692608546092785, 46.03426803069819], [-59.692656623356996, 46.0342521868973], [-59.692761867988054, 46.034199421613295], [-59.69280905653464, 46.03416794457977]]}, "properties": {"OBJECTID": 20374, "FEAT_CODE": "WACOIS10", "FEAT_DESC": "Coastal Island - Water to the right line", "RIVNAME_1": " ", "RIVNAME_2": " ", "ZVALUE": 0.6, "FID": null, "SHAPE_Length": 1268.0566468059053}}]}