{"type": "FeatureCollection", "features": [{"type": "Feature", "id": 7283, "geometry": {"type": "LineString", "coordinates": [[-59.967074787829695, 45.91178007301739], [-59.9670754131027, 45.9117463723516], [-59.967076805269905, 45.911672116115284], [-59.96707004854426, 45.91146516852583], [-59.96711265483329, 45.911322025335096], [-59.967143594668066, 45.911132937775456], [-59.967170020539996, 45.91110942740843], [-59.96718289442328, 45.911097978246595], [-59.96720023802079, 45.91108637779072], [-59.96722304072135, 45.91107114197932], [-59.967289120862404, 45.91101799196178], [-59.96729548978813, 45.911015406873084], [-59.96735373099519, 45.91099180548465], [-59.96738348035833, 45.91097518801056], [-59.967432195430945, 45.91094798521881], [-59.96748588942433, 45.91088550520996], [-59.96750018018422, 45.91087100634624], [-59.9675118231253, 45.910859191419156]]}, "properties": {"OBJECTID": 7283, "FEAT_CODE": "WACO20", "FEAT_DESC": "Coast - Water to the right line", "RIVNAME_1": " ", "RIVNAME_2": " ", "ZVALUE": 0.6, "FID": null, "SHAPE_Length": 114.76002410597603}}, {"type": "Feature", "id": 7284, "geometry": {"type": "LineString", "coordinates": [[-59.96764545872995, 45.90880964091443], [-59.96763270683961, 45.90863528824839], [-59.9676269871766, 45.90855712572208], [-59.967606325138625, 45.9083684585743], [-59.967607770559596, 45.90831899213453], [-59.967610789957085, 45.90821557123016], [-59.96760374078384, 45.908135780230424], [-59.96760042113911, 45.908098275406296], [-59.96759643040492, 45.908078997538375], [-59.9675891977745, 45.908043972034335], [-59.967552869684205, 45.90800434835453], [-59.96753930023632, 45.90798954152479], [-59.96752461315144, 45.90797891741881], [-59.967476037850446, 45.907943756879334], [-59.967208771191586, 45.90783224731125], [-59.96706770734221, 45.90779429665546], [-59.966939544450014, 45.90775668855757], [-59.96691450992853, 45.90774737363228], [-59.966811907853746, 45.90770919333026], [-59.96668452995378, 45.907680606679236], [-59.96659479707497, 45.90767102185801], [-59.96654934826144, 45.907674782784454], [-59.96650412076764, 45.90767850456893], [-59.96639288366228, 45.90769252457622], [-59.96637430518811, 45.907694866198995], [-59.96631100600509, 45.907696127522186]]}, "properties": {"OBJECTID": 7284, "FEAT_CODE": "WACO20", "FEAT_DESC": "Coast - Water to the right line", "RIVNAME_1": " ", "RIVNAME_2": " ", "ZVALUE": 0.6, "FID": null, "SHAPE_Length": 197.15908650226484}}, {"type": "Feature", "id": 7367, "geometry": {"type": "LineString", "coordinates": [[-59.96778134589246, 45.909486515650926], [-59.96770881748023, 45.90935047627863], [-59.967697775910395, 45.90926917512319], [-59.96768856817765, 45.90910691477543], [-59.967666561876946, 45.90899021897012], [-59.96764545872995, 45.90880964091443]]}, "properties": {"OBJECTID": 7367, "FEAT_CODE": "WACO20", "FEAT_DESC": "Coast - Water to the right line", "RIVNAME_1": " ", "RIVNAME_2": " ", "ZVALUE": 0.6, "FID": null, "SHAPE_Length": 76.50221092390112}}, {"type": "Feature", "id": 7368, "geometry": {"type": "LineString", "coordinates": [[-59.96631100600509, 45.907696127522186], [-59.96610324438177, 45.90770026464752], [-59.96594944392939, 45.90770697854269], [-59.96590482146001, 45.907706224729125], [-59.96585927003339, 45.90770548221373], [-59.96580219777557, 45.9076925703392], [-59.965692421421686, 45.907667744684716], [-59.96552629536383, 45.907593122508615], [-59.965494144707115, 45.90758615637995], [-59.965308375904876, 45.907545926209266], [-59.96529073228947, 45.9075391656125], [-59.96528312913834, 45.907536254248825], [-59.96527708700886, 45.907527416794835], [-59.96525805273156, 45.907499584171376], [-59.96515857032394, 45.90740873114364], [-59.964954752662635, 45.907316004530315], [-59.96481763706846, 45.90726103636776], [-59.96469989042964, 45.90721381969372], [-59.96467995027288, 45.90720874411654], [-59.96466045583642, 45.907203770394766], [-59.96462669937533, 45.90719812046084], [-59.9645454776798, 45.90718451189227], [-59.964507808102084, 45.90716550858711]]}, "properties": {"OBJECTID": 7368, "FEAT_CODE": "WACO20", "FEAT_DESC": "Coast - Water to the right line", "RIVNAME_1": " ", "RIVNAME_2": " ", "ZVALUE": 0.6, "FID": null, "SHAPE_Length": 158.94967477412146}}, {"type": "Feature", "id": 7403, "geometry": {"type": "LineString", "coordinates": [[-59.96172793501871, 45.90655241121594], [-59.96162075134643, 45.90654629145273], [-59.96152099649561, 45.90654060332257], [-59.96139362426377, 45.90651201089577], [-59.96129071399555, 45.90648406940934], [-59.961232627093146, 45.90647844595202], [-59.961175283987885, 45.90647289626804], [-59.96109196193875, 45.906449148340535], [-59.960945493068635, 45.90640737385785], [-59.960829757714805, 45.90637819047337], [-59.96053407259579, 45.90633881583914], [-59.960400179754025, 45.906307582461594], [-59.960368568609425, 45.90630020620599], [-59.96023513304256, 45.90628302618555], [-59.96006000971072, 45.90626048758624], [-59.95997082069797, 45.90624101105254], [-59.95980439772318, 45.906160477018254], [-59.959779890890914, 45.906148618321865], [-59.95972951215977, 45.90610316343295], [-59.95962665217183, 45.906074330691354], [-59.95947076675809, 45.90603338364486], [-59.959447429725515, 45.90602725358971], [-59.95935793571121, 45.90598977568647], [-59.959052748665044, 45.90584122444668]]}, "properties": {"OBJECTID": 7403, "FEAT_CODE": "WACO20", "FEAT_DESC": "Coast - Water to the right line", "RIVNAME_1": " ", "RIVNAME_2": " ", "ZVALUE": 0.6, "FID": null, "SHAPE_Length": 226.30961105898803}}, {"type": "Feature", "id": 7633, "geometry": {"type": "LineString", "coordinates": [[-59.9675118231253, 45.910859191419156], [-59.96768147664164, 45.91079977329257], [-59.96773397905921, 45.910781383810324], [-59.96785061754795, 45.910746677915895], [-59.96790022888404, 45.91073756348448], [-59.96794050153368, 45.910730163210175], [-59.96818765851214, 45.910643126718824], [-59.968226388763235, 45.910630428873276], [-59.96826643154576, 45.910617306823774], [-59.96844067048073, 45.9105517987278], [-59.96847442227948, 45.910539121619166]]}, "properties": {"OBJECTID": 7633, "FEAT_CODE": "WACO20", "FEAT_DESC": "Coast - Water to the right line", "RIVNAME_1": " ", "RIVNAME_2": " ", "ZVALUE": 0.6, "FID": null, "SHAPE_Length": 82.91589474529925}}, {"type": "Feature", "id": 7634, "geometry": {"type": "LineString", "coordinates": [[-59.96847442227948, 45.910539121619166], [-59.96855288650208, 45.91049530057604], [-59.968579617330484, 45.91047800858319], [-59.96858278554944, 45.91047452835873], [-59.968685224411644, 45.910362001047844], [-59.96880481262891, 45.910273367240826], [-59.968870582163326, 45.910202206306565], [-59.96890350003461, 45.910148030894234], [-59.968924406362554, 45.910113626534425], [-59.96892873209558, 45.9100976568125], [-59.96893893251902, 45.91006000693126], [-59.96892751315218, 45.91003270113202], [-59.96886426071103, 45.909986908537796], [-59.96885942233651, 45.90998412482301], [-59.96880050480959, 45.909950121419115], [-59.968570262066514, 45.90989270324256], [-59.96855596507574, 45.909886266037596], [-59.96846830833972, 45.909846791910795], [-59.96843744900538, 45.909831715112404], [-59.96842937379905, 45.90982775632489], [-59.96840602134831, 45.90981689324096], [-59.96815019911147, 45.90969793105784], [-59.9681039832128, 45.909671258273], [-59.96802267761622, 45.90962432872023], [-59.967976893519136, 45.90959659624635], [-59.967946549972986, 45.90957821168847], [-59.96789750691818, 45.909554443027105], [-59.96786992021853, 45.909541073146265], [-59.967819969819224, 45.90951029567336], [-59.96778134589246, 45.909486515650926]]}, "properties": {"OBJECTID": 7634, "FEAT_CODE": "WACO20", "FEAT_DESC": "Coast - Water to the right line", "RIVNAME_1": " ", "RIVNAME_2": " ", "ZVALUE": 0.6, "FID": null, "SHAPE_Length": 177.46905101397337}}, {"type": "Feature", "id": 7636, "geometry": {"type": "LineString", "coordinates": [[-59.964507808102084, 45.90716550858711], [-59.96446969133967, 45.9071343781944], [-59.96441894700032, 45.90709293906465], [-59.96439668797829, 45.90706561461161], [-59.96438148691642, 45.9070469386455]]}, "properties": {"OBJECTID": 7636, "FEAT_CODE": "WACO20", "FEAT_DESC": "Coast - Water to the right line", "RIVNAME_1": " ", "RIVNAME_2": " ", "ZVALUE": 0.6, "FID": null, "SHAPE_Length": 16.4974318812489}}, {"type": "Feature", "id": 7637, "geometry": {"type": "LineString", "coordinates": [[-59.96438148691642, 45.9070469386455], [-59.96431969890853, 45.90697419779718], [-59.9642313654025, 45.90689173218442], [-59.9641804913979, 45.90685527598681], [-59.96411920763456, 45.906773538553516], [-59.964005737114924, 45.90665530990071], [-59.964002086189616, 45.906649677272554], [-59.96399384374565, 45.90663698286587], [-59.963970606539625, 45.9065193714772], [-59.96396609034846, 45.90642137579543], [-59.96396234204631, 45.90634002516071], [-59.96401700310304, 45.90625957070404], [-59.96402219163125, 45.90624576631216], [-59.96404417553132, 45.90618738613135], [-59.96403271024921, 45.90616097869026], [-59.964008946308674, 45.90613525229908], [-59.96400714483686, 45.90613329620704], [-59.963976185546734, 45.90611963766952], [-59.96394419409623, 45.906105519633215], [-59.96389899264062, 45.90610476763691], [-59.96385402342019, 45.906104012797755], [-59.963823216624284, 45.90610906210648], [-59.963801985082895, 45.90611253887268], [-59.96379093157904, 45.90611851852986], [-59.9637368887053, 45.90614771129631], [-59.96372602388165, 45.906187800306384], [-59.96372235878233, 45.90620133016928], [-59.963694598638924, 45.90623749550852], [-59.96369027337749, 45.906240440778156], [-59.963669155918055, 45.90625482062145], [-59.96344633852469, 45.906368606265005], [-59.963368857498196, 45.90639444819979], [-59.96331924756022, 45.90640761109248], [-59.963239338183534, 45.90642880690064], [-59.963031234220686, 45.90646197515835], [-59.96292764822115, 45.906470020703075], [-59.962892681859586, 45.90646954057825], [-59.962787216296825, 45.906468085069434], [-59.96267551395452, 45.906482152077565], [-59.96265739030012, 45.90648443318729], [-59.96259976278439, 45.90649660839097], [-59.96253999730382, 45.90650921273246], [-59.96245686973867, 45.90651826119066], [-59.962320795688015, 45.906533092558426], [-59.96223010918199, 45.90654102164046], [-59.96213942216302, 45.90654895963758], [-59.96203423529965, 45.90655255134178], [-59.961946951611154, 45.90655553925285], [-59.961836953580985, 45.90655397125548], [-59.96172793501871, 45.90655241121594]]}, "properties": {"OBJECTID": 7637, "FEAT_CODE": "WACO20", "FEAT_DESC": "Coast - Water to the right line", "RIVNAME_1": " ", "RIVNAME_2": " ", "ZVALUE": 0.6, "FID": null, "SHAPE_Length": 307.13980601365796}}, {"type": "Feature", "id": 7638, "geometry": {"type": "LineString", "coordinates": [[-59.96729611307145, 45.912143332044344], [-59.967284891351234, 45.91208899271127], [-59.967260329600194, 45.912048736422264], [-59.967235173573506, 45.91200755525326], [-59.96718630204041, 45.91193425004005], [-59.96711109069793, 45.91187104614612], [-59.96708650127496, 45.91182538855838], [-59.967074787829695, 45.91178007301739]]}, "properties": {"OBJECTID": 7638, "FEAT_CODE": "WACO20", "FEAT_DESC": "Coast - Water to the right line", "RIVNAME_1": " ", "RIVNAME_2": " ", "ZVALUE": 0.6, "FID": null, "SHAPE_Length": 44.613283263370946}}, {"type": "Feature", "id": 7639, "geometry": {"type": "LineString", "coordinates": [[-59.966367940583254, 45.91308443083811], [-59.96642018086036, 45.91304890633495], [-59.96645337033369, 45.913040193270206], [-59.966485591272296, 45.91303174248957], [-59.966512323488395, 45.91301446002189], [-59.96660648550092, 45.91287203880536], [-59.9666712679477, 45.912818854675066], [-59.966804105659634, 45.91267657876049], [-59.9668502738197, 45.9126497676], [-59.9668960023213, 45.912623214766754], [-59.96692616952569, 45.91258857076363], [-59.96694965010303, 45.91256162487901], [-59.96697579719558, 45.91252219360917], [-59.96700303875366, 45.91248113524765], [-59.967097688092, 45.912329734692285], [-59.96718889907532, 45.912312346741395], [-59.96721937134421, 45.91229196814798], [-59.96722770918124, 45.912286384068736], [-59.96724615063965, 45.91227404769605], [-59.967267856345856, 45.912259547811395], [-59.96728401283364, 45.91222171426603], [-59.96729446318253, 45.91219724845812], [-59.96729611307145, 45.912143332044344]]}, "properties": {"OBJECTID": 7639, "FEAT_CODE": "WACO20", "FEAT_DESC": "Coast - Water to the right line", "RIVNAME_1": " ", "RIVNAME_2": " ", "ZVALUE": 0.6, "FID": null, "SHAPE_Length": 132.55834459390604}}, {"type": "Feature", "id": 8355, "geometry": {"type": "LineString", "coordinates": [[-59.95120325338273, 45.91005491134428], [-59.951208630960004, 45.9100723096377], [-59.9512142077885, 45.91009030730978], [-59.95122139066496, 45.91009523358678], [-59.95122787813499, 45.91009967324724], [-59.95125361598216, 45.910100360553514], [-59.95128952279283, 45.91009430771716], [-59.95130438455873, 45.910091815297356], [-59.9513579053622, 45.910056340869566], [-59.951368620574144, 45.91011963316275], [-59.951340660408405, 45.91018279279154], [-59.95131373450334, 45.91022707818236], [-59.951259630330014, 45.91034354493456], [-59.951243622376616, 45.910424125381155], [-59.95120363069119, 45.91049506447539], [-59.95114942662811, 45.91056652410396], [-59.95111910992267, 45.91058962083319], [-59.951044466190936, 45.91064652919548], [-59.95101150003845, 45.91067302948002], [-59.950978371959415, 45.91069966044372], [-59.950913261836284, 45.910734834177745], [-59.95081289422785, 45.91077149646629], [-59.95079615745056, 45.910777611103384], [-59.95078840818259, 45.910780194408574], [-59.950743620861765, 45.91079510979272], [-59.950639717606066, 45.91080688007268], [-59.95060219389612, 45.91081113434616], [-59.950554984954465, 45.910808595275235], [-59.950369492439904, 45.910798609107985], [-59.95029214033502, 45.910798352049945], [-59.95020345354079, 45.91076988042488], [-59.950165004798706, 45.91074185068923], [-59.95012829998251, 45.910705766735184], [-59.95011728354332, 45.91062447352113], [-59.9501213353712, 45.91061383471022], [-59.950130842895426, 45.91058882322177], [-59.9502496653609, 45.91049118750255], [-59.950264892814104, 45.91040158546405], [-59.95025417882594, 45.910338293100054], [-59.95022455731792, 45.91031013014587], [-59.95021618715644, 45.91030216579585], [-59.9501681365699, 45.91028793893943], [-59.950152745866, 45.91028337839255], [-59.95006325228173, 45.910245884221965]]}, "properties": {"OBJECTID": 8355, "FEAT_CODE": "WACO20", "FEAT_DESC": "Coast - Water to the right line", "RIVNAME_1": " ", "RIVNAME_2": " ", "ZVALUE": 0.6, "FID": null, "SHAPE_Length": 233.27171429267668}}, {"type": "Feature", "id": 12319, "geometry": {"type": "LineString", "coordinates": [[-59.95006325228173, 45.910245884221965], [-59.95004248438097, 45.91024203509491], [-59.95001219373965, 45.91023642841843], [-59.94988284963479, 45.910243755987295], [-59.949830805577044, 45.910252275535115], [-59.94976154970961, 45.91027181133423], [-59.94974043781114, 45.91027776392166], [-59.949635716149636, 45.910329871369946], [-59.94952612693319, 45.91041195661139], [-59.949517372953, 45.91041851837715], [-59.949178737880395, 45.91050397005574], [-59.94907444552717, 45.91054799666863], [-59.94896984610854, 45.910645111175185], [-59.948944266281366, 45.91064929705294], [-59.94891780155355, 45.91065363029318], [-59.948879175170354, 45.91065259801679], [-59.948865275667835, 45.91065047138257], [-59.94875002084581, 45.91063293573197], [-59.94862234505959, 45.910586319176105], [-59.94852042035323, 45.910540390753496], [-59.94848278006068, 45.91052138293696]]}, "properties": {"OBJECTID": 12319, "FEAT_CODE": "WACO20", "FEAT_DESC": "Coast - Water to the right line", "RIVNAME_1": " ", "RIVNAME_2": " ", "ZVALUE": 0.6, "FID": null, "SHAPE_Length": 141.8631588059917}}, {"type": "Feature", "id": 12385, "geometry": {"type": "LineString", "coordinates": [[-59.95536074608956, 45.90837468378344], [-59.95522897024574, 45.90838295166173], [-59.95512915207259, 45.90838920942423], [-59.955025799101854, 45.90836935127422], [-59.95495008261164, 45.90835081520054], [-59.95487311918244, 45.90833197579126], [-59.954823783352616, 45.90833110992507], [-59.95467989587663, 45.90832862209564], [-59.95426588713636, 45.9083778839885], [-59.954175725817414, 45.908376378751804], [-59.954084743314965, 45.90836585065336], [-59.954036525456964, 45.908344564269306], [-59.95402180821671, 45.90833806901985], [-59.95394468495454, 45.90830990880583], [-59.95394272222769, 45.9083076062189], [-59.953882909569955, 45.908237162627465], [-59.953829175706666, 45.90823655702363], [-59.953766936990256, 45.90823585948153], [-59.95370202086181, 45.908244028341166], [-59.95358541595454, 45.908277820579606], [-59.95346896354007, 45.9082855142099], [-59.95341036138495, 45.90830529151047], [-59.953365171297854, 45.908320548211684], [-59.9533067060348, 45.90836490152018], [-59.9532723472504, 45.90839097826063], [-59.95325879099362, 45.90842662002121], [-59.95326109826422, 45.90844947182734], [-59.95326882689512, 45.90852589754511], [-59.95329241912235, 45.908589533306525], [-59.953418921249714, 45.908681117732684], [-59.95354275762304, 45.90872272999629], [-59.95358477932654, 45.90873684856672], [-59.953584098254744, 45.90877283391958], [-59.95356955779359, 45.90882645121614], [-59.953490354361236, 45.90890714585645], [-59.953358734085626, 45.90899095112213], [-59.95322850263522, 45.90907387520882], [-59.95318569438691, 45.90909554102318], [-59.95312373718015, 45.90912688478062], [-59.95307105134117, 45.90915044715364], [-59.95292811460265, 45.90921437298954], [-59.95276509747229, 45.909306151466325], [-59.95267933723434, 45.90935444738042], [-59.952548807430404, 45.90940676873131], [-59.95238345268688, 45.90946540602685], [-59.952352880180975, 45.90947624605816], [-59.952154348491675, 45.90951017204679], [-59.95210687943112, 45.90951828371572], [-59.95206105710148, 45.90951751945437], [-59.952016690660535, 45.90951677604117], [-59.95197990670655, 45.90951931334682], [-59.95191315998704, 45.90952391297202], [-59.95185829672226, 45.90956790265664], [-59.95183493804838, 45.909586630902226], [-59.95182365747011, 45.909593188393906], [-59.951729727126036, 45.90964772809227], [-59.951586523307334, 45.90967270730371], [-59.95150875909353, 45.90967199902195], [-59.95148342268199, 45.90967175453438], [-59.95145390897966, 45.909678797222405], [-59.951341013709836, 45.9097057555426], [-59.95131359552705, 45.90975902867131], [-59.951312420410204, 45.909804001696635], [-59.951324422574615, 45.90986733736316], [-59.95125666136108, 45.9099744385479], [-59.9512168606499, 45.91001837110687], [-59.95121410901435, 45.91002575935644], [-59.95120325338273, 45.91005491134428]]}, "properties": {"OBJECTID": 12385, "FEAT_CODE": "WACO20", "FEAT_DESC": "Coast - Water to the right line", "RIVNAME_1": " ", "RIVNAME_2": " ", "ZVALUE": 0.6, "FID": null, "SHAPE_Length": 483.3089004411194}}, {"type": "Feature", "id": 12814, "geometry": {"type": "LineString", "coordinates": [[-59.956751979022684, 45.907007639122746], [-59.956762456972456, 45.90703883645298], [-59.95676417479871, 45.90704396774163], [-59.9567618823804, 45.90713302437444], [-59.95668251777016, 45.90721278985186], [-59.95665547498418, 45.90723998972155], [-59.95648529202637, 45.907360691359614], [-59.956405961573466, 45.907416956250096], [-59.956183429343874, 45.907548737075075], [-59.956065660826795, 45.90760102464228], [-59.95594820895634, 45.907653176516405], [-59.955905535424996, 45.90768750218509], [-59.955882122476915, 45.90770631982285], [-59.95584938201041, 45.90773748998462], [-59.95581683109867, 45.90776849417444], [-59.95578794337044, 45.90784872284535], [-59.955772676511025, 45.90793922467249], [-59.955776297449226, 45.90802716082881], [-59.955780423248385, 45.90812754966435], [-59.95577974362442, 45.90816353506938], [-59.95575815874265, 45.90818781995586], [-59.955700052519184, 45.90825321912351], [-59.955607736625694, 45.9083146547378], [-59.95556251780853, 45.908329740526476], [-59.95553023610579, 45.90834049982833], [-59.95536074608956, 45.90837468378344]]}, "properties": {"OBJECTID": 12814, "FEAT_CODE": "WACO20", "FEAT_DESC": "Coast - Water to the right line", "RIVNAME_1": " ", "RIVNAME_2": " ", "ZVALUE": 0.6, "FID": null, "SHAPE_Length": 203.08727734500144}}, {"type": "Feature", "id": 12815, "geometry": {"type": "LineString", "coordinates": [[-59.959052748665044, 45.90584122444668], [-59.95904019755988, 45.90582741581605], [-59.959028424252224, 45.90581447398442], [-59.959022108807574, 45.90580523287609], [-59.95900335226686, 45.90577781163342], [-59.958992629403255, 45.90571451083144]]}, "properties": {"OBJECTID": 12815, "FEAT_CODE": "WACO20", "FEAT_DESC": "Coast - Water to the right line", "RIVNAME_1": " ", "RIVNAME_2": " ", "ZVALUE": 0.6, "FID": null, "SHAPE_Length": 15.126529907363944}}, {"type": "Feature", "id": 12816, "geometry": {"type": "LineString", "coordinates": [[-59.95586181389115, 45.907040613103895], [-59.95596521441924, 45.90705956268141], [-59.9560159662131, 45.90705102388213], [-59.95613264995661, 45.907039283423046], [-59.95617154452817, 45.907035369909885], [-59.95622354628467, 45.907027314387534], [-59.956275574760035, 45.90701924155206], [-59.9563335431607, 45.90701194810942], [-59.956340489146754, 45.907011071181685], [-59.95639161615811, 45.90701004895459], [-59.95661025887608, 45.90700566154084], [-59.95671587900762, 45.90700713588563], [-59.956751979022684, 45.907007639122746]]}, "properties": {"OBJECTID": 12816, "FEAT_CODE": "WACO20", "FEAT_DESC": "Coast - Water to the right line", "RIVNAME_1": " ", "RIVNAME_2": " ", "ZVALUE": 0.6, "FID": null, "SHAPE_Length": 69.88852152837157}}, {"type": "Feature", "id": 12817, "geometry": {"type": "LineString", "coordinates": [[-59.958992629403255, 45.90571451083144], [-59.95896652689642, 45.90569670487644], [-59.95894781691965, 45.90569178707359], [-59.95892840720341, 45.90568669761383], [-59.958772502161416, 45.90568907033811], [-59.958605796654844, 45.905691605173566], [-59.95845200138323, 45.90569830908269], [-59.95806300404444, 45.90573835010201], [-59.95790823869874, 45.90576302919826], [-59.957884400147364, 45.90576819957001], [-59.95775296893016, 45.90579669552691], [-59.95753195387299, 45.90583040979115], [-59.957348899718575, 45.90585745756196], [-59.957196585943514, 45.905879968809145], [-59.95702794946055, 45.90592227878444], [-59.95692338027476, 45.90594830343531], [-59.95675572656603, 45.90597263743552], [-59.95672975923555, 45.90597688673665], [-59.95670368792239, 45.90598115126186], [-59.95655981652007, 45.90604212245551], [-59.95642961511712, 45.906112458776725], [-59.95636354386432, 45.90616560277492], [-59.95624428605778, 45.90627133407852], [-59.95623211772274, 45.90628777831242], [-59.956191380691266, 45.90634282174883], [-59.95607592098262, 45.90643921220841], [-59.955979267894065, 45.906519893395064], [-59.95584758941347, 45.90661719231754], [-59.955740487896755, 45.90676015984559], [-59.9557250831845, 45.90687675156292], [-59.95572390926601, 45.9069215356576], [-59.95579856249081, 45.90699482224621], [-59.95586181389115, 45.907040613103895]]}, "properties": {"OBJECTID": 12817, "FEAT_CODE": "WACO20", "FEAT_DESC": "Coast - Water to the right line", "RIVNAME_1": " ", "RIVNAME_2": " ", "ZVALUE": 0.6, "FID": null, "SHAPE_Length": 333.7167532140293}}, {"type": "Feature", "id": 17361, "geometry": {"type": "LineString", "coordinates": [[-59.965751884355356, 45.89894026716784], [-59.96563197847283, 45.89898048264027], [-59.9655181393073, 45.899018663018076], [-59.965493685721405, 45.89903494373249], [-59.96542582346365, 45.89908011561718], [-59.96540588973392, 45.89909034184013], [-59.96537411246416, 45.89910664388527], [-59.96529633543491, 45.89911447748967], [-59.96526002947447, 45.89912919198028], [-59.965231738475495, 45.89914066316922], [-59.96519213927632, 45.8991576123278], [-59.9651906684629, 45.8991845848998], [-59.96520429037163, 45.89919436192751], [-59.9652167220559, 45.899203270232526], [-59.96524774831781, 45.89921445498637], [-59.96531913110703, 45.89924019578458], [-59.965326178891765, 45.89925067113742], [-59.96535609697234, 45.89929518370088], [-59.96535413663721, 45.89933113515095], [-59.965348300153344, 45.899335327443], [-59.96534206081439, 45.89933981505684], [-59.965321732223536, 45.89935775353216], [-59.965301432306134, 45.899375638760674], [-59.965292253688986, 45.899378707110095], [-59.96527648390329, 45.89938396749106], [-59.96510854560659, 45.89939031341944], [-59.96500497303208, 45.89939836119466], [-59.96495294215042, 45.89940686998839], [-59.964861617754515, 45.89945035570871], [-59.9648410930688, 45.899464085469944], [-59.96478267660025, 45.89950316246091], [-59.964722811661616, 45.899527430453574], [-59.964718078953254, 45.89952934783086], [-59.96467873721854, 45.89956520552309], [-59.964665002939284, 45.89962249107017], [-59.96466373291431, 45.89962781283346], [-59.9646695365126, 45.899662044497475], [-59.96467444905779, 45.89969110396251], [-59.96467438241203, 45.89969327140487], [-59.96467328536717, 45.899736077468766], [-59.9647109733763, 45.89975418114627], [-59.96476331204657, 45.89976367342249], [-59.96487921927582, 45.899765854758364], [-59.96505134643547, 45.89976049360624], [-59.965097461486295, 45.8997590552217], [-59.96514726389886, 45.89975004608028], [-59.965188602206275, 45.89974258509928], [-59.965344635743236, 45.89971792083805], [-59.96553825835059, 45.899666361694294], [-59.96557957168906, 45.899659592976384], [-59.965642321417015, 45.89964932558157], [-59.96583890604736, 45.89960869072319], [-59.96592786872861, 45.899590307942574], [-59.966054682368785, 45.899550626764906], [-59.96617443978225, 45.89951315217489], [-59.96631730415098, 45.89947014385587], [-59.966629122047, 45.89940192154633], [-59.966637763571605, 45.89938978392504], [-59.966641700440555, 45.89938425396856], [-59.96663375828522, 45.89923951567755], [-59.96663329338003, 45.89923101548698], [-59.96663927261107, 45.899223019545886], [-59.966659711629916, 45.89919571384449], [-59.96669577462656, 45.899163926767734], [-59.96670033866105, 45.899159898618876], [-59.966724556067895, 45.89914747275275], [-59.966752062472544, 45.89913336108963], [-59.96677587914369, 45.89912402987246], [-59.96681660976728, 45.89910807331889], [-59.966908288764124, 45.89908169714337], [-59.96706500359743, 45.899021063074166], [-59.967077581762716, 45.899003395441746], [-59.967081053985964, 45.89886847434472], [-59.96705646978956, 45.898822816804774], [-59.967035791692545, 45.898807677033446], [-59.96696845161807, 45.89875837237093], [-59.966891605917404, 45.89874913011536], [-59.966826019133734, 45.89874784668909], [-59.966762827698304, 45.89874660886355], [-59.9666564203105, 45.89875513187615], [-59.96656860716709, 45.89876215064192], [-59.966414292612775, 45.89877875245094], [-59.96639488637727, 45.89878285425633], [-59.96629691703991, 45.898803545325165], [-59.966258054379225, 45.89883040640311], [-59.96610037223101, 45.89890901543823], [-59.96606201125883, 45.89892690689343], [-59.966049587611536, 45.898928727954285], [-59.96601002946599, 45.898934526385766], [-59.96581307771966, 45.89893890519995], [-59.965751884355356, 45.89894026716784]]}, "properties": {"OBJECTID": 17361, "FEAT_CODE": "WACOIS10", "FEAT_DESC": "Coastal Island - Water to the right line", "RIVNAME_1": " ", "RIVNAME_2": " ", "ZVALUE": 0.6, "FID": null, "SHAPE_Length": 509.87515762645023}}, {"type": "Feature", "id": 20436, "geometry": {"type": "LineString", "coordinates": [[-59.96092230556715, 45.898380665791386], [-59.960691628227366, 45.89833222084563], [-59.960602574315566, 45.89828665477842], [-59.960579069504846, 45.89825225767745], [-59.96057750539492, 45.898249974814824], [-59.96057233242125, 45.89824437355565], [-59.960551945175574, 45.89822229165838], [-59.96055459749044, 45.89815035513619], [-59.96053044789433, 45.898096606942744], [-59.9604871930275, 45.89806481632519], [-59.96047963323266, 45.898059250526224], [-59.96046223684025, 45.89805156865805], [-59.960416693283356, 45.89803147224521], [-59.960274199238505, 45.898020477684376], [-59.960256013310484, 45.89802040751949], [-59.960196865000505, 45.898020218794855], [-59.9601527963262, 45.898025283036155], [-59.96013329798549, 45.89802752713981], [-59.96008126727465, 45.898036042715376], [-59.96005449050098, 45.898054240603436], [-59.96001519651812, 45.898089188876995], [-59.96000098994511, 45.89815480513067], [-59.959999696552295, 45.89816078328651], [-59.95986999633355, 45.898222136025026], [-59.95986852348217, 45.89824909948048], [-59.95991165356298, 45.898288834797086], [-59.95991884743399, 45.898295434993116], [-59.95997281273678, 45.898313577641765], [-59.96008468158456, 45.89835116484386], [-59.96014841808013, 45.89838796540755], [-59.96022551832682, 45.89841612086293], [-59.96022404612847, 45.89844307533855], [-59.96023556580518, 45.898515398189936], [-59.96022534353754, 45.89853993247286], [-59.9602207422922, 45.898551007070644], [-59.960207437665254, 45.898559986749554], [-59.9601297217733, 45.89861248988029], [-59.960140432109284, 45.89867579029869], [-59.96017768550679, 45.89874878034499], [-59.96019572195867, 45.898768585496484], [-59.96020202044241, 45.898775530870125], [-59.960266248386986, 45.89880334355914], [-59.96040745714083, 45.89881430390598], [-59.96051498154043, 45.898815798452915], [-59.96054915680999, 45.89881627625625], [-59.96066528310171, 45.89879056495148], [-59.960795731241475, 45.898739132201875], [-59.96088741173705, 45.8987127699059], [-59.96104215619257, 45.89868808621957], [-59.961119958818585, 45.898680256199455], [-59.961275008917674, 45.8986735821148], [-59.96128759971285, 45.898669173766464], [-59.961301294397934, 45.89866438075712], [-59.961365905401564, 45.89863819767556], [-59.96157249626493, 45.89863198587449], [-59.96159263856016, 45.89862904759209], [-59.961624477786366, 45.898624377399095], [-59.96162613454366, 45.89857041614482], [-59.9614847157735, 45.898528362639624], [-59.961433313780006, 45.898513079207405], [-59.96133170536163, 45.89848517235463], [-59.96111291847097, 45.898455046521], [-59.960985551900116, 45.8984264537293], [-59.96092230556715, 45.898380665791386]]}, "properties": {"OBJECTID": 20436, "FEAT_CODE": "WACOIS10", "FEAT_DESC": "Coastal Island - Water to the right line", "RIVNAME_1": " ", "RIVNAME_2": " ", "ZVALUE": 0.6, "FID": null, "SHAPE_Length": 377.68525010359826}}, {"type": "Feature", "id": 21276, "geometry": {"type": "LineString", "coordinates": [[-59.96818872947026, 45.89891049612077], [-59.967992253038005, 45.898829958933796], [-59.96798444724226, 45.89882676333614], [-59.967997187510534, 45.898853204263986], [-59.96802226214787, 45.89888987373527], [-59.96801963226936, 45.89896181100492], [-59.96795423856381, 45.89897898517838], [-59.96794643923365, 45.89898158632243], [-59.96792929070941, 45.89898731450358], [-59.96791427735772, 45.89904992200009], [-59.967952937928494, 45.89906722235375], [-59.96797846023474, 45.899078638227785], [-59.968016149430554, 45.899096731843386], [-59.96809294687017, 45.89910687214641], [-59.96815736094386, 45.89910768265675], [-59.96831242475495, 45.89910099936141], [-59.96837702030647, 45.89907481190055], [-59.96837913732497, 45.89901985468396], [-59.968380139326456, 45.8989938867243], [-59.968377832043146, 45.898988910971234], [-59.968367447804354, 45.89896654704562], [-59.968278267114606, 45.89894707720226], [-59.968259123972864, 45.89893925113267], [-59.96818872947026, 45.89891049612077]]}, "properties": {"OBJECTID": 21276, "FEAT_CODE": "WACOIS10", "FEAT_DESC": "Coastal Island - Water to the right line", "RIVNAME_1": " ", "RIVNAME_2": " ", "ZVALUE": 0.6, "FID": null, "SHAPE_Length": 114.53231711061224}}, {"type": "Feature", "id": 21277, "geometry": {"type": "LineString", "coordinates": [[-59.95311437641914, 45.908073531784545], [-59.952972161195646, 45.90808054635378], [-59.95294516441832, 45.908085676407744], [-59.95288095532921, 45.90809788706455], [-59.95284263257662, 45.90811488399903], [-59.952832827135765, 45.90812464927335], [-59.95281534385891, 45.90814205839243], [-59.95281467519148, 45.90817804407527], [-59.952828125089404, 45.9081876649651], [-59.95283948977835, 45.90819580805941], [-59.95284411669375, 45.9081970206591], [-59.95287762235042, 45.90820582669916], [-59.952929967093596, 45.908215315551416], [-59.95300726550296, 45.90821648748189], [-59.953070894186204, 45.90820828465839], [-59.95314917749732, 45.90819147201226], [-59.95326632386756, 45.908147793698774], [-59.95330593302989, 45.90813084895303], [-59.95329274209369, 45.90811249517355], [-59.95328500386301, 45.90810664511633], [-59.9532803722253, 45.908103164186116], [-59.95326779341696, 45.90809835506532], [-59.95325512743949, 45.90809348961161], [-59.95323594740286, 45.90808890936315], [-59.95321693277471, 45.90808436952922], [-59.95311437641914, 45.908073531784545]]}, "properties": {"OBJECTID": 21277, "FEAT_CODE": "WACOIS10", "FEAT_DESC": "Coastal Island - Water to the right line", "RIVNAME_1": " ", "RIVNAME_2": " ", "ZVALUE": 0.6, "FID": null, "SHAPE_Length": 88.14345219403839}}, {"type": "Feature", "id": 53233, "geometry": {"type": "LineString", "coordinates": [[-59.96209588541411, 45.9068575215163], [-59.96214853820145, 45.90685901254859], [-59.96218776404981, 45.90687499774576], [-59.962248627871254, 45.90698822813201], [-59.962217286499616, 45.90700494592725], [-59.962185496774424, 45.90700626027699]]}, "properties": {"OBJECTID": 53233, "FEAT_CODE": "WALK20", "FEAT_DESC": "Lake - Water to the right line", "RIVNAME_1": " ", "RIVNAME_2": " ", "ZVALUE": 3.8, "FID": null, "SHAPE_Length": 26.59456375356278}}, {"type": "Feature", "id": 53234, "geometry": {"type": "LineString", "coordinates": [[-59.962185496774424, 45.90700626027699], [-59.96216823330841, 45.90700104846122], [-59.96215835205913, 45.906998067271246], [-59.96214018673452, 45.90696852007369], [-59.962119984616265, 45.90693566035754], [-59.96206670938679, 45.90691723109243], [-59.96205126056292, 45.90688846723382], [-59.96207423477491, 45.90686441614499], [-59.96209588541411, 45.9068575215163]]}, "properties": {"OBJECTID": 53234, "FEAT_CODE": "WALK20", "FEAT_DESC": "Lake - Water to the right line", "RIVNAME_1": " ", "RIVNAME_2": " ", "ZVALUE": 3.8, "FID": null, "SHAPE_Length": 22.937019550117856}}, {"type": "Feature", "id": 117009, "geometry": {"type": "LineString", "coordinates": [[-59.96349530844284, 45.906936064150706], [-59.96350885778914, 45.90690042099321], [-59.96352085739137, 45.90688514161373], [-59.96352271357574, 45.906882787746376], [-59.96352479537219, 45.90688102493673], [-59.96357542670956, 45.90683828522188], [-59.96358928245898, 45.906820651965894], [-59.96362844625222, 45.906811792584314], [-59.96366578302592, 45.90681278556864], [-59.96366786910189, 45.906813543116904], [-59.963742896635004, 45.906840938948], [-59.96381902940229, 45.90688706795267], [-59.963827124080694, 45.90689278275918], [-59.96385751837693, 45.906914203071224], [-59.96388395623408, 45.90694598618503], [-59.9638950274703, 45.90695929587855], [-59.96395583352178, 45.90705002160785]]}, "properties": {"OBJECTID": 117009, "FEAT_CODE": "WALK20", "FEAT_DESC": "Lake - Water to the right line", "RIVNAME_1": " ", "RIVNAME_2": " ", "ZVALUE": 1.7, "FID": null, "SHAPE_Length": 56.84584329929754}}, {"type": "Feature", "id": 137419, "geometry": {"type": "LineString", "coordinates": [[-59.96395583352178, 45.90705002160785], [-59.96398139930604, 45.90707770410862], [-59.96399165098278, 45.90714998377049], [-59.96401703302435, 45.90717749035994], [-59.9640940611417, 45.9071869013925], [-59.96421058792029, 45.907175175493876], [-59.96424963763885, 45.907171245348216]]}, "properties": {"OBJECTID": 137419, "FEAT_CODE": "WALK20", "FEAT_DESC": "Lake - Water to the right line", "RIVNAME_1": " ", "RIVNAME_2": " ", "ZVALUE": 1.7, "FID": null, "SHAPE_Length": 33.644368766145845}}, {"type": "Feature", "id": 137420, "geometry": {"type": "LineString", "coordinates": [[-59.9622468972782, 45.90779214076223], [-59.9622141048209, 45.907776389773645], [-59.96220920480017, 45.90777403617687], [-59.9621844363712, 45.90775537537667], [-59.96218479242466, 45.907702333661064], [-59.96218480581817, 45.907701379924106], [-59.96220541289463, 45.90767440354575], [-59.96225284936285, 45.90761228152298], [-59.9622727722105, 45.90760562891674], [-59.962277802429426, 45.90760394457969], [-59.9623263256032, 45.907584497612774], [-59.96240830645698, 45.907551611409566], [-59.962423792050856, 45.907541213363544], [-59.962514041818444, 45.90748061735451], [-59.962594556038894, 45.90747506367528], [-59.962617580681886, 45.907473471017646], [-59.96279797635719, 45.907475569921544], [-59.96291359320827, 45.90745974374256], [-59.96291725656098, 45.907458770089335], [-59.963043115138824, 45.907425385481766], [-59.96309662608285, 45.907389905283225], [-59.963132705453084, 45.90735701268231], [-59.96313607159521, 45.90735392491023], [-59.96318962058587, 45.90729246913827], [-59.963211048599874, 45.90725020391594], [-59.963217075257404, 45.907238294038685], [-59.96324942750055, 45.90720494222694], [-59.963268992051866, 45.90718476959429], [-59.96341353419248, 45.90708780426309], [-59.96346650500027, 45.907062210493066], [-59.96350634355973, 45.90701736557643], [-59.96350434031643, 45.907002568854004], [-59.96349530844284, 45.906936064150706]]}, "properties": {"OBJECTID": 137420, "FEAT_CODE": "WALK20", "FEAT_DESC": "Lake - Water to the right line", "RIVNAME_1": " ", "RIVNAME_2": " ", "ZVALUE": 1.7, "FID": null, "SHAPE_Length": 158.6444752593182}}, {"type": "Feature", "id": 137421, "geometry": {"type": "LineString", "coordinates": [[-59.96424963763885, 45.907171245348216], [-59.964206489662814, 45.90732401308993], [-59.964193431050994, 45.90735066849642], [-59.96420268934465, 45.90744092348224], [-59.96420134105143, 45.907512894672394], [-59.964175407464175, 45.907539207724064], [-59.964172244410555, 45.907540464747385], [-59.96410949916316, 45.90756536688762], [-59.96394136605867, 45.907598690588145], [-59.96391507668579, 45.90760789244695], [-59.963853733016435, 45.90761561303483], [-59.96378524827691, 45.90762424178693], [-59.96370678463217, 45.90766805957839], [-59.963689914393214, 45.90767217436288], [-59.96360355197045, 45.907693216808966], [-59.96357771316507, 45.907692979649006], [-59.963552003109726, 45.907692745907426], [-59.9635138068516, 45.90768362923549], [-59.96348734276463, 45.9076721693289], [-59.96344958003687, 45.90765581845726], [-59.96343590028154, 45.90764754284157], [-59.96337344656894, 45.90760968919287], [-59.963342391931526, 45.907601545490415], [-59.963335312329555, 45.90759967402238], [-59.96331453145619, 45.90759960733722], [-59.96329663849125, 45.90759954545501], [-59.96326990751298, 45.90761683621145], [-59.96326671790804, 45.90776976633625], [-59.96323926250476, 45.90782395042589], [-59.963212519013496, 45.90784123183488], [-59.963160798649824, 45.907867758835046], [-59.96292625185768, 45.90793621805207], [-59.96290047805321, 45.90793644151277], [-59.96284894178066, 45.90794069609049], [-59.962809800474034, 45.90794393025261], [-59.9627030183827, 45.90794244864837], [-59.96266807734216, 45.90794196012898], [-59.96260599305796, 45.907926393067406], [-59.96259175963869, 45.90792282808274], [-59.96257831664133, 45.907918483046885], [-59.96247646184789, 45.90788555723166], [-59.96246203504256, 45.90787844973966], [-59.9624011261973, 45.90784844042405], [-59.962388197257056, 45.90783916755952], [-59.96237508255724, 45.90782975473791], [-59.96236121826919, 45.90781659560632], [-59.96233707107106, 45.90779363994665], [-59.9622468972782, 45.90779214076223]]}, "properties": {"OBJECTID": 137421, "FEAT_CODE": "WALK20", "FEAT_DESC": "Lake - Water to the right line", "RIVNAME_1": " ", "RIVNAME_2": " ", "ZVALUE": 1.7, "FID": null, "SHAPE_Length": 229.34979701543287}}, {"type": "Feature", "id": 186376, "geometry": {"type": "LineString", "coordinates": [[-59.96424963763885, 45.907171245348216], [-59.96427557101136, 45.90714493227306], [-59.96429656094108, 45.907121314024245], [-59.96431540899559, 45.90710008705973], [-59.96438148691642, 45.9070469386455]]}, "properties": {"OBJECTID": 186376, "FEAT_CODE": "WARV50", "FEAT_DESC": "River - Single Line", "RIVNAME_1": " ", "RIVNAME_2": " ", "ZVALUE": 9999, "FID": null, "SHAPE_Length": 17.242233409009483}}, {"type": "Feature", "id": 186377, "geometry": {"type": "LineString", "coordinates": [[-59.95490859967276, 45.91168845011998], [-59.954972724100166, 45.91167125857674], [-59.955104834287354, 45.91165796841168], [-59.955128315629146, 45.91165560636867], [-59.95513801031513, 45.91165375871955], [-59.95521954113097, 45.911638237379734], [-59.95538867543676, 45.91158694247842], [-59.95546567585448, 45.91157008502895], [-59.95576421894931, 45.91151054829909], [-59.95598442558075, 45.91146871510416], [-59.95620561543628, 45.91140890594159], [-59.956334658697955, 45.911383543416825], [-59.956515270398214, 45.91134892542113], [-59.95668516923343, 45.911316379804646], [-59.95681791082008, 45.911284688689896], [-59.956827605207174, 45.911282372843544], [-59.95685927718362, 45.91127877962423], [-59.95696903198045, 45.911266340561184], [-59.95703902258903, 45.91126022227688], [-59.95715042250566, 45.91125047314501], [-59.95741014230187, 45.91122950123555], [-59.957435359244336, 45.91122746399836], [-59.957449590775184, 45.911223999888854], [-59.95753860105314, 45.91120231259496], [-59.957558028466295, 45.9111979158314], [-59.95757776882543, 45.911193455397054], [-59.957632255251724, 45.91118153205916], [-59.95765476761281, 45.91117660542705], [-59.95768102338817, 45.911168304204594], [-59.957798172828916, 45.9111246213265], [-59.95787693764483, 45.91109881738727], [-59.957980719655126, 45.911063779012196], [-59.95805842422683, 45.91101939588833], [-59.958072559653374, 45.911011320690996], [-59.95817701958506, 45.910940296688466], [-59.95850427606111, 45.910756396595204], [-59.958648158410774, 45.91069541425749], [-59.95876579697713, 45.910642751537644], [-59.95889600646324, 45.91057241279052], [-59.95896141602403, 45.9105552532366], [-59.959142940964355, 45.910513283686136], [-59.95917118707724, 45.91050866248655], [-59.95924701328203, 45.91049625364689], [-59.95941425059343, 45.91048000567581], [-59.95941954438194, 45.910478931543274], [-59.9594533679714, 45.910472055580364], [-59.959583404013266, 45.91042869606178], [-59.95967621049823, 45.91035826943123], [-59.95970169211214, 45.91034005516241], [-59.95970219666346, 45.91033105871949], [-59.95978299042275, 45.910197305956075], [-59.95991929119102, 45.91007562521906], [-59.95994160350897, 45.910055706346284], [-59.96000916252452, 45.909975597277366], [-59.96007186674961, 45.909947518992446], [-59.96012679880731, 45.909922924090736], [-59.96025651383244, 45.909861571501295], [-59.96037311840584, 45.90982777243617], [-59.96045912984816, 45.909805922014016], [-59.96054310123692, 45.90978459327194], [-59.960711428783306, 45.90972426811973], [-59.96080381701144, 45.909661921224334], [-59.96082750465808, 45.90964230881574], [-59.96085648590636, 45.90961831887554], [-59.96088247163448, 45.909591098881144], [-59.96094067943924, 45.909539570147984], [-59.96096241260774, 45.90952032872623], [-59.96098392823223, 45.90949869627671], [-59.9610156212959, 45.90946683970551], [-59.961107641135214, 45.909387381087285], [-59.96113554079059, 45.9093251175519], [-59.96114707621075, 45.90928814295246], [-59.96116367473529, 45.909234957520454], [-59.961178393794576, 45.90915433238503], [-59.96118505128353, 45.90914198036303], [-59.96119275421159, 45.90912772097786], [-59.961192926580324, 45.90910072292828], [-59.96120696890673, 45.909056092293305], [-59.96123393552945, 45.90901090556806], [-59.96125240452485, 45.908992639313226], [-59.96128709435987, 45.90895831517925], [-59.96131410744092, 45.908940132309226], [-59.961352686490194, 45.90891415647493], [-59.96139283386608, 45.908887322280734], [-59.96145793495325, 45.908852151325945], [-59.96149674562812, 45.90882618160741], [-59.961535000584455, 45.90878772186694], [-59.961549953116695, 45.9087726923025], [-59.96170920714977, 45.908595112761475], [-59.9617489093416, 45.908546673483755], [-59.961789343907306, 45.908497335591946], [-59.961824407058224, 45.90842357937273], [-59.961844698922995, 45.90838089713874], [-59.961868896555714, 45.90834885886735], [-59.96192531303472, 45.908274131694846], [-59.96199761785975, 45.90820123141765], [-59.962004466885624, 45.90819433897679], [-59.962010142463434, 45.908186740244474], [-59.96204478633122, 45.90814048848872], [-59.96208530188097, 45.90805966756658], [-59.96209948436106, 45.90804527450313], [-59.96211123668815, 45.90803335502273], [-59.96212666439545, 45.90800961617271], [-59.96215205854987, 45.907970534986184], [-59.96223175181858, 45.90782063060292], [-59.9622468972782, 45.90779214076223]]}, "properties": {"OBJECTID": 186377, "FEAT_CODE": "WARV50", "FEAT_DESC": "River - Single Line", "RIVNAME_1": " ", "RIVNAME_2": " ", "ZVALUE": 9999, "FID": null, "SHAPE_Length": 768.4760707156792}}]}