{"type": "FeatureCollection", "features": [{"type": "Feature", "id": 2309, "geometry": {"type": "LineString", "coordinates": [[-60.43646108818946, 46.26462616474208], [-60.43647528448195, 46.26457248136774], [-60.43654090555001, 46.264501060090524], [-60.436610579806214, 46.264449296392435], [-60.436672644475784, 46.26440320313889], [-60.43681734551993, 46.264305654818166], [-60.43684180941961, 46.26428084073302], [-60.43689634935693, 46.26422551523786], [-60.43704239528558, 46.264037606638055], [-60.43707029559626, 46.26400170919589], [-60.43717053210136, 46.26388365034834], [-60.437176024735415, 46.26387717631783], [-60.43732194285109, 46.26372564376194], [-60.43741391113392, 46.26361790261915], [-60.43754606511626, 46.263511062647694], [-60.43772965233762, 46.26341437625356], [-60.438147504203236, 46.26324733974305], [-60.43827572075854, 46.26318483619985], [-60.438292239178445, 46.26317678225423], [-60.43850242014447, 46.26305906309605], [-60.438521931641226, 46.263043029935204], [-60.4385291372088, 46.26303710725836], [-60.438578007469985, 46.2629970083895], [-60.438629181996575, 46.2629634323823], [-60.43867363738897, 46.262934250888925], [-60.43869429126357, 46.26292238345246], [-60.438771120639935, 46.262878222087345], [-60.438910993325145, 46.26282452941519], [-60.4389441841939, 46.26281179090822], [-60.43909171218014, 46.262774821186206], [-60.43919111410348, 46.26271881702913], [-60.43928870811747, 46.26265203489029], [-60.43932861918758, 46.26262762946713], [-60.43938036439596, 46.26259599198015], [-60.439458520879136, 46.2625625972707], [-60.439504887486535, 46.262542791611615], [-60.43958766999445, 46.262525971060015], [-60.43961489281843, 46.26252044287782], [-60.439824669793694, 46.26239930111066], [-60.4399827840209, 46.26229213996837], [-60.44028796756099, 46.262075868527944], [-60.44053431861927, 46.261901290906145], [-60.440876438048214, 46.26168843736484], [-60.441256917023566, 46.26143144925858], [-60.44134307663957, 46.26136935046633], [-60.441442206729164, 46.261297893714975], [-60.44196652660387, 46.260961330232064], [-60.4420280141948, 46.260913790088736], [-60.44215094849496, 46.26081874478842], [-60.44228944014718, 46.26071952945441], [-60.44257242287284, 46.26051678640867], [-60.44274077737853, 46.260398465241714], [-60.442887694280756, 46.260295216599765], [-60.44307697867378, 46.26016208980876], [-60.443216358893125, 46.26006406327301], [-60.443834750841276, 46.25960178271023], [-60.444173254420484, 46.25932991328678], [-60.444599017669915, 46.25898795591737], [-60.445032992994456, 46.258668249369755], [-60.44547954996488, 46.25838483274036], [-60.445522223230675, 46.25836033389764], [-60.445694181153186, 46.25826163761797], [-60.44571099742373, 46.25821751597529], [-60.44576182193151, 46.25817340756474], [-60.44579090079058, 46.25815244785325], [-60.445798888514965, 46.25814669520635], [-60.44580082691661, 46.258145469493705], [-60.44590611301105, 46.25807866462994], [-60.44597431573939, 46.2580386527242], [-60.44599852318587, 46.25802563035378], [-60.446056093178505, 46.25799467805549], [-60.446223591955786, 46.25790003045122], [-60.44631123547488, 46.25785071451782], [-60.44638534465592, 46.25780532618103], [-60.44655093658398, 46.25770533429001], [-60.44660351016543, 46.257674666068716], [-60.44663894849085, 46.257623769190275], [-60.446664041137964, 46.25760983942749], [-60.446783056479255, 46.257543799578904], [-60.446826656935464, 46.257528924308524], [-60.44683742889244, 46.25752524087595], [-60.446907597374214, 46.257482545240855], [-60.446977688066504, 46.257441242874044], [-60.44714154554684, 46.25732909693848], [-60.44716828242288, 46.257315239803], [-60.44720577557204, 46.25729579977591], [-60.44728574094871, 46.25724106435776], [-60.447359716032494, 46.25720244063229], [-60.447363612859526, 46.25720123164549], [-60.44744514263882, 46.257175953113425], [-60.44745911156463, 46.257139741882845], [-60.447515844807384, 46.2570862513524], [-60.447643012729024, 46.256967254839395], [-60.44767393186573, 46.256943797665826], [-60.44771523273829, 46.25691248110315], [-60.44786372678634, 46.25678686847092], [-60.44793206921819, 46.25673343903559], [-60.44798450628666, 46.256695611872736], [-60.448004254153304, 46.25668136442857], [-60.44805117277568, 46.256638589805775], [-60.448128352319785, 46.25659127984072], [-60.44818173200594, 46.256558576821774], [-60.44825766001164, 46.25651726003217], [-60.44838414366759, 46.25644173695883], [-60.44844077967554, 46.2564079184968], [-60.44867062648543, 46.25627191708856], [-60.448824534842046, 46.25617857324915], [-60.44893178049307, 46.256105167105495], [-60.44909954356021, 46.2559850142645], [-60.4491658698855, 46.25593695727042], [-60.449274881063616, 46.25587833274616], [-60.449472072151636, 46.255722051999875], [-60.44964167416903, 46.25560863564936], [-60.4497657968728, 46.25553245532157], [-60.44981116454065, 46.25550460389003], [-60.44999417279636, 46.255401998612825], [-60.45014472191571, 46.25526432343497], [-60.45020753783041, 46.25520743017941], [-60.450217045386715, 46.255198822036], [-60.45041589401412, 46.25506404241165], [-60.45046273820096, 46.25503343356831], [-60.45050164775066, 46.25500801184738], [-60.45056431968121, 46.254967639773525], [-60.4506010451807, 46.25494398735082], [-60.450704292545474, 46.25487863561622], [-60.450725194095085, 46.25485990427936], [-60.450760972973264, 46.254827842383875], [-60.45084313824495, 46.25474761063455], [-60.45086938280315, 46.25473592872537], [-60.450926734568675, 46.25471038729243], [-60.450977286392146, 46.254680112963484], [-60.45100464447959, 46.254663721695785], [-60.45105184547267, 46.2546360366747], [-60.451072799147866, 46.254623732667106], [-60.451085486842054, 46.25462292667269], [-60.45113630242209, 46.25461970412662], [-60.451273105707756, 46.254523464306466], [-60.45178601992311, 46.254150590898945], [-60.45214094927191, 46.25391099724679], [-60.452283301700696, 46.253821765201735], [-60.452325353918766, 46.253795404896984], [-60.452679862075044, 46.253564800497045], [-60.452739041762065, 46.25352692346088], [-60.45292855994134, 46.2534056389275], [-60.453112689816706, 46.2532942243285], [-60.453178164271236, 46.253254606311955], [-60.453322398907204, 46.253149313344316], [-60.45350717287385, 46.253014430619], [-60.45373040824236, 46.25287268245074], [-60.45385845676841, 46.25278599177096], [-60.453927303130115, 46.25273937420972], [-60.45409566360753, 46.25264368119929], [-60.45459621167241, 46.25235916377874], [-60.45493653943069, 46.25218223839357], [-60.45530320255068, 46.251996898204006], [-60.455473385265705, 46.25190798498701], [-60.45560463042805, 46.251819113453706], [-60.455998410017386, 46.25158037293458], [-60.45611991048729, 46.25149822308634], [-60.456339941373216, 46.251349459209585], [-60.456418008479375, 46.251306762555195], [-60.45655024933315, 46.25123444569572], [-60.456698060196054, 46.251176677777536], [-60.456818110498176, 46.25112976717964], [-60.456986263183964, 46.25104844779594], [-60.45729518949431, 46.25091420703664], [-60.45732898410976, 46.250900225572906]]}, "properties": {"OBJECTID": 2309, "FEAT_CODE": "WACO20", "FEAT_DESC": "Coast - Water to the right line", "RIVNAME_1": " ", "RIVNAME_2": " ", "ZVALUE": 0.2, "FID": null, "SHAPE_Length": 2235.8345792800396}}, {"type": "Feature", "id": 117839, "geometry": {"type": "LineString", "coordinates": [[-60.41573395935618, 46.2541449186692], [-60.41577394630787, 46.25414769517165], [-60.41579974530365, 46.254160276136254], [-60.415817642132176, 46.25416900623063], [-60.41581518217833, 46.254181317050985], [-60.415813673268815, 46.25418885220375], [-60.41577724458533, 46.25421388622485], [-60.41574448541146, 46.254257462917025], [-60.41573595607346, 46.254263642234044], [-60.415709976124276, 46.254282513328974], [-60.41569282582105, 46.25428246742481]]}, "properties": {"OBJECTID": 117839, "FEAT_CODE": "WALK20", "FEAT_DESC": "Lake - Water to the right line", "RIVNAME_1": " ", "RIVNAME_2": " ", "ZVALUE": 92.944, "FID": null, "SHAPE_Length": 24.037392145006688}}, {"type": "Feature", "id": 128781, "geometry": {"type": "LineString", "coordinates": [[-60.42621324825891, 46.24796658152057], [-60.4263935765374, 46.24794935779021], [-60.42647257231477, 46.24794182180702], [-60.426577594412215, 46.247915386245026], [-60.42669507928464, 46.24787213063739], [-60.4269293247593, 46.24782881337384], [-60.427176908735056, 46.24777767768604], [-60.42731951255289, 46.24775208771308], [-60.42734129497742, 46.2477462509496], [-60.427449590369406, 46.24771721518964], [-60.427619390581036, 46.24766433614206], [-60.42772036993895, 46.24763943757041], [-60.42772308660061, 46.247638769704714], [-60.42795817178582, 46.247577459558606], [-60.42796575150067, 46.247574057054614], [-60.42803635624669, 46.24754231819237], [-60.42840349516439, 46.24734807457626], [-60.42849551388029, 46.24732224460904], [-60.428729756153615, 46.247278914580804], [-60.428807069378976, 46.247258225624364], [-60.42905556106801, 46.24719174271352], [-60.42914673862425, 46.24718389397127], [-60.42935333811955, 46.247176842056604], [-60.42970588485449, 46.24718057939956], [-60.42980716641876, 46.24718165175792], [-60.4301439702058, 46.24724772096018], [-60.430412386176684, 46.24731424022037], [-60.43059539190492, 46.2473595864184], [-60.43076112991782, 46.24740578607215], [-60.43082718433913, 46.247424201049434], [-60.43103389246053, 46.247498151573176], [-60.43109624429619, 46.2475172391715], [-60.431278183492466, 46.2475729466805], [-60.431523357047844, 46.24762886039374], [-60.431820441597665, 46.24773994244987], [-60.43197313539324, 46.24783157784522], [-60.432153507795995, 46.24791393473553], [-60.43234600069543, 46.24801456439679], [-60.43250041316416, 46.24809723736729], [-60.43257695325536, 46.24812505830001], [-60.43259319561525, 46.24814173189026], [-60.43260295106772, 46.24815174346905], [-60.43267398707936, 46.248258004590504], [-60.4327666562296, 46.248396639940054], [-60.43281693186098, 46.24848686391335], [-60.43281717788724, 46.24848798548293], [-60.432828669146105, 46.24854112965132], [-60.43285103699273, 46.24875674024941], [-60.43284775279421, 46.24888267115445], [-60.432831577171115, 46.24909021545407], [-60.43281701198676, 46.24917989154271], [-60.43277906977721, 46.249284270935064], [-60.43274852675972, 46.24936826880516], [-60.432710162681936, 46.24948251206031], [-60.432679228270004, 46.249574610416815], [-60.432668018947716, 46.2496110169049], [-60.43265170274044, 46.24966399525882], [-60.432622571348894, 46.24984334735149], [-60.43259022434222, 46.24993540493774], [-60.43256420644351, 46.25000944206154], [-60.43255367812561, 46.25004070664797], [-60.43251497721966, 46.25015158513487], [-60.432484783959254, 46.25023807487746], [-60.43246639154452, 46.25029160956725], [-60.43242923348006, 46.250399723588615], [-60.432416346482306, 46.25045343599002], [-60.43239325611204, 46.25094793542023], [-60.43236732651348, 46.25103259486702], [-60.432351925225966, 46.25108291163036], [-60.43232781729902, 46.25114269908416], [-60.43229763252971, 46.25121759652919], [-60.43222957334439, 46.2513153496613], [-60.43220445856914, 46.25135140758406], [-60.4320844448714, 46.2514765240377], [-60.43187986902076, 46.25165324666942], [-60.43184785476465, 46.25168090512887], [-60.43156985536048, 46.251966266887635], [-60.43150336714133, 46.25202867459104]]}, "properties": {"OBJECTID": 128781, "FEAT_CODE": "WALK20", "FEAT_DESC": "Lake - Water to the right line", "RIVNAME_1": " ", "RIVNAME_2": " ", "ZVALUE": 87.8, "FID": null, "SHAPE_Length": 998.1662937853772}}, {"type": "Feature", "id": 128782, "geometry": {"type": "LineString", "coordinates": [[-60.43150336714133, 46.25202867459104], [-60.43135784933474, 46.25214421660111], [-60.43126104148219, 46.252215203868396], [-60.43120066769535, 46.25225946918775], [-60.43102968817073, 46.25236345791757], [-60.43080673664865, 46.25249902994882], [-60.43062814698577, 46.25262451974974], [-60.430491490793656, 46.25272054920504], [-60.43029450498829, 46.25282682307681], [-60.43025059694054, 46.252848264365774], [-60.43020289134183, 46.25287156429636], [-60.42973199311958, 46.253064379546004], [-60.42958769512646, 46.25312593574843], [-60.42954253986718, 46.25313713333082], [-60.42944461581542, 46.253161418226874], [-60.429379349794964, 46.2531698502009], [-60.42919869123685, 46.25317658585001], [-60.429112099914015, 46.25317576251852], [-60.42899118053637, 46.25317461668539], [-60.42892449173853, 46.253171576962885], [-60.428756843722674, 46.253163943146106], [-60.428702142684834, 46.253163135141094], [-60.428641438314216, 46.25316224600523], [-60.42852272661364, 46.25315134799926], [-60.42842055084995, 46.2531419740914], [-60.42835290636608, 46.25313745447116], [-60.42827829037169, 46.253132471881685], [-60.428162430101565, 46.2531127633551], [-60.42805820502893, 46.253094225657776], [-60.427787944846905, 46.2530197211503], [-60.42745195045601, 46.252935662668506], [-60.42738793352011, 46.25291712063219], [-60.42727205304227, 46.252870409748525], [-60.42719088865822, 46.252826541565426], [-60.42705313528112, 46.25275207591546], [-60.42691296222828, 46.25266971631602], [-60.42660456345448, 46.25249537343154], [-60.42638656636649, 46.252385150343756], [-60.426206576006244, 46.252266791674515], [-60.42579812331276, 46.251956978729936], [-60.42567005243222, 46.251865889917916], [-60.42537706069947, 46.25161177884733], [-60.42528749330924, 46.25152965752931], [-60.42519876778994, 46.251429563442954], [-60.425110444469766, 46.251293459010405], [-60.42507313990519, 46.25120351498325], [-60.42503789475256, 46.25104161467564], [-60.42504151943707, 46.25082568832133], [-60.42508571752823, 46.25054677396953], [-60.42510437401969, 46.25025918367535], [-60.42511029788302, 46.2501983399012], [-60.42512186617535, 46.250079571162374], [-60.42512225378121, 46.25004358755299], [-60.425130376091, 46.2500086602873], [-60.42515020925732, 46.249917303818684], [-60.42524880534884, 46.249673546541324], [-60.42525879754339, 46.24964883178356], [-60.42531478906965, 46.24947819611017], [-60.42534271420509, 46.24935282067037], [-60.42534388829432, 46.24927315814296], [-60.42534391087483, 46.249271844602575], [-60.42533460690728, 46.249082636860926], [-60.42533629157327, 46.249046655473535], [-60.425376408990175, 46.248965665418076], [-60.42538646144966, 46.24893882792536], [-60.425389756499605, 46.248929964840684], [-60.42545621444003, 46.248840558971125], [-60.42549296132118, 46.24877474849585], [-60.425590737962324, 46.24859968100596], [-60.425600871201176, 46.2485508844888], [-60.42560581052157, 46.248527126885605], [-60.425620387631746, 46.24843744295606], [-60.42563333358316, 46.24840283134144], [-60.42564708203192, 46.24836604172434], [-60.425753688843116, 46.24822263822858], [-60.425873245881924, 46.24810742744667], [-60.425898931564106, 46.24808666633299], [-60.42593931457581, 46.24805401387325], [-60.42596346931022, 46.2480426776098], [-60.42597778084713, 46.248035979768765], [-60.42609021919687, 46.24799578821042], [-60.426174369849925, 46.24796570570918], [-60.42621324825891, 46.24796658152057]]}, "properties": {"OBJECTID": 128782, "FEAT_CODE": "WALK20", "FEAT_DESC": "Lake - Water to the right line", "RIVNAME_1": " ", "RIVNAME_2": " ", "ZVALUE": 87.8, "FID": null, "SHAPE_Length": 1019.9465273429297}}, {"type": "Feature", "id": 176693, "geometry": {"type": "LineString", "coordinates": [[-60.412876086693366, 46.24948430993627], [-60.4128761306484, 46.249484202927476], [-60.4128763943787, 46.24948356087475], [-60.41288104065305, 46.249472217649654], [-60.4128889982011, 46.24946880670061], [-60.41291177234395, 46.24945903499493], [-60.41292540393502, 46.24944697719001], [-60.41293871010618, 46.24943521802653], [-60.41291982411851, 46.24940729434754], [-60.41292462733241, 46.24938875440156], [-60.41292773338559, 46.24937678227643], [-60.41294773858322, 46.24935802852808], [-60.412948918523874, 46.24935693920316], [-60.412948627677935, 46.249355951580405], [-60.41294333300044, 46.24933833503046], [-60.412938354565625, 46.249337160263366], [-60.41292044180849, 46.249332947518155], [-60.41290334937544, 46.249320950049466], [-60.41289481737217, 46.249315338650646], [-60.41287358851086, 46.24930136644317], [-60.41281067751496, 46.24927991613399], [-60.412807372684256, 46.24927322604815], [-60.412797528340384, 46.249253319384586], [-60.412814090215726, 46.24921896209939], [-60.41282544716285, 46.24919541336516], [-60.412807422426845, 46.2491797946342], [-60.41279316218332, 46.24916743826527], [-60.41270182701084, 46.24911537310894], [-60.412613793646145, 46.24900775154149], [-60.41252766316561, 46.24890243208361], [-60.41251283939505, 46.24884663626876], [-60.41251296766911, 46.248830951578334], [-60.41251309547808, 46.24881610390909], [-60.41253254782706, 46.24881185526301], [-60.41257124304879, 46.24880339821874], [-60.412613393765554, 46.248792913334356], [-60.41261544875502, 46.24877432916425], [-60.41263095577249, 46.248749155364735], [-60.41263462454987, 46.24874700636222], [-60.4126693752251, 46.24872670551121], [-60.412730851106815, 46.24869371633765], [-60.41274387262671, 46.24865353667107], [-60.41276071548442, 46.24861651265227], [-60.4127659981387, 46.24860487782954], [-60.41278169624756, 46.24855358034386], [-60.41279225894061, 46.248519060209404], [-60.41282115003347, 46.248492596396055], [-60.41283085501755, 46.24847603051868], [-60.412836680596996, 46.248466091050474], [-60.412865445011164, 46.24845555496265], [-60.41287660601273, 46.24845353960264], [-60.41291401406893, 46.24844679036217], [-60.412921815047945, 46.24842822828983], [-60.41292893380046, 46.248423340289335], [-60.412941053073936, 46.2484150193809], [-60.41294583933704, 46.24841503775307], [-60.41297929261026, 46.24841513820661], [-60.413047756941246, 46.24840208085067], [-60.413052757355096, 46.24840113203025], [-60.413094823301506, 46.24840126545237], [-60.41310810466538, 46.24841457165873], [-60.41314043072058, 46.24843725540193], [-60.41316699356677, 46.248439872893364], [-60.413195028294844, 46.24844264070771], [-60.4132222553535, 46.24842920761431], [-60.41325692414228, 46.248398779345585], [-60.413274390408496, 46.248366971562255], [-60.413292661326864, 46.24835308367373], [-60.41333583686455, 46.24833597047191], [-60.41334676455674, 46.24833394978392], [-60.41336691787473, 46.248330238885174], [-60.41341849842785, 46.24833770686261], [-60.4134337233826, 46.24833313735092], [-60.41344915906882, 46.24832850060514], [-60.413485731231425, 46.24830007743112], [-60.413500122751415, 46.24828895479474], [-60.41350882014947, 46.24828222142426], [-60.413526204153655, 46.24826236419419], [-60.413540666476386, 46.24824780502484], [-60.41354772734736, 46.24824000856499], [-60.41356812897567, 46.248217501537354], [-60.41359606686148, 46.24819170897573], [-60.41359692153696, 46.24818043289397], [-60.413599270947, 46.24814923689042], [-60.41360474689638, 46.24814314161461], [-60.413622435925504, 46.24812341727936], [-60.41365552073067, 46.2481070745691], [-60.41363471818332, 46.248080457669566], [-60.41364059381417, 46.24806255399023], [-60.413672231589196, 46.248052703766845], [-60.41370481707784, 46.24804283898612], [-60.413726974627224, 46.24802299077704], [-60.41372818183898, 46.24799180491663], [-60.413731214578476, 46.24797255883163], [-60.413735864902655, 46.24796636385738], [-60.413747641294975, 46.247950708823], [-60.41376186240256, 46.24793824124485], [-60.41377313363459, 46.247928361993196], [-60.41379911707396, 46.24790853736951], [-60.413814589700934, 46.247886008729765], [-60.413827213674864, 46.2478628125848], [-60.413835033831425, 46.24786093751822], [-60.413846370212, 46.24785822400652], [-60.413861793367055, 46.24786350529864], [-60.413881660410546, 46.247870291228914], [-60.41391311170523, 46.24788233455088], [-60.413945654526024, 46.24787778793801], [-60.413953331488706, 46.24787316451781], [-60.41396497673904, 46.2478539513574], [-60.41397469249711, 46.24783273244893], [-60.41399072762243, 46.24782306900586], [-60.414003986453125, 46.24781506178797], [-60.41401512530261, 46.24780716859171], [-60.414034759533315, 46.247793248438335], [-60.41405502088783, 46.24777206119838], [-60.41405973783274, 46.24777024188516], [-60.414070361311275, 46.247766135163516], [-60.414099014329565, 46.247759610396336], [-60.414101964838835, 46.24775893914692], [-60.41412129230752, 46.24773443663325], [-60.41413513481857, 46.24772698263092], [-60.414156830459916, 46.24771529619485], [-60.414186072331304, 46.24770424856036], [-60.414213891936825, 46.247691719674634], [-60.41422077861162, 46.247687348360934], [-60.414251373442205, 46.247667943010484], [-60.414284839176965, 46.247655352881125], [-60.41426708250719, 46.24761885964905], [-60.41425947784, 46.24760125388027], [-60.41425300720668, 46.24758629287563], [-60.41424072313502, 46.247568329193385], [-60.414222766468995, 46.247541056778914], [-60.41422218093941, 46.2475239878778], [-60.41422199862484, 46.24751848454225], [-60.4142403160333, 46.24749863032619], [-60.4142538731624, 46.24747875837795], [-60.414243009671395, 46.247462311902204], [-60.41419246788488, 46.247443527372766], [-60.41416682861363, 46.247421553283324], [-60.41413872675404, 46.24740339360069], [-60.41413068129484, 46.24739819831966], [-60.414125116580756, 46.247376939569875], [-60.41413759854259, 46.247370552815916], [-60.41417024565367, 46.24735384903629], [-60.41418218265571, 46.247352706144056], [-60.414196139863094, 46.247352743015306], [-60.414204168796374, 46.24735277172089], [-60.414221421144134, 46.24734618690959], [-60.414225466294525, 46.247320303469024], [-60.41421941874378, 46.24731096825103], [-60.41421037080329, 46.247297019954715], [-60.41418874848385, 46.24727680184463], [-60.414187593164314, 46.247275713656755], [-60.414170559726664, 46.247253088303744], [-60.41417025055936, 46.24725193826299], [-60.41416128682638, 46.24721854212691], [-60.4141729345705, 46.2471973399245], [-60.414198889304046, 46.24717949463449], [-60.414205206100334, 46.24716158290815], [-60.414209651041716, 46.2471489930222], [-60.41419935519772, 46.247122407001186], [-60.414195340181806, 46.24710350541546], [-60.41419342986069, 46.247094470837865], [-60.414208129196844, 46.247078998911554], [-60.41427380009652, 46.24706157543607], [-60.414390910264764, 46.24705432537001], [-60.41449464006561, 46.247027871672614], [-60.41490028988661, 46.24681565116126], [-60.414919657620686, 46.24679607260931], [-60.41495340913484, 46.24676193292696], [-60.414968030186984, 46.246699270330225], [-60.41497628253263, 46.24660181231432], [-60.414985525685296, 46.24649265826611], [-60.41500269356693, 46.246446739922895], [-60.41501223315961, 46.24642125077435], [-60.415064505446246, 46.246385541012714], [-60.415130187794325, 46.246368126304105], [-60.41515590025484, 46.24634189599426], [-60.415157297872426, 46.246288699579225], [-60.41515731717036, 46.246287736979], [-60.41514009979991, 46.246259086376334], [-60.41510798870126, 46.246205617877806], [-60.41509654584663, 46.24618245311637], [-60.415094972326386, 46.24617922239444], [-60.41510874944771, 46.24610663130279], [-60.41511175169706, 46.246100993007836], [-60.41512297610926, 46.246079952135275], [-60.41519068515701, 46.24606909049283], [-60.41522625186708, 46.24606338787971], [-60.4152555617896, 46.246043692179306], [-60.415266425564354, 46.24603639566005], [-60.41525470612002, 46.24598212846698], [-60.41525271664211, 46.245978087306334], [-60.415241676763365, 46.24595573270587], [-60.415116475820646, 46.245901121234716], [-60.41511327230453, 46.24589972570735], [-60.415108801778956, 46.2458965824491], [-60.41506180199074, 46.24586345988113], [-60.4150424344885, 46.245825634266396], [-60.415034580753776, 46.2458102909966], [-60.41502498096792, 46.245791524092404], [-60.41501303104747, 46.24575044616302], [-60.41498812019765, 46.24566468528814], [-60.41497593623512, 46.24562030793256], [-60.41499062767893, 46.24558373891623], [-60.415029870421996, 46.24552162436991], [-60.41505667582982, 46.245503321110704], [-60.415139387476884, 46.245487893738435], [-60.41514696540116, 46.2454864721194], [-60.41531640027129, 46.245497505537784], [-60.41536640276722, 46.24548025799682], [-60.41536782682162, 46.24547976819164], [-60.41539458942411, 46.245462372919704], [-60.415413372974655, 46.24545355447924], [-60.41543305715126, 46.24544434239317], [-60.41546066474759, 46.245408965530544], [-60.41548766765046, 46.24540163805836], [-60.41552504992454, 46.245391521251236], [-60.41555673950295, 46.24540150843741], [-60.415582527886045, 46.245406222932694], [-60.41562076763914, 46.245407672933084], [-60.41562980577969, 46.24540443924093], [-60.41564472787915, 46.2453991155551], [-60.415662547027814, 46.245385973094464], [-60.415670717462476, 46.24537994766586], [-60.4156749232408, 46.24536139408249], [-60.41567763882559, 46.24534943104589], [-60.41567920160877, 46.24533384179576], [-60.41567930401839, 46.245320343594564], [-60.41567940095198, 46.24530861833747], [-60.415685834396946, 46.24529428230128], [-60.415695962681646, 46.2452717135196], [-60.415734273221155, 46.245262544676], [-60.41576300376212, 46.24525599424394], [-60.41576839429128, 46.24524231864013], [-60.41577082693669, 46.24523610042209], [-60.415766777069784, 46.24522510940257], [-60.41575958870349, 46.24520554206858], [-60.41573878388977, 46.24517759343932], [-60.41573896181235, 46.24515420556635], [-60.415739024695434, 46.24514706971486], [-60.41575695775063, 46.24513923101901], [-60.415760149235666, 46.24513784514966], [-60.41579644373762, 46.24513927809396], [-60.41579960087544, 46.24513972751709], [-60.41581556756474, 46.245141987725596], [-60.41584963720149, 46.24514963457125], [-60.41585755752442, 46.2451514157719], [-60.41586565135814, 46.24515143682874], [-60.41591302004832, 46.245151581147454], [-60.4159341293306, 46.24514102415391], [-60.415947185240086, 46.24513317412568], [-60.41598025255974, 46.24511328420768], [-60.41600346989607, 46.24507884296011], [-60.41600353443399, 46.245071671144515], [-60.41600361836355, 46.2450616016563], [-60.41602109487401, 46.245029793674284], [-60.416059364154144, 46.2450259159916], [-60.41611479223571, 46.245028744592574], [-60.41616671723205, 46.24503765918121], [-60.416177809892034, 46.24503956610387], [-60.416179860997424, 46.245038154433296], [-60.416183574734504, 46.24503559231717], [-60.41619907858831, 46.245010426953364], [-60.41619934319365, 46.24497856271448], [-60.416198746158344, 46.244966695757896], [-60.41619768552494, 46.24494536795451], [-60.41620071673377, 46.244924474699744], [-60.41620173131487, 46.24491751337605], [-60.41620588425051, 46.24491609523501], [-60.416228575946, 46.244908301077196], [-60.41629946397194, 46.24488993237788], [-60.4163626725622, 46.244878185238925], [-60.416391667322046, 46.2448397704003], [-60.41639647629491, 46.24480588484038], [-60.416399769777186, 46.244782720423416], [-60.41642863620828, 46.244758910234005], [-60.41643471456359, 46.24475571755364], [-60.416461288802694, 46.244741764904006], [-60.41651500939063, 46.24471935373312], [-60.416578340951006, 46.244690346592606], [-60.41662066576217, 46.2446572912989], [-60.41662748260751, 46.244634233542676], [-60.41663441705169, 46.24461088143359], [-60.41665202876668, 46.244561822748196], [-60.41667694292654, 46.24455393474712], [-60.416724919403286, 46.2445328426558], [-60.41672717131694, 46.24452135512839], [-60.41673089323785, 46.24450232254662], [-60.41670433137964, 46.24447569297982], [-60.4166528577266, 46.24445828351264], [-60.41661665066925, 46.244440913204436], [-60.41661865341475, 46.24440849424072], [-60.41661885234646, 46.24440508760765], [-60.41663621638078, 46.24438615648147], [-60.41665163851682, 46.24436935052832], [-60.416710237312294, 46.24433918326235], [-60.41676439946119, 46.24432337921113], [-60.41680033166676, 46.24431290518839], [-60.416823286632074, 46.244311651115844], [-60.41685328157946, 46.244310205191894], [-60.41687492971257, 46.24430915557188], [-60.41691720682055, 46.244287601531], [-60.41693445809082, 46.24427880219958], [-60.416928965483386, 46.24424825685176], [-60.41688902847317, 46.24422026289623], [-60.4168853676584, 46.24421893808243], [-60.41683373722811, 46.24420017509944], [-60.41682631405372, 46.24417096315075], [-60.416842889426036, 46.24414700096892], [-60.41684372478567, 46.244145786808154], [-60.41687641596512, 46.24412200897599], [-60.41689573596102, 46.244098162840935], [-60.41691138920101, 46.244076708898206], [-60.41693053555469, 46.244050482739944], [-60.416937522374944, 46.244007781050385], [-60.41693856122841, 46.244001405290724], [-60.41696366587773, 46.24397094866487], [-60.41703075976951, 46.243949919634694], [-60.41708632513718, 46.24393682025666], [-60.41713621584401, 46.243913071162766], [-60.41717853178328, 46.2438826705619], [-60.417215435746776, 46.24380978297258], [-60.41724067279268, 46.24378893264809], [-60.41724725825321, 46.24378350130105], [-60.41727421721144, 46.24375968377805], [-60.41727125510169, 46.24372469547395], [-60.417270714546774, 46.24371852701746], [-60.41726529466564, 46.2436786949699], [-60.417277271767844, 46.24361369520145], [-60.41730265358122, 46.24359500821863], [-60.41730419909801, 46.243593864109634], [-60.417345395441025, 46.24359282426992], [-60.41739975454663, 46.24359297298374], [-60.41740085642858, 46.24359298889052], [-60.417460065203, 46.24359980845095], [-60.4175139448239, 46.243605472485136], [-60.41752503299084, 46.24360664114768], [-60.41759579562733, 46.24360554047469], [-60.41760948636593, 46.24356840847591], [-60.41758871975114, 46.24353383678629], [-60.417551199986335, 46.24349829240213], [-60.417550765441376, 46.24349787756457], [-60.41755026779335, 46.24349742529931], [-60.417516569187775, 46.24346725047615], [-60.41751769184393, 46.243465718791704], [-60.41754557301186, 46.243427503493145], [-60.41755437772194, 46.24342370635075], [-60.41756353948167, 46.24341976427207], [-60.41757680612151, 46.243414042901634], [-60.41758497489793, 46.243410528394556], [-60.41763849806539, 46.24341466325502], [-60.41767520539805, 46.24342054210594], [-60.41769768540225, 46.243424146310765], [-60.41773216035824, 46.2434176172119], [-60.41774541942337, 46.24341288568885], [-60.417780117325705, 46.24340050238854], [-60.417810348901234, 46.24338958419653], [-60.41781655073997, 46.24338734826993], [-60.417825009393596, 46.243381527207916], [-60.41783192676667, 46.24337676035371], [-60.41782727069658, 46.24334966308426], [-60.41782644394262, 46.24334489221608], [-60.41782662097964, 46.24332233234742], [-60.41784607517712, 46.24328124441823], [-60.417852364122176, 46.24327770540799], [-60.41786719358434, 46.243269364221554], [-60.41787143785849, 46.24325604962538], [-60.41787308554104, 46.243250794659026], [-60.4178466177393, 46.243212215018104], [-60.41783273758468, 46.2431948096629], [-60.41782009488817, 46.24317895333181], [-60.417782088311704, 46.243149635260046], [-60.41778426596826, 46.243115132143956], [-60.41778766352159, 46.24311156379075], [-60.41781704037503, 46.243080717511326], [-60.41787474269004, 46.24303837891585], [-60.41788267436121, 46.24300261078438], [-60.41792872162568, 46.242984165689414], [-60.41796342766814, 46.242958615008966], [-60.417982561793465, 46.24294451186331], [-60.418022802806796, 46.24293534987761], [-60.418095377984656, 46.24294618831666], [-60.41811685805041, 46.242939311439144], [-60.41812414084325, 46.2429369829186], [-60.418125672006866, 46.24293420941121], [-60.41812994424575, 46.24292637664845], [-60.41812941732432, 46.242913836257635], [-60.418128339629014, 46.24288788190326], [-60.41812432828523, 46.24287136562154], [-60.41812092654002, 46.242857338210854], [-60.41814681919455, 46.24282968923695], [-60.41815564091348, 46.242820276215625], [-60.41819787210452, 46.242800493729646], [-60.41819931636201, 46.24279293907289], [-60.41820293806287, 46.24277409318228], [-60.41820375992381, 46.24276929656806], [-60.418206964552645, 46.24275021624391], [-60.4182377175748, 46.242730390377275], [-60.418271071907306, 46.24271511445648], [-60.418278018547, 46.242711932297524], [-60.418295893099724, 46.242715540322294], [-60.41830700863754, 46.242717780569116], [-60.4183448396724, 46.24272541266412], [-60.41834962006598, 46.2427272037464], [-60.4183734334416, 46.24273611215125], [-60.4183915779738, 46.24272291361217], [-60.418406123536, 46.242712324854054], [-60.41845824670339, 46.242650095136426], [-60.4184611409066, 46.24264840546294], [-60.41849197615347, 46.24263041745652], [-60.41849988630824, 46.24259592684417], [-60.418500125930265, 46.24256539407863], [-60.41850442968625, 46.24253615918683], [-60.41850618095041, 46.242524273295025], [-60.4185216209678, 46.24250706247517], [-60.418552406219966, 46.242495112556036], [-60.41856573750144, 46.242489941552215], [-60.4185652051117, 46.2424706057767], [-60.41856507622996, 46.24246616569327], [-60.418563354697135, 46.24244093482339], [-60.4185618986207, 46.242434646683016], [-60.41855779653606, 46.24241702132268], [-60.41852525983749, 46.24240631379632], [-60.41849668702018, 46.24240622623008], [-60.41848155144634, 46.24238627248872], [-60.41850569944948, 46.242367872371446], [-60.41854607589154, 46.24234144159366], [-60.41857112428159, 46.2423162935443], [-60.41859618518457, 46.24229115477245], [-60.418600867290905, 46.242287300405486], [-60.418615427531634, 46.242275289897], [-60.41858421006475, 46.24224476642575], [-60.418561226891526, 46.24222950457512], [-60.418548068583256, 46.24222076494848], [-60.41851001827608, 46.24219542428055], [-60.418506408310414, 46.242166208588074], [-60.418513645638804, 46.242159594849625], [-60.41853530578138, 46.24213975246019], [-60.41856390275802, 46.24212356793327], [-60.418567966772244, 46.24212127466334], [-60.41857443856789, 46.24211881078584], [-60.41860931851081, 46.24210556731256], [-60.41864376111062, 46.242103024361995], [-60.41866712098764, 46.24210086103273], [-60.418699249283826, 46.242097878763104], [-60.41872826638107, 46.24205947282655], [-60.418751446885445, 46.24202768528133], [-60.4188091794336, 46.241982727792106], [-60.418830371097464, 46.24196512484978], [-60.418855368784996, 46.2419443677618], [-60.41889600102801, 46.24194288260381], [-60.4189223402582, 46.241941911572795], [-60.41891865666311, 46.24192200058958], [-60.418888310536786, 46.24189004782824], [-60.418873989400275, 46.241887015190976], [-60.418850111501264, 46.24188197558117], [-60.41885017425928, 46.24187510973309], [-60.4188502602902, 46.24186470727383], [-60.41886335694803, 46.24185651581788], [-60.41887138854152, 46.24185149506117], [-60.41888155259388, 46.24184498341923], [-60.41890023581343, 46.24183301201506], [-60.41891191741637, 46.24180383577451], [-60.418967925879144, 46.24178566029418], [-60.418968127182666, 46.24177445940777], [-60.41896834319211, 46.241762115809294], [-60.41899469299548, 46.24172580963201], [-60.419060338392754, 46.241681390781785], [-60.419178267400135, 46.241656153619445], [-60.41917865902018, 46.24162016107095], [-60.41916747692039, 46.241610773127896], [-60.41910252667596, 46.24155633891209], [-60.419039595717955, 46.24151886192961], [-60.41902555075623, 46.24151049834294], [-60.41901256272568, 46.241483203895925], [-60.41901834319809, 46.24147943732622], [-60.419025942892944, 46.24147449680537], [-60.419076770642846, 46.241474942965496], [-60.41909077400028, 46.24147507028685], [-60.41915518367825, 46.24148462556043], [-60.419270653672896, 46.24153943586089], [-60.41933548528712, 46.2415400002143], [-60.4193495888593, 46.24153550358819], [-60.419361822882074, 46.24153159475716], [-60.41940069653772, 46.24153247279175], [-60.41943849213549, 46.241559094462005], [-60.419477293188315, 46.241586404854644], [-60.419515745089306, 46.24159627367281], [-60.41959437824986, 46.241579148898495], [-60.419620602491094, 46.241557951326214], [-60.41966044476981, 46.241525738865754], [-60.419673415614376, 46.24152603180418], [-60.41988006662845, 46.2415451082476], [-60.41987560858541, 46.24153119203864], [-60.419868740979005, 46.241509742125594], [-60.419831071443525, 46.24142788830486], [-60.41983105580365, 46.24141826657886], [-60.419831053421916, 46.24140089585197], [-60.41985822139664, 46.24137450833521], [-60.41989396768286, 46.241369879366786], [-60.41992347498572, 46.241366072535094], [-60.41996308315301, 46.24136649894701], [-60.4199999684856, 46.241366899861006], [-60.4200283042753, 46.24137894316295], [-60.42006483059502, 46.24139446553521], [-60.42011337992621, 46.24141997975811], [-60.42011673490358, 46.24142173858023], [-60.42012228493577, 46.241423159952454], [-60.42015518681473, 46.24143160718337], [-60.420232596693175, 46.241440555358814], [-60.420259355784694, 46.241423158863284], [-60.420246758066355, 46.241359871975746], [-60.420209462328835, 46.24131539616732], [-60.420170581114114, 46.24126904847514], [-60.42013291277364, 46.24121509586047], [-60.420101028836015, 46.24121481692411], [-60.42006808151465, 46.24121453196744], [-60.42003178019127, 46.24120914906921], [-60.420003671970235, 46.241204977211524], [-60.419997972693956, 46.24118848587909], [-60.41999110522819, 46.24116869203977], [-60.420019098725774, 46.24109732138044], [-60.42003841346238, 46.241087362127566], [-60.42007094137247, 46.2410705909611], [-60.420135755319286, 46.241044693435555], [-60.42013703752501, 46.241044182367155], [-60.42015685270793, 46.24103489141994], [-60.42017550061254, 46.24102615013456], [-60.42018547883145, 46.24101336093682], [-60.420189302165625, 46.24100845207328], [-60.42019014510021, 46.2409904794086], [-60.42017702301388, 46.240986222959975], [-60.42016330034838, 46.240981772941765], [-60.420051025397754, 46.24098053376328], [-60.420007748772946, 46.24098006054386], [-60.41997136217394, 46.24089823573358], [-60.42001062644983, 46.240863120984656], [-60.42010299853755, 46.24077429430774], [-60.42017111005737, 46.24062193530816], [-60.420184531577235, 46.24061233798055], [-60.42025028737955, 46.24061336370145], [-60.42031415052157, 46.24061436465129], [-60.42031454136151, 46.240578372077415], [-60.42027739903289, 46.240509337794755], [-60.42025130514479, 46.240460839754256], [-60.420251478923035, 46.2404518793296], [-60.420254206564806, 46.24031599963251], [-60.4202675858281, 46.24030730137576], [-60.42036085060905, 46.24030811112734], [-60.42039724622445, 46.24030842885449], [-60.42041059459839, 46.24027272883358], [-60.420412250676215, 46.24020975477358], [-60.420445726856116, 46.24017108905678], [-60.42046573576251, 46.240147977891425], [-60.42048450336377, 46.240132804007175], [-60.420531800100136, 46.240094558298594], [-60.42054272699931, 46.24008670467782], [-60.420557304831696, 46.24007623337677], [-60.42066185060774, 46.240059692884316], [-60.42065429247746, 46.240049369858866], [-60.420648440479646, 46.24004138943991], [-60.42064917964053, 46.24001594413621], [-60.420650517433124, 46.23996943352657], [-60.42067728681538, 46.239924136077214], [-60.42074204338152, 46.23989859692476], [-60.42075109678102, 46.2398687311343], [-60.420755855148236, 46.23985300693762], [-60.42075780729349, 46.23978232625296], [-60.420759587163175, 46.239718085929496], [-60.42076929404819, 46.239695030154], [-60.420785874502954, 46.23965567690513], [-60.42083857663838, 46.239637965888164], [-60.420873614356815, 46.23964316700228], [-60.42090298452445, 46.2396475201406], [-60.420907309777874, 46.23965403502713], [-60.42091509890199, 46.239665794306504], [-60.420925537782026, 46.239773476133124], [-60.420926463600374, 46.239783055404224], [-60.420925620520165, 46.23980103707397], [-60.420951988184775, 46.23981963297985], [-60.421002973152255, 46.23981088347564], [-60.421012825429905, 46.23980796474573], [-60.42112137392243, 46.239775754571085], [-60.42112293413232, 46.239689629432455], [-60.42112299749835, 46.23968578771306], [-60.42125471428243, 46.23958795678012], [-60.421300635641785, 46.23958317901386], [-60.42133290962641, 46.23957982127811], [-60.421365739373954, 46.239580103217875], [-60.42139773900276, 46.23958038441371], [-60.42140416342196, 46.23955014422437], [-60.42141105558425, 46.23951767350381], [-60.42139975219733, 46.239454424940625], [-60.42143859306072, 46.23942830049148], [-60.42147255427926, 46.23943598822441], [-60.42147838173559, 46.23943729878789], [-60.42155574693135, 46.23944714509966], [-60.42165178489131, 46.239447980382245], [-60.42168540538969, 46.23944827107474], [-60.42169748847516, 46.23943954339954], [-60.42169875270102, 46.23941257087679], [-60.421725099536204, 46.239376263995474], [-60.42176523593259, 46.23935016867079], [-60.421828021279545, 46.23944968929431], [-60.42184698429832, 46.239463266715205], [-60.42186567153346, 46.2394766399021], [-60.42189116500942, 46.23948621551472], [-60.42191646560154, 46.2394863454015], [-60.42194303686489, 46.23948648595407], [-60.42194962524201, 46.23948512255843], [-60.42198233051831, 46.2394783722385], [-60.42206050688422, 46.239443234758376], [-60.42214044194124, 46.2393982455204], [-60.42220608243721, 46.239353815744856], [-60.42224534459529, 46.2393186911759], [-60.42225299877621, 46.23931063754768], [-60.422271269293155, 46.23929138399559], [-60.42225992323844, 46.23922902558941], [-60.42224858754656, 46.239138766327606], [-60.422238094515194, 46.23903052537346], [-60.4222430253408, 46.23899810035325], [-60.42225309480561, 46.23893185994602], [-60.42225674244363, 46.23891740667613], [-60.42228017789101, 46.23882446677154], [-60.42225594857068, 46.23878791871218], [-60.422221210162995, 46.238775785503314], [-60.42220362427275, 46.238769637502976], [-60.42218924925275, 46.23876250890371], [-60.422165595127524, 46.23875077877096], [-60.42215799731063, 46.23872884449462], [-60.42215302743989, 46.23871449380507], [-60.422153890460535, 46.238666460400545], [-60.42215464922262, 46.238624526881694], [-60.422173728848314, 46.238581359664465], [-60.42218221675981, 46.238562155415], [-60.42218631619781, 46.238546641298505], [-60.42219640656052, 46.23850846446027], [-60.4221838389009, 46.238472179497116], [-60.42208129763977, 46.23839066277489]]}, "properties": {"OBJECTID": 176693, "FEAT_CODE": "WARV50", "FEAT_DESC": "River - Single Line", "RIVNAME_1": " ", "RIVNAME_2": " ", "ZVALUE": 9999, "FID": null, "SHAPE_Length": 2039.1319110901136}}, {"type": "Feature", "id": 178426, "geometry": {"type": "LineString", "coordinates": [[-60.447550826811664, 46.25142540595716], [-60.447458516367384, 46.251488587113705], [-60.447385105877814, 46.251562450815854], [-60.447357895568096, 46.25156337296056], [-60.44731640406767, 46.25156478606333], [-60.447240052699215, 46.25160753283768], [-60.4472318741145, 46.25161211128185], [-60.44722776668467, 46.251615070622876], [-60.447158733785095, 46.25166477610239], [-60.44710359042167, 46.25169308309243], [-60.44705122547376, 46.251719949082045], [-60.446951118705485, 46.25179370201712], [-60.44688936722731, 46.25185171533179], [-60.44688394851879, 46.25185888451351], [-60.44681956895707, 46.25194415505766], [-60.44679182398556, 46.252025321037934], [-60.446787906450076, 46.25203676291467], [-60.44674950006861, 46.2520577844631], [-60.44666934336089, 46.25206007935092], [-60.4466522017773, 46.25206488946969], [-60.44660424788742, 46.25207833533847], [-60.446598860067645, 46.25208567620305], [-60.44655402839769, 46.252146713553074], [-60.44654215994337, 46.25216285590845], [-60.44644967882283, 46.252236643817966], [-60.44640046151031, 46.25226835002902], [-60.446384318136595, 46.252278762619966], [-60.44637603348194, 46.25233171538931], [-60.446372508693884, 46.25236235472628], [-60.44636798684288, 46.252401612092434], [-60.446305539725145, 46.252432113542746], [-60.446287365547704, 46.25244099567643], [-60.446275413376625, 46.252443014619764], [-60.446226179854314, 46.25245131954333], [-60.44621171849861, 46.25247188607218], [-60.44618346171764, 46.25251208897452], [-60.44615425796708, 46.25254530445035], [-60.446137026670755, 46.25256489102293], [-60.446052144091624, 46.252674219734054], [-60.446048810450584, 46.25268621465597], [-60.446032217034606, 46.252745695917625], [-60.446031215744746, 46.25282786451687], [-60.44599959988017, 46.25288814401758], [-60.445988225559766, 46.252909841560694], [-60.44591466743514, 46.252994339394704], [-60.44584485222213, 46.25308679613713], [-60.44577922500345, 46.25314746730436], [-60.4457049241351, 46.253213866742534], [-60.445678893432394, 46.25323713566764], [-60.44558623960483, 46.25332155739591], [-60.44557603394931, 46.25338092938764], [-60.445569834298766, 46.253416909090106], [-60.44546505998339, 46.25355694276334], [-60.445458399355516, 46.25357910565312], [-60.44544119490197, 46.253636359081426], [-60.44543227400716, 46.25374235446755], [-60.44540906838698, 46.25379640460399], [-60.44525988039311, 46.25382224796889], [-60.44517983791895, 46.25384157298455], [-60.44515772758728, 46.25388824029295], [-60.445148505845054, 46.25390771780107], [-60.44515047541148, 46.25395356449692], [-60.44515146500949, 46.2539766634587], [-60.445169988993314, 46.2540521313753], [-60.44524624923315, 46.2540907558928], [-60.44527518069388, 46.25411927679534], [-60.44530156878766, 46.25414529273425], [-60.44528660441648, 46.2542439617148], [-60.445272458666125, 46.25429764737247], [-60.445232339699494, 46.254378653280405], [-60.44517470811418, 46.254488347635245], [-60.445138398211846, 46.254557459248566], [-60.44497793671555, 46.25477167896041], [-60.44481918793252, 46.25497693642064], [-60.444607672486015, 46.25517291323534], [-60.444584170950094, 46.255204545771306], [-60.44452739813848, 46.25528092179837], [-60.444473129860135, 46.25538771190584], [-60.444460471948304, 46.255404898420544], [-60.444394192856905, 46.255494850252255], [-60.444221516025856, 46.255664694075655], [-60.444181419936356, 46.25571779911286], [-60.44406834207644, 46.255853181570394], [-60.44406188358544, 46.255860930377224], [-60.44389045862781, 46.256003800730454], [-60.443802724545, 46.25606289614096], [-60.44362792563264, 46.256180633716205], [-60.44340384434237, 46.25639523681397], [-60.44331770256808, 46.25644015597021], [-60.443167148238906, 46.25651863591863], [-60.4431015164594, 46.25656306884575], [-60.44277331929563, 46.25681224202482], [-60.44271981287546, 46.25684703675769], [-60.44252371259702, 46.256962351803594], [-60.44231421804119, 46.257086376000245], [-60.44215658421026, 46.25718364181501], [-60.442118559251455, 46.25720276227006], [-60.4421034531237, 46.25721035337144], [-60.44209479277003, 46.25721828678116], [-60.44206416164011, 46.25724637506014], [-60.44203738835199, 46.257263776313856], [-60.44194627802563, 46.25732562980894], [-60.44180030687746, 46.25745107523878], [-60.44173516114696, 46.25751261887221], [-60.44162853540671, 46.25762903567832], [-60.44143037862552, 46.2578163053663], [-60.441312045088935, 46.25790545873626], [-60.44119458958859, 46.25797573997239], [-60.44110715269446, 46.25802274352906], [-60.44106283457977, 46.25804658286449], [-60.441049454064974, 46.25805528351162], [-60.441020318354994, 46.25807519670794], [-60.44099718631114, 46.258091014209036], [-60.44098155270304, 46.25809459720518], [-60.44095782694606, 46.25810003303086], [-60.440801037478565, 46.25817932423843], [-60.44063169115095, 46.25824933363617], [-60.440584502266034, 46.258271560425214], [-60.44050035296796, 46.25831119389481], [-60.44012097346875, 46.258461100371534], [-60.44004077942113, 46.25850885040397], [-60.439898087413816, 46.258593811417306], [-60.43956089274485, 46.25879850115555], [-60.43937331945945, 46.2589123638072], [-60.43928988300577, 46.258950860318606], [-60.4391240179165, 46.25902738072917], [-60.43893420545951, 46.2591266029519], [-60.43883674550659, 46.259177547250815], [-60.438652255859395, 46.25926610593493], [-60.43858870341288, 46.259294724310735], [-60.43845607197444, 46.259354438149025], [-60.43821983673818, 46.25949582895744], [-60.4381520258783, 46.25953311792355], [-60.43810929006741, 46.25955664057696], [-60.43809284511835, 46.259632189546856], [-60.43805742302006, 46.25969256147495], [-60.438002659760734, 46.259768952291395], [-60.43795637540195, 46.2597795158601], [-60.43787869012515, 46.25982374749949], [-60.43785643613814, 46.25983628093526], [-60.43779367137571, 46.25987163977026], [-60.43771662805155, 46.2598767613041], [-60.43761595762541, 46.25989686946944], [-60.43748857730344, 46.2599446485179], [-60.43746006579033, 46.2599636477704], [-60.43743012117381, 46.25998360490931], [-60.43738185025701, 46.26002870291973], [-60.43737588104954, 46.26003427524239], [-60.43729030119343, 46.260097248089714], [-60.43719715560518, 46.26013880141817], [-60.43717288628816, 46.26018036054951], [-60.437165975489904, 46.26019221196484], [-60.43712607110362, 46.2602242850608], [-60.43711953279015, 46.260229538593705], [-60.43711434018748, 46.26023376027381], [-60.437076925571354, 46.26026419713987], [-60.43701066368229, 46.26031386861058], [-60.43697947063886, 46.26033304159974], [-60.43694863804175, 46.26035199765799], [-60.436921225276954, 46.260368852345856], [-60.43685175721574, 46.26038737369822], [-60.436824897452844, 46.26040210769274], [-60.43676620912431, 46.260434335295635], [-60.43675045385657, 46.26048781275484], [-60.43674585269831, 46.260496880858156], [-60.43672651953577, 46.26053497750412], [-60.436713121908575, 46.260546521359196], [-60.436711040147266, 46.260548310721525], [-60.436698682488895, 46.260562875012226], [-60.436683853625475, 46.26058034496635], [-60.43662212037347, 46.26059354951074], [-60.43655260901541, 46.26061744290042], [-60.436486487843695, 46.26063235798967], [-60.43648061249985, 46.260638418388524], [-60.43642441965074, 46.26069642471741], [-60.436339168494676, 46.26076844054506], [-60.43628985623681, 46.26078046555415], [-60.43623441452528, 46.26079398206438], [-60.43620379118448, 46.26080148521008], [-60.43618038742534, 46.26080721527889], [-60.436110578361685, 46.26087392523816], [-60.43607692081825, 46.26092783791187], [-60.436075546056834, 46.260930048141894], [-60.4360638937288, 46.26094339514734], [-60.43603919865712, 46.26098570950833], [-60.43603271035777, 46.260996841309435], [-60.43601737859423, 46.26101395787918], [-60.43597061204227, 46.26106626230268], [-60.435938060096554, 46.26112428588971], [-60.435931620635515, 46.261135760792996], [-60.43592758999873, 46.26113927046856], [-60.435873471176855, 46.26118645068244], [-60.435769386903274, 46.26119149507756], [-60.43571351871035, 46.26123611586598], [-60.43567253043791, 46.26126885715083], [-60.43560236533683, 46.26130256363775], [-60.435559606355476, 46.26135598387399], [-60.43554726749646, 46.26137875675188], [-60.43552389389794, 46.261421937689256], [-60.43551959551719, 46.261491539681025], [-60.435548758741696, 46.26149531734775], [-60.435561953780855, 46.261497026552355], [-60.43558468492352, 46.261561348993766], [-60.435549122227634, 46.26160323032469], [-60.43552009595764, 46.26162321657283], [-60.435483306231866, 46.26164856375878], [-60.43545340938258, 46.2616822019334], [-60.435440576539186, 46.261696647417146], [-60.43536255743166, 46.261743758949756], [-60.43531611986709, 46.261752274937585], [-60.435280859926515, 46.26175873772731], [-60.43519181160269, 46.261814727895], [-60.43517205557394, 46.261889662083924], [-60.43515597683397, 46.26191248597119], [-60.43511367550273, 46.26197251354391], [-60.435051605824846, 46.2620312602974], [-60.43495855124515, 46.26211135320131], [-60.43495393926108, 46.2621120236914], [-60.43494632105683, 46.262113157711326], [-60.43490498320262, 46.26215228109626], [-60.43488423895242, 46.262171913094605], [-60.43486842637823, 46.26219208782253], [-60.43482979097955, 46.262241397208726], [-60.434740394877984, 46.26235096710689], [-60.43472776935424, 46.26237931365497], [-60.43471299786551, 46.26241249019314], [-60.43470809633905, 46.2624527285693], [-60.434704851249236, 46.262479440656435], [-60.43468917871604, 46.26251690811316], [-60.43465410475452, 46.262541060509164], [-60.43459621155312, 46.26258091911398], [-60.434492046367545, 46.26258596953181], [-60.43437616494956, 46.262589316720096], [-60.4341990992861, 46.26287703191719], [-60.434157724130934, 46.26298500661801], [-60.43413149989937, 46.263114229281236], [-60.434113891735386, 46.26320092992356], [-60.43410056382601, 46.263232635745204], [-60.43408763291589, 46.26326334244518], [-60.43406769750304, 46.2632998230499], [-60.434033713785375, 46.26336203507643], [-60.433995240738795, 46.26346342365282], [-60.433965646082775, 46.26354141277871], [-60.43395068999167, 46.26360187402776], [-60.43393685537193, 46.26365777029965], [-60.433934715213994, 46.263777822455175], [-60.43393444786878, 46.26379272097459], [-60.433934312999064, 46.26379866715461], [-60.43393200331542, 46.26390066986681], [-60.433968503668005, 46.26400859336497], [-60.43401000456939, 46.26410530675393], [-60.43403053521312, 46.26415309148594], [-60.43406948651244, 46.2642079681279], [-60.43409177034347, 46.264224039106594], [-60.434119703023654, 46.264244197075314], [-60.43418375960205, 46.2642897371134], [-60.43428627383159, 46.26434514101906], [-60.434581904109855, 46.26454528590922], [-60.434591354663965, 46.264549386236375], [-60.43464551694333, 46.26457282409191], [-60.43468483887767, 46.26459169858052], [-60.43475551559475, 46.26460440977461], [-60.43478780428227, 46.26461021087009], [-60.434890251257336, 46.264612861873374], [-60.43531922315865, 46.26462394058044], [-60.43585017927795, 46.264647566776745], [-60.43616151341674, 46.26465004405799], [-60.43633054222247, 46.264643036386026], [-60.436382858844674, 46.26463430988132], [-60.43641817243273, 46.26463062905129], [-60.43646108818946, 46.26462616474208]]}, "properties": {"OBJECTID": 178426, "FEAT_CODE": "WARV50", "FEAT_DESC": "River - Single Line", "RIVNAME_1": " ", "RIVNAME_2": " ", "ZVALUE": 9999, "FID": null, "SHAPE_Length": 2093.4002248554025}}, {"type": "Feature", "id": 178427, "geometry": {"type": "LineString", "coordinates": [[-60.42621324825891, 46.24796658152057], [-60.42621309832208, 46.24796063791955], [-60.426212794325686, 46.247948561617484], [-60.426137065554016, 46.247875761992894], [-60.42613237610287, 46.24787229022483], [-60.42612452691591, 46.24786647919015], [-60.426106150721516, 46.24781339523583], [-60.426099382643145, 46.24779391003862], [-60.426100224688646, 46.247775919330074], [-60.426088417781195, 46.247695568330975], [-60.4261063018316, 46.24745205302996], [-60.426107530732885, 46.24739807867874], [-60.42613383667372, 46.24736266993115], [-60.42615033160542, 46.24734867697766], [-60.42618652408865, 46.247317955103185], [-60.42621282993883, 46.24728254633511], [-60.42624240123467, 46.247094205347906], [-60.42624603394504, 46.24696253120711], [-60.42624612104913, 46.24695928404661], [-60.42622013583984, 46.24690468764803], [-60.426208017762555, 46.246886422987124], [-60.4261967081073, 46.246823165835984], [-60.426184093624954, 46.246787789343706], [-60.42609576183728, 46.246651685385054], [-60.426091447984135, 46.24664517996092], [-60.42608364427483, 46.24663341172136], [-60.42604549933288, 46.246561449699094], [-60.426009066841075, 46.246452624846256], [-60.4260094876486, 46.24644363398594], [-60.42602368863556, 46.246389951870164], [-60.426053647246626, 46.246165618270226], [-60.426054477175526, 46.24610935783539], [-60.42605480168858, 46.24608717930564], [-60.426109997582266, 46.24591871232677], [-60.426097313493855, 46.24582467902794], [-60.42605014321087, 46.245755699796895], [-60.42602962056645, 46.245732970610625], [-60.426014178651954, 46.245715882092014], [-60.426009128144635, 46.24569629157216], [-60.42600432982911, 46.245677687770794], [-60.42597414222368, 46.245629467875894], [-60.425967925372575, 46.24561955344565], [-60.425937481529104, 46.24558096713368], [-60.42592327735067, 46.24556293445064], [-60.42586741553846, 46.245473175543786], [-60.42583994135551, 46.24543516913026], [-60.42581961915124, 46.24540705321596], [-60.42581988851641, 46.24536887083408], [-60.42582002476415, 46.24534877614018], [-60.42577460699072, 46.24527368904017], [-60.4257270814628, 46.24519513430095], [-60.4256982698453, 46.24513831400318], [-60.42564475907726, 46.245068183697455], [-60.42558565773174, 46.24497947669474], [-60.4255768561651, 46.244956885522], [-60.425571355189426, 46.244942766038726], [-60.425556825724684, 46.24492448296918], [-60.42552597711774, 46.24488568941445], [-60.425424739130825, 46.24481671564437], [-60.42537978128595, 46.244800824998194], [-60.425319471101794, 46.24477952118163], [-60.42530241858787, 46.2447807749692], [-60.42524822650977, 46.24478479194471], [-60.42521168223959, 46.24477705613799], [-60.4251993634342, 46.244774456436446], [-60.42513281861458, 46.24474113156582], [-60.42510194767881, 46.24470282341002], [-60.425074938564414, 46.244656564972644], [-60.425046079808915, 46.24460104849156], [-60.42503575329387, 46.24459219343245], [-60.42501195718601, 46.2445717933747], [-60.424957576064344, 46.24456128839779], [-60.4249503513916, 46.24455988352128], [-60.42494537427798, 46.24455896131631], [-60.42487158035207, 46.24454526466583], [-60.42485160610193, 46.244525526735764], [-60.424827378173454, 46.244501606772545], [-60.424819318724865, 46.24446705280872], [-60.424811948874165, 46.24443550250113], [-60.42478310894555, 46.24437599022291], [-60.42475637496406, 46.24429394354206], [-60.424723729959034, 46.24423175338318], [-60.424705216049965, 46.24415617420817], [-60.42465924224782, 46.24408996645383], [-60.42465038038201, 46.243997198164614], [-60.42463890492988, 46.2439112112229], [-60.42462725540141, 46.243894045987304], [-60.42460238997082, 46.243857430118666], [-60.42454038408843, 46.24380560349612], [-60.42451826327784, 46.24378711316767], [-60.42448341739929, 46.24376168473154], [-60.42444735457987, 46.24373537381918], [-60.42439390632746, 46.24370441381611], [-60.42437636470757, 46.24369423500189], [-60.42435420310453, 46.24368548209434], [-60.424265303490166, 46.24365033870784], [-60.424128062688474, 46.243618119553894], [-60.42402333008772, 46.243586732176645], [-60.42401692087609, 46.243584814605704], [-60.423970754184914, 46.243542417129746], [-60.42394592483529, 46.24349618055999], [-60.42394437373322, 46.24349329247826], [-60.42394985189998, 46.24347603632736], [-60.423963242444195, 46.243433865612346], [-60.424007646570644, 46.2433690382449], [-60.424028449033244, 46.24330432676195], [-60.42399364843782, 46.2432604934887], [-60.423973596169624, 46.243235236429314], [-60.42389688021626, 46.24319008005622], [-60.423810544002386, 46.24315285202634], [-60.42375195094975, 46.24313149608632], [-60.42368990141305, 46.24310888313039], [-60.42352339454141, 46.24302355830386]]}, "properties": {"OBJECTID": 178427, "FEAT_CODE": "WARV50", "FEAT_DESC": "River - Single Line", "RIVNAME_1": " ", "RIVNAME_2": " ", "ZVALUE": 9999, "FID": null, "SHAPE_Length": 650.2222306692588}}, {"type": "Feature", "id": 178428, "geometry": {"type": "LineString", "coordinates": [[-60.423011082018924, 46.24367386263537], [-60.423054658962414, 46.243626441649305], [-60.423061248093425, 46.24360569146329], [-60.42308790459284, 46.24352182444724], [-60.42312544380885, 46.24346427687335], [-60.423169034519596, 46.2433974514089], [-60.423184886888784, 46.243365875711056], [-60.423215546204155, 46.24330482481229], [-60.42337243397488, 46.2431715487771], [-60.42341142136796, 46.24313208845943], [-60.423445547155445, 46.24309754968655], [-60.42351789132458, 46.24303691672102], [-60.42352191686867, 46.24302713412015], [-60.42352339454141, 46.24302355830386]]}, "properties": {"OBJECTID": 178428, "FEAT_CODE": "WARV50", "FEAT_DESC": "River - Single Line", "RIVNAME_1": " ", "RIVNAME_2": " ", "ZVALUE": 9999, "FID": null, "SHAPE_Length": 83.63863957152653}}, {"type": "Feature", "id": 178430, "geometry": {"type": "LineString", "coordinates": [[-60.42352339454141, 46.24302355830386], [-60.423531492079746, 46.24300383214278], [-60.42353167535774, 46.24297942733841], [-60.423531757468, 46.242969366803585], [-60.42352638898997, 46.24292031086229], [-60.42352774090067, 46.24288314291953], [-60.423527928708005, 46.242878025957936], [-60.42356055601004, 46.242856917875585], [-60.42364664640739, 46.24283596231927], [-60.42368868709927, 46.24283211312162], [-60.423744089866304, 46.24282962724611], [-60.42378383253647, 46.24282637422112], [-60.42383771690718, 46.242821963990366], [-60.42387699598163, 46.242817530434955], [-60.42388359453695, 46.242816788181], [-60.42389470091725, 46.242805104141695], [-60.42390987265569, 46.242789155596185], [-60.42391970113829, 46.24275074771579], [-60.42389860044196, 46.24267393102143], [-60.423877861548974, 46.242636751003445], [-60.423858636790044, 46.24260906448522], [-60.42384005714402, 46.24258228354373], [-60.42385231029678, 46.2425663322003], [-60.423866386354625, 46.24254801886513], [-60.42389200063153, 46.24251406207297], [-60.423895319874774, 46.24250966374089], [-60.423910851083036, 46.2424752365888], [-60.42393099592015, 46.24247469175718], [-60.4239547645036, 46.242474048618895], [-60.423960291341395, 46.242477908374696], [-60.423996588760396, 46.24250334270306], [-60.42406715065747, 46.2425181281049], [-60.42407612328302, 46.24252652071426], [-60.42408421335602, 46.242534092394415], [-60.424124309480355, 46.24253685945116], [-60.424153100263325, 46.242517059757375], [-60.4241665424998, 46.2425061843823], [-60.424185742283925, 46.2424906416237], [-60.424214639842596, 46.242460250914235], [-60.42421672751428, 46.24243506100918], [-60.424227405610694, 46.24242365529275], [-60.42423405516303, 46.242416559923896], [-60.42426077915537, 46.24241928647658], [-60.42428243636124, 46.2424385224373], [-60.42429237530207, 46.242447332829435], [-60.424314568444764, 46.24246897495807], [-60.424336004417704, 46.24248988898573], [-60.42440269930457, 46.24250996921117], [-60.424457304326474, 46.242514539278396], [-60.4244847876241, 46.24251684187803], [-60.42450273923443, 46.24251991964662], [-60.42454772694054, 46.242527648006735], [-60.42455968304179, 46.24251942118875], [-60.424568837844525, 46.242513120300885], [-60.424621924098, 46.242478927565614], [-60.42464345921771, 46.24240741021688], [-60.42464847709741, 46.242381692330255], [-60.42464941333011, 46.2423769342498], [-60.4246525155935, 46.24236608675707], [-60.42467293655415, 46.242294814298305], [-60.4246878883818, 46.24228549394717], [-60.42470875913572, 46.24227249086096], [-60.42476042698958, 46.242258057851025], [-60.42481792151867, 46.24223304573451], [-60.42482518961565, 46.24220802658269], [-60.42483096041516, 46.2421881128803], [-60.4248428503487, 46.24213114766591], [-60.42483460126746, 46.24211367207432], [-60.42482405141022, 46.24209131143856], [-60.424796909016166, 46.24205818141705], [-60.42479806915113, 46.24203589570695], [-60.42479912825914, 46.242015767802826], [-60.42482809139946, 46.24197343495539], [-60.42488376575157, 46.24193381921935], [-60.42494834299775, 46.24189965131261], [-60.425016660409234, 46.2418734249658], [-60.42504918107444, 46.24187091777013], [-60.42506636563464, 46.24186959499471], [-60.4251179133764, 46.24187240378006], [-60.42519252411259, 46.24185804660957], [-60.425271060318984, 46.241829107286975], [-60.42529857197606, 46.24181749579467], [-60.4253145046349, 46.24181077156337], [-60.42535473994548, 46.2417936505595], [-60.42537985942654, 46.24175527211228], [-60.42538206816648, 46.24171418130003], [-60.42540157674799, 46.24165988080142], [-60.4254545906212, 46.24164023060653], [-60.42550434324699, 46.24162845420686], [-60.425517154765664, 46.24162522375521], [-60.42557707797687, 46.241610103360564], [-60.42561017704215, 46.24159800566809], [-60.42564158717673, 46.24158651793598], [-60.42569846028731, 46.24156422747911], [-60.42574014353098, 46.24152863425035], [-60.42574141310611, 46.2415242346847], [-60.42575581277235, 46.241474319188505], [-60.42575952122463, 46.241408106188196], [-60.42576055855734, 46.24136792501031], [-60.42576131520321, 46.24133789889984], [-60.425762048877154, 46.24130780926928], [-60.425763209019856, 46.24125973755338], [-60.425763409466335, 46.24123189499547], [-60.425763719319434, 46.241188133288254], [-60.4257652805852, 46.24114867494123], [-60.42576532830416, 46.24114710095562], [-60.42575991869155, 46.24110331838696], [-60.425756505543234, 46.24108090262312], [-60.4257532838961, 46.241059661219], [-60.4257708822551, 46.24103175163452], [-60.42578402549931, 46.24101089694635], [-60.425816796508535, 46.24099859379466], [-60.425819121351125, 46.24099742212723], [-60.42592173027927, 46.24094604683639], [-60.42598779002364, 46.2408926329956], [-60.426066760839696, 46.24081250893895], [-60.42615879085312, 46.240758780027356], [-60.42616701768859, 46.240755113208365], [-60.42631643830194, 46.24068851947134], [-60.42638380264408, 46.24065378350869], [-60.4264201164601, 46.24063506173627], [-60.426446122355316, 46.24061402868657], [-60.4264861753462, 46.24058164758687], [-60.42660487233679, 46.2404844172719], [-60.4266700896381, 46.240448984755865], [-60.42694566650943, 46.24032557724124], [-60.427025963718386, 46.24027694760636], [-60.42706314213724, 46.240254428952404], [-60.427067979635524, 46.240249731704985], [-60.427090319083014, 46.240228039918996], [-60.42718050451289, 46.24011386730743], [-60.427196484978765, 46.24009362536666], [-60.42730998310187, 46.24005064834908], [-60.42740512601883, 46.24001462020798], [-60.42748414079941, 46.23996149720144], [-60.42748614277826, 46.23995613306851], [-60.42751083987472, 46.23991148039376], [-60.4275217496285, 46.23988178187492], [-60.42752838974043, 46.23986377767813], [-60.42757399866176, 46.23982545505516], [-60.42759509430669, 46.239818702744806], [-60.427631465420276, 46.23980705615038], [-60.42764719628296, 46.239806015269934], [-60.42766971958293, 46.239804515290786], [-60.42771225907045, 46.23980464499759], [-60.42774617421118, 46.239804742529785], [-60.427816739632426, 46.23982883206264], [-60.42787425002493, 46.23980644686374], [-60.427958804737465, 46.239743016842226], [-60.42798947776975, 46.23973116985699], [-60.42804149800304, 46.23973132385927], [-60.42807358482768, 46.23973140713794], [-60.42812919811974, 46.23970770105596], [-60.42814878300433, 46.239685263029806], [-60.428175424366046, 46.23965477552308], [-60.428212286166854, 46.239631241328325], [-60.428229186550375, 46.2396204433143], [-60.42827558235516, 46.2395994007916], [-60.42827855083266, 46.23959805455429], [-60.42831136701664, 46.23955146037532], [-60.428311555055764, 46.23952440956005], [-60.428311805366704, 46.23948936783677], [-60.42831295985162, 46.23948132050999], [-60.42831319268206, 46.23947966968653], [-60.42831581860339, 46.239461512086855], [-60.4283236394776, 46.23943766619331], [-60.4283831950233, 46.239395381998555], [-60.428396783606395, 46.23936358360649], [-60.428379307476355, 46.23933037498174], [-60.42834943221541, 46.23932793847414], [-60.42827805235776, 46.23932211064466], [-60.42821991783257, 46.23930431344148], [-60.42819932914079, 46.2392980087721], [-60.428189128000476, 46.23928453963402], [-60.42816712667176, 46.239255459278894], [-60.42816073491914, 46.239245685027214], [-60.42813497490395, 46.23920627766031], [-60.42816209023047, 46.23915593705371], [-60.42821351030532, 46.23911231777168], [-60.42821823866187, 46.23911022811961], [-60.428261438435115, 46.239091228742794], [-60.4282755154247, 46.23906341051141], [-60.42827887355715, 46.23905678083949], [-60.42828297027742, 46.23901964760815], [-60.42828400912336, 46.238996594096044], [-60.428285235926516, 46.23896924264759], [-60.428311171302404, 46.23895800896376], [-60.42833699964637, 46.238946844867705], [-60.42837873982775, 46.238954624633685], [-60.428438199523725, 46.23896571032224], [-60.42845924214762, 46.23895703058399], [-60.42847655471341, 46.23894989595175], [-60.4284809653326, 46.23892685532465], [-60.42848645620478, 46.23889818679139], [-60.42846817662534, 46.238870513310076], [-60.428461877591396, 46.238860975170695], [-60.428432962311504, 46.2388210828361], [-60.428441774243076, 46.23880627758907], [-60.4284542463412, 46.23878531748031], [-60.428465466325974, 46.238753960785736], [-60.42847179283039, 46.23873627348612], [-60.42848019909485, 46.238728758389016], [-60.42849102810765, 46.238719083734466], [-60.42850945589704, 46.23871306323992], [-60.42853129468361, 46.238705940467256], [-60.42853451259393, 46.23870314178054], [-60.42854807237288, 46.23869137749769], [-60.42854825879965, 46.238665190676265], [-60.42854831977858, 46.23865556167462], [-60.428537085530415, 46.23862368160028], [-60.42852508972799, 46.23861142314748], [-60.428496716359675, 46.23858241544664], [-60.4284758048061, 46.238564709116645], [-60.42845109967559, 46.23854380327785], [-60.42842407705601, 46.23850920974222], [-60.42842401972498, 46.23850460927307], [-60.42842374910168, 46.23848265132866], [-60.428450232954596, 46.238452187209866], [-60.428395772074964, 46.238413258952264]]}, "properties": {"OBJECTID": 178430, "FEAT_CODE": "WARV50", "FEAT_DESC": "River - Single Line", "RIVNAME_1": " ", "RIVNAME_2": " ", "ZVALUE": 9999, "FID": null, "SHAPE_Length": 808.8081139569548}}, {"type": "Feature", "id": 254128, "geometry": {"type": "LineString", "coordinates": [[-60.419922695226916, 46.23806382619221], [-60.41993605779505, 46.23804164506673], [-60.41994943499585, 46.23801942826868], [-60.419949862374374, 46.2380006361823], [-60.41995066932838, 46.23796545402419], [-60.41992639829771, 46.23790190346087], [-60.41991243904382, 46.2378770712668], [-60.41990126728703, 46.237857243213405], [-60.41972177125279, 46.2377019746736], [-60.41971510700671, 46.237697215986856], [-60.419684123257476, 46.237675023398545], [-60.41950345421137, 46.23762774126213], [-60.41946564866596, 46.237601110368736], [-60.41945197546738, 46.237591477174746], [-60.41940794259014, 46.23755105207216], [-60.41918462055613, 46.237346028860635], [-60.41908252500711, 46.23728252019512], [-60.419012203041795, 46.237229062583026], [-60.418890920505, 46.23713688619154], [-60.41874201002503, 46.237049431694786], [-60.41867254670564, 46.23700864776821], [-60.418570507522304, 46.23694423987735], [-60.41850178036, 46.23687699343457], [-60.418468818726524, 46.236844729426736], [-60.418455773055435, 46.23683555130809], [-60.418417340973626, 46.236808473888736], [-60.41814755224767, 46.23669797343842], [-60.41803126186984, 46.23663324301276], [-60.41799441341821, 46.2366257680104], [-60.41794132483446, 46.23661500085996], [-60.4179020322868, 46.236623122209906], [-60.41781001454475, 46.23667684477287], [-60.41774436135975, 46.236721262749754], [-60.41762612207107, 46.23683649496869], [-60.417609642053385, 46.23685516723056], [-60.41758639504671, 46.23688149884571], [-60.41756361843321, 46.23688620423461], [-60.41754710268186, 46.23688961107736], [-60.41721000262474, 46.23688649124193], [-60.41687335072147, 46.236874380187515], [-60.41686138438941, 46.23687260658035], [-60.41680894686042, 46.23686482374055], [-60.41675566266717, 46.23684965944271], [-60.41674366952746, 46.23684624715238], [-60.416652894118386, 46.23683702138558], [-60.416550035980116, 46.23682656829641], [-60.416420355501245, 46.236798425908944], [-60.416344256718745, 46.2367951299992], [-60.41616147366915, 46.2367871803061], [-60.41598041723562, 46.23677588523696], [-60.415954145361475, 46.23677575006475], [-60.41592854808233, 46.23677561214329], [-60.41570936677268, 46.23669235154343], [-60.415606051001824, 46.23668281428763], [-60.41538650512086, 46.236662547311205], [-60.415268036985026, 46.23664644772412], [-60.41524344614316, 46.2366431102901], [-60.415163975017485, 46.236642581411516], [-60.41507488242751, 46.23664199680066], [-60.41490678345389, 46.23663099318566], [-60.41489422059153, 46.236594716509316], [-60.41486992754025, 46.23653204638304], [-60.41485736472213, 46.23649576970304], [-60.41480629928923, 46.23646956625651], [-60.41476742976719, 46.236449632988084], [-60.41474842167044, 46.23644066154232], [-60.41472938851168, 46.236431671525565], [-60.414707461534356, 46.23640835945936], [-60.41470343413808, 46.23640408316141], [-60.414679210919246, 46.2363675336076], [-60.41465621846317, 46.23633460304102], [-60.41464153823745, 46.236313579028675], [-60.414628130580674, 46.23629528391802], [-60.414611950341744, 46.236284927382556], [-60.414499691986514, 46.23621316530244], [-60.414449091035706, 46.23618591916361], [-60.41444280781241, 46.236183553884004], [-60.41442360043228, 46.236176341943654], [-60.41422954765274, 46.23616565001178], [-60.414203406502594, 46.236165499393785], [-60.414176383460976, 46.236165346810935], [-60.4141633596829, 46.23616813916946], [-60.41413838681701, 46.23617348719524], [-60.41407232172587, 46.23622689410119], [-60.41401918149714, 46.23625284541105], [-60.4139807236785, 46.236271622727], [-60.41372025283505, 46.23634942114693], [-60.41362820358465, 46.23637614756257], [-60.41349858047839, 46.236402014289325], [-60.41349200112434, 46.23640484445975], [-60.41345886520697, 46.23641911589718], [-60.4132481602173, 46.2365970528035], [-60.41316954688866, 46.23664117472637], [-60.41314761140138, 46.236649777432596], [-60.41307838316654, 46.23667691210489], [-60.41292153712371, 46.236702161783704], [-60.41290862065393, 46.236728870376965], [-60.41289212594366, 46.23675333785772], [-60.41285424238943, 46.23680953328007], [-60.41278738317879, 46.236934942312175], [-60.41273898446258, 46.23703159019216], [-60.412720102080904, 46.23706931510494], [-60.412613553644846, 46.23723881802645], [-60.41259249242605, 46.23729308123099], [-60.4125855109312, 46.23731107684242], [-60.412570889712356, 46.23737374821326], [-60.41255686752372, 46.23748600710841], [-60.41255632259169, 46.23749042294252], [-60.412552405948475, 46.23750089166032], [-60.41254296991194, 46.23752612196922], [-60.4124752241452, 46.23764249237448], [-60.41248284724749, 46.2376941380531], [-60.41249786187258, 46.237796011107115], [-60.412527650315724, 46.23780963724403], [-60.41253721194261, 46.23781400295048], [-60.41257441833073, 46.23787784804569], [-60.41264933879682, 46.23799474926841], [-60.412673615543106, 46.23808530258908], [-60.41267209584449, 46.23809058738416], [-60.41264564138853, 46.2381836729944], [-60.4125661642736, 46.238273676745735], [-60.41246123686058, 46.23832620259962], [-60.412394511377734, 46.23835660666326], [-60.41234459263605, 46.23837936302292], [-60.41225064373514, 46.23842515305594], [-60.41219989242538, 46.23844988857382], [-60.41217867078124, 46.238456257173006], [-60.41208281087044, 46.23848503811447], [-60.41204885072876, 46.23849859744448], [-60.4120167012232, 46.23851144174828], [-60.41196488620412, 46.23853727811136], [-60.41186639390993, 46.238610424993354], [-60.411833182291026, 46.23863508965232], [-60.411793520262165, 46.23865928416473], [-60.41170231059024, 46.23871492818512], [-60.41157701857223, 46.23878726967727], [-60.41142631315694, 46.23887428185139], [-60.411348157156084, 46.23893642258491], [-60.41132012771236, 46.238980780279476], [-60.41127332225159, 46.23903741204086], [-60.411201841286584, 46.239123905869086], [-60.41116026897276, 46.2391837162798], [-60.411121146297845, 46.239239982040644], [-60.41106638092964, 46.23930726077517], [-60.4110412972566, 46.239338076615056], [-60.411014452005226, 46.23936773648759], [-60.41093594039481, 46.239454493846786], [-60.41086904803295, 46.239552881909106], [-60.41081553597005, 46.23964257280302], [-60.41081326651107, 46.23964945164482], [-60.410759552984196, 46.23981231082056], [-60.410702199320305, 46.23988881008391], [-60.410679279218144, 46.23991939586461], [-60.41062658685048, 46.23996410347675], [-60.41054844627027, 46.240031374208456], [-60.410481932262485, 46.24008862999898], [-60.410458303297375, 46.24010451109201], [-60.41040290137783, 46.2401417408969], [-60.41031129381477, 46.240186466354515], [-60.410291366712954, 46.24019838116194], [-60.41019383931369, 46.24025670688144], [-60.41011349563767, 46.24033768891554], [-60.40990072486384, 46.240641577702824], [-60.40980749056815, 46.240748368310534], [-60.409769532469646, 46.24081565843303], [-60.409726815753785, 46.24089144499439], [-60.40968233027792, 46.24094721965605], [-60.40963445262218, 46.24100726456172], [-60.40953414839205, 46.24107465311475], [-60.409515234378574, 46.24108735578597], [-60.409498826763006, 46.24109503908421], [-60.40947676833029, 46.241105375364135], [-60.4094525682291, 46.241115465072056], [-60.40937224263517, 46.24114891612871], [-60.40935187069085, 46.241160073655614], [-60.409227120819544, 46.241228428695514], [-60.409108336913505, 46.24132653904773], [-60.40904187536888, 46.241415935441026], [-60.40886964100133, 46.241629837982714], [-60.40880358927749, 46.241710243177415], [-60.40857904354741, 46.24190585819579], [-60.40843472790062, 46.24194038627978], [-60.408158729557655, 46.24212673305183], [-60.4080935031206, 46.242174449278], [-60.40798810537005, 46.24225156730214], [-60.40796134168246, 46.24226896982197], [-60.40794524074291, 46.24228719926548], [-60.40792160320076, 46.24231396106151], [-60.40789825193978, 46.24234538252918], [-60.4078952882687, 46.242349365448916], [-60.407839860634866, 46.24241155139548], [-60.40781585253588, 46.24243846676847], [-60.40769792390836, 46.24251859434804], [-60.40769078582194, 46.242524174614026], [-60.407618463069184, 46.242580693906525], [-60.40745957826401, 46.242731894746214], [-60.4073545935908, 46.24281231568449], [-60.407234992537674, 46.242955407287845], [-60.407155954373906, 46.24300851576392], [-60.40701455549293, 46.24312224832877], [-60.406879547012146, 46.24323084255118], [-60.40683306870339, 46.24326990221368], [-60.40677419155037, 46.24331936385329], [-60.40658933047863, 46.243470873914745], [-60.40637853893607, 46.24362179503686], [-60.406299959795696, 46.24369291403857], [-60.406090451631975, 46.243816862711746], [-60.40601053932939, 46.243860950196684], [-60.405867536928824, 46.24392249690205], [-60.40578891970488, 46.24396662263715], [-60.40577018091449, 46.244014898046835], [-60.40576086385781, 46.24403888843307], [-60.40574752861274, 46.244101588087865], [-60.40574628758072, 46.24415540000005], [-60.4057450312769, 46.24420953557764], [-60.40571828991502, 46.244253930124735], [-60.40565095803627, 46.24436130545967], [-60.40558859458259, 46.2444444746315], [-60.405570667451904, 46.24446838649064], [-60.405530924958356, 46.24451338579962], [-60.4054527546025, 46.24457551314706], [-60.40532682106333, 46.24461781702463], [-60.40531671804066, 46.244635363274604], [-60.4053022645339, 46.24466043401923], [-60.40523836336217, 46.24472860949589], [-60.405187092930205, 46.24476030537038], [-60.40514208916882, 46.244788129392155], [-60.405067470638244, 46.24477990941162], [-60.40501691736523, 46.24478128132147], [-60.404979353137456, 46.244782300204506], [-60.404933366309784, 46.24478614288667], [-60.40487948231427, 46.2448152141607], [-60.404794775283264, 46.244865465128946], [-60.40475904964686, 46.24488250132187], [-60.40472554024696, 46.24489848080296], [-60.404621872935124, 46.24492607009265], [-60.4045796342585, 46.244937900082185], [-60.40452053889997, 46.24496688880419], [-60.404512318567065, 46.24497092322624], [-60.404438825320355, 46.24505045479911], [-60.40442517883317, 46.24509717160397], [-60.404417101627644, 46.24512483518624], [-60.40441769258542, 46.24516206505363], [-60.40441832725561, 46.24520194201639], [-60.40442575929534, 46.24523247803271], [-60.404436801120255, 46.245277784623454], [-60.404424149531955, 46.24529214977496], [-60.40438070086578, 46.2453414296538], [-60.40435766640217, 46.24534490250441], [-60.404311662684314, 46.24535184067282]]}, "properties": {"OBJECTID": 254128, "FEAT_CODE": "WARV50", "FEAT_DESC": "River - Single Line", "RIVNAME_1": "Aconi (Fifes) Brook", "RIVNAME_2": " ", "ZVALUE": 9999, "FID": null, "SHAPE_Length": 1924.0828683144953}}]}