{"type": "FeatureCollection", "features": [{"type": "Feature", "id": 2278, "geometry": {"type": "LineString", "coordinates": [[-60.339006808245685, 46.87627044662323], [-60.33901901785396, 46.8763157285654], [-60.33903051279096, 46.876320009768655], [-60.33904477814888, 46.87632532736933], [-60.3391234617774, 46.876387319847396], [-60.33914835926762, 46.8764069330963], [-60.339173727553295, 46.8764069471936], [-60.339187730936175, 46.876406948927254], [-60.33929400490015, 46.87635452333261], [-60.3393225997121, 46.87634131105533], [-60.339332954898836, 46.87633653013499], [-60.339385391108465, 46.876337749719696], [-60.339491218755924, 46.876347410701264], [-60.33951743686899, 46.876348020460476], [-60.33958304860206, 46.87632166566199], [-60.33959550528893, 46.87631366674191], [-60.33959660313383, 46.87631296330738], [-60.33964819462438, 46.876331262338645], [-60.33971242782503, 46.8763858536758], [-60.33976397385067, 46.87645814910819], [-60.3398020118879, 46.87648513246928], [-60.33982879300896, 46.87649028204062], [-60.339855314620785, 46.876495371573526], [-60.33986081317448, 46.8765036080634], [-60.33986752151001, 46.87651365460312], [-60.33987732252525, 46.87653334861778], [-60.33988066544346, 46.876540059047755], [-60.339877227624065, 46.876546413808384], [-60.33986622268636, 46.87656672195186], [-60.339839937250964, 46.87659400942094], [-60.339799720767985, 46.87661107338078], [-60.33979708246159, 46.876612937939235], [-60.339786122623494, 46.876620656704375], [-60.33977208846615, 46.87666532826817], [-60.339778100312756, 46.87668255828408], [-60.339784743363666, 46.876701620894224], [-60.33978441640767, 46.876717785544926], [-60.33978383144682, 46.876746597612], [-60.33974268006904, 46.876835636489076], [-60.33974179091846, 46.876853614981215], [-60.339751766168824, 46.87688225864467], [-60.33975442006038, 46.87688989801108], [-60.33976395607385, 46.87689690545706], [-60.33976709689989, 46.8768992103935], [-60.33979336018892, 46.87689891218109], [-60.33982091226572, 46.876872554136824], [-60.33982717388098, 46.87686828095054], [-60.339860307034314, 46.876845571518324], [-60.3399259196701, 46.87681920754491], [-60.33997922320202, 46.87682943760886], [-60.340007906864074, 46.876862998067764], [-60.340017670355245, 46.87687442957797], [-60.34008058411351, 46.876955988773844], [-60.34015697087613, 46.87710985787462], [-60.34018141134993, 46.877146424484216], [-60.34016827949084, 46.87717311790426], [-60.340127128386555, 46.87726215692006], [-60.34012548175075, 46.87731960797534], [-60.340125327688995, 46.87732511213852], [-60.34011215130273, 46.87735270447472], [-60.34009905510439, 46.877352399963826], [-60.34007160594588, 46.877340845219834], [-60.34003347367922, 46.87732477625808], [-60.340022189374444, 46.877316495240045], [-60.3400208089154, 46.87731548218615], [-60.34000772230251, 46.87728817913565], [-60.339986390098574, 46.877278197540434], [-60.33996923906465, 46.87727018507973], [-60.33994302049281, 46.8772695754149], [-60.3398764949903, 46.87734092509016], [-60.33982223504656, 46.877376561618625], [-60.33980821335922, 46.877421242472245], [-60.339847118889786, 46.87745723657011], [-60.33992535204708, 46.87749415416275], [-60.33995462400017, 46.87749990159781], [-60.339977344863485, 46.877504362745675], [-60.340069643708496, 46.87749570943003], [-60.34009544051161, 46.87747831009106], [-60.340104774045095, 46.877455974156504], [-60.34011032749947, 46.877442666905935], [-60.34011123962494, 46.87739768119587], [-60.34016327683919, 46.87740699076844], [-60.340202227337485, 46.87738899728734], [-60.340217287989525, 46.877385936619405], [-60.34024199979136, 46.877380922446186], [-60.34025470905921, 46.87738931756973], [-60.340293102942304, 46.87746220691174], [-60.34033193627718, 46.87748931657572], [-60.34034511773421, 46.87749851463065], [-60.340352740902205, 46.877501211750534], [-60.34039671061408, 46.87751681334926], [-60.34043692760659, 46.87749974919188], [-60.34048080041784, 46.87749527943406], [-60.3405160725944, 46.87749168966006], [-60.34051562858265, 46.877500669921496], [-60.3405269821286, 46.87756303099701], [-60.34050027405193, 46.87757231862181], [-60.34043468278066, 46.87757169367009], [-60.34042163847873, 46.87759820916158], [-60.340422754041235, 46.87760511077911], [-60.340432859937934, 46.87766164712498], [-60.34050971553931, 46.87777952853666], [-60.34066262803349, 46.87797837433914], [-60.340699670060445, 46.87802261343613], [-60.340701058323866, 46.87802426563345], [-60.340766170304086, 46.878060877619895], [-60.34083087335904, 46.87807948089787], [-60.34084913954906, 46.87807954551916], [-60.34092272869059, 46.878079816164195], [-60.34095725442569, 46.8781043415976], [-60.34096203450437, 46.878107737554984], [-60.341024494032126, 46.878198276233576], [-60.34103820999656, 46.87825826227444], [-60.341049313395544, 46.87830684811419], [-60.341049123657854, 46.87832024408199], [-60.34104884683092, 46.87834283559853], [-60.34102130766812, 46.878369194234196], [-60.341007740606024, 46.87837787846576], [-60.340968367466665, 46.87837786323194], [-60.340941767054794, 46.87836478950058], [-60.34092992756933, 46.87835897055464], [-60.340851248047, 46.878331042866314], [-60.340820289958586, 46.878326471411704], [-60.34078608715225, 46.87832142854093], [-60.340758955661116, 46.87833396423234], [-60.34074714926128, 46.87833942251319], [-60.340719152410216, 46.87837477001928], [-60.340677956759095, 46.87846470814143], [-60.34068069882726, 46.87847481541942], [-60.340690155535235, 46.878509980634504], [-60.34069881395932, 46.87853448078554], [-60.340715485134915, 46.878581675158934], [-60.340753013901924, 46.878645544637365], [-60.34084585403492, 46.87874411529254], [-60.34090639586846, 46.87880841166655], [-60.340916221006026, 46.87881196989434], [-60.3409592571595, 46.87882763056619], [-60.34099908813388, 46.878818656862485], [-60.34109138902449, 46.878756905232805], [-60.34111897279796, 46.87872964765992], [-60.34111985609849, 46.87866186534151], [-60.34111990586085, 46.87865767269302], [-60.34114701387142, 46.87864030359505], [-60.34116502072804, 46.87864030814019], [-60.34118637409605, 46.87864031846657], [-60.34136206573441, 46.878691208637036], [-60.34144646961235, 46.878715660172126], [-60.341453166460006, 46.87872010860734], [-60.34147315568689, 46.878733379559364], [-60.341528894403105, 46.87875731784965], [-60.341537402388134, 46.878760971408354], [-60.34156750950976, 46.87876125709028], [-60.34160300825943, 46.878761596062006], [-60.341647006878304, 46.878755130871006], [-60.3416558912136, 46.878753825397666], [-60.3416707231723, 46.87875725692121], [-60.34173374951966, 46.87877183390478], [-60.341786610643354, 46.87879106141667], [-60.3417926558411, 46.8787967456312], [-60.34181070322823, 46.87881372422654], [-60.341809358948495, 46.8788148989336], [-60.34179467008112, 46.878827957986054], [-60.341772308779404, 46.878845950513295], [-60.341759213464016, 46.878856508708914], [-60.34173524256617, 46.87887679471776], [-60.341715859770616, 46.878893209523575], [-60.3417112011587, 46.87889293027616], [-60.34167232243826, 46.87889060488319], [-60.34164674038271, 46.878915074236936], [-60.341652816071466, 46.878943510108606], [-60.341670256137405, 46.878956046818764], [-60.34168854612843, 46.878969179249914], [-60.34169268524702, 46.87900440079935], [-60.34172200395628, 46.87900709800605], [-60.34175009435277, 46.87900968566622], [-60.34177745938655, 46.879004642818565], [-60.34181728861605, 46.878997297713454], [-60.341841690000756, 46.8789953898356], [-60.34185287657894, 46.878994506825904], [-60.34185251992579, 46.878992959610194], [-60.341848838065054, 46.87897689980034], [-60.34183293019523, 46.87896204083045], [-60.34186650577404, 46.8789511035547], [-60.34190608176777, 46.87895100619678], [-60.341937409433974, 46.8789709482277], [-60.34196759234282, 46.87899015268406], [-60.34200320542863, 46.87898871227059], [-60.34200652084709, 46.87897633388474], [-60.34200902885135, 46.87896701459512], [-60.34199797959124, 46.878943340954145], [-60.34199703076606, 46.878941294002274], [-60.341978777974354, 46.878924751643765], [-60.341973175372736, 46.87891967169555], [-60.34197106442109, 46.8788912109692], [-60.34202965132791, 46.87887398811163], [-60.34205863019847, 46.878874265448275], [-60.34208697935985, 46.878874537146224], [-60.34213812995956, 46.87890182437441], [-60.34215443005163, 46.87890502895759], [-60.342190124589216, 46.878912031985415], [-60.34222875832881, 46.87891692539051], [-60.342268383083926, 46.878921949801565], [-60.34235306434672, 46.87893549061677], [-60.342386881981355, 46.878940902050665], [-60.342531634980816, 46.87893346533389], [-60.34253401182204, 46.87893290857764], [-60.342570128604564, 46.87892446001572], [-60.34258589988199, 46.878919507632176], [-60.342596792169225, 46.878916079831534], [-60.34261275724812, 46.878905345215856], [-60.34262394382028, 46.87889782043999], [-60.3426501632423, 46.87889842950684], [-60.342846477221165, 46.87893627906086], [-60.34289851644037, 46.87894558742659], [-60.3431731102637, 46.878966364502396], [-60.34334360456927, 46.87899552291493], [-60.34336942073688, 46.87899552847931], [-60.343382978197035, 46.87899553734023], [-60.34339022306989, 46.87899234874475], [-60.34342188443984, 46.87897844169547], [-60.34342277242716, 46.87896046315634], [-60.343436770143924, 46.87894278905995], [-60.343438230603844, 46.878941653030175], [-60.34344905728898, 46.87893317486041], [-60.34354703724324, 46.87891795497336], [-60.3435548674602, 46.87891673286904], [-60.34360735075932, 46.878917051643576], [-60.34363948188659, 46.87892844426299], [-60.343658946153276, 46.87893534893677], [-60.34372318651956, 46.87898993814536], [-60.34373583147207, 46.87902623008209], [-60.34376158620363, 46.87906282642377], [-60.343800495135035, 46.87909882823489], [-60.34383084575837, 46.87911119641004], [-60.343891843245565, 46.87913604760922], [-60.343912297262044, 46.879150552866186], [-60.34392988524983, 46.87916302966682], [-60.343955640176844, 46.87919962596805], [-60.343954651382724, 46.87924835373365], [-60.34395382304863, 46.87928957957504], [-60.34396700601519, 46.87929876824228], [-60.343979199268944, 46.87930726796007], [-60.34399983504802, 46.87931623367987], [-60.34404472724975, 46.87933579709737], [-60.344108504363554, 46.879426364646534], [-60.34413433769078, 46.87943506402956], [-60.34417275329389, 46.879453955056476], [-60.3441985866452, 46.87946265442544], [-60.344216043854544, 46.87945146825084], [-60.34423924783587, 46.87943659966656], [-60.3442655119407, 46.87943630944123], [-60.3442908439481, 46.87945489668771], [-60.344295947570984, 46.87945679708541], [-60.344316619825065, 46.87946449465358], [-60.344409344815574, 46.87947384687806], [-60.34446846630796, 46.87946094597998], [-60.34448762508215, 46.879456764937686], [-60.34448193717789, 46.879404759327365], [-60.34447677531441, 46.8793575177055], [-60.34445184273007, 46.87933084015071], [-60.34439986774892, 46.87929363528983], [-60.34440104691744, 46.87929287969981], [-60.344413421408234, 46.87928495034629], [-60.34445275088154, 46.879285863335255], [-60.34446130483564, 46.8792915156489], [-60.34446546126444, 46.8792942580109], [-60.34448065640792, 46.87930788512315], [-60.34451699247637, 46.879340452119884], [-60.34459527604265, 46.879376467700425], [-60.3446717605582, 46.8794223410048], [-60.344710625983566, 46.87945924144976], [-60.344736856633304, 46.879485949076724], [-60.34473552528598, 46.879512916911644], [-60.34474862792531, 46.87954021977587], [-60.34474774036289, 46.8795581983325], [-60.3448902223631, 46.879649701278936], [-60.34491224972693, 46.879681531062396], [-60.34492820103624, 46.87970457122426], [-60.344939518042196, 46.87970822672696], [-60.344955318965624, 46.8797133092351], [-60.34501486616976, 46.879722097919704], [-60.34508563271879, 46.87973253288881], [-60.34509328178256, 46.87973524829012], [-60.34513722941519, 46.87975082953893], [-60.34514852769044, 46.879759119369055], [-60.34514988253333, 46.87976012276615], [-60.34515031875957, 46.87977814104647]]}, "properties": {"OBJECTID": 2278, "FEAT_CODE": "WACO20", "FEAT_DESC": "Coast - Water to the right line", "RIVNAME_1": " ", "RIVNAME_2": " ", "ZVALUE": 0.4, "FID": null, "SHAPE_Length": 1042.892678729488}}, {"type": "Feature", "id": 2279, "geometry": {"type": "LineString", "coordinates": [[-60.34515031875957, 46.87977814104647], [-60.34514406237024, 46.87978603247437], [-60.34513632181134, 46.87979580636804], [-60.34511934824827, 46.879807831868085], [-60.34511048107326, 46.8798141057764], [-60.34510772406946, 46.87981225987555], [-60.345096503844054, 46.879804781814904], [-60.34503090968299, 46.879804159442976], [-60.34499194583475, 46.879822154254875], [-60.344991102719376, 46.8798392338862], [-60.345016905129384, 46.8798488323085], [-60.34506937626583, 46.87984915012649], [-60.34507644132415, 46.879853858881106], [-60.34508335350139, 46.87985847409138], [-60.34508202186661, 46.8798854509214], [-60.345041296576845, 46.87993939418409], [-60.34502814569685, 46.87999309544057], [-60.34502188926349, 46.880000986860665], [-60.345014148650094, 46.88001076074464], [-60.345006807521735, 46.880014037204575], [-60.34497388675268, 46.88002872542422], [-60.344920962391534, 46.88009049413364], [-60.34491963110834, 46.880117461969725], [-60.344924760149084, 46.880119380928015], [-60.34494540697243, 46.88012706879091], [-60.345010558221496, 46.88013667150988], [-60.34509057383006, 46.88013762858703], [-60.34514219108074, 46.88012892697569], [-60.34514799164668, 46.880125218772946], [-60.345155744840376, 46.88012024194715], [-60.34516682168125, 46.88009978198355], [-60.34517018603441, 46.88009357835589], [-60.34514533747803, 46.88001200548035], [-60.345145062851905, 46.88000055164346], [-60.34514491392124, 46.8799939964942], [-60.34517290879905, 46.87995864787152], [-60.34521272642609, 46.87994968138962], [-60.345250745411086, 46.87995056368985], [-60.34529054381656, 46.87996857747023], [-60.34529510240536, 46.87997540594311], [-60.345302766426286, 46.87998686026768], [-60.34531185692428, 46.88000584434331], [-60.34531584324153, 46.880014162464626], [-60.34531450518848, 46.88006812888213], [-60.345275095638264, 46.880127592502305], [-60.34527338020619, 46.8801301715704], [-60.34527493966332, 46.880133411609634], [-60.3452864701481, 46.88015747407476], [-60.34531488302746, 46.88016471212169], [-60.34532535659252, 46.880167376058196], [-60.345352064749314, 46.8801580963089], [-60.345563309542406, 46.880106300870814], [-60.345641590406075, 46.88008921815351], [-60.345681832239265, 46.8800982515073], [-60.34568138860537, 46.880107240791546], [-60.34566948162118, 46.88012298376303], [-60.34566734693113, 46.88012581409671], [-60.3456664592138, 46.88014380165416], [-60.34574608915678, 46.88015283994392], [-60.345787755067086, 46.880153230709105], [-60.34581167065904, 46.88015346161027], [-60.34586368706611, 46.88013666931445], [-60.34589967766013, 46.88013211358998], [-60.345929725255935, 46.88012830193116], [-60.34600434747074, 46.88015477303426], [-60.34611160505021, 46.88019281869683], [-60.34613931812801, 46.88021184774921], [-60.3461509599321, 46.88021983046325], [-60.346148339110826, 46.88022533140225], [-60.346137785834124, 46.8802474235297], [-60.34611067855176, 46.88026479382264], [-60.34608490195957, 46.880255196248], [-60.34606358881838, 46.88026260342406], [-60.34605820698294, 46.880264476474046], [-60.34600480229069, 46.8803091353401], [-60.345990361443455, 46.8803357990431], [-60.34597721183612, 46.88038949143342], [-60.34597453009612, 46.880470434411414], [-60.345979626076335, 46.88054271124949], [-60.34598534370097, 46.88062366910152], [-60.34598994648851, 46.88063359442555], [-60.34601025788698, 46.880677344617126], [-60.346048701265524, 46.88069623565003], [-60.3460723257704, 46.88069625275254], [-60.34608807617973, 46.88069624916937], [-60.34611136153447, 46.880681328097694], [-60.346128737442676, 46.880670193744066], [-60.34615290807052, 46.8806320112958], [-60.34616859523084, 46.88060722139934], [-60.34617798261435, 46.88058934102376], [-60.346210606687485, 46.88052719980536], [-60.3462360038675, 46.880517889437456], [-60.34624867046575, 46.88052718285366], [-60.34624865084278, 46.88055418112951], [-60.34625892346688, 46.88066093842486], [-60.346259927960084, 46.88067143723436], [-60.34625815333037, 46.880707403373755], [-60.34626127062094, 46.880713919385], [-60.34627124434861, 46.88073469678666], [-60.346270833269024, 46.88076696873235], [-60.3462707816302, 46.88077067536006], [-60.346217896810714, 46.880778457118424], [-60.346217453255825, 46.8807874464055], [-60.34621813017709, 46.880795273741406], [-60.346228287220356, 46.880913682806415], [-60.34618540454973, 46.88090601931756], [-60.34617624502543, 46.880904384897484], [-60.346172613782734, 46.88090269873336], [-60.34605820319017, 46.88084945789638], [-60.346031982745245, 46.8808488495909], [-60.34601984478941, 46.88085703659409], [-60.346006186140784, 46.88086625026598], [-60.34601796648533, 46.88089350430036], [-60.346108411905526, 46.88097570782031], [-60.34618619133304, 46.88104860886068], [-60.34627627731484, 46.88108490606696], [-60.3462898119739, 46.881103210191164], [-60.34627162821847, 46.88110730615924], [-60.346249993204104, 46.88111218602202], [-60.34620977565978, 46.88112924320727], [-60.346222865859524, 46.881156554604075], [-60.346262072194634, 46.8811839318631], [-60.34627488823816, 46.881192859759246], [-60.34631271254992, 46.88120249377506], [-60.346313762509425, 46.88120276111983], [-60.346334258958734, 46.88119329204845], [-60.346352726955274, 46.881184765872845], [-60.346380278172276, 46.88115840624523], [-60.34640183928481, 46.8811656650718], [-60.34640609959906, 46.88116710483304], [-60.34642712456449, 46.88117246130709], [-60.3464449869883, 46.881177006453285], [-60.3465101003497, 46.881240613888444], [-60.34654947566956, 46.88124062725704], [-60.34658882610741, 46.88121454126454], [-60.34657797223834, 46.88111529417285], [-60.346596521566106, 46.88109873322291], [-60.346657591070034, 46.881044244335676], [-60.34668386908181, 46.88104395387487], [-60.34671285388148, 46.881069941954095], [-60.34673539074449, 46.88109014674043], [-60.34676209287036, 46.881107865250456], [-60.34676120593193, 46.881125843831484], [-60.34670868788048, 46.88115252443415], [-60.3466942408305, 46.88120618680681], [-60.34670582743898, 46.881210505354744], [-60.34672001798598, 46.88121578425417], [-60.346735500773704, 46.881215621381365], [-60.3467462829716, 46.88121549347664], [-60.34678209307003, 46.88121248121377], [-60.3468385430145, 46.881207733739544], [-60.34688166589941, 46.88120813989539], [-60.346969734894635, 46.881208976442494], [-60.34714126789537, 46.88129017078913], [-60.3472416427204, 46.881337694310005], [-60.34725475307467, 46.88133799832737], [-60.347346995070474, 46.88135721848827], [-60.34735594410844, 46.88136312273162], [-60.34735970639485, 46.881365612858694], [-60.347359263021566, 46.881374602153166], [-60.347343063974456, 46.88138023824281], [-60.34733254146714, 46.88138388206019], [-60.34721138064401, 46.88141689078534], [-60.34717423552896, 46.881427008887684], [-60.34713528427726, 46.88144500471994], [-60.347125103961396, 46.88145474916628], [-60.34710773326959, 46.8814713645328], [-60.34709416024572, 46.88150704807091], [-60.3470924811256, 46.8815661003433], [-60.347092367343365, 46.881570003520345], [-60.347065639521425, 46.88160628194573], [-60.34706960186444, 46.88161136859941], [-60.3470792184758, 46.88162369604324], [-60.347094104567255, 46.881631906887954], [-60.34713032991915, 46.881651880060836], [-60.347154184633915, 46.8816520282711], [-60.347182815979664, 46.88165219724917], [-60.34721199318045, 46.88164742011219], [-60.347235745440116, 46.88164352512031], [-60.347261966297744, 46.88164413315788], [-60.3472665623875, 46.88165100741686], [-60.34727418994321, 46.88166241576121], [-60.34726302158936, 46.88166957242921], [-60.347260635671944, 46.88167111002706], [-60.34715480227835, 46.88171454464377], [-60.347145690153596, 46.88172099301974], [-60.34712896125706, 46.88173284449792], [-60.347117665445786, 46.881747107860335], [-60.34711496396832, 46.881750519048424], [-60.34712763100388, 46.88175981237448], [-60.34721947371741, 46.881787140992564], [-60.34726193023749, 46.88179547817567], [-60.347271472178285, 46.88179734636515], [-60.347306152405544, 46.88179755658333], [-60.34737644459217, 46.88179798059396], [-60.3473841588512, 46.88180364021273], [-60.347389111685004, 46.88180727389215], [-60.34736289074519, 46.88180666588209], [-60.34724476954406, 46.88185972418263], [-60.34717120413115, 46.8818812191471], [-60.34712491285581, 46.881894742965294], [-60.347018635027474, 46.88194717572406], [-60.34699190695801, 46.88198345412524], [-60.34697744681945, 46.88203711622384], [-60.34698276201586, 46.88204431315654], [-60.34699098150303, 46.88205542926135], [-60.34702991398795, 46.88206443176752], [-60.347161107971594, 46.88206567429342], [-60.347214037401656, 46.882057011172805], [-60.34721468031593, 46.882018165918005], [-60.347215406851866, 46.8819760287578], [-60.34722118037633, 46.88197233782267], [-60.3472289603224, 46.88196735247802], [-60.34730907294244, 46.8819679952578], [-60.34734704357472, 46.88196829076248], [-60.347348319789276, 46.881968761334754], [-60.3473728343231, 46.88197788837537], [-60.34738053549621, 46.88198354769074], [-60.347385488345815, 46.88198718137053], [-60.34738589300818, 46.88200452393461], [-60.347385912640235, 46.882005190358356], [-60.34735791851344, 46.882040530530055], [-60.34735701220151, 46.88208551638697], [-60.347371846346334, 46.882090792128636], [-60.34738410095056, 46.882095144095175], [-60.347392220600895, 46.88210110109958], [-60.34739676811255, 46.88210443739353], [-60.347475063569085, 46.88211345252252], [-60.347500411048635, 46.8821320394025], [-60.347643328892296, 46.88224154810464], [-60.34769286281186, 46.88224212059448], [-60.347720725642475, 46.8822424426106], [-60.34773918513747, 46.88223941475446], [-60.347773655612144, 46.88223377024364], [-60.3478093221542, 46.88222197074475], [-60.347827028874136, 46.88221610855529], [-60.34785413663071, 46.88219873786958], [-60.34785448674868, 46.88219802602069], [-60.3478672660478, 46.882172043535334], [-60.34787376473333, 46.88215497801281], [-60.347880825638946, 46.88213635959822], [-60.347884441630335, 46.881983450665544], [-60.34792800741947, 46.88195439308637], [-60.34795094392018, 46.88193909457219], [-60.347992611264985, 46.88193948456244], [-60.348082137665116, 46.88194033603573], [-60.34810609360931, 46.88194721807518], [-60.34814684804095, 46.88195893530969], [-60.34818493496373, 46.88197497348715], [-60.348212426274635, 46.88198655423861], [-60.34825017882778, 46.88200777739758], [-60.34827756134675, 46.8820231624313], [-60.34832916135616, 46.882041457701554], [-60.348342285003966, 46.882041761901725], [-60.34842186541123, 46.88202471640084], [-60.348512860373404, 46.882016017029265], [-60.34853812854444, 46.88201625170859], [-60.34864405434683, 46.882017257852254]]}, "properties": {"OBJECTID": 2279, "FEAT_CODE": "WACO20", "FEAT_DESC": "Coast - Water to the right line", "RIVNAME_1": " ", "RIVNAME_2": " ", "ZVALUE": 0.4, "FID": null, "SHAPE_Length": 873.536878751398}}, {"type": "Feature", "id": 2878, "geometry": {"type": "LineString", "coordinates": [[-60.35169643723809, 46.88413536412936], [-60.3517100079699, 46.88409968001117], [-60.35171556523981, 46.88407905565277], [-60.351724464054335, 46.88404601724683], [-60.35171660174965, 46.883973514690645], [-60.3517127454741, 46.88393774212264], [-60.351740298531105, 46.88388440054695], [-60.35175479967138, 46.88382982086429], [-60.351778335473874, 46.88379861522014], [-60.3517814808369, 46.88379444923543], [-60.351822628767586, 46.88375850353461], [-60.35187464695199, 46.883741708547], [-60.351940675697705, 46.88373333746489], [-60.3519808157267, 46.88373518457102], [-60.3521764210572, 46.88374419397164], [-60.35222975022291, 46.883727429166406], [-60.352270029298474, 46.883682463624886], [-60.35227343629567, 46.88367351591085], [-60.35228359952519, 46.883646779426044], [-60.35227875813624, 46.88362887522201], [-60.352271390397576, 46.88360149899478], [-60.3522207060669, 46.8835112301472], [-60.352156434941804, 46.8834836437903], [-60.352132184397895, 46.883477655743185], [-60.35211624678502, 46.883473714016915], [-60.351985904797765, 46.88348148748406], [-60.35191266949478, 46.88346694985835], [-60.351893613547915, 46.88346316090653], [-60.351842497834646, 46.88343497894005], [-60.35182648686742, 46.88342399781082], [-60.35180313772499, 46.88340796903992], [-60.351764264590344, 46.88337107087126], [-60.3517586744089, 46.883353716282784], [-60.35175288010704, 46.88333570899955], [-60.35174805247289, 46.88331779609053], [-60.35174067148819, 46.88329042851995], [-60.3517415665405, 46.8832200095976], [-60.35174159067896, 46.88321845323059], [-60.351729365162804, 46.88320017107116], [-60.351690447956216, 46.88316417181264], [-60.35166511162761, 46.883145586128556], [-60.351612640980875, 46.88311827264674], [-60.351572865782344, 46.88312635138355], [-60.35153593358132, 46.88314120060673], [-60.35150725029528, 46.88315273096206], [-60.35145520537571, 46.88314342640674], [-60.35142450480458, 46.88312235858727], [-60.35141584567348, 46.883116416380375], [-60.35141039550546, 46.88310661565589], [-60.351365207490765, 46.88302524825315], [-60.35135341082817, 46.88297187765271], [-60.3513611255428, 46.8829556860511], [-60.35136656989263, 46.882944283652826], [-60.35142078392823, 46.882909540569], [-60.35141586094265, 46.88289543225566], [-60.3514081329517, 46.88287324938013], [-60.35140546664104, 46.882867688909776], [-60.351395039269285, 46.88284594751149], [-60.351402846520195, 46.882840935517414], [-60.3514085927548, 46.88283726173899], [-60.35148730161138, 46.88283818406931], [-60.35155334240276, 46.88282981349186], [-60.35156340233686, 46.882823035725984], [-60.351606289395924, 46.88279414102926], [-60.351611718449234, 46.8827798494026], [-60.35161986025277, 46.882758447919265], [-60.35160810720907, 46.882704187395895], [-60.3515569524224, 46.88264989663367], [-60.35153160282248, 46.88263131961017], [-60.351247056474136, 46.88243934038461], [-60.351130777851274, 46.88234844319697], [-60.351014516001946, 46.88223056555838], [-60.35098919761864, 46.88218498141751], [-60.350986930824064, 46.88218010515591], [-60.3509642908922, 46.88213130718765], [-60.35096839737133, 46.88195014188128], [-60.35097102319451, 46.88183447717568], [-60.35098314850219, 46.88179882265881], [-60.35099865134975, 46.88175322082714], [-60.35120220277992, 46.88143124962029], [-60.351222340309604, 46.881386412039234]]}, "properties": {"OBJECTID": 2878, "FEAT_CODE": "WACO20", "FEAT_DESC": "Coast - Water to the right line", "RIVNAME_1": " ", "RIVNAME_2": " ", "ZVALUE": 0.4, "FID": null, "SHAPE_Length": 421.56950399441354}}, {"type": "Feature", "id": 3063, "geometry": {"type": "LineString", "coordinates": [[-60.351222340309604, 46.881386412039234], [-60.35123021166887, 46.881368901133136], [-60.35123119018107, 46.881319984108316], [-60.35123201684933, 46.8812789471939], [-60.35127318025617, 46.88121600331988], [-60.35130120603981, 46.881126656483566], [-60.35131619466411, 46.88110214670059], [-60.35132832922962, 46.88108228661124], [-60.351461768579156, 46.88098458087985], [-60.35153154517937, 46.88092988600846], [-60.35154095134551, 46.88092251713523], [-60.351586874078876, 46.880855399535314], [-60.35159610970384, 46.880841897999346], [-60.35164993995064, 46.880788246812315], [-60.35171747651244, 46.8807494472143], [-60.351741789828, 46.880735475753], [-60.35174514116399, 46.88073218749497], [-60.351823168158106, 46.88065546349099], [-60.351836339475746, 46.88062786971412], [-60.351837353210605, 46.88058249032876], [-60.35183854147252, 46.88052983432756], [-60.351865265998306, 46.88049354571495], [-60.35188251871521, 46.88048248863394], [-60.351905924392874, 46.88046748817477], [-60.35198378889005, 46.880485489818916], [-60.35201000928425, 46.8804860967576], [-60.352049843419294, 46.88045012055506], [-60.352054196412254, 46.880444614579375], [-60.35206385186507, 46.880432445660595], [-60.35205946687676, 46.88041620792427], [-60.35205162998373, 46.88038717388751], [-60.35201317425793, 46.880315178103956], [-60.35200140495715, 46.88028790695032], [-60.35200139704999, 46.880287267797485], [-60.35200185115625, 46.88025191898023], [-60.35202895658907, 46.88023454725208], [-60.3520505694676, 46.88023089872619], [-60.3520805729459, 46.88022584248833], [-60.35221220535725, 46.88021808980027], [-60.35227912788521, 46.880191740068945], [-60.35229718478646, 46.880183806391564], [-60.352318032312276, 46.88017464136102], [-60.35234199558648, 46.88014644234253], [-60.35238629881176, 46.880094325225215], [-60.35242570640289, 46.8800403398698], [-60.35241394035043, 46.87998607010891], [-60.352388577490856, 46.87994138519251], [-60.3523501488664, 46.87989549791248], [-60.352339289304155, 46.879856143419396], [-60.352337896145926, 46.87985111641115], [-60.352337980055346, 46.87984754552194], [-60.35233928450023, 46.87979625113647], [-60.35236803430656, 46.8797492007892], [-60.352393515037164, 46.879707501518425], [-60.352422143932486, 46.879627176929326], [-60.35242246349241, 46.87962628436767], [-60.35242276595981, 46.879625472406595], [-60.35243603247869, 46.879590600105196], [-60.35244008046945, 46.879401711707516], [-60.352454551728805, 46.879321032446946], [-60.352489125216636, 46.879216456566844], [-60.35249618707962, 46.879195111015775], [-60.352567598538364, 46.87897087433552], [-60.352574350359205, 46.87864704584826], [-60.35260191362715, 46.87859368627303], [-60.352621517064385, 46.87858045158599], [-60.35262770703932, 46.878576284038466], [-60.3526585670744, 46.87858180397612], [-60.352679747798334, 46.87858558798119], [-60.35273265711778, 46.87860391157609], [-60.35275489353204, 46.87860064633017], [-60.352785538529766, 46.878596135729204], [-60.35282492828582, 46.878569148545544], [-60.352839397807, 46.87848848718813], [-60.35284074131336, 46.87843452081841], [-60.3527895724002, 46.87840723797054], [-60.35278149712785, 46.87840437822809], [-60.35271089940597, 46.87837931861856], [-60.35268360285784, 46.87835339812321], [-60.35267202912146, 46.87834242079057], [-60.352686482454885, 46.87828875780525], [-60.35271403230404, 46.87823539789063], [-60.35275476220205, 46.87818144301269], [-60.35284033388713, 46.87813878530018], [-60.35291352650089, 46.87810231177232], [-60.35291555508658, 46.87810002782273], [-60.35295380015563, 46.87805735484246], [-60.352954087459, 46.878034448567576], [-60.35295425874406, 46.87802136714608], [-60.35294365981703, 46.87800551662696], [-60.35294203391529, 46.87800308511702], [-60.3528890878395, 46.87798205189287], [-60.35285063687859, 46.87796677181089], [-60.3527868143331, 46.87793019657271], [-60.35276838542075, 46.87791077200387], [-60.35276061146297, 46.87790259148254], [-60.35275306879941, 46.87789131145891], [-60.35274838672618, 46.877884309434315], [-60.3527628719822, 46.87777665871081], [-60.352764200111835, 46.877749672713776], [-60.35290167432261, 46.877463076527654], [-60.352942378454266, 46.87735602347416], [-60.35294896700414, 46.877343486524865], [-60.352956859265596, 46.87732845986043], [-60.35307578928979, 46.877285313915536], [-60.35311562026418, 46.87724933726107], [-60.35311607915644, 46.87721334056781], [-60.353077590951784, 46.877195359824086], [-60.35302956997113, 46.87718387217655], [-60.352998464069344, 46.877176429736664], [-60.35296046342631, 46.877148542699885], [-60.35293513154398, 46.87710377760538], [-60.35294911121452, 46.87705919319295], [-60.35296652222156, 46.87701288826169], [-60.352976291268554, 46.87698692553739], [-60.35299063858913, 46.87690766525162], [-60.35299251333221, 46.876897305118874], [-60.353006539684955, 46.87682563304758], [-60.35300657543876, 46.87682357297142], [-60.353007427441796, 46.87678065569702], [-60.3529952321198, 46.8767353756169], [-60.352989134031894, 46.87672514598522], [-60.35295764519456, 46.87667241779214], [-60.352920562033255, 46.87657255533907], [-60.35291802055422, 46.876565260868595], [-60.35290791134341, 46.87653626428976], [-60.35290849695042, 46.876507029209314], [-60.352908812276716, 46.87649128724286], [-60.352925827709, 46.87643248174546], [-60.352937261371565, 46.876392959177444], [-60.35294658731557, 46.876371198003504], [-60.3529639680224, 46.87633057110211], [-60.353041906382536, 46.87622800639944], [-60.353083538095895, 46.876227430766285], [-60.35309719640511, 46.87622724281917], [-60.35309713741549, 46.876216972934444], [-60.35309709941591, 46.87621107733086], [-60.35307541244397, 46.87618426076204], [-60.35307520500579, 46.87615327041101], [-60.353098337033515, 46.87613391657625], [-60.35311411847534, 46.87612071936308], [-60.35310026757749, 46.87609654999447], [-60.35306799059519, 46.876076913042716], [-60.35306297024097, 46.87607385401696], [-60.35300015683906, 46.87604188301843], [-60.35299045775958, 46.87602935616552], [-60.35298042552883, 46.876016398622625], [-60.35298605131385, 46.87597594969492], [-60.35298955564757, 46.8759660772473], [-60.35299564771444, 46.87594895701883]]}, "properties": {"OBJECTID": 3063, "FEAT_CODE": "WACO20", "FEAT_DESC": "Coast - Water to the right line", "RIVNAME_1": " ", "RIVNAME_2": " ", "ZVALUE": 0.4, "FID": null, "SHAPE_Length": 726.6815528365406}}, {"type": "Feature", "id": 11629, "geometry": {"type": "LineString", "coordinates": [[-60.34864405434683, 46.882017257852254], [-60.34865759004507, 46.88203556171472], [-60.348654566601766, 46.88214827430191], [-60.34865446319686, 46.882152501705036], [-60.3486516856428, 46.88215799006742], [-60.34861370803755, 46.88223344424816], [-60.348609863160576, 46.88224354265252], [-60.34860013579118, 46.88226912797715], [-60.34861173589707, 46.8822734466429], [-60.34862591380686, 46.88227872501062], [-60.348644217714416, 46.88227246255535], [-60.34870468445964, 46.8822517520142], [-60.3487148211982, 46.8822506100111], [-60.34877068057534, 46.882244281967346], [-60.348851210546435, 46.88218135134871], [-60.348877444810974, 46.882181959325386], [-60.348881660701714, 46.882191758568176], [-60.348889225996956, 46.88220923107246], [-60.34892812275074, 46.88227222054449], [-60.34895506615129, 46.88231116512118], [-60.34896610645315, 46.88232710722642], [-60.348965645034674, 46.882363094827454], [-60.34893765128987, 46.88239844439049], [-60.34893763234954, 46.882425721658585], [-60.3489376277718, 46.88245244128588], [-60.34894574720814, 46.88245840717354], [-60.348950282180624, 46.882461734114976], [-60.34898674243764, 46.88246711482921], [-60.34908059106745, 46.882480953068935], [-60.349119967334616, 46.882480965571], [-60.349186925464515, 46.882427619752136], [-60.34924230052746, 46.882409283823854], [-60.34926563865621, 46.882401544995545], [-60.349344789832294, 46.88239347947975], [-60.34941038730802, 46.8823940994424], [-60.349463299139536, 46.88241242459247], [-60.349501301963805, 46.88244030381774], [-60.34954021716934, 46.882476303784856], [-60.349551980744614, 46.88253057377231], [-60.34954242612899, 46.88254999847006], [-60.349538852060384, 46.88255726831369], [-60.34949858966214, 46.882575234571], [-60.34947004933754, 46.882579334081214], [-60.34937961883444, 46.88259227709479], [-60.34925047316112, 46.88265197569375], [-60.34924798831001, 46.88265312405878], [-60.34916790624669, 46.88268006704088], [-60.34915522042795, 46.8826977722275], [-60.34919415376762, 46.88270677401282], [-60.34939137727796, 46.88269964445936], [-60.34943854997084, 46.88270019747907], [-60.349548807514815, 46.8827014921367], [-60.34957414288889, 46.882720078271795], [-60.34956334649332, 46.88273513640643], [-60.34956145719197, 46.88273778350589], [-60.349557150450025, 46.88274207551536], [-60.34950762242455, 46.88279144260072], [-60.34942714197217, 46.882826467149684], [-60.34941416007009, 46.88283020716712], [-60.349308639805834, 46.882860619647595], [-60.34928378363399, 46.882869061274846], [-60.34925657742674, 46.88287831240202], [-60.349242580511685, 46.88289598721791], [-60.34922896418468, 46.882932569953475], [-60.34920139519386, 46.88298592856615], [-60.34916113236077, 46.88300389469463], [-60.3491367536783, 46.88303060748722], [-60.34912088202193, 46.88304796885847], [-60.34912087707413, 46.883061117119276], [-60.34912087778256, 46.88307494947865], [-60.34914621273192, 46.883093544697346], [-60.34919912514615, 46.88311186997979], [-60.34927783385776, 46.883112802827405], [-60.34938327055325, 46.88307743867386], [-60.34942262104128, 46.88305135171316], [-60.34943580061385, 46.88299593173031], [-60.34943752212058, 46.88298869996282], [-60.3494506952741, 46.88296110650733], [-60.3494769168207, 46.88296171405051], [-60.34948882648998, 46.882966147793475], [-60.34950268221739, 46.88297131059148], [-60.34951336512358, 46.88297773181288], [-60.349516731558815, 46.88297973571889], [-60.349528057082004, 46.883015996410734], [-60.34954068878423, 46.883079286080964], [-60.34956558129623, 46.88310686152811], [-60.34961848076391, 46.883125186315915], [-60.34985466576987, 46.88312705823699], [-60.34989266929182, 46.8831549373435], [-60.34989281224157, 46.88316082637515], [-60.34989309441874, 46.883172946335975], [-60.34981152407951, 46.88319678643732], [-60.34977322325998, 46.883207967558775], [-60.34972079302593, 46.88320675290105], [-60.349656062613136, 46.88321515277965], [-60.34957698237216, 46.88323107678338], [-60.34948372975639, 46.88324985821608], [-60.349448314653294, 46.88327332750811], [-60.349444366036806, 46.88327594489086], [-60.34943117968507, 46.883303538038845], [-60.34944944443975, 46.88335027302732], [-60.34945566852675, 46.88336620248679], [-60.34945433936363, 46.88339317040643], [-60.34944424574282, 46.88340728185775], [-60.34944165345943, 46.88341087562133], [-60.34938471077299, 46.88342770839394], [-60.34932310568972, 46.88344592703568], [-60.349295997746424, 46.88346329806306], [-60.34932175831161, 46.88349989324731], [-60.349317281867975, 46.883508159126166], [-60.34930730505484, 46.88352655706806], [-60.3493068836508, 46.88354815527572], [-60.349306413848545, 46.88357153427709], [-60.349333061069096, 46.883590141859656], [-60.349336827428395, 46.88359148906892], [-60.349384662496114, 46.88360844567639], [-60.34943670746326, 46.88361775117518], [-60.349633061361025, 46.88362860019043], [-60.34968639159537, 46.88361182759537], [-60.349699945103595, 46.883603151025255], [-60.349700623322924, 46.883563820610895], [-60.349701354366246, 46.883521287572584], [-60.34975946270762, 46.88350237574734], [-60.34978139314949, 46.88349524317141], [-60.34984612388488, 46.88348684322869], [-60.34987234569604, 46.883487450686474], [-60.34989854920952, 46.88351506542874], [-60.34992435495483, 46.88355075256554], [-60.34993100136207, 46.88355811518982], [-60.34994924787508, 46.88357832793558], [-60.35002884309537, 46.88360923137374], [-60.35009221008003, 46.88363383712716], [-60.35011290223369, 46.88364757280853], [-60.35011891457317, 46.88365155489453], [-60.35011799781708, 46.88369653151536], [-60.35012434447229, 46.88371850248842], [-60.35014154432806, 46.88377807308154], [-60.350168191502405, 46.88379668946618], [-60.35017504296622, 46.88379669517648], [-60.35020756830674, 46.88379671060267], [-60.35023423365012, 46.88378831967983], [-60.35024027921767, 46.88377564432285], [-60.350247406612375, 46.88376072613169], [-60.350247709731384, 46.883736992284106], [-60.35024786722552, 46.88372473851618], [-60.350258805544364, 46.883698542137076], [-60.35026274989185, 46.88368908495339], [-60.35027845830718, 46.88367849632162], [-60.35028854655418, 46.88367168332539], [-60.35032688424092, 46.88367734108287], [-60.35035370271433, 46.88368129209111], [-60.350428421650214, 46.88370780750955], [-60.35051108769855, 46.88373713481218], [-60.350536025295405, 46.883763811130194], [-60.35052815912624, 46.883773744465756], [-60.35052202855106, 46.883781486104084], [-60.35048977902565, 46.88380358010171], [-60.350482633741485, 46.883808472371385], [-60.35046950517524, 46.88383516701731], [-60.35049395561729, 46.88387173158915], [-60.35049395116327, 46.88389873019853], [-60.35048038414864, 46.88390741554909], [-60.350519743928864, 46.88393442589628], [-60.350525473896454, 46.88393588154091], [-60.35055863411583, 46.88394432616952], [-60.35058962110238, 46.88394040004473], [-60.350624676394844, 46.88393595616036], [-60.35065026736579, 46.88392912418317], [-60.35068985040928, 46.88391856643434], [-60.35071607244869, 46.8839191737031], [-60.350728172228486, 46.88392748153349], [-60.3507554323592, 46.883946183971695], [-60.350754086383894, 46.884000150224935], [-60.350751468551636, 46.884003464439424], [-60.350740089645214, 46.88401782522506], [-60.35059577519108, 46.88404328167018], [-60.35050387860144, 46.88406995196665], [-60.350398060067185, 46.88408640021113], [-60.35036080274806, 46.88410303243965], [-60.35035779677571, 46.884104366749185], [-60.35034895763433, 46.88411033572453], [-60.35033199992145, 46.88412176838787], [-60.350305316759275, 46.88415715763269], [-60.35028992952584, 46.88422968875171], [-60.35028902599308, 46.884274665676244]]}, "properties": {"OBJECTID": 11629, "FEAT_CODE": "WACO20", "FEAT_DESC": "Coast - Water to the right line", "RIVNAME_1": " ", "RIVNAME_2": " ", "ZVALUE": 0.4, "FID": null, "SHAPE_Length": 679.3000512150569}}, {"type": "Feature", "id": 11630, "geometry": {"type": "LineString", "coordinates": [[-60.35028902599308, 46.884274665676244], [-60.35030218138785, 46.884274070427885], [-60.350406671592225, 46.884284590216886], [-60.350424907907815, 46.8842869025018], [-60.35048493962329, 46.88429450259187], [-60.3505903603989, 46.88428613566805], [-60.350642405806596, 46.88429544962403], [-60.35071287798673, 46.88430187845426], [-60.3507613052473, 46.88430630279419], [-60.35086585301645, 46.88431592353884], [-60.35093101006983, 46.88432553199266], [-60.3509957243362, 46.88434412972604], [-60.3509973889296, 46.88434497823287], [-60.3511391152168, 46.88441764665916], [-60.35117756308976, 46.884436536047865], [-60.35120074350648, 46.8844365418026], [-60.35121694082093, 46.88443654785704], [-60.35129653753487, 46.88441949172998], [-60.351335932409015, 46.88439250518568], [-60.351360507489794, 46.88436899132469], [-60.3513634698354, 46.88436614405101], [-60.351391050580986, 46.88431278520302], [-60.351430888066886, 46.88427680930369], [-60.3514847220626, 46.884223158296564], [-60.35160371296348, 46.884179115331065], [-60.35165573162464, 46.8841623204538], [-60.35168730580751, 46.88414140743745], [-60.35169643723809, 46.88413536412936]]}, "properties": {"OBJECTID": 11630, "FEAT_CODE": "WACO20", "FEAT_DESC": "Coast - Water to the right line", "RIVNAME_1": " ", "RIVNAME_2": " ", "ZVALUE": 0.4, "FID": null, "SHAPE_Length": 126.94915429262329}}, {"type": "Feature", "id": 14422, "geometry": {"type": "LineString", "coordinates": [[-60.351597021197584, 46.88508791691969], [-60.35161906032877, 46.88508098449818], [-60.351623686544535, 46.8850795346725], [-60.351625081962446, 46.8850775870721], [-60.3516363721581, 46.88506182921358], [-60.35163771732081, 46.88500786294149], [-60.35157301863202, 46.88496227622962], [-60.35157540856464, 46.884960657639176], [-60.351600171354406, 46.884943996745726], [-60.35162683662854, 46.88493561449615], [-60.35163236894006, 46.88493468962261], [-60.351678457589, 46.88492691001331], [-60.35167934300236, 46.884908931372735], [-60.35168916459027, 46.8848995382039], [-60.351706893650665, 46.88488257046299], [-60.351706901546265, 46.88487974478111], [-60.351706927605186, 46.884828573834646], [-60.35168383800387, 46.88471104491153]]}, "properties": {"OBJECTID": 14422, "FEAT_CODE": "WACOIS10", "FEAT_DESC": "Coastal Island - Water to the right line", "RIVNAME_1": " ", "RIVNAME_2": " ", "ZVALUE": 0.4, "FID": null, "SHAPE_Length": 51.4845400903983}}, {"type": "Feature", "id": 14622, "geometry": {"type": "LineString", "coordinates": [[-60.352137456136454, 46.88744121455775], [-60.352143702301305, 46.88743699434171], [-60.35216325406326, 46.88742381254135], [-60.35216502471958, 46.887387855261785], [-60.35217616877036, 46.887365209303624], [-60.35217815339617, 46.88736116043662], [-60.352272210757675, 46.887290440930464], [-60.35227311279153, 46.88724546397888], [-60.35225689559385, 46.88722611754936], [-60.352234679315444, 46.88719957660854], [-60.3522355813759, 46.887154599657194], [-60.352217556875914, 46.88711144353771], [-60.35219800581571, 46.887064634256554], [-60.35219260401805, 46.88703384770766], [-60.35216316372868, 46.88686584635802], [-60.352139446483996, 46.886817275715444], [-60.35213693000925, 46.88681213271412], [-60.352129688394896, 46.88680564740385], [-60.352085385217066, 46.88676594181428], [-60.351995728442894, 46.886720659623485], [-60.35194413914745, 46.88667537658487], [-60.3519441513333, 46.88667406293019], [-60.351944615631204, 46.886612390647265], [-60.35198533988776, 46.88655843595533], [-60.3519750354291, 46.8865008611936], [-60.351974015821405, 46.88649517686471], [-60.35193465346955, 46.88646816697597], [-60.3518428276272, 46.88646694133037], [-60.35184171729051, 46.88646656464451], [-60.35181700231646, 46.88645825289705], [-60.351803729325646, 46.88645109697168], [-60.35176457314322, 46.886430031510706], [-60.35173219175545, 46.88640707096862], [-60.35172652210958, 46.88640305190563], [-60.35172689727169, 46.88640209763682], [-60.35174009345908, 46.88636736780777], [-60.351740553170984, 46.88633138018112], [-60.351750155297815, 46.88632804763608], [-60.35176726339354, 46.8863220989823], [-60.3518324099347, 46.88633170666868], [-60.351863199781704, 46.88632781163087], [-60.35189846810779, 46.88632333628612], [-60.351912465104775, 46.88630566115506], [-60.35191421042721, 46.8862195756975], [-60.351914269666885, 46.88621570725486], [-60.35188938103059, 46.886108036278905], [-60.351890709099386, 46.886081068318994], [-60.351876234765136, 46.88605779336583], [-60.35183962483056, 46.88599888969108], [-60.35183105918305, 46.88596784988941], [-60.35182737136058, 46.885954508157845], [-60.35173823664467, 46.88584534990878], [-60.35175222045075, 46.88582767449103], [-60.35175226033313, 46.885776755859304], [-60.351752267512836, 46.88577367817329], [-60.35175145490374, 46.88577178745174], [-60.351740484158775, 46.88574640669102], [-60.35170965949693, 46.88572489510883], [-60.35168845370829, 46.88571010388348], [-60.35163735305107, 46.88565492348402], [-60.35157221131505, 46.885618317089865], [-60.351558263006496, 46.8856054217748], [-60.351533292535464, 46.885582317758065], [-60.35149479945554, 46.885564327404936], [-60.35147426537906, 46.88555668834812], [-60.35146901934966, 46.885554730980665]]}, "properties": {"OBJECTID": 14622, "FEAT_CODE": "WACOIS10", "FEAT_DESC": "Coastal Island - Water to the right line", "RIVNAME_1": " ", "RIVNAME_2": " ", "ZVALUE": 0.4, "FID": null, "SHAPE_Length": 258.5766313010589}}, {"type": "Feature", "id": 16918, "geometry": {"type": "LineString", "coordinates": [[-60.350593631016515, 46.88597813943285], [-60.35055165645459, 46.88601642342933], [-60.35052628415895, 46.886039576666924], [-60.35043352443986, 46.88608422605533], [-60.35039327315224, 46.886128291630726], [-60.35039369798446, 46.886146309606154], [-60.35065610681118, 46.88614877820706], [-60.35080044004693, 46.88612332211213], [-60.350816170842634, 46.88612641326977], [-60.35085244341657, 46.88613352594864], [-60.350879592233305, 46.88614225424932], [-60.35086602469712, 46.88615093963233], [-60.35086513897362, 46.88616891825717], [-60.35085796925358, 46.88616923820317], [-60.35085198311768, 46.8861695135608], [-60.350733048942985, 46.88618565839884], [-60.35070010350542, 46.88620239959245], [-60.350628032693024, 46.88623902367099], [-60.35045570416685, 46.88629982943193], [-60.35038206745834, 46.886332529275016], [-60.35033626465477, 46.886352860382075], [-60.350283756199644, 46.886379542840594], [-60.35024264992189, 46.88641457999122], [-60.35024796596944, 46.88642177678492], [-60.35025618632911, 46.88643290166406], [-60.35032193646216, 46.88647021586255], [-60.350385171906446, 46.88650608584579], [-60.350404897151186, 46.88651309439267], [-60.3504122634221, 46.88651571288634], [-60.350422358578406, 46.88650850405856], [-60.3504244806242, 46.8865069962821], [-60.350437149523046, 46.886485915732756], [-60.35045166484035, 46.88646172809779], [-60.35049188560869, 46.88644466049949], [-60.350518153167265, 46.88644436890744], [-60.35053082187834, 46.88645366188417], [-60.35056925336946, 46.88649954979208], [-60.3505926444567, 46.88649956054673], [-60.350608632602594, 46.88649956184138], [-60.35067512093009, 46.88648220255981], [-60.350724271077354, 46.88648291782877], [-60.35078005837668, 46.88648373278186], [-60.350801505547686, 46.88649096112769], [-60.3508058830789, 46.88649243043545], [-60.350805440201924, 46.88650141974691], [-60.35079842033397, 46.88651121970403], [-60.350792753958466, 46.8865191250972], [-60.35063260625836, 46.88659911229643], [-60.35060614794123, 46.886609668003565], [-60.350434434186724, 46.88667821859888], [-60.350355467397065, 46.886722908392684], [-60.350341261495636, 46.886730957957624], [-60.35031001524761, 46.886758492877945], [-60.350301465703794, 46.88676603448104], [-60.35029797674702, 46.88677183938659], [-60.35027429430947, 46.88681130292549], [-60.35028694532698, 46.886847594220676], [-60.35031122559036, 46.88685620221538], [-60.35033855061921, 46.88686588867851], [-60.3503663835566, 46.88687086212623], [-60.350390598899565, 46.88687519380589], [-60.35043037705613, 46.886867115545], [-60.350454830682054, 46.88685728741119], [-60.35049599765743, 46.886840736702574], [-60.350548488869336, 46.88684105244936], [-60.3505887366068, 46.886850084186406], [-60.35059968255413, 46.886875428482185], [-60.35060051958917, 46.88687735577567], [-60.350587833185145, 46.88689506109901], [-60.35056069266939, 46.8869133316243], [-60.35056066124335, 46.88693874567378], [-60.350560661959115, 46.88694032961416], [-60.350563370006185, 46.886946377044], [-60.350572489680154, 46.88696669328582], [-60.35058515807715, 46.88697599524777], [-60.35062785291062, 46.88699397521637], [-60.35065074363277, 46.88700361290662], [-60.350699513571406, 46.88700432837914], [-60.350755681652, 46.88700515216089], [-60.35080728770472, 46.88702343742376], [-60.3508122159042, 46.88702705238056], [-60.350819956599295, 46.887032730371395], [-60.350820382011534, 46.887050739356425], [-60.35079327266856, 46.88706811070178], [-60.35068827225264, 46.88709447769397], [-60.350595971794704, 46.88712923832499], [-60.35055616228383, 46.887138215874245], [-60.35042499997398, 46.887136078060074], [-60.35040627810405, 46.887142268123085], [-60.35037162255836, 46.88715374086534], [-60.35031778441316, 46.88720739124163], [-60.35030569132074, 46.887227171176335], [-60.35029065709072, 46.88725176075192], [-60.35028931042283, 46.887305726960555], [-60.35032774228199, 46.88735161495168], [-60.350379773327695, 46.887387918382544], [-60.35049696515223, 46.887433830562365], [-60.35055496366708, 46.887457456738304], [-60.350588332043706, 46.88747104492128], [-60.35068013232156, 46.88754235960014], [-60.350717289873685, 46.8875712267651], [-60.35079510233909, 46.887617126623525], [-60.35086451033775, 46.887659897947074], [-60.35089828422277, 46.88768071308085], [-60.35093719027742, 46.887690613579665], [-60.351002794715164, 46.88769122377082], [-60.35105054044733, 46.88768636264312], [-60.35108195306257, 46.887683166201704], [-60.35109305344824, 46.88768166831733], [-60.35133171713635, 46.887649351173216], [-60.35147736534186, 46.88762392466336], [-60.351500060080845, 46.88761729542881], [-60.3517144325034, 46.887554716537075], [-60.351833856467685, 46.88752868248843], [-60.3518839140591, 46.887515522932325], [-60.352032012902676, 46.88747657209993], [-60.35208110391214, 46.887460114242366], [-60.352137456136454, 46.88744121455775]]}, "properties": {"OBJECTID": 16918, "FEAT_CODE": "WACOIS10", "FEAT_DESC": "Coastal Island - Water to the right line", "RIVNAME_1": " ", "RIVNAME_2": " ", "ZVALUE": 0.4, "FID": null, "SHAPE_Length": 517.6430557822308}}, {"type": "Feature", "id": 16920, "geometry": {"type": "LineString", "coordinates": [[-60.35052524638579, 46.8848615090648], [-60.350510806957715, 46.88486924725753], [-60.350459198457315, 46.88489687759671], [-60.35046580772369, 46.88492737722101], [-60.35047096338837, 46.88495114749866], [-60.35043205487886, 46.884968245483236], [-60.350378679648685, 46.88498590834158], [-60.35036555116144, 46.88501259397443], [-60.35032528670961, 46.88503056947343], [-60.35028595285092, 46.885029658417416], [-60.35026872815176, 46.885005212602586], [-60.350247921254336, 46.8849756800512], [-60.3502426753278, 46.88497372262938], [-60.350222141660936, 46.88496608335524], [-60.35015655623302, 46.88498087141012], [-60.35014251263651, 46.88498403794428], [-60.35005065850746, 46.88500980890451], [-60.34997017456588, 46.88504484275244], [-60.349944377125475, 46.8850622442894], [-60.34992704928463, 46.88508224490797], [-60.349890097738836, 46.885124883823046], [-60.34990274814751, 46.88516117515698], [-60.34993672536881, 46.885169035918004], [-60.34994168338952, 46.88517017672313], [-60.35000728471664, 46.88517078742284], [-60.35002543314596, 46.88517755252144], [-60.3500330639232, 46.88518039315746], [-60.35007286735579, 46.88519841435942], [-60.350072424819366, 46.885207394678275], [-60.35008418896967, 46.88526167360012], [-60.35009306857143, 46.88528019341093], [-60.35009726940386, 46.88528897530322], [-60.350161111685495, 46.88532555244425], [-60.35021360185266, 46.885325859325405], [-60.350247987008984, 46.8853150553362], [-60.35026693273828, 46.88530910447326], [-60.35031942244915, 46.885309420294824], [-60.35037189450368, 46.88533673439069], [-60.35038412000639, 46.8853550166896], [-60.35043480282252, 46.88544528629769], [-60.35049950063899, 46.88549088263153], [-60.350538766730736, 46.885511825083704], [-60.35055066182093, 46.8855181662835]]}, "properties": {"OBJECTID": 16920, "FEAT_CODE": "WACOIS10", "FEAT_DESC": "Coastal Island - Water to the right line", "RIVNAME_1": " ", "RIVNAME_2": " ", "ZVALUE": 0.4, "FID": null, "SHAPE_Length": 148.59501675849634}}, {"type": "Feature", "id": 21619, "geometry": {"type": "LineString", "coordinates": [[-60.35168383800387, 46.88471104491153], [-60.35165845670105, 46.884693358147786], [-60.35163065216248, 46.88468649575838], [-60.35161825463793, 46.884683427881264], [-60.35161357618192, 46.88468460651023], [-60.351513259302166, 46.88470979574357], [-60.35150014808127, 46.884709492197366], [-60.351447216183466, 46.88471816624835], [-60.35137976591641, 46.884686348056995], [-60.351368964476514, 46.884681256205106], [-60.35135870599669, 46.884633959942896], [-60.35135719868225, 46.88462698637602], [-60.351355817821954, 46.88462597345197], [-60.35134453024119, 46.88461769349403], [-60.35129414456505, 46.88459146309906], [-60.35129205835924, 46.88459037984558], [-60.35129083404902, 46.88458991951914], [-60.35126627919383, 46.88458077439505], [-60.351187567354884, 46.884579860850415], [-60.35112152435411, 46.8845882311695], [-60.351017414607206, 46.88459661994306], [-60.35095092874, 46.88461397947841], [-60.35085820304247, 46.88465773004328], [-60.3508532854083, 46.88466109899745], [-60.35081880773553, 46.884684716413055], [-60.350795168562996, 46.88470734287468], [-60.350791269877824, 46.88471107740651], [-60.35079123933239, 46.88473807540813], [-60.35075510585051, 46.88476199644306], [-60.35075053280956, 46.884765031389314], [-60.35052524638579, 46.8848615090648]]}, "properties": {"OBJECTID": 21619, "FEAT_CODE": "WACOIS10", "FEAT_DESC": "Coastal Island - Water to the right line", "RIVNAME_1": " ", "RIVNAME_2": " ", "ZVALUE": 0.4, "FID": null, "SHAPE_Length": 110.2282253195221}}, {"type": "Feature", "id": 21620, "geometry": {"type": "LineString", "coordinates": [[-60.35055066182093, 46.8855181662835], [-60.35057033838631, 46.8855141672037], [-60.3505904393858, 46.885510078955015], [-60.350600740880665, 46.88549707916748], [-60.350604436139726, 46.885492412975545], [-60.3506057823673, 46.88543844674051], [-60.350584882855266, 46.88538680916707], [-60.35058003715571, 46.885374862509025], [-60.350580176744025, 46.88536989797977], [-60.35058182673877, 46.885311897972706], [-60.35060893523774, 46.8852945266561], [-60.35063431646047, 46.88531221364985], [-60.35067319014899, 46.885349112204125], [-60.35068137745788, 46.88537875740194], [-60.350685442544375, 46.88539349384306], [-60.35069605483031, 46.88546397224539], [-60.350696322476544, 46.885465733359645], [-60.350736081618436, 46.88548466225934], [-60.35076752310921, 46.88548485041355], [-60.35078857151275, 46.885484977869126], [-60.35079720767378, 46.88546741271531], [-60.350801700360456, 46.885458283198446], [-60.3508157460866, 46.8854127106645], [-60.35086866499881, 46.88537793785445], [-60.35087863480487, 46.88536474136996], [-60.350909376218645, 46.88532398323454], [-60.350936054895925, 46.88531560145617], [-60.350953001653366, 46.88531345600571], [-60.35100209881943, 46.88530723126387], [-60.35103845785677, 46.885307515215395], [-60.35112018963949, 46.88530816580238], [-60.35115527822179, 46.885298799760335], [-60.35118536518859, 46.885290775828295], [-60.35129208864764, 46.885229349959616], [-60.35129649161198, 46.88521750947569], [-60.35130570423064, 46.88519276697486], [-60.35130703254951, 46.88516579902335], [-60.35132587877798, 46.8851408115932], [-60.35133371514892, 46.8851304185365], [-60.35136203351694, 46.88511166212162], [-60.35141377274981, 46.88507737472193], [-60.35144220767223, 46.88506771055035], [-60.35146583662232, 46.88505968102043], [-60.35150603849059, 46.88506962033442], [-60.35155808571302, 46.88507891591255], [-60.351597021197584, 46.88508791691969]]}, "properties": {"OBJECTID": 21620, "FEAT_CODE": "WACOIS10", "FEAT_DESC": "Coastal Island - Water to the right line", "RIVNAME_1": " ", "RIVNAME_2": " ", "ZVALUE": 0.4, "FID": null, "SHAPE_Length": 145.16644937750112}}, {"type": "Feature", "id": 22162, "geometry": {"type": "LineString", "coordinates": [[-60.35146901934966, 46.885554730980665], [-60.35145834555083, 46.88555690474512], [-60.351429242313195, 46.88556280962737], [-60.3514088323035, 46.885573172567845], [-60.35137673516751, 46.88558949261771], [-60.35128353822939, 46.885616133435406], [-60.351244629475936, 46.88563323169012], [-60.35124328387602, 46.88568719794395], [-60.351233695459335, 46.8856993143425], [-60.351229286832364, 46.88570487299363], [-60.35114918381297, 46.885758815582655], [-60.35099651388674, 46.885804841075654], [-60.350977300242995, 46.885810632862906], [-60.35092479263458, 46.88583731563526], [-60.35092160508825, 46.88584153461631], [-60.350898109399175, 46.88587269601019], [-60.35088276621367, 46.88594433725374], [-60.35084381281035, 46.88596233429507], [-60.350800133052836, 46.885964094645466], [-60.350659689357606, 46.88596976077113], [-60.35061460712627, 46.88597547537947], [-60.350593631016515, 46.88597813943285]]}, "properties": {"OBJECTID": 22162, "FEAT_CODE": "WACOIS10", "FEAT_DESC": "Coastal Island - Water to the right line", "RIVNAME_1": " ", "RIVNAME_2": " ", "ZVALUE": 0.4, "FID": null, "SHAPE_Length": 90.69304157829613}}, {"type": "Feature", "id": 180338, "geometry": {"type": "LineString", "coordinates": [[-60.347537089794216, 46.87989480334999], [-60.34750473840723, 46.879881993791464], [-60.347490152545035, 46.87987621984439], [-60.34743529601293, 46.87983884156499], [-60.347408170832274, 46.879812410807034], [-60.34738035699344, 46.87978530710467], [-60.34728648075387, 46.87974365811387], [-60.34713255954335, 46.8797440215686], [-60.34712069453341, 46.879741361527905], [-60.34709231770687, 46.879734988725225], [-60.34693670242445, 46.87967018268549], [-60.346831573805474, 46.87963288913721], [-60.34675482332406, 46.87960566724256], [-60.34668305788921, 46.87959419318703], [-60.34663632123622, 46.87958671946025], [-60.34655761736472, 46.879585793889454], [-60.3464178977727, 46.879584028904404], [-60.34638709971895, 46.879583638478934], [-60.34637025017473, 46.8795835806076], [-60.34629524159468, 46.87958330754867], [-60.346261322816744, 46.87958844243376], [-60.346243669388876, 46.87959111076675], [-60.346216611482106, 46.87959817771372], [-60.34617718836009, 46.87960846763511], [-60.34614719024909, 46.8796083566903], [-60.34608533020201, 46.87960813653538], [-60.345822568259265, 46.87961373977091], [-60.345798744676564, 46.87961351100611], [-60.3457569611948, 46.8796131175158], [-60.34563886330297, 46.87963917596847], [-60.34559948916965, 46.87963916231025], [-60.345560159401636, 46.87963824971004], [-60.34550723169252, 46.879646921100836], [-60.34549188850943, 46.87965038089112], [-60.34546741433656, 46.87965588769127], [-60.34541452360759, 46.8796906676745], [-60.34518771954283, 46.879765752641994], [-60.34515031875957, 46.87977814104647]]}, "properties": {"OBJECTID": 180338, "FEAT_CODE": "WARV50", "FEAT_DESC": "River - Single Line", "RIVNAME_1": " ", "RIVNAME_2": " ", "ZVALUE": 9999, "FID": null, "SHAPE_Length": 197.815142836896}}]}