{
"type": "FeatureCollection",
"name": "regions",
"crs": { "type": "name", "properties": { "name": "urn:ogc:def:crs:EPSG::3857" } },
"features": [
{ "type": "Feature", "properties": { }, "geometry": { "type": "Polygon", "coordinates": [ [ [ -6844325.599012885242701, 5748311.619433329440653 ], [ -6844325.583795337937772, 5748288.808054354973137 ], [ -6844325.57385206501931, 5748266.007198351435363 ], [ -6844325.569090953096747, 5748243.216817774809897 ], [ -6844325.569420333020389, 5748220.436866233125329 ], [ -6844325.574749063700438, 5748197.667297426611185 ], [ -6844325.58498645760119, 5748174.908066693693399 ], [ -6844325.6000423617661, 5748152.159129470586777 ], [ -6844325.617247213609517, 5748132.385538164526224 ], [ -6844320.66656818240881, 5748111.846323125995696 ], [ -6844315.184950654394925, 5748089.094950398430228 ], [ -6844309.708076949231327, 5748066.354109709151089 ], [ -6844304.235870300792158, 5748043.623753659427166 ], [ -6844298.768253583461046, 5748020.90383598767221 ], [ -6844293.305149312131107, 5747998.194311455823481 ], [ -6844287.846479556523263, 5747975.495135128498077 ], [ -6844282.392166152596474, 5747952.806263273581862 ], [ -6844276.942130667157471, 5747930.127653168514371 ], [ -6844271.496294300071895, 5747907.459262285381556 ], [ -6844266.054578086361289, 5747884.801049136556685 ], [ -6844260.616902893409133, 5747862.15297325514257 ], [ -6844255.183189324103296, 5747839.514994452707469 ], [ -6844249.753357860259712, 5747816.887073375284672 ], [ -6844244.327328863553703, 5747794.269171385094523 ], [ -6844238.90502258297056, 5747771.661250458098948 ], [ -6844233.486359181813896, 5747749.063273208215833 ], [ -6844228.071258751675487, 5747726.475202762521803 ], [ -6844222.659641361795366, 5747703.897002887912095 ], [ -6844217.251427056267858, 5747681.328637890517712 ], [ -6844211.846535881049931, 5747658.770072576589882 ], [ -6844206.444887899793684, 5747636.221272203139961 ], [ -6844201.046403233893216, 5747613.682202569209039 ], [ -6844195.651002043858171, 5747591.15282975230366 ], [ -6844190.258604634553194, 5747568.63312064576894 ], [ -6844184.869131317362189, 5747546.123042004182935 ], [ -6844179.4825025992468, 5747523.622561341151595 ], [ -6844174.098639107309282, 5747501.131646475754678 ], [ -6844168.717461592517793, 5747478.650265384465456 ], [ -6844163.338890985585749, 5747456.178386363200843 ], [ -6844157.962848452851176, 5747433.7159782666713 ], [ -6844154.942727176472545, 5747421.096733481623232 ], [ -6844150.542633898556232, 5747408.201490910723805 ], [ -6844142.880695392377675, 5747385.749264937825501 ], [ -6844135.221170596778393, 5747363.306741203181446 ], [ -6844127.563946126028895, 5747340.873792239464819 ], [ -6844119.908939459361136, 5747318.450381391681731 ], [ -6844112.256086889654398, 5747296.036527457647026 ], [ -6844104.605296775698662, 5747273.632167619653046 ], [ -6844096.956486414186656, 5747251.237265479750931 ], [ -6844089.309589987620711, 5747228.851834155619144 ], [ -6844081.664504223503172, 5747206.475777101702988 ], [ -6844074.653875019401312, 5747185.96060838457197 ], [ -6844067.220061746425927, 5747165.438763372600079 ], [ -6844059.121699230745435, 5747143.087297561578453 ], [ -6844051.024864595383406, 5747120.745183081366122 ], [ -6844042.929477840662003, 5747098.412393194623291 ], [ -6844034.835451258346438, 5747076.088879712857306 ], [ -6844026.742704982869327, 5747053.77461579721421 ], [ -6844018.651166296564043, 5747031.469593964517117 ], [ -6844010.560741048306227, 5747009.173747217282653 ], [ -6844002.471359706483781, 5746986.887075953185558 ], [ -6843994.382936365902424, 5746964.609534929506481 ], [ -6843987.609014330431819, 5746945.958056339994073 ], [ -6843980.048118115402758, 5746927.258433034643531 ], [ -6843971.045996666885912, 5746905.001674748957157 ], [ -6843962.044539065100253, 5746882.754037910141051 ], [ -6843953.043681034818292, 5746860.515536614693701 ], [ -6843944.746620012447238, 5746840.023127953521907 ], [ -6844406.947858233936131, 5746840.023127953521907 ], [ -6844406.954031496308744, 5746840.040130659937859 ], [ -6844415.05703045334667, 5746862.364316417835653 ], [ -6844423.160650813952088, 5746884.696524078026414 ], [ -6844431.264972861856222, 5746907.036781915463507 ], [ -6844439.370077194646001, 5746929.385118628852069 ], [ -6844447.476044678129256, 5746951.741563266143203 ], [ -6844455.582956496626139, 5746974.106145428493619 ], [ -6844463.690894106402993, 5746996.478895211592317 ], [ -6844471.799939243122935, 5747018.859843326732516 ], [ -6844479.910173876211047, 5747041.249021034687757 ], [ -6844481.213660903275013, 5747044.952623578719795 ], [ -6844488.861174463294446, 5747067.331503759138286 ], [ -6844496.514302690513432, 5747089.73109879437834 ], [ -6844504.16885400377214, 5747112.138937910087407 ], [ -6844511.824909802526236, 5747134.55505298729986 ], [ -6844519.48255171161145, 5747156.979476599954069 ], [ -6844527.141861579380929, 5747179.412242081016302 ], [ -6844534.802921481430531, 5747201.853383700363338 ], [ -6844542.46581354457885, 5747224.302936127409339 ], [ -6844550.130620101466775, 5747246.760935005731881 ], [ -6844557.797423552721739, 5747269.227416581474245 ], [ -6844565.466306525282562, 5747291.702418433502316 ], [ -6844568.50355744920671, 5747301.338133826851845 ], [ -6844571.085123317316175, 5747311.105806117877364 ], [ -6844576.458122364245355, 5747333.556292098015547 ], [ -6844581.833118501119316, 5747356.014328154735267 ], [ -6844587.210383772850037, 5747378.480753525160253 ], [ -6844592.589917776174843, 5747400.955268517136574 ], [ -6844597.971864867024124, 5747423.438177864067256 ], [ -6844603.356269503943622, 5747445.929368567653 ], [ -6844608.743205221369863, 5747468.428848790004849 ], [ -6844614.132782521657646, 5747490.936780953779817 ], [ -6844619.52505483943969, 5747513.453089128248394 ], [ -6844624.920114398933947, 5747535.977859255857766 ], [ -6844630.318038285709918, 5747558.511114321649075 ], [ -6844635.718906551599503, 5747581.052889858372509 ], [ -6844641.122800933197141, 5747603.60322879254818 ], [ -6844646.529797676019371, 5747626.162151538766921 ], [ -6844651.939989713951945, 5747648.729748691432178 ], [ -6844657.353441020473838, 5747671.305990714579821 ], [ -6844662.770243668928742, 5747693.890966057777405 ], [ -6844668.190480224788189, 5747716.484724368900061 ], [ -6844673.614225865341723, 5747739.087285523302853 ], [ -6844679.041557697579265, 5747761.6986785819754 ], [ -6844684.472570016980171, 5747784.319005467928946 ], [ -6844689.907332320697606, 5747806.948266183026135 ], [ -6844695.345929885283113, 5747829.586527848616242 ], [ -6844700.788445710204542, 5747852.233849871903658 ], [ -6844706.234957731328905, 5747874.890272323042154 ], [ -6844711.685544810257852, 5747897.555840892717242 ], [ -6844717.140289978124201, 5747920.230620767921209 ], [ -6844722.599274365231395, 5747942.914671423844993 ], [ -6844728.062575451098382, 5747965.608039343729615 ], [ -6844733.530277180485427, 5747988.310800405219197 ], [ -6844739.00245463103056, 5748011.022996306419373 ], [ -6844744.479189459234476, 5748033.744698708876967 ], [ -6844749.963066698983312, 5748056.486363779753447 ], [ -6844752.123580956831574, 5748066.482965614646673 ], [ -6844753.806603972800076, 5748076.570943787693977 ], [ -6844755.008332890458405, 5748086.727504116483033 ], [ -6844755.726052355021238, 5748096.929697453044355 ], [ -6844755.95814065169543, 5748107.154471539892256 ], [ -6844755.933782613836229, 5748129.816942446865141 ], [ -6844755.914070823229849, 5748152.466423212550581 ], [ -6844755.89907022099942, 5748175.124525620602071 ], [ -6844755.888869417831302, 5748197.79131717607379 ], [ -6844755.883557539433241, 5748220.466809189878404 ], [ -6844755.883224199526012, 5748243.151052565313876 ], [ -6844755.887959447689354, 5748265.844090550206602 ], [ -6844755.897853834554553, 5748288.545955436304212 ], [ -6844755.912998332642019, 5748311.25668537337333 ], [ -6844755.933484364300966, 5748333.976342004723847 ], [ -6844755.959433525800705, 5748356.731041288934648 ], [ -6844755.957666324451566, 5748356.801602935418487 ], [ -6844325.645096586085856, 5748356.801602935418487 ], [ -6844325.619597284123302, 5748334.441383891738951 ], [ -6844325.599012885242701, 5748311.619433329440653 ] ] ] } }
]
}
