{
"type": "FeatureCollection",
"name": "regions",
"crs": { "type": "name", "properties": { "name": "urn:ogc:def:crs:EPSG::3857" } },
"features": [
{ "type": "Feature", "properties": { }, "geometry": { "type": "Polygon", "coordinates": [ [ [ -6841789.281718552112579, 5739927.654959809966385 ], [ -6841782.473295365460217, 5739905.769207070581615 ], [ -6841765.664679159410298, 5739853.678120750002563 ], [ -6841762.643168778158724, 5739843.454124587588012 ], [ -6841760.131815643049777, 5739833.09300843346864 ], [ -6841743.041441102512181, 5739754.080776856280863 ], [ -6841740.894118295051157, 5739742.671780882403255 ], [ -6841735.141422919929028, 5739706.80928541906178 ], [ -6841733.391616156324744, 5739693.097349088639021 ], [ -6841730.533133048564196, 5739663.034009861759841 ], [ -6841729.812684295699, 5739652.945260046049953 ], [ -6841729.567168355919421, 5739642.833799162879586 ], [ -6841729.561645938083529, 5739635.654713143594563 ], [ -6841729.561849190853536, 5739635.150303748436272 ], [ -6841729.600294875912368, 5739610.742558035068214 ], [ -6841729.618154542520642, 5739603.704049493186176 ], [ -6841729.591430966742337, 5739601.802059570327401 ], [ -6841728.294032065197825, 5739536.351393692195415 ], [ -6841728.251797707751393, 5739531.984831642359495 ], [ -6841728.262671237811446, 5739509.146602664142847 ], [ -6841728.229572779498994, 5739466.128770783543587 ], [ -6842158.543837752193213, 5739466.128770783543587 ], [ -6842158.576784561388195, 5739508.949505247175694 ], [ -6842158.576823861338198, 5739509.217488353140652 ], [ -6842158.566926122643054, 5739530.006213578395545 ], [ -6842159.833354287780821, 5739593.894480040296912 ], [ -6842159.85437892191112, 5739595.135875143110752 ], [ -6842159.914915264584124, 5739599.444412061013281 ], [ -6842159.935448746196926, 5739603.016220979392529 ], [ -6842159.913733126595616, 5739611.525452357716858 ], [ -6842159.880762205459177, 5739632.457473171874881 ], [ -6842161.119144092313945, 5739645.481826774775982 ], [ -6842164.856880222447217, 5739668.782998881302774 ], [ -6842178.463676417246461, 5739731.689948602579534 ], [ -6842192.343281165696681, 5739774.70382197573781 ], [ -6842193.02769077476114, 5739776.863703541457653 ], [ -6842199.583344989456236, 5739797.936927583068609 ], [ -6842217.490375089459121, 5739851.966043507680297 ], [ -6842254.968431760556996, 5739964.999999997206032 ], [ -6841801.620560465380549, 5739964.999999997206032 ], [ -6841790.495121955871582, 5739931.432314459234476 ], [ -6841789.281718552112579, 5739927.654959809966385 ] ] ] } }
]
}
