{"type": "FeatureCollection", "features": [{"type": "Feature", "id": 158458, "geometry": {"type": "LineString", "coordinates": [[-60.8926327270954, 46.477812671869245], [-60.89281557493952, 46.477733234086024], [-60.89301182181415, 46.477644161062926], [-60.89308940489935, 46.477622119127254], [-60.89310402564308, 46.477617969620816], [-60.893117586173965, 46.47761428656865], [-60.89323436489873, 46.47758256296883], [-60.89342678093283, 46.477520472326944], [-60.89348237122503, 46.477502533833466], [-60.893691287564984, 46.4774226839788], [-60.89384800880074, 46.47737878077841], [-60.89385167818992, 46.477377543391675], [-60.89392719432241, 46.47735233084578], [-60.89402483115762, 46.477316311859695], [-60.89407124447052, 46.477299185022055], [-60.89409555020543, 46.47729252281952], [-60.89413576235855, 46.47728147365831], [-60.89426545102425, 46.47724870881631], [-60.894344937551026, 46.47722862706484], [-60.89446321139793, 46.47720200568795], [-60.8945404001555, 46.477193527348405], [-60.89459322783697, 46.47717559143736], [-60.89465837951129, 46.477148198562226], [-60.89469781478577, 46.477131617960715], [-60.89472423238718, 46.47712221354615], [-60.89477607873681, 46.4770952685836], [-60.89485500218788, 46.477041822493945], [-60.895000164479896, 46.47692569670422], [-60.89517078032946, 46.476792039555676], [-60.89524804429574, 46.47673903963576], [-60.89534072322724, 46.47667546956594], [-60.8954992613822, 46.47655058948021], [-60.89568222079118, 46.476434258585144], [-60.8957606655985, 46.476385744000986], [-60.895826352290754, 46.47634511245831], [-60.8960498364446, 46.47615752764554], [-60.89605018321382, 46.47614853413011], [-60.896063286045724, 46.476112784672196], [-60.896067278571806, 46.476105190233724], [-60.8960773449246, 46.476086025703886], [-60.89609754976673, 46.47603028316795], [-60.89610358552486, 46.47601361843288], [-60.89611634187706, 46.47598685348948], [-60.896122256434424, 46.47597738644074], [-60.89614411136172, 46.47594236502507], [-60.89616212073369, 46.47591788371816], [-60.89617023226948, 46.47590684611401], [-60.8961747660354, 46.47589703865682], [-60.89618301021902, 46.47587918157054], [-60.8961961259114, 46.47584343233283], [-60.89623827107268, 46.47578727451689], [-60.89626341559926, 46.47575376259414], [-60.89627979731424, 46.47572621835198], [-60.89628988306011, 46.47570925013442], [-60.896302724353234, 46.47564648714184], [-60.89632887968228, 46.475610068836964]]}, "properties": {"OBJECTID": 158458, "FEAT_CODE": "WARV10", "FEAT_DESC": "Double Line River - Water to the left line", "RIVNAME_1": "Northeast Margaree River", "RIVNAME_2": " ", "ZVALUE": 9999, "FID": null, "SHAPE_Length": 391.96028264215937}}, {"type": "Feature", "id": 158459, "geometry": {"type": "LineString", "coordinates": [[-60.89632887968228, 46.475610068836964], [-60.89633145158894, 46.47560519321741], [-60.896342937600465, 46.47558332781651], [-60.896356733862405, 46.47552958228643], [-60.896356921358596, 46.47545037763565], [-60.89635698906511, 46.475421588208114], [-60.89635726128493, 46.47540472740833], [-60.896358892738, 46.47530462456231], [-60.89634776570172, 46.47518742114488], [-60.89634899836481, 46.47505981626819], [-60.89634993756922, 46.47496246364825]]}, "properties": {"OBJECTID": 158459, "FEAT_CODE": "WARV10", "FEAT_DESC": "Double Line River - Water to the left line", "RIVNAME_1": "Northeast Margaree River", "RIVNAME_2": " ", "ZVALUE": 9999, "FID": null, "SHAPE_Length": 72.29502901852904}}, {"type": "Feature", "id": 158460, "geometry": {"type": "LineString", "coordinates": [[-60.89634993756922, 46.47496246364825], [-60.89635106274241, 46.474899485061734], [-60.89634839456786, 46.474894018027285], [-60.89633778349575, 46.47487224102177], [-60.89633790032062, 46.47482528169995], [-60.89633795397128, 46.47480023596891], [-60.896330722210756, 46.47476243832418], [-60.89632603958164, 46.4747379264356], [-60.89631994122361, 46.47471094052388], [-60.89630154878762, 46.47462946800025], [-60.89626331212178, 46.47453966540663], [-60.89622470408734, 46.47449396447128], [-60.896200408762176, 46.47445984877506], [-60.8961863954994, 46.474440160123514], [-60.89615700057032, 46.474411611512195], [-60.89608343154146, 46.474340166447206], [-60.896004029412815, 46.47426662500693], [-60.895966460851575, 46.474231814990354], [-60.895869597600566, 46.47415707011276], [-60.89583742816835, 46.474132241311715], [-60.89578193120943, 46.47409314130553], [-60.89572203451022, 46.474050918324615], [-60.89565698531657, 46.47401462140576], [-60.895657332124564, 46.47400562788923], [-60.895648376608165, 46.47399362818069], [-60.89564370661925, 46.47398737729057], [-60.89561907568506, 46.473973127069115], [-60.89550226581429, 46.473905574635936], [-60.895449064433606, 46.47387384264133], [-60.89532017584202, 46.47379692377177], [-60.895269493982596, 46.47375999113359], [-60.89516545763097, 46.47368787656363], [-60.89512602559963, 46.47366053787509], [-60.895113439558294, 46.47365181924453], [-60.89509915555745, 46.47364355534544], [-60.894971987406294, 46.473570015717286], [-60.89483065043908, 46.47349806902568], [-60.894828913050986, 46.47349718204325], [-60.8947638781338, 46.47346088487343], [-60.894647446598256, 46.4734065413789], [-60.89456972864709, 46.47336101063315], [-60.894522711985914, 46.47331452426341], [-60.89450573503456, 46.473297732787664], [-60.8944787568952, 46.47326938124422], [-60.8944281166591, 46.473216204172275], [-60.894390278731706, 46.47311650837705], [-60.89437321537132, 46.4730668476485], [-60.89436568406378, 46.47304495617592], [-60.89435249256479, 46.47298171390379], [-60.894353730837565, 46.47290573253873], [-60.89435440026616, 46.47286475031474], [-60.89434983069045, 46.47279175794596], [-60.89434311652237, 46.47268454444837], [-60.894349842664525, 46.47265471665576], [-60.8943572609187, 46.47262180564352], [-60.89437728052601, 46.472563108002014], [-60.89439691792401, 46.47250553730492], [-60.89446472534165, 46.47233488799378], [-60.894557646164806, 46.47215480124132], [-60.894601857990516, 46.472041325677814], [-60.89462415091932, 46.47198412783803], [-60.89468899954978, 46.47186076338616], [-60.894718337574936, 46.47180496424862], [-60.89481465558026, 46.47164988756661], [-60.89482389180909, 46.47163500980297], [-60.89485074026724, 46.471580595772046], [-60.89487403112519, 46.471512373373976], [-60.89489039469905, 46.47146434519936], [-60.894930358688704, 46.47137417303256], [-60.894957852632636, 46.47130268004243], [-60.8949578754755, 46.47129296956664], [-60.89495802440689, 46.47123068397316], [-60.894973378145735, 46.47118586815665], [-60.89498591282511, 46.471149298343676], [-60.89501289522854, 46.4710356763674], [-60.89502634690595, 46.47097904464657], [-60.89503562073134, 46.47096183658159], [-60.89507966043003, 46.470880127309805], [-60.895086956948624, 46.470851704953496], [-60.89509345658033, 46.470826381891705], [-60.8951214814156, 46.47067389948914], [-60.89517496625043, 46.47050297701871], [-60.89518726368258, 46.47045329895068], [-60.89521509971146, 46.470340826619896], [-60.895245566867466, 46.47027969318065], [-60.8952955579462, 46.47017941858112], [-60.89535493224091, 46.47009320355128], [-60.895388005421964, 46.47004521290987]]}, "properties": {"OBJECTID": 158460, "FEAT_CODE": "WARV10", "FEAT_DESC": "Double Line River - Water to the left line", "RIVNAME_1": "Northeast Margaree River", "RIVNAME_2": " ", "ZVALUE": 9999, "FID": null, "SHAPE_Length": 619.1462040914531}}, {"type": "Feature", "id": 159203, "geometry": {"type": "LineString", "coordinates": [[-60.89612422226035, 46.469463869772916], [-60.89620209313665, 46.469437403060816], [-60.89624090868083, 46.46943234839335], [-60.89646262106939, 46.469403497371005], [-60.89664494019717, 46.46940415185257], [-60.89673779271762, 46.469420205966024], [-60.89674974838751, 46.46942227989676], [-60.89695698908451, 46.46948639170303], [-60.896985812039354, 46.46949457182536], [-60.89702141228411, 46.469504676588], [-60.897061416717584, 46.469514403356584], [-60.89713182778571, 46.46952129644232], [-60.89715225346476, 46.4695232831282], [-60.89721013104986, 46.4695326186016], [-60.897385265510074, 46.469560868461926], [-60.89749073113272, 46.4695714119957], [-60.8976720263506, 46.46958953282308], [-60.89784778757529, 46.46960862259523], [-60.89793143945181, 46.46961771163121], [-60.89820485089008, 46.46965513810603], [-60.89833475057361, 46.469664726075955], [-60.8984912660912, 46.46969280295922], [-60.8985614791028, 46.46970586545709], [-60.898738286282466, 46.469738742938084], [-60.89895957266556, 46.46977610954136], [-60.898969250433396, 46.46977611639813], [-60.8990637861758, 46.46977622472017], [-60.89907173039917, 46.469782013649755], [-60.89907645673553, 46.46978544846893], [-60.89910884550938, 46.46978560266785], [-60.89927180639709, 46.469786347212896], [-60.899558305929766, 46.46978801131831], [-60.89966880659027, 46.469785190487805], [-60.89984515157203, 46.46978068115851], [-60.89996141292645, 46.469772016931714], [-60.89998899755683, 46.469768725669496], [-60.900000669792654, 46.46976733808983], [-60.90003580723777, 46.46976274556602], [-60.900157766397726, 46.46974682387644], [-60.90043133165408, 46.469712248606804], [-60.90057568109008, 46.469678053861195], [-60.90073104601197, 46.469641253232425], [-60.90084116979743, 46.46961672557831], [-60.90096623111635, 46.469588881112735], [-60.901118700117124, 46.469552854778705], [-60.901227803599106, 46.46952707503363], [-60.90137148022026, 46.46948291303725], [-60.9014627108508, 46.46944768807807], [-60.90158204642695, 46.46940240402162], [-60.90169799776429, 46.46935840771278], [-60.90197233285075, 46.469269843457056], [-60.90223422650271, 46.46919995005462], [-60.90249485243565, 46.469129132803154], [-60.90250121372561, 46.46912697253637], [-60.90262551075576, 46.46908473038557], [-60.90270682556956, 46.46905159049662], [-60.90275651444575, 46.46903133424943], [-60.903030833223546, 46.46894276715396], [-60.90327915773248, 46.46885372266967], [-60.90335480912036, 46.46882558139866], [-60.90339675134785, 46.468809970754265], [-60.903501029992185, 46.468774092462894], [-60.90364531363178, 46.46874793854961], [-60.903775279669816, 46.46872151293335], [-60.90401486487818, 46.468699211903264], [-60.90404979368427, 46.46869595530658], [-60.90442742292987, 46.46869837788229], [-60.90448496440276, 46.46869510364267], [-60.90458279054843, 46.468689525772355], [-60.904845692048916, 46.4686827971911], [-60.904869617157786, 46.46868218265685], [-60.904893108652985, 46.46868030918453], [-60.90518187785179, 46.468657305050975], [-60.90548211310886, 46.46864030619268], [-60.90562823524105, 46.468628664305314], [-60.90579437334141, 46.468615426904805], [-60.90591225801608, 46.468602385408424], [-60.906108314804946, 46.468580668661], [-60.90642022915481, 46.46856479023254], [-60.90669439678079, 46.46854821081452], [-60.906851038950514, 46.4685393879577], [-60.906878705688236, 46.46853664553038], [-60.907019706363826, 46.468522676121644], [-60.90720740315043, 46.46850699637437], [-60.907320251156825, 46.468497569187136], [-60.90756013806122, 46.46848466214715], [-60.907632199614525, 46.46848077908459], [-60.907654099267454, 46.46847863291365], [-60.90780216826351, 46.46846408990879], [-60.90793213142688, 46.46843766851396], [-60.90820568581032, 46.468403074440275], [-60.908479929124404, 46.46835049250737], [-60.90857740911696, 46.46833590498089], [-60.90859784559583, 46.468332849871835], [-60.90865258778158, 46.46831423148829], [-60.90872847157507, 46.468288430888784], [-60.90892459533229, 46.46823532787006], [-60.90900245852852, 46.46820885230055], [-60.90901547464481, 46.46820909036271], [-60.90908664964215, 46.46819127631664], [-60.909119356622334, 46.46818309958735], [-60.90916178053335, 46.4681732195769], [-60.90919822456812, 46.468164733174], [-60.909446743627754, 46.4681035785563], [-60.90969399498087, 46.46804150022942], [-60.90987670938496, 46.46799804129705], [-60.90996892356699, 46.467970936445546], [-60.91006014666827, 46.46793569548854], [-60.91008790573914, 46.46792814802358], [-60.91019043854024, 46.46790028663109], [-60.910295647727665, 46.467874301047665], [-60.910438390132015, 46.46782021068578], [-60.910530913946275, 46.467785002126405], [-60.91053684998858, 46.46778134865629], [-60.910661637886854, 46.467704601107016], [-60.91072717200984, 46.467659899235024], [-60.91088358379245, 46.46758894930255], [-60.91091829319102, 46.467571997743086], [-60.91111984597387, 46.46747356764487], [-60.9112366916689, 46.4674038472754], [-60.9113291178522, 46.46734869249702], [-60.91136647705985, 46.467326137271854], [-60.911447781478174, 46.46727706114452], [-60.91153873288645, 46.46721482332898], [-60.91164693491566, 46.46714120067848], [-60.91174869096822, 46.467071960136536], [-60.911833791995605, 46.46699614236524], [-60.91191994448872, 46.46691938974449], [-60.91201192684497, 46.46683017066501], [-60.91210416542704, 46.466767955905816], [-60.91226241424109, 46.46661514749414], [-60.91228172687238, 46.46659241541037], [-60.91240698536538, 46.46644498928533], [-60.912488247032975, 46.46634452217296], [-60.912551899508166, 46.466265837248095], [-60.912617504466574, 46.466185135957595], [-60.912638361412, 46.46614346920735], [-60.9126710909229, 46.46607811547052], [-60.91277730029371, 46.46588925656301], [-60.91284096487145, 46.46581022969777], [-60.912856607779865, 46.46579080548406], [-60.91289618059243, 46.46570962877838], [-60.91296278153553, 46.46560284573839], [-60.91301536955449, 46.46552190658509], [-60.91309170049354, 46.465401126233424], [-60.91313457904563, 46.46533328464752], [-60.91314949900007, 46.4653044872929], [-60.913227404695405, 46.465154080898834], [-60.91327701164832, 46.465092500007394], [-60.91330671026624, 46.46505562946468], [-60.91334058776705, 46.46501915018386], [-60.913373270363856, 46.4649839450705], [-60.91342717892535, 46.46494679637368], [-60.913477609226916, 46.464912050144996], [-60.913544512329466, 46.46483138100274], [-60.91370104606268, 46.46468843016765], [-60.9138458909023, 46.46454527482281], [-60.913950756434346, 46.46444456236851], [-60.91400406786574, 46.46439336264603], [-60.91403945267352, 46.46436649556038], [-60.91412212030915, 46.464303717532765], [-60.91414891077036, 46.46425021587789], [-60.914188481167336, 46.46416902066685], [-60.91421573532213, 46.46413678523858], [-60.91424167985201, 46.464106100894654], [-60.91432125270475, 46.4640346533476], [-60.91433291516991, 46.46402495721139], [-60.91438582147925, 46.46398093184493], [-60.91442129316674, 46.46395689219627], [-60.914464706781175, 46.46392747147119], [-60.91451550806162, 46.463893199544394], [-60.914556950630775, 46.46386525481344], [-60.91471795142168, 46.46378046946853], [-60.91472708278081, 46.46377565907449], [-60.914805624266215, 46.463731183102254], [-60.91481863936345, 46.46373142048658], [-60.91483909742161, 46.46371035583889], [-60.9148443979334, 46.46370490857066], [-60.91497645368302, 46.46358852724746], [-60.915067765074106, 46.46351727526149], [-60.9150737028632, 46.46351253259746], [-60.915147026856566, 46.463453921381195], [-60.91531753812509, 46.463320232120815], [-60.91547503358287, 46.46318630528334], [-60.9155543343434, 46.46311405991926], [-60.91563290598852, 46.46304248519961], [-60.915731718097774, 46.46295995754775], [-60.915803758128, 46.46289980151471], [-60.91590839879132, 46.462819809942], [-60.915941653100255, 46.46278831347205], [-60.91597460937018, 46.46275711755633], [-60.916145494044656, 46.462613533959306], [-60.91617850455349, 46.462582275973574], [-60.91621170409751, 46.46255084142559], [-60.916302641799085, 46.462488608545435], [-60.9164346466762, 46.462408206238294], [-60.91647068433933, 46.46238361827132], [-60.91650016967593, 46.46236350083487], [-60.91652354029921, 46.46234082397958], [-60.916592136737236, 46.462274277753], [-60.916658002310655, 46.46222058759133], [-60.91673688318073, 46.46216711656175], [-60.91680179053433, 46.46210439994561], [-60.91684128343586, 46.46205922002767], [-60.9168687567591, 46.46198772134522], [-60.91687562534426, 46.461970863667986], [-60.916894619690986, 46.46192429323205], [-60.916961136872736, 46.461853505937], [-60.91707958010944, 46.46171886531766], [-60.917210351142536, 46.46160244898675], [-60.91725154985655, 46.46156886488707], [-60.917276228644354, 46.461548749683], [-60.9173811237435, 46.46149576112101], [-60.91740751728347, 46.46148634202012], [-60.91746322074871, 46.46146035699629], [-60.91748122036808, 46.46145350294735], [-60.91751741721345, 46.46143973544112], [-60.91757001075162, 46.46143074854743], [-60.91764585986508, 46.461417784262295], [-60.91784064277744, 46.46136139254759], [-60.917871050108396, 46.4613525864363], [-60.91788089789946, 46.46134877882775], [-60.91805347633619, 46.46128210944972], [-60.91811982761302, 46.4612490820826], [-60.91814242281334, 46.46123782966053], [-60.91820361627185, 46.46120173834965], [-60.91827565448804, 46.46115925654278], [-60.91837819803879, 46.46109992430804], [-60.91848081545399, 46.46105333720026], [-60.91851734070209, 46.461036749384384], [-60.91855701993524, 46.46101907599103], [-60.918738604145226, 46.46093817868257], [-60.91893046747105, 46.460858881184706], [-60.91910219192757, 46.46079540764543], [-60.91925871000127, 46.46072085719424], [-60.919282008309246, 46.46070652137387], [-60.9194774244172, 46.46058623902179], [-60.91957083814678, 46.460523778595785], [-60.91961238653401, 46.460495995949366], [-60.91964539152083, 46.460472998775806], [-60.919760902591186, 46.460392499476924], [-60.919857102778224, 46.46031294468628], [-60.919919577299936, 46.46026128791651], [-60.92011827465304, 46.46010470452131], [-60.92026466504967, 46.46002276850855], [-60.920433714296806, 46.45992684461665], [-60.92064132639757, 46.459775822415295], [-60.92066324410302, 46.45975907622496], [-60.92081167569503, 46.4596457219412], [-60.9208359714689, 46.459624663009286], [-60.92091133684572, 46.45955933526929], [-60.921022025406764, 46.459456949200245], [-60.921154315332785, 46.45930095634258], [-60.92127573029795, 46.4591555654891], [-60.92136080014338, 46.45904191337136], [-60.921401875349254, 46.45898956070482], [-60.92147347256859, 46.45888736343349], [-60.921500383411214, 46.45885369802517], [-60.921530904517276, 46.45881550829102], [-60.921579464557425, 46.4587173920783], [-60.92158874668433, 46.45869866100926], [-60.92159481448646, 46.45866378865762], [-60.92161374519538, 46.45855511686092], [-60.92161343519095, 46.458426412457186], [-60.92160586555925, 46.45835157555657], [-60.92158683647672, 46.45827022138217], [-60.921573130496924, 46.458244376450345], [-60.921561308499925, 46.45822206673468], [-60.921522244912815, 46.45815385718495], [-60.92151682053434, 46.45812495884046], [-60.92152247112554, 46.45811336168302]]}, "properties": {"OBJECTID": 159203, "FEAT_CODE": "WARV10", "FEAT_DESC": "Double Line River - Water to the left line", "RIVNAME_1": "Northeast Margaree River", "RIVNAME_2": " ", "ZVALUE": 9999, "FID": null, "SHAPE_Length": 2567.7065315789364}}, {"type": "Feature", "id": 159661, "geometry": {"type": "LineString", "coordinates": [[-60.895388005421964, 46.47004521290987], [-60.89539453460431, 46.470023508334286], [-60.89540145422858, 46.47000046096003], [-60.89544010263922, 46.46996158184215], [-60.89548140694086, 46.46992003362967], [-60.89549181686567, 46.46990814738342], [-60.89552092311695, 46.469874861524204], [-60.89553637402805, 46.469853852163844], [-60.89554704138317, 46.469839342678675], [-60.89562499847881, 46.469776878323835], [-60.89580958277621, 46.46965157714884], [-60.89585924091538, 46.46960077765155], [-60.89588823273462, 46.46957112555381], [-60.89592424345931, 46.46954591358197], [-60.895927054550704, 46.46954394933917], [-60.895935705287364, 46.46953815961153], [-60.89599390468874, 46.46949927112749], [-60.89600517420852, 46.46949549156938], [-60.89609815497653, 46.469464290055804], [-60.89612422226035, 46.469463869772916]]}, "properties": {"OBJECTID": 159661, "FEAT_CODE": "WARV10", "FEAT_DESC": "Double Line River - Water to the left line", "RIVNAME_1": "Northeast Margaree River", "RIVNAME_2": "First Brook Pool", "ZVALUE": 9999, "FID": null, "SHAPE_Length": 88.34289894113319}}, {"type": "Feature", "id": 182427, "geometry": {"type": "LineString", "coordinates": [[-60.895167054464686, 46.4699988456567], [-60.89525761136888, 46.46990724683382], [-60.89527277915704, 46.46989189323744], [-60.89527403023939, 46.469890188287934], [-60.89528652388036, 46.46987324647476], [-60.89535212386751, 46.469793454991056], [-60.89542856510731, 46.469689572295984], [-60.89549783076047, 46.46959543935729]]}, "properties": {"OBJECTID": 182427, "FEAT_CODE": "WARV20", "FEAT_DESC": "Double Line River - Water to the right line", "RIVNAME_1": "Northeast Margaree River", "RIVNAME_2": "First Brook Pool", "ZVALUE": 9999, "FID": null, "SHAPE_Length": 51.61321272084032}}, {"type": "Feature", "id": 182428, "geometry": {"type": "LineString", "coordinates": [[-60.89549783076047, 46.46959543935729], [-60.89549765403207, 46.46959394211966], [-60.89549687590801, 46.46958642187418], [-60.8955160184549, 46.46957810733988], [-60.89553661845342, 46.469569153637636], [-60.895642290855285, 46.469497299544], [-60.89578571023734, 46.46942614011154], [-60.89593043087644, 46.46935500444756], [-60.89603468092408, 46.46932002342903]]}, "properties": {"OBJECTID": 182428, "FEAT_CODE": "WARV20", "FEAT_DESC": "Double Line River - Water to the right line", "RIVNAME_1": "Northeast Margaree River", "RIVNAME_2": "First Brook Pool", "ZVALUE": 9999, "FID": null, "SHAPE_Length": 52.097753668739756}}, {"type": "Feature", "id": 183091, "geometry": {"type": "LineString", "coordinates": [[-60.89244098927954, 46.477676037976885], [-60.892491422173116, 46.47765975987065], [-60.892516885942456, 46.47764133848718], [-60.89259441558927, 46.477595725174545], [-60.89262219614384, 46.47757938044971], [-60.89275262274882, 46.47750798537243], [-60.89279240671975, 46.47748981887362], [-60.89284170790854, 46.47746741782423], [-60.89291042227415, 46.477436185654106], [-60.89308016231309, 46.4773925234473], [-60.8930864841688, 46.47738838300128], [-60.89309352775746, 46.477383769861184], [-60.893210487674104, 46.477357125566115], [-60.89321796447537, 46.47735411338313], [-60.89327666796865, 46.47733044542539], [-60.893355777361215, 46.47729787455602], [-60.89340639870025, 46.47727703657101], [-60.89351196741483, 46.4772420821651], [-60.893617481974445, 46.477218313534976], [-60.89370777772191, 46.47719799038262], [-60.893916605846, 46.47715413807474], [-60.894034185497354, 46.47714550414595], [-60.89412473945034, 46.477128272384974], [-60.894159568754574, 46.477118636046804], [-60.89434727922904, 46.47706667206294], [-60.89441549637068, 46.477053015627504], [-60.894437867664635, 46.47704854069942], [-60.89452946243009, 46.477004328097756], [-60.894635029927436, 46.476969372632304], [-60.8947136410281, 46.47692402079404], [-60.89475209723215, 46.47690141021353], [-60.89490958670092, 46.4768088302643], [-60.8949993396781, 46.476737034689734], [-60.895066859111836, 46.476683027483034], [-60.895224704082736, 46.47657613480811], [-60.89536953046338, 46.47646900225696], [-60.89540285881856, 46.476437468159844], [-60.89543578133373, 46.47640632257751], [-60.89550107711831, 46.476334625381384], [-60.89552454451415, 46.476314555596275], [-60.89555361604015, 46.476289693019524], [-60.895645294192605, 46.47620948146876], [-60.895672716998675, 46.476173995635406], [-60.895712683426034, 46.476083823300534], [-60.89572551246624, 46.476021060149556], [-60.89577943814206, 46.47594015361747], [-60.89585887653168, 46.475805717229846], [-60.895925630499875, 46.4756620474428], [-60.89597913093418, 46.4754911340083], [-60.896032583321606, 46.47532111965049], [-60.89604681183809, 46.475222382618874], [-60.89604729006798, 46.475198829686], [-60.89604828413435, 46.47515041052694], [-60.89605020344693, 46.47497393083883], [-60.89605033292017, 46.47496145036213], [-60.89604887834465, 46.47495559165922], [-60.89602554755751, 46.47486199534825], [-60.8960263133246, 46.47480801004792], [-60.89602622423123, 46.47479849551522], [-60.89602579034902, 46.47475400103014], [-60.89598826060037, 46.47464621155691], [-60.89595007213724, 46.47455550975495], [-60.895937789646226, 46.47452472005066], [-60.89592512805948, 46.47449295137881], [-60.895925475175886, 46.474483948867956], [-60.89591399239289, 46.47446755571781], [-60.89588720122397, 46.47442925406666], [-60.89584411384851, 46.47436155580596], [-60.8958356141406, 46.474348205517174], [-60.895801047073256, 46.47430785275119], [-60.89571968468305, 46.4742128642716], [-60.89565534159284, 46.47415858954976], [-60.89561698295612, 46.47413988369533], [-60.89555159992128, 46.47411258047202], [-60.89543515318767, 46.47405823750983], [-60.89536978336127, 46.47403093442493], [-60.895365779472414, 46.47402801674881], [-60.89535709981104, 46.474021701032584], [-60.89530773271154, 46.47399863446307], [-60.89516260035501, 46.4739308212716], [-60.895124255067756, 46.47391211549626], [-60.89502090760322, 46.47385827427774], [-60.894968448472575, 46.47383094767628], [-60.89491476682144, 46.473804246533085], [-60.89474860963246, 46.47372160083908], [-60.89465302209867, 46.47367868406067], [-60.89456678258383, 46.47363995331146], [-60.89451846964629, 46.473613215852446], [-60.89445071956015, 46.47357571651365], [-60.89439734003079, 46.47354592472362], [-60.89438568481027, 46.47353941913173], [-60.894321344191106, 46.47348513469481]]}, "properties": {"OBJECTID": 183091, "FEAT_CODE": "WARV20", "FEAT_DESC": "Double Line River - Water to the right line", "RIVNAME_1": "Northeast Margaree River", "RIVNAME_2": " ", "ZVALUE": 9999, "FID": null, "SHAPE_Length": 670.5470818141645}}, {"type": "Feature", "id": 183237, "geometry": {"type": "LineString", "coordinates": [[-60.894321344191106, 46.47348513469481], [-60.89431420489839, 46.4734753643075], [-60.8942953613639, 46.47344955652023], [-60.89428519353397, 46.47340450473654], [-60.8942831245612, 46.47339533172931], [-60.89425752353367, 46.47334986068621], [-60.89419423739951, 46.473268595893366], [-60.894187360147505, 46.47324933542822], [-60.89418129363172, 46.4732323578711], [-60.89418162724865, 46.47317948959432], [-60.89418181356623, 46.47315136833356], [-60.89417110329497, 46.47299007281417], [-60.89416166686729, 46.47285112951052], [-60.894159473105496, 46.47281886045282], [-60.894157279692664, 46.47278658240143], [-60.894147842970305, 46.4726476480867], [-60.894150878637646, 46.472467705953285], [-60.894151312123206, 46.4724227144248], [-60.894177952435896, 46.47230620639344], [-60.8942179048954, 46.47221604327179], [-60.894234682760846, 46.472190045588334], [-60.894258083162036, 46.47215378399364], [-60.8942973410057, 46.47208161685468], [-60.89432283775849, 46.47204740083624], [-60.89435091802673, 46.47200969543325], [-60.89445674757601, 46.47186674611023], [-60.894473887416716, 46.47183980106742], [-60.89449694698233, 46.4718035871447], [-60.894536516860285, 46.47172331675428], [-60.89454970602748, 46.4716515604218], [-60.8945734257408, 46.47160937370436], [-60.89459026513133, 46.471579408142425], [-60.894646297246204, 46.4714424714866], [-60.89465642207901, 46.47141772820556], [-60.89466794025537, 46.47137712575187], [-60.89469711828575, 46.4712744791692], [-60.89474793168195, 46.471138418345056], [-60.894750852635774, 46.47113057021714], [-60.89475251139245, 46.47098660229265], [-60.894747473870495, 46.47095004191604], [-60.894741315365366, 46.47090539698206], [-60.89475415676358, 46.47084264311841], [-60.89477606083711, 46.470765116294224], [-60.89479488727132, 46.47069848567714], [-60.89483592941543, 46.47054624304237], [-60.89485493378443, 46.47050302444308], [-60.89490303869724, 46.470393589382006], [-60.89494264192287, 46.47031241046017], [-60.89498247102036, 46.47025914438934], [-60.89500313638888, 46.47020831542735], [-60.89502278077284, 46.47015997863639], [-60.89505172745211, 46.47013388088372], [-60.89506190259559, 46.47012470832551], [-60.89509876029947, 46.47008059440761], [-60.895167054464686, 46.4699988456567]]}, "properties": {"OBJECTID": 183237, "FEAT_CODE": "WARV20", "FEAT_DESC": "Double Line River - Water to the right line", "RIVNAME_1": "Northeast Margaree River", "RIVNAME_2": " ", "ZVALUE": 9999, "FID": null, "SHAPE_Length": 404.2628952756563}}, {"type": "Feature", "id": 183244, "geometry": {"type": "LineString", "coordinates": [[-60.89603468092408, 46.46932002342903], [-60.89606763548485, 46.4693085340244], [-60.89608617241928, 46.46930207123002], [-60.89613355399307, 46.469290379309214], [-60.896191364216975, 46.46927610730588], [-60.89626986441998, 46.469266760950234], [-60.89642520028106, 46.469258810337614], [-60.89650366611012, 46.46925035417966], [-60.89708401862931, 46.46925301183725], [-60.897154839200674, 46.469253324510866], [-60.897388889844954, 46.469263920226304], [-60.89747713768934, 46.469267298183674], [-60.89766202302661, 46.469274361170626], [-60.89781928383549, 46.46929353377739], [-60.897896682413226, 46.46930297585112], [-60.89794258771281, 46.4693079598615], [-60.898156107653726, 46.469331145375754], [-60.89839114850941, 46.46934986615635], [-60.89854714073847, 46.469362417509274], [-60.898637882608895, 46.469369701372464], [-60.898774720470726, 46.469385140310834], [-60.89888559392269, 46.46939765392981], [-60.899040442775714, 46.46941758151734], [-60.899105923593524, 46.469426002765616], [-60.89914447517658, 46.46943016716425], [-60.89936665176971, 46.469454193481695], [-60.899600011307825, 46.46948278077571], [-60.89970209891963, 46.46948701427202], [-60.89983409784415, 46.469492481146936], [-60.899951625614214, 46.46948474018546], [-60.89999982104167, 46.46948471648913], [-60.900012713452334, 46.46948479130602], [-60.9000688419312, 46.4694850932968], [-60.9001927410442, 46.46948576702848], [-60.900277207287004, 46.469486220395254], [-60.90034266960908, 46.46947752277523], [-60.90038904151589, 46.46946903251373], [-60.90048565486121, 46.46945134900403], [-60.900669371145405, 46.469416023100436], [-60.90087856228417, 46.46933504913399], [-60.901035630469764, 46.46927424961839]]}, "properties": {"OBJECTID": 183244, "FEAT_CODE": "WARV20", "FEAT_DESC": "Double Line River - Water to the right line", "RIVNAME_1": "Northeast Margaree River", "RIVNAME_2": " ", "ZVALUE": 9999, "FID": null, "SHAPE_Length": 392.3426260026807}}, {"type": "Feature", "id": 188638, "geometry": {"type": "LineString", "coordinates": [[-60.89631710317866, 46.46371557662277], [-60.896343146073164, 46.463716055837], [-60.896499656533074, 46.46374413541331], [-60.89651188184529, 46.46374627733361], [-60.89660315237136, 46.463762239480246], [-60.89668188520934, 46.463780787860635], [-60.89688910463116, 46.46384489949153], [-60.89693453553807, 46.46386106208504], [-60.89699317472176, 46.46388191358665], [-60.897053422167936, 46.46389381272773], [-60.89708365600899, 46.463899777811754], [-60.897344321691754, 46.46392888105752], [-60.89756571559421, 46.46392934377033], [-60.89759882017352, 46.46393178854548], [-60.89769558887836, 46.46393892301425], [-60.89773302077366, 46.46394669427482], [-60.89778603552881, 46.46395769503657], [-60.897846561259506, 46.463980299772636], [-60.897981197153406, 46.46403058287235], [-60.89805359809602, 46.4640488698849], [-60.89816178007738, 46.464076202607075], [-60.89821283513028, 46.464090749106525], [-60.89835760050788, 46.46413200207463], [-60.89849462443524, 46.46416425664149], [-60.89855250067498, 46.464177884385556], [-60.89864527911987, 46.4641966625878], [-60.89873343077396, 46.46421450968288], [-60.89891566263377, 46.46425115861718], [-60.89909751401133, 46.464297700171684], [-60.89921018465009, 46.46433161232147], [-60.89927905387646, 46.46435234463267], [-60.89938347304323, 46.464380354044906], [-60.89941090860019, 46.46439203603899], [-60.89944754506806, 46.464407631044494], [-60.89959027771286, 46.46445775500944], [-60.89962873997238, 46.464471259521424], [-60.899784562404726, 46.46451732177016], [-60.89995343487674, 46.46456272353401], [-60.899972979657, 46.464567249513586], [-60.89999990892007, 46.464573477118776], [-60.900109603818, 46.46459979179122], [-60.90047342804056, 46.464655973389625]]}, "properties": {"OBJECTID": 188638, "FEAT_CODE": "WARV50", "FEAT_DESC": "River - Single Line", "RIVNAME_1": " ", "RIVNAME_2": " ", "ZVALUE": 9999, "FID": null, "SHAPE_Length": 338.53398995513174}}, {"type": "Feature", "id": 188642, "geometry": {"type": "LineString", "coordinates": [[-60.89059637532123, 46.46423475994444], [-60.89059568027466, 46.46425274694981], [-60.89056886656932, 46.46430625169218], [-60.89056414223562, 46.46431391344826], [-60.89052995698039, 46.464369433144945], [-60.89051096134508, 46.46440060034265], [-60.89047572284964, 46.46445843156618], [-60.89045489822059, 46.464493785965246], [-60.890422755291134, 46.46454835332386], [-60.89039628882284, 46.464592864516845], [-60.89038313721157, 46.46462952148024], [-60.890375378604766, 46.46465537006327], [-60.89036969880295, 46.46467427307257], [-60.890369656431815, 46.46469053513593], [-60.8903696100512, 46.46471027109219], [-60.89036882616479, 46.46476425611273], [-60.890368762410645, 46.46478747471497], [-60.890368737410235, 46.464800254131795], [-60.890372316483216, 46.464811444070705], [-60.89038036229601, 46.4648364683032], [-60.89040599107286, 46.46488104080749], [-60.89044485916194, 46.46495375733741], [-60.89045703658975, 46.46504308118759], [-60.89049451465257, 46.46515177170407], [-60.89050155239781, 46.46516547343414], [-60.890545390415305, 46.465250809510444], [-60.8905796233488, 46.465304621644755], [-60.89059696108265, 46.46533186928724], [-60.89062229691995, 46.465350327585234], [-60.8907005937829, 46.46541387160569], [-60.89070825995479, 46.4654247949438], [-60.890751211157514, 46.46548590480867], [-60.89077645826646, 46.46554037008708], [-60.89078907234148, 46.46558470238381], [-60.890788636335564, 46.465629693904596], [-60.89077445449872, 46.46569334963863], [-60.890759894026885, 46.46574860146605], [-60.89074850639783, 46.465791851946356], [-60.89073331735177, 46.4658815708379], [-60.89071942979372, 46.465971313738756], [-60.89073121254994, 46.46607053016662], [-60.890731075373274, 46.46608621448292], [-60.89073035342044, 46.466160513438666], [-60.89074284428789, 46.46624174310274], [-60.8907424140716, 46.466308829509806], [-60.890742319673976, 46.46632273263225], [-60.89074153607726, 46.46637671764685], [-60.89075411554097, 46.46642194929414], [-60.890772105994266, 46.46647849466008], [-60.89079128228282, 46.4665387338645], [-60.890855522893595, 46.466629018169066], [-60.890867666522226, 46.466719241318486], [-60.890879449697195, 46.466818456826765], [-60.890879192505594, 46.46683691089997], [-60.890877896086245, 46.46692641809948], [-60.890902217953865, 46.467105974029785], [-60.89090212949334, 46.467141972041276], [-60.890917349130035, 46.467184615397755], [-60.8909279840259, 46.467214448298314], [-60.8909371738041, 46.46723752260494], [-60.89095291930092, 46.46727700768852], [-60.89097365709984, 46.4673015649156], [-60.890991530596494, 46.4673227204327], [-60.89100828907364, 46.467340372412295], [-60.8910428446703, 46.46737677551316], [-60.89106844071299, 46.467422238235834], [-60.89113233530207, 46.467521515897154], [-60.8911576184122, 46.46757508174522], [-60.891168673571116, 46.46759471647536], [-60.89118321463862, 46.46762054444387], [-60.89122107760815, 46.46771935087262], [-60.89123973488421, 46.467753264678805], [-60.89128557914072, 46.46783664845755], [-60.89131022179796, 46.467873084627335], [-60.89133575467254, 46.467903336273444], [-60.891348833141215, 46.46791881434605], [-60.89141272879572, 46.46801809186078], [-60.891425691672836, 46.4680534215925], [-60.89143853134447, 46.46812565767847], [-60.891438280946986, 46.46814326588278], [-60.89143696534834, 46.468233627706944], [-60.891423078210764, 46.46832337066804], [-60.891408856598424, 46.46842210736623], [-60.891388332794726, 46.46849685106536], [-60.89138155810817, 46.46852150286146], [-60.89131348157995, 46.46880014438858]]}, "properties": {"OBJECTID": 188642, "FEAT_CODE": "WARV50", "FEAT_DESC": "River - Single Line", "RIVNAME_1": " ", "RIVNAME_2": " ", "ZVALUE": 9999, "FID": null, "SHAPE_Length": 529.097648972358}}, {"type": "Feature", "id": 188643, "geometry": {"type": "LineString", "coordinates": [[-60.88634280537931, 46.46732506727127], [-60.88634306251572, 46.46735206276106], [-60.88634201773072, 46.46737904318037], [-60.88635393203795, 46.467441362846145], [-60.886358276575635, 46.46745698601618], [-60.886379084107055, 46.46753182697593], [-60.886387349787064, 46.46756156250051], [-60.88639165982271, 46.46757706803224], [-60.88639539521595, 46.4675821860419], [-60.88641763511987, 46.46761263891131], [-60.88644322668037, 46.467658120592354], [-60.886454533317306, 46.467665835548026], [-60.88648256574789, 46.467684947604944], [-60.88653358425971, 46.467712890508594], [-60.8865583535287, 46.4677379001632], [-60.8865598945785, 46.467739476636346], [-60.88659712260678, 46.46782116404184], [-60.886635674134446, 46.467901975908646], [-60.88667453881735, 46.46797470263014], [-60.88669676486278, 46.468000475233], [-60.88671318215555, 46.46801950752244], [-60.88674521031701, 46.468042068340985], [-60.88675122002417, 46.468046310387656], [-60.886803540599004, 46.46807427723656], [-60.88687013761898, 46.46808944007232], [-60.886880996251584, 46.46809190875623], [-60.886931562168414, 46.4681029592814], [-60.88701146058526, 46.46812041086439], [-60.88712832493409, 46.46812977966535], [-60.88717849673216, 46.46813856381958], [-60.88723182563282, 46.46814789229167], [-60.887271452716945, 46.468166624432506], [-60.88729650176306, 46.46819316907945], [-60.88734809982314, 46.46823914014613], [-60.88738607338378, 46.468301941251056], [-60.887403427968835, 46.46835060946469], [-60.887411910698525, 46.468374417980286], [-60.88745047716866, 46.46845522083871], [-60.887461400191434, 46.4684789124448], [-60.88748772843564, 46.46853601738017], [-60.88751366973411, 46.46857249636542], [-60.88751707650866, 46.46858476319342], [-60.88752624695247, 46.46861772831544], [-60.887564452311835, 46.468707533368836], [-60.88760263634921, 46.468798229005074], [-60.88762658694863, 46.46898677864863]]}, "properties": {"OBJECTID": 188643, "FEAT_CODE": "WARV50", "FEAT_DESC": "River - Single Line", "RIVNAME_1": " ", "RIVNAME_2": " ", "ZVALUE": 9999, "FID": null, "SHAPE_Length": 227.6764936947733}}, {"type": "Feature", "id": 188786, "geometry": {"type": "LineString", "coordinates": [[-60.88839810785133, 46.474497273560694], [-60.88841112529479, 46.47449751399245], [-60.888488568768736, 46.47451604415296], [-60.888593035769716, 46.474543173254304], [-60.88866424827559, 46.4745533974095], [-60.88872258404995, 46.47456176464178], [-60.88881864364708, 46.47456243156348], [-60.888878863151085, 46.474562851488976], [-60.888939082691934, 46.474563270483465], [-60.88903514230072, 46.474563937223294], [-60.88912180260879, 46.47456444833681], [-60.889178403997946, 46.47456478240083], [-60.889231068115485, 46.474557789823734], [-60.889309356976774, 46.474547400352904], [-60.88945304306507, 46.474503253515394], [-60.889583724499104, 46.47445886643667], [-60.88967876681838, 46.474420148288864], [-60.88971475351626, 46.47440548572316], [-60.8898088438639, 46.47435398803515], [-60.889845176077394, 46.474334093863206], [-60.889880474293115, 46.474319715534456], [-60.8899762045453, 46.47428071283961], [-60.890132919826534, 46.47423680561618], [-60.890288926455234, 46.474210884903506], [-60.89043263693293, 46.47416673728458], [-60.89049810626884, 46.474158045429135], [-60.89057557973404, 46.47414278009916], [-60.8905899927515, 46.47413994106647], [-60.890606388929186, 46.474140054590734], [-60.890746257788436, 46.474141024201565], [-60.8908861526934, 46.4741419941216], [-60.89090254887379, 46.4741421076034], [-60.89091747409043, 46.47414219394653], [-60.891045809574265, 46.4741429504225], [-60.89116476092428, 46.47414349765706], [-60.89117605290304, 46.47414355294793], [-60.89118994870591, 46.474143647266885], [-60.89133233100733, 46.47414463552226], [-60.891427264951716, 46.474144748495455], [-60.891488656892285, 46.474144818773894], [-60.891632252089856, 46.47413666712554], [-60.89178757626107, 46.47412872258399], [-60.891969923529764, 46.47412939401776], [-60.89213956677069, 46.47412171302278], [-60.89214851631469, 46.474121707029575], [-60.89223075759845, 46.474121603317016], [-60.89229064299617, 46.474114472468095], [-60.892296191893166, 46.47411380977564], [-60.89246526237411, 46.47408722694583], [-60.89261117567771, 46.47405918201991], [-60.89264901213244, 46.47405191454657], [-60.89281838179769, 46.474017236798566], [-60.89294306797483, 46.47398665822622], [-60.892961716537755, 46.473982078976626], [-60.892973525927175, 46.473979191658294], [-60.89310507713328, 46.47394692145144], [-60.89326248348034, 46.47388502287213], [-60.893326588302784, 46.47386306539783], [-60.89341957701843, 46.47383121822298], [-60.8934766659295, 46.473802030466636], [-60.89352322983039, 46.47377822869564], [-60.893629173478345, 46.473733381192076], [-60.89375984946844, 46.47368899823949], [-60.89390293568664, 46.47362682595571], [-60.894046628826345, 46.47358267347468], [-60.89431801595463, 46.473486315380974], [-60.89432049928827, 46.47348542512986], [-60.894321212283494, 46.473485177264806], [-60.894321344191106, 46.47348513469481]]}, "properties": {"OBJECTID": 188786, "FEAT_CODE": "WARV50", "FEAT_DESC": "River - Single Line", "RIVNAME_1": " ", "RIVNAME_2": " ", "ZVALUE": 9999, "FID": null, "SHAPE_Length": 483.37611147466475}}, {"type": "Feature", "id": 188787, "geometry": {"type": "LineString", "coordinates": [[-60.88793795337036, 46.476087155909944], [-60.888003077274966, 46.4760874590002], [-60.888119305737455, 46.47607970618958], [-60.88822387901153, 46.476070837082666], [-60.8882879529724, 46.47606595467425], [-60.88832840439824, 46.4760628678855], [-60.88840652699072, 46.47606323174034], [-60.88845865213659, 46.47606347448245], [-60.8885256822141, 46.47605626156516], [-60.88861563154107, 46.47604657391748], [-60.88868427493403, 46.47603739272436], [-60.88881074526726, 46.47602047745606], [-60.88890547919425, 46.476000591049406], [-60.88898017113939, 46.47598490644217], [-60.88908539210356, 46.47595894959787], [-60.88913748506837, 46.47595901143821], [-60.88927980955433, 46.475950839278404], [-60.88942342276566, 46.47594269073251], [-60.88948624769266, 46.47595493840177], [-60.88951522300802, 46.47596058523807], [-60.88957961670046, 46.47597976473822], [-60.88970942671279, 46.47602536942433], [-60.88976881276627, 46.47605041431697], [-60.88983888985007, 46.47607994945896], [-60.88994142657265, 46.47613216040402], [-60.88998197664835, 46.476152798583776], [-60.89008191703342, 46.47619703257265], [-60.89012413189546, 46.47621572144784], [-60.89013551277984, 46.47622157441626], [-60.89026593066613, 46.476288546443804], [-60.8904093669871, 46.47635238358077], [-60.89052084855306, 46.476388235241416], [-60.890525171809905, 46.476389628996515], [-60.89059090293737, 46.47640793261144], [-60.89059294551378, 46.47640833929433], [-60.890681389562786, 46.47642580193925], [-60.89071954309005, 46.47643127581019], [-60.890746179313005, 46.476435097197914], [-60.89082458052204, 46.476462643330706], [-60.89090263419032, 46.47649918289602], [-60.8909448682507, 46.4765291846921], [-60.8909533502672, 46.47653521809847], [-60.890973260430094, 46.47654925623609], [-60.8910700218298, 46.47661746943814], [-60.89117371051009, 46.4766985811903], [-60.891184405632984, 46.47670836335928], [-60.89126305829395, 46.4767803193217], [-60.891379392017164, 46.476870664016815], [-60.891470041498046, 46.47695244399122], [-60.89150788782947, 46.47700094044052], [-60.891547000212206, 46.47705106220748], [-60.89163694255235, 46.477150819798865], [-60.8916558096078, 46.47716860053585], [-60.89167590866516, 46.47718753797628], [-60.891740945822484, 46.47722383692069], [-60.891844711713816, 46.477268949889556], [-60.89190880775129, 46.47729623148689], [-60.891928004663946, 46.47730615235092], [-60.89196118752115, 46.47732329701556], [-60.89207724232588, 46.47738753614577], [-60.8921812813818, 46.47745965353238], [-60.892270965952505, 46.477532406174014], [-60.8924381243907, 46.477676345159836], [-60.89243865344009, 46.47767681390732], [-60.89243875411215, 46.477676905762124]]}, "properties": {"OBJECTID": 188787, "FEAT_CODE": "WARV50", "FEAT_DESC": "River - Single Line", "RIVNAME_1": " ", "RIVNAME_2": " ", "ZVALUE": 9999, "FID": null, "SHAPE_Length": 424.0365042192521}}, {"type": "Feature", "id": 263616, "geometry": {"type": "LineString", "coordinates": [[-60.880838547312976, 46.469301241158234], [-60.88086388087104, 46.46931971956969], [-60.88088571264426, 46.4693341191063], [-60.88089055132883, 46.469337313765166], [-60.88092890142522, 46.469356024435086], [-60.88100728739553, 46.46938357708003], [-60.88101362568585, 46.469387735519376], [-60.881019976294986, 46.469391912186545], [-60.88114976368177, 46.46943751726678], [-60.88119982115966, 46.46945898279998], [-60.88127918027197, 46.46949301522856], [-60.881307952167646, 46.46950110836561], [-60.881409317223756, 46.469529626580375], [-60.881625445118516, 46.46958077305522], [-60.8816816553188, 46.469594072465526], [-60.88170078633227, 46.469597855908226], [-60.8817721405738, 46.469611948869165], [-60.88196770833299, 46.469640771969736], [-60.88214956917586, 46.46964687704129], [-60.882266907221464, 46.469650814639046], [-60.882453723923234, 46.46966952090253], [-60.88255365891167, 46.46967952579668], [-60.88282713965518, 46.469680990741224], [-60.882983055572524, 46.46969107796437], [-60.88304344467017, 46.469699747133895], [-60.883112590221685, 46.46970967639935], [-60.88326879605437, 46.46974587733792], [-60.883385884211314, 46.469783135823604], [-60.88348712782382, 46.46982423181528], [-60.88363210014689, 46.46988309305618], [-60.883878282126744, 46.46998394911731], [-60.884111483539485, 46.47008366441403], [-60.884254198356025, 46.47016551384561], [-60.88434395370201, 46.47020226550736], [-60.884480825310426, 46.47024770088991], [-60.88459087050083, 46.470284233813686], [-60.88462798207882, 46.47029193143055], [-60.88468132306904, 46.47030300729325], [-60.884811195343175, 46.47031261013537], [-60.885058646672746, 46.47031358814334], [-60.88519348244553, 46.47031443546259], [-60.88528004335904, 46.47031498366404], [-60.88537842249329, 46.47030534650373], [-60.88545002341203, 46.47029832794068], [-60.88549941726458, 46.4702862186508], [-60.8855933657397, 46.47026317949391], [-60.88567188229365, 46.47025383171957], [-60.8856722307008, 46.47024483825491], [-60.88584195393132, 46.47020117747473], [-60.88599935721336, 46.47013928881653], [-60.88607588160609, 46.47010132921886], [-60.8861427904632, 46.47006814172929], [-60.886170915420976, 46.470051597928205], [-60.88623476294484, 46.470014042825525], [-60.88628730308032, 46.469969114702174], [-60.88638002816001, 46.46986193913607], [-60.886410042791724, 46.46982114845885], [-60.88647214882449, 46.46973672550287], [-60.88651309285817, 46.46968110700256], [-60.88657801560249, 46.46959289309841], [-60.88668384733772, 46.469449950936905], [-60.88670913581637, 46.46942658663813], [-60.88672300909597, 46.46941377521694], [-60.88681565450434, 46.46934258845492], [-60.88686819385325, 46.46929765104735], [-60.88698554287744, 46.46922693875596], [-60.88713653847339, 46.46913968535289], [-60.88715608437506, 46.46912838270174], [-60.88727409991041, 46.46907475525913], [-60.8872832306654, 46.46907172902785], [-60.88732555875512, 46.46905771539127], [-60.88762658694863, 46.46898677864863]]}, "properties": {"OBJECTID": 263616, "FEAT_CODE": "WARV50", "FEAT_DESC": "River - Single Line", "RIVNAME_1": "First Fork Brook", "RIVNAME_2": " ", "ZVALUE": 9999, "FID": null, "SHAPE_Length": 613.4006523096822}}, {"type": "Feature", "id": 263753, "geometry": {"type": "LineString", "coordinates": [[-60.88762658694863, 46.46898677864863], [-60.88767865144261, 46.46898774063101], [-60.887822259476145, 46.46897959402597], [-60.88799086445749, 46.46899800876797], [-60.88818586317309, 46.46900790190199], [-60.888394225355846, 46.46900905962116], [-60.88860328372713, 46.46899222099993], [-60.88881173611855, 46.468957370987965], [-60.888994503861255, 46.4689130464228], [-60.88906587114694, 46.468900558337054], [-60.88918989181592, 46.46887885447663], [-60.889354962731325, 46.46884921444032], [-60.88938534034672, 46.468843763323946], [-60.889503250357755, 46.46882614026857], [-60.88958207723065, 46.46880869561993], [-60.88976422504145, 46.46874634956249], [-60.889894557259495, 46.46871096457723], [-60.88996035476015, 46.46869327918224], [-60.890168470939216, 46.46866741140012], [-60.89028669285978, 46.468641702374754], [-60.89035180832201, 46.46864199408635], [-60.8904212660943, 46.46863912682022], [-60.89054750081064, 46.46863391417517], [-60.89063152108711, 46.46863441234773], [-60.89069074699715, 46.4686347580981], [-60.8907555145287, 46.46864405296891], [-60.89087591660221, 46.46866843204991], [-60.890936453666214, 46.46868069074111], [-60.891066247715486, 46.46872629367018], [-60.89131348157995, 46.46880014438858]]}, "properties": {"OBJECTID": 263753, "FEAT_CODE": "WARV50", "FEAT_DESC": "River - Single Line", "RIVNAME_1": "First Fork Brook", "RIVNAME_2": " ", "ZVALUE": 9999, "FID": null, "SHAPE_Length": 293.35334930581195}}, {"type": "Feature", "id": 263754, "geometry": {"type": "LineString", "coordinates": [[-60.89131348157995, 46.46880014438858], [-60.89131562848854, 46.46880155197372], [-60.891326184977146, 46.468808478615834], [-60.891338840616456, 46.46881771195162], [-60.89135611380112, 46.46882407848363], [-60.89136453840867, 46.46882718583951], [-60.89142956558215, 46.468863484841194], [-60.89153367599043, 46.46889960462448], [-60.89160040288695, 46.468946869764196], [-60.89162369342036, 46.46896336412616], [-60.89170095431207, 46.469053888033486], [-60.89181695140059, 46.4691532261168], [-60.891823864505994, 46.469160733520596], [-60.89193320878724, 46.46927955960278], [-60.891985007849456, 46.46935282898446], [-60.89203572066618, 46.46942454832876], [-60.89207987943933, 46.469491268856736], [-60.8921255637684, 46.469560312470634], [-60.89215277868088, 46.46959122493033], [-60.89218921603254, 46.46963258531174], [-60.89221085675576, 46.46965538506841], [-60.89224052073469, 46.46968663065657], [-60.89234393865323, 46.469740736739745], [-60.89235968935138, 46.46974640005734], [-60.8923966110717, 46.46975970759134], [-60.892564885983674, 46.46978710939462], [-60.89270840827496, 46.469814954691465], [-60.89281222668241, 46.4698249681881], [-60.89283238292645, 46.46982785967087], [-60.8928769830065, 46.46983426164467], [-60.89291851998537, 46.46983430721166], [-60.892981183405006, 46.4698343821309], [-60.893063039345755, 46.46983835668618], [-60.893190503970324, 46.46984453966501], [-60.893424642609716, 46.46981915449478], [-60.893672092506705, 46.46982011382101], [-60.89391893488074, 46.469803061606875], [-60.894154375038305, 46.46977768991808], [-60.894237004679525, 46.46976600004684], [-60.8944019106852, 46.46974265861814], [-60.89462373892163, 46.469699044449854], [-60.8946663510034, 46.46969215225269], [-60.89472858523156, 46.4696820754156], [-60.894833340442325, 46.46965362072733], [-60.89485890436135, 46.4696466665321], [-60.895068395878134, 46.469584833523896], [-60.89514259110263, 46.469576686666464], [-60.89514557373919, 46.46957635458423], [-60.89523710456516, 46.46956723084553], [-60.89549671517032, 46.469595319822496], [-60.89549783076047, 46.46959543935729]]}, "properties": {"OBJECTID": 263754, "FEAT_CODE": "WARV50", "FEAT_DESC": "River - Single Line", "RIVNAME_1": "First Fork Brook", "RIVNAME_2": " ", "ZVALUE": 9999, "FID": null, "SHAPE_Length": 381.9542626352768}}, {"type": "Feature", "id": 293779, "geometry": {"type": "LineString", "coordinates": [[-60.900405097504574, 46.47452491401121], [-60.90039037187088, 46.474527424543886], [-60.90035264665942, 46.474533850632206], [-60.90029950369838, 46.47456077431378], [-60.900247316382824, 46.47459671542019], [-60.90018180030715, 46.47464050260425], [-60.90014202047206, 46.47465868075232], [-60.90007099448283, 46.47468281889278], [-60.90006414387347, 46.4746851500339], [-60.9000561445001, 46.47468517410012], [-60.900025056507225, 46.47468533206483], [-60.90000070380575, 46.474674984858666], [-60.89995967053457, 46.474658031317944], [-60.89995364641411, 46.47465547268969], [-60.899895599402875, 46.474630754686196], [-60.899797535550185, 46.47458941672181], [-60.89976611652562, 46.4745761766865], [-60.899701340274916, 46.474566886787976], [-60.899683446193634, 46.47456676505092], [-60.89962320033445, 46.47456635123724], [-60.899596819061486, 46.47457486646225], [-60.89954815456962, 46.47460151207717], [-60.899531600699206, 46.474610567835605], [-60.89948856754331, 46.4746323759429], [-60.8994784702878, 46.47463749136634], [-60.899459401221414, 46.47464149695922], [-60.89943905836979, 46.47464576714198], [-60.89938757583852, 46.47466372100943], [-60.8993530992832, 46.474675426398896], [-60.89933477849849, 46.47468165069503], [-60.899313628184785, 46.47469606690383], [-60.899269213618304, 46.47472634544955], [-60.89923186736446, 46.47474796095924], [-60.89917729323075, 46.4747795557679], [-60.89909836424232, 46.474833004747225], [-60.89896675973717, 46.47500338430183], [-60.89894304733988, 46.47501971533474], [-60.898914584148976, 46.47503932501478], [-60.89888784323379, 46.475056833364235], [-60.89885209575183, 46.47505687837742], [-60.89879665032505, 46.47505695734876], [-60.89871385066406, 46.475041755701966], [-60.898693167028384, 46.4750379555801], [-60.898654589314404, 46.47502794062579], [-60.89858869374507, 46.47501083561274], [-60.898480072194005, 46.47495071767066], [-60.89847262298384, 46.47494660278605], [-60.898452174120685, 46.47493941397441], [-60.89842121053729, 46.47492855791466], [-60.89839479392608, 46.47493798120232], [-60.89836806660951, 46.47495547168076], [-60.8983419342282, 46.474990999885165], [-60.89833941806486, 46.47499578657582], [-60.89832789046164, 46.47501774141218], [-60.8983106015943, 46.47504181331164], [-60.89830173674879, 46.4750541602049], [-60.89824958230507, 46.47508920101361], [-60.898210148264326, 46.47509837594866], [-60.89813200761296, 46.475097839366185], [-60.89811898994499, 46.47509760003843], [-60.898012155987715, 46.47509727383848], [-60.89800176165374, 46.47509724472769], [-60.8978718621588, 46.4750876564132], [-60.897817810789896, 46.47508502457313], [-60.897663822108065, 46.47507753104987], [-60.89756733819839, 46.47507365080159], [-60.89741669452989, 46.47506758644342], [-60.89722252193804, 46.47504139849693], [-60.897208046034095, 46.475039449263384], [-60.896948628979494, 46.475010377817924], [-60.89683999580277, 46.47499691357248], [-60.8967269286795, 46.47498289965728], [-60.896625790603046, 46.47497202106805], [-60.89654530590312, 46.4749633583652], [-60.89638575509575, 46.47496262770466], [-60.89634993756922, 46.47496246364825]]}, "properties": {"OBJECTID": 293779, "FEAT_CODE": "WARV55", "FEAT_DESC": "River - Single Line Indefinite", "RIVNAME_1": " ", "RIVNAME_2": " ", "ZVALUE": 9999, "FID": null, "SHAPE_Length": 359.7168310447136}}, {"type": "Feature", "id": 293780, "geometry": {"type": "LineString", "coordinates": [[-60.899959151263204, 46.47589010768814], [-60.8999334270327, 46.475881535256406], [-60.899803595044176, 46.47583595079842], [-60.899700814895944, 46.475798972072084], [-60.89966111763601, 46.475781133982686], [-60.8996220641055, 46.47578041650904], [-60.89960901223827, 46.47578986061171], [-60.899596603224595, 46.47579884852873], [-60.89957388011852, 46.47582433276097], [-60.89955712053126, 46.475843122630536], [-60.899490182620234, 46.47592379186578], [-60.8994552960057, 46.47595222055848], [-60.89942428279663, 46.47597748944557], [-60.89941045898371, 46.47598701834097], [-60.899346667424524, 46.47603095372508], [-60.89930931335334, 46.47606290099452], [-60.899294131822614, 46.4760758878883], [-60.899267403524405, 46.47609339655635], [-60.899241849827064, 46.47609934393515], [-60.899227955892975, 46.476102571592634], [-60.89921776929861, 46.476104247390445], [-60.899124400222895, 46.47611956847627], [-60.89904526793438, 46.47611091439225], [-60.89898705088356, 46.47610377860701], [-60.89896747209308, 46.47610138482421], [-60.89895057811127, 46.476098959379314], [-60.89883791631467, 46.476082804034625], [-60.898798240411345, 46.47606407504877], [-60.898694387268336, 46.47605496637617], [-60.898681496129285, 46.47604568454267], [-60.89851248405522, 46.476008432378684], [-60.89836992449724, 46.475989594028924], [-60.89831781798206, 46.47598954514974], [-60.89824002245739, 46.47598001509139], [-60.898230432638066, 46.47598006379101], [-60.89820093417892, 46.47598019648297], [-60.89812218332872, 46.47596164888479], [-60.89790105590172, 46.4759354165328], [-60.89788876243049, 46.47593395750897], [-60.89787609103089, 46.47592472462393], [-60.89771706033714, 46.47590771557805], [-60.89769316286997, 46.47590516116389], [-60.89761536758905, 46.47589563068408], [-60.89756509381601, 46.475884194294984], [-60.89753788420584, 46.475878005979766], [-60.89742738179248, 46.475873786816635], [-60.89726471735019, 46.475867582187924], [-60.897185336972726, 46.47586065023126], [-60.89704270145954, 46.475848198753134], [-60.896926194384314, 46.47583044080668], [-60.8968613876512, 46.475820563747234], [-60.89681822554611, 46.47581017584361], [-60.896743930347725, 46.47579231225388], [-60.896653168155616, 46.47574743396658], [-60.896562440435346, 46.47570166525097], [-60.89649870353273, 46.47566539296922], [-60.89635785246745, 46.475619511847185], [-60.89632887968228, 46.475610068836964]]}, "properties": {"OBJECTID": 293780, "FEAT_CODE": "WARV55", "FEAT_DESC": "River - Single Line Indefinite", "RIVNAME_1": " ", "RIVNAME_2": " ", "ZVALUE": 9999, "FID": null, "SHAPE_Length": 310.59067472032547}}, {"type": "Feature", "id": 183245, "geometry": {"type": "LineString", "coordinates": [[-60.901035630469764, 46.46927424961839], [-60.90105398991074, 46.46927103172586], [-60.901086787514416, 46.46926528893271], [-60.90119136706904, 46.46922130935813], [-60.90133538871869, 46.469168153835554], [-60.901465702238504, 46.469132746318564], [-60.9015986876481, 46.46909085376358], [-60.90163580351366, 46.46907916913654], [-60.90185794343462, 46.46902654674607], [-60.90189527939186, 46.469011167112996], [-60.901922794788355, 46.46899983719847], [-60.901949737009005, 46.46898783076565], [-60.902002309645525, 46.46896439680152], [-60.90202773189343, 46.468946863515065], [-60.90205473620704, 46.46891494140684], [-60.902080949250674, 46.468883949762], [-60.90211976824634, 46.46885675339462], [-60.90217252444621, 46.46883972165306], [-60.90225103649901, 46.468830362406926], [-60.90228752721413, 46.4688247680331], [-60.9023034469837, 46.46882232416667], [-60.90231555479943, 46.46881264643035], [-60.90236396105889, 46.46879661477463], [-60.90242108851157, 46.46877768314266], [-60.902590829160964, 46.468733097827915], [-60.90276053532869, 46.46868940261916], [-60.902981994238665, 46.46865477436203], [-60.903303543845155, 46.46859358665563], [-60.903581635076264, 46.468540673048096]]}, "properties": {"OBJECTID": 183245, "FEAT_CODE": "WARV20", "FEAT_DESC": "Double Line River - Water to the right line", "RIVNAME_1": "Northeast Margaree River", "RIVNAME_2": " ", "ZVALUE": 9999, "FID": null, "SHAPE_Length": 215.49631805678553}}, {"type": "Feature", "id": 183246, "geometry": {"type": "LineString", "coordinates": [[-60.903581635076264, 46.468540673048096], [-60.9036210635008, 46.46853149615654], [-60.90367312809554, 46.46853245085101], [-60.903804036802995, 46.46851504239256], [-60.90398576826898, 46.46849768357743], [-60.904207836995376, 46.468481054936085], [-60.904403528022975, 46.46847294226525], [-60.904624640199266, 46.46844729537523], [-60.90489785123475, 46.46842170283133], [-60.905146331736645, 46.46839564748445], [-60.90523026253994, 46.46838760947006], [-60.905406490982905, 46.46837073255836], [-60.905655316140106, 46.46833568251458], [-60.905845602899376, 46.468319710454615], [-60.905954558447, 46.46831056431269], [-60.90616706088615, 46.46829846359302], [-60.90625349001098, 46.46829353955069], [-60.90633306901092, 46.46828926398712], [-60.906553688877125, 46.46827742820321], [-60.90682752279941, 46.468269851261596], [-60.90708735811251, 46.46825300849276], [-60.90733470394602, 46.46823339854758], [-60.907400917153694, 46.46822814859374], [-60.90762024002915, 46.46819882719593], [-60.90766145467347, 46.468193317563646], [-60.907702804479804, 46.46818971836991], [-60.90796072992713, 46.46816729472132], [-60.908274632818525, 46.4681334388129], [-60.90839153585086, 46.46811503985618], [-60.9084436646874, 46.46810683164954], [-60.908586655806836, 46.46808064785314], [-60.90862941456099, 46.46806848818996], [-60.90867883662003, 46.46805443442217], [-60.90875663656584, 46.468031305827154], [-60.90888700591777, 46.467992542907936], [-60.90891396085385, 46.46798525101679], [-60.90934502889802, 46.467868621036196], [-60.90942999529018, 46.4678331671667], [-60.90951447171369, 46.46779792027245], [-60.909684845242836, 46.46773623617901], [-60.90976274180854, 46.467708860710815], [-60.90979176305608, 46.46770440536181], [-60.9098151502232, 46.46770081898871], [-60.90993285934469, 46.46762017185332], [-60.90996649805701, 46.46761112092469], [-60.909998662439016, 46.46760247502913], [-60.91004697256068, 46.46758852634095], [-60.91008952718431, 46.467576236401214], [-60.91025635347336, 46.46751497260562], [-60.9102599595124, 46.467513661534596], [-60.91037759230115, 46.46746900316434], [-60.91039673549789, 46.46746161314103], [-60.91046881395528, 46.46743377085367], [-60.91060037857949, 46.46735758822216], [-60.910652633946604, 46.46732733155399], [-60.91083553062721, 46.46721096619023], [-60.91100636736399, 46.46710339807492], [-60.91105557176147, 46.46707491245436], [-60.91109827637208, 46.467050178010766], [-60.91113463493167, 46.46702960255613], [-60.91117682518907, 46.46700571367625], [-60.91130706211121, 46.46693592290355], [-60.91136031997426, 46.466907358208765], [-60.91158261757084, 46.46678272955994], [-60.911728074039104, 46.46665758791056], [-60.91181902407859, 46.466595349843345], [-60.911884899958224, 46.4665416536403], [-60.91190437016075, 46.46652365844817], [-60.91192405617095, 46.46650546919638], [-60.91199001938769, 46.46641577490471], [-60.912023358734274, 46.466375704227865], [-60.91210878158853, 46.4662730454047], [-60.912227603589194, 46.46612941688066], [-60.91230758768469, 46.46601296972794], [-60.9123174070658, 46.46600176415788], [-60.91234708684893, 46.46596780049355], [-60.912412347782215, 46.4658960929415], [-60.91247828305997, 46.465806406851975], [-60.91251604204402, 46.465734530060594], [-60.91255836630139, 46.46565396170373], [-60.91263843572326, 46.46550152524417], [-60.91270548921971, 46.46534885108772], [-60.91274199431872, 46.46527023739416], [-60.91277219810088, 46.46520517950443], [-60.91283856343654, 46.465070483515284], [-60.912860424024274, 46.465026396066435], [-60.91290489370479, 46.46493669583585], [-60.91297091417701, 46.46481100237724], [-60.913010756078094, 46.464756830256704], [-60.91302590560221, 46.464749960881825], [-60.91308896920755, 46.46472135838009], [-60.913206997818826, 46.46463171377814], [-60.913291798110315, 46.4645625853447], [-60.913338741898215, 46.46452431957372], [-60.91335366140359, 46.464513242999985], [-60.913470107322674, 46.464426818204544], [-60.91354192258122, 46.464359711572335], [-60.91361462966485, 46.46429175717889], [-60.913675837048004, 46.46423297978468], [-60.913772819516964, 46.46413984555182], [-60.91398248927681, 46.463969973230704], [-60.914040597022044, 46.46393707681862], [-60.91406103129272, 46.463925506779795], [-60.91420578708589, 46.463818348977114], [-60.9143245121328, 46.46371071610336], [-60.91434425975318, 46.46369461553266], [-60.91439038201751, 46.46365701833283], [-60.91457735248866, 46.463530299371214], [-60.91458692584353, 46.4635238050679], [-60.914611921187735, 46.46350431721025], [-60.9147708315801, 46.46338046105176], [-60.91485285064873, 46.4633199386375], [-60.91494103436291, 46.463254866642345], [-60.915046244243705, 46.46317707321972], [-60.91509784358245, 46.463138927625344], [-60.91524293869591, 46.46302277478132], [-60.91538768976498, 46.46291561538824], [-60.91542583438141, 46.46288976118297], [-60.91546657253376, 46.46286215427214], [-60.91547391383317, 46.46285680718418], [-60.91547862934893, 46.462853374199256], [-60.915596662990026, 46.46276372720825], [-60.915625044904665, 46.46273397797641], [-60.91574182800673, 46.46261157536265], [-60.91579468033571, 46.46255763945361], [-60.91586060382027, 46.46250826176472], [-60.915926070948785, 46.46245923571492], [-60.915971188375146, 46.4624165166068], [-60.91599228105599, 46.46239654330778], [-60.916070890917574, 46.46231607706723], [-60.916119897837326, 46.46225777795427], [-60.91617594535079, 46.462191084235876], [-60.91617813778372, 46.46218960321307], [-60.916216053399516, 46.46216392456675], [-60.91633513050624, 46.462075870811454], [-60.916372856757015, 46.46204798368351], [-60.916517603005985, 46.46194082276319], [-60.9165704539084, 46.46188688646616], [-60.916609640679624, 46.461815601306895], [-60.91662276102298, 46.46177894077046], [-60.916624548423485, 46.46169797414564], [-60.91662874219578, 46.461663841908894], [-60.9166377771112, 46.46159021628474], [-60.91663922127173, 46.46151824331357], [-60.91665162079799, 46.461500469450115], [-60.91666463537894, 46.46150070661569]]}, "properties": {"OBJECTID": 183246, "FEAT_CODE": "WARV20", "FEAT_DESC": "Double Line River - Water to the right line", "RIVNAME_1": "Northeast Margaree River", "RIVNAME_2": " ", "ZVALUE": 9999, "FID": null, "SHAPE_Length": 1382.326614765843}}, {"type": "Feature", "id": 188636, "geometry": {"type": "LineString", "coordinates": [[-60.8997220624779, 46.46309508734892], [-60.89973568677141, 46.46311333747147], [-60.89975812117179, 46.46315614820898], [-60.899773286324994, 46.46318512753126], [-60.89983824320962, 46.46325742014235], [-60.89992817873229, 46.46335718030266], [-60.89994021379417, 46.46337408721915], [-60.89995412644921, 46.46339364759908], [-60.900000309557626, 46.463445795444166], [-60.90000685696308, 46.46345334064064], [-60.90001776930948, 46.46346591596728], [-60.900076663771074, 46.4635421110409], [-60.90009470392093, 46.46356542818192], [-60.900184316394665, 46.4636732731221], [-60.90027425356406, 46.46377302403164], [-60.90027848658634, 46.46377742173516], [-60.90037820926824, 46.46388113224803], [-60.9004037982611, 46.46392660176267], [-60.9004290674248, 46.4639810653099], [-60.90047925554866, 46.46409808587562], [-60.900518088853616, 46.46420590698224], [-60.90052401119067, 46.46423207948679], [-60.90054257143309, 46.46431435552824], [-60.9005555048718, 46.46435058368552], [-60.90055471806064, 46.46440456870746], [-60.90055394857841, 46.46446893994529], [-60.90055352936035, 46.46450354590705], [-60.90047342804056, 46.464655973389625]]}, "properties": {"OBJECTID": 188636, "FEAT_CODE": "WARV50", "FEAT_DESC": "River - Single Line", "RIVNAME_1": " ", "RIVNAME_2": " ", "ZVALUE": 9999, "FID": null, "SHAPE_Length": 190.1362676166161}}, {"type": "Feature", "id": 188637, "geometry": {"type": "LineString", "coordinates": [[-60.90047342804056, 46.464655973389625], [-60.90051216233074, 46.4646647846451], [-60.90053331341632, 46.464679698925316], [-60.90058951435013, 46.46471930461266], [-60.900607801760636, 46.464728757344666], [-60.90064187369395, 46.46474636585121], [-60.90066202994281, 46.46477021675062], [-60.900680491536846, 46.46479207454706], [-60.900770811840275, 46.464881932177086], [-60.900824994470725, 46.46492966360576], [-60.900874113131515, 46.46497292807143], [-60.9009248258458, 46.465008949855516], [-60.90093733489811, 46.46502404738233], [-60.90097710352384, 46.46507201808199], [-60.90101963530063, 46.46513755332455], [-60.90105333742882, 46.46518951657563], [-60.90115693848906, 46.46530661745184], [-60.9012458426996, 46.46543334833062], [-60.90131001801548, 46.465559625184085], [-60.901321159130944, 46.46558557844668], [-60.90136022273683, 46.46567663663356], [-60.901400645683445, 46.465769267742765], [-60.901411693945604, 46.46579458929743], [-60.901449839028054, 46.46592038823981], [-60.90146208156107, 46.46597461242023], [-60.90146061707126, 46.46604658481266], [-60.90146002690035, 46.466163572798955], [-60.901459841434665, 46.46617923823629], [-60.90145882633099, 46.46626255876071], [-60.90146581065071, 46.46630618352436], [-60.90147037776845, 46.46633476106939], [-60.901479916276706, 46.466353619967364], [-60.901483692244675, 46.466361105203006], [-60.90150783181476, 46.46647854711396], [-60.90154666903999, 46.46658635889736], [-60.90155341945244, 46.46659676969765], [-60.901622906186404, 46.46670385703744], [-60.90165641129683, 46.466769793336816], [-60.901687083773936, 46.466830133692184], [-60.90175091593045, 46.46696540387602], [-60.90183876084016, 46.467072018018435], [-60.90184050250073, 46.46707414696095], [-60.90190468100167, 46.46720042350144], [-60.90191904258598, 46.46721817388515], [-60.90195567361717, 46.467263458669926], [-60.90199066914471, 46.467304870468524], [-60.901994294283746, 46.46730916695087], [-60.90209625400334, 46.46743523671331], [-60.90214792535753, 46.46748028443385], [-60.902212267043325, 46.467534564530354], [-60.902249534164426, 46.46756331006087], [-60.902342563456536, 46.46763505429286], [-60.90248395260854, 46.4677519472547], [-60.90256392649042, 46.467819410817675], [-60.90261263741093, 46.46786050705171], [-60.902677671159076, 46.46789679976503], [-60.90275537542721, 46.46794232478307], [-60.90287178197037, 46.46799756859701], [-60.90292413324607, 46.46802461062063], [-60.90300089415218, 46.46806113625969], [-60.90306523771334, 46.46811540690275], [-60.90306988548749, 46.46811749913041], [-60.90310493098302, 46.468133234764714], [-60.90318255556105, 46.468214757651], [-60.903285556130676, 46.46831384569991], [-60.90337489573277, 46.46839558330409], [-60.90342399323241, 46.46843003534595], [-60.903581635076264, 46.468540673048096]]}, "properties": {"OBJECTID": 188637, "FEAT_CODE": "WARV50", "FEAT_DESC": "River - Single Line", "RIVNAME_1": " ", "RIVNAME_2": " ", "ZVALUE": 9999, "FID": null, "SHAPE_Length": 510.2545597142407}}, {"type": "Feature", "id": 188639, "geometry": {"type": "LineString", "coordinates": [[-60.89840994036816, 46.466426150610744], [-60.898409594451444, 46.466435135161596], [-60.898425495669926, 46.46645785524188], [-60.89844786563318, 46.466489829138744], [-60.89848636840923, 46.46651651964138], [-60.89852525234326, 46.466543460134744], [-60.89859019837668, 46.46661575321501], [-60.89868117591554, 46.46668852472635], [-60.89877085212758, 46.466761272246295], [-60.89884785906947, 46.46682478694029], [-60.89893852573441, 46.466905652447615], [-60.89900312656589, 46.46698693885196], [-60.899067368754885, 46.46707720953637], [-60.89908838154299, 46.46710419041356], [-60.899130681066254, 46.46715848118672], [-60.899160795571, 46.467195349206854], [-60.89918291133083, 46.467222440333344], [-60.89924622432362, 46.46730370292986], [-60.89929747711847, 46.467393743794304], [-60.89933426666921, 46.46748020691376], [-60.899335687837336, 46.46748355399306], [-60.89937353165549, 46.46758323933483], [-60.89938973287532, 46.46761476669766], [-60.89942443845187, 46.46768228268774], [-60.89945864730926, 46.467742400615926], [-60.89947566619162, 46.46777231400564], [-60.89949353050841, 46.46779345901625], [-60.899514285097126, 46.46781802309218], [-60.89955224649132, 46.46788081990894], [-60.89964253523322, 46.467971577794], [-60.89970644619562, 46.46807085092325], [-60.89977035738551, 46.46817012401902], [-60.899821598801296, 46.468260164424436], [-60.899885856455775, 46.46835044391003], [-60.899936752187116, 46.468449477817], [-60.89994900328527, 46.46846587569123], [-60.899950378173784, 46.4684677189278], [-60.899958755459004, 46.46847477573885], [-60.899999583512546, 46.468509131353336], [-60.900018857302356, 46.46852446122958], [-60.900027388509024, 46.46853124186572], [-60.900053372888635, 46.468566818789164], [-60.90009615514893, 46.46860489122527], [-60.90010500896228, 46.468612766769695], [-60.900121566389394, 46.46862049581357], [-60.900221449080185, 46.46866710490723], [-60.90032513695686, 46.46874820843845], [-60.90045353432798, 46.46883066564921], [-60.90046893225974, 46.46884145131626], [-60.900518208769846, 46.468875952894216], [-60.90058350608662, 46.46893925135144], [-60.90063627457145, 46.468976435975144], [-60.900698909632304, 46.46902056967866], [-60.9008019070844, 46.469119659902915], [-60.901035630469764, 46.46927424961839]]}, "properties": {"OBJECTID": 188639, "FEAT_CODE": "WARV50", "FEAT_DESC": "River - Single Line", "RIVNAME_1": " ", "RIVNAME_2": " ", "ZVALUE": 9999, "FID": null, "SHAPE_Length": 381.6468345009065}}, {"type": "Feature", "id": 188784, "geometry": {"type": "LineString", "coordinates": [[-60.90271543860652, 46.47660849621169], [-60.90309156709696, 46.47675309390222], [-60.90324654950546, 46.47681182571886], [-60.90344595990402, 46.476887391873134], [-60.903831817800516, 46.4770843649149], [-60.904291595339785, 46.47732409117912], [-60.90476748915209, 46.47750723161357], [-60.904797400811795, 46.47751875065796], [-60.90483016980371, 46.47753321102366], [-60.90508051248943, 46.47764364627836], [-60.90540276007397, 46.47773324964127], [-60.90582364762646, 46.477798559270994], [-60.90609448924138, 46.47783591966121], [-60.906508766119856, 46.47790379665581], [-60.906662132845824, 46.477929437629236], [-60.906859576627454, 46.47796242830083], [-60.90699373158593, 46.47798254215482], [-60.90715359853799, 46.47800651048906], [-60.90746286788334, 46.47809497046018], [-60.907631962060194, 46.478141957732056], [-60.907663955586955, 46.478150850156645], [-60.90780080479569, 46.47821725380777], [-60.90783605836992, 46.47823218177028], [-60.90795848395584, 46.47828403845546], [-60.90803404291283, 46.47831363571388], [-60.90805732575522, 46.4783227466349], [-60.908163664105636, 46.47835825293242], [-60.908188515586936, 46.47836654653802], [-60.90831355415642, 46.478401233859024], [-60.908366105638805, 46.47841318417032], [-60.90837812971373, 46.47841591512039], [-60.908465513323804, 46.47841301382196], [-60.90851811763603, 46.478400476328275], [-60.90857208783848, 46.47835196423573], [-60.90861611764055, 46.47832487001622], [-60.908659307768986, 46.478320701140525], [-60.908663191161864, 46.478320331182836], [-60.9087233391226, 46.4783142315097], [-60.908731847032165, 46.478314549133636], [-60.908770184356115, 46.47831598837965], [-60.908817835858684, 46.47833035982439], [-60.908860555722285, 46.478337441133725], [-60.908912871116996, 46.47833209808609], [-60.90891384146083, 46.47833159384032], [-60.90895806472287, 46.47830862497746], [-60.90899185181981, 46.478276843329745], [-60.90899644947931, 46.478267693531514], [-60.909011594244134, 46.478237604891525], [-60.9090112229725, 46.47821329839712], [-60.90899656547694, 46.478187839625654], [-60.90897978405351, 46.47817666983179], [-60.90896734673557, 46.478168405454035], [-60.908958972647326, 46.47815983739558], [-60.90894854314831, 46.47814915276839], [-60.90892655749557, 46.478110951108825], [-60.90892858315239, 46.47809208838821], [-60.90896480148842, 46.4780648511607], [-60.90900687416907, 46.47805482078688], [-60.90910272830714, 46.478069173715234], [-60.90912333369643, 46.47807302451556], [-60.909145400526086, 46.47807715403632], [-60.90917809757257, 46.478074152047526], [-60.90918234320454, 46.47807316770435], [-60.90920307390332, 46.47806830888789], [-60.90921132633492, 46.47805591395863], [-60.90921551423399, 46.47804963662278], [-60.90921641063611, 46.47804732204421], [-60.90922418686655, 46.47802729549805], [-60.90923182121628, 46.47801505126204], [-60.90923251487195, 46.47801394796085], [-60.90926160347492, 46.47800278005718], [-60.90929038191707, 46.47799970637575], [-60.909305356969966, 46.477982880431284], [-60.909306675816616, 46.47797430065339], [-60.90930882217688, 46.47796044407238], [-60.9093114947105, 46.477952915036575], [-60.90931612399116, 46.477939877850645], [-60.909318550012124, 46.47791022257538], [-60.90931969149843, 46.477907291485295], [-60.90932723559704, 46.47788788167931], [-60.909335613793196, 46.477879682989716], [-60.90934077092446, 46.4778746293585], [-60.909360535798164, 46.4778711748346], [-60.90938274001486, 46.47786729691927], [-60.90942118261381, 46.477850000099934], [-60.90942723505559, 46.47784435984362], [-60.909430640091934, 46.47784117314682], [-60.90943677783543, 46.47781698567486], [-60.909436737935785, 46.477783685349124], [-60.90943669056694, 46.47776554070295], [-60.90943665515565, 46.477752184217316], [-60.909448069501664, 46.47772628425272], [-60.90948151102616, 46.47770350503036], [-60.909500495824474, 46.47769660725988], [-60.90951453938401, 46.477691509112695], [-60.90955126650323, 46.47768498075096], [-60.909559628273755, 46.47768264967337], [-60.90958154031792, 46.477676534404225], [-60.9095855485391, 46.477672224745405], [-60.90960057154286, 46.47765618262898], [-60.90960435675478, 46.47765021291196], [-60.909618597994694, 46.47762771257721], [-60.90963740944104, 46.47761275671189], [-60.909673385924975, 46.47759181476065], [-60.9096957368546, 46.47758376351754], [-60.909709052298965, 46.47757896703017]]}, "properties": {"OBJECTID": 188784, "FEAT_CODE": "WARV50", "FEAT_DESC": "River - Single Line", "RIVNAME_1": " ", "RIVNAME_2": " ", "ZVALUE": 9999, "FID": null, "SHAPE_Length": 658.8855656626471}}, {"type": "Feature", "id": 188790, "geometry": {"type": "LineString", "coordinates": [[-60.90251280173308, 46.462696327055696], [-60.90252369772793, 46.4626957799697], [-60.9025258510356, 46.46269566647738], [-60.90261697581604, 46.46269643829336], [-60.902722372002906, 46.46268609595626], [-60.902786940679405, 46.46267975652471], [-60.90303435908011, 46.46268069504978], [-60.9032426987125, 46.46268181631373], [-60.90337768585363, 46.46268264497824], [-60.90346405311979, 46.4626831758704], [-60.90369845684314, 46.46268387428612], [-60.90379415758549, 46.462702503898534], [-60.90389236599453, 46.462721629403816], [-60.9040108806034, 46.46273561916825], [-60.904127035565395, 46.46274933155312], [-60.90420227412192, 46.46276359873196], [-60.90437399517659, 46.46279615832094], [-60.904594614600896, 46.46285061069853], [-60.904742338180796, 46.46288982182022], [-60.904802185834576, 46.46290570550923], [-60.90481825328728, 46.46290954593889], [-60.904879618947206, 46.46292422441918], [-60.90499708745747, 46.4629515768577], [-60.90519126469799, 46.46301633441554], [-60.905243969888836, 46.463034399975314], [-60.90537377655292, 46.4630799779203], [-60.905554271574644, 46.463161575007476], [-60.9057097372055, 46.463216631555696], [-60.905865574527255, 46.46326268578805], [-60.90600841867702, 46.46330760183052], [-60.90616424350707, 46.463353655425095], [-60.90616664719637, 46.46335482443729], [-60.90629466336468, 46.463417243372255], [-60.906372085068405, 46.46343575205806], [-60.90646218921227, 46.46346351084732], [-60.90664476907059, 46.4634911539121], [-60.906662342176475, 46.46349479665324], [-60.906735218652734, 46.46350990989943], [-60.90677363123194, 46.46352541807622], [-60.906826267098566, 46.463546676601936], [-60.90691769532384, 46.46357354128245], [-60.90699515582873, 46.46359206825495], [-60.907177046843614, 46.463637697678], [-60.907358558939535, 46.46369321977656], [-60.90744931087143, 46.46373808047228], [-60.907524277327354, 46.46376086339197], [-60.90754071793561, 46.46376585325591], [-60.907734577965776, 46.463838700585626], [-60.90781290707467, 46.463872641744864], [-60.907903701427166, 46.463911994908386], [-60.908032184939096, 46.46395754560564], [-60.90812819134996, 46.4639873280589], [-60.908149325733056, 46.46399388870503], [-60.908292751591624, 46.46405771233421], [-60.90830898512905, 46.46406131231231], [-60.908460625761236, 46.46409498333056], [-60.90849966038026, 46.46411127629629], [-60.908526016697756, 46.46412227936095], [-60.908592646440916, 46.46414851802673], [-60.90861711487724, 46.46415814554757], [-60.90866684710323, 46.464181798078805], [-60.90869386205144, 46.46419464913437], [-60.90873403538779, 46.464222698731945], [-60.90878519394519, 46.464258419181235], [-60.90895365258466, 46.46434879960715], [-60.909044014991814, 46.464403551802945], [-60.90912076280086, 46.464440055112085], [-60.909167966605594, 46.464456623252104], [-60.909250576157305, 46.46448562875277], [-60.90926208041484, 46.464488251115576], [-60.90928931150311, 46.46449444604917], [-60.90930603064059, 46.46449455380075], [-60.909367437693795, 46.4644949657624], [-60.90940961681155, 46.464491741115694], [-60.90947193843128, 46.46448697679778], [-60.90960250404538, 46.46447856433902], [-60.90962212368226, 46.46447469311991], [-60.90969436831246, 46.46446044421584], [-60.90979825615058, 46.46443444392853], [-60.90988947302284, 46.46439921198499], [-60.909964994176775, 46.464373538928], [-60.91007289805402, 46.464336865918995], [-60.910203270266024, 46.464265449874645], [-60.91033563219976, 46.46417607023161], [-60.91040116224635, 46.46413136845503], [-60.910406841641844, 46.46412624331418], [-60.91044028321529, 46.46409608385448], [-60.9104537384004, 46.46407733997091], [-60.910466423418455, 46.46405966199836], [-60.91047287146487, 46.46403819806758], [-60.91047985827679, 46.46401490800188], [-60.91049238775118, 46.463993807217854], [-60.910506308230296, 46.46397039187909], [-60.91052001148254, 46.4639526515113], [-60.91055918002649, 46.463916458748066], [-60.910572182117555, 46.46391669637846], [-60.91063736743783, 46.46388098807479], [-60.910755066595776, 46.463800348879545], [-60.910781121099006, 46.4637879371433], [-60.91084792783683, 46.46375613731085], [-60.91091276861541, 46.463729422463416], [-60.910950618228576, 46.46371849521063], [-60.91100362643385, 46.46370318297836], [-60.911051222067684, 46.4636839828607], [-60.91106978159585, 46.46367649205888], [-60.91109619025709, 46.46366707469194], [-60.91116150364489, 46.46365829615895], [-60.91122578331822, 46.46364964270066], [-60.91132553480556, 46.463637740309444], [-60.91136971888114, 46.46363247259071], [-60.91159107788999, 46.46363381647561], [-60.911655310397336, 46.46364001176506], [-60.91169490165133, 46.463643812932446], [-60.91177076759002, 46.463644145718774], [-60.91182510795402, 46.4636443912825], [-60.91187775567457, 46.46364462390435], [-60.911890217615834, 46.46364468052079], [-60.91196903032554, 46.46362722017679], [-60.91201473892779, 46.46361920808053], [-60.91202016740395, 46.46361825423474], [-60.912125388491546, 46.46359137619136], [-60.91220324350727, 46.46356489828626], [-60.91225575628442, 46.46351995772347], [-60.91225964487311, 46.46351465578899], [-60.91228186060693, 46.463484434787055], [-60.91232201171189, 46.463422168624], [-60.91234849426677, 46.463376752678116], [-60.912348736397796, 46.46335100835766], [-60.91234891242036, 46.46333176076481], [-60.91234923195597, 46.463280152116575], [-60.91234940479261, 46.46325077056675], [-60.9123635999538, 46.463152030769606], [-60.91237882682295, 46.46302631007807], [-60.91239979728689, 46.462922384046195], [-60.91240614531047, 46.46289091027726], [-60.912419969761615, 46.462859078033496], [-60.91243328095268, 46.462828406404185], [-60.91247212989347, 46.46276611640575], [-60.91251265851213, 46.4626939571617], [-60.912539450037116, 46.4626404468893], [-60.91257867698836, 46.46256826385352], [-60.912618483172345, 46.46251499119239], [-60.91263663331991, 46.46249298480473], [-60.91267038082995, 46.46245203938117], [-60.91272420696261, 46.46240711357719], [-60.91284188684344, 46.462326471872615], [-60.912852909660174, 46.46231510822381], [-60.91286764635921, 46.4622999424137], [-60.91296955698473, 46.46218242804975], [-60.912999789865566, 46.46214755630641], [-60.9130373542753, 46.46210214449555], [-60.91311860054088, 46.46200391757834], [-60.91315946247172, 46.46196661184057], [-60.91319686986759, 46.46193245599968], [-60.913258303072354, 46.46189053976826], [-60.91326239487041, 46.46188775248316], [-60.91344653424777, 46.46177231455769], [-60.91353882288853, 46.461709199532315], [-60.91360399062566, 46.46167348921081], [-60.91377373929292, 46.4615937877755], [-60.913852277987836, 46.46154932139707], [-60.913918072502256, 46.46153162215714], [-60.91393143071594, 46.46152286599255], [-60.9139697619022, 46.46151120853388], [-60.914048703578786, 46.46148720617313], [-60.914093271095105, 46.4614646915678], [-60.91415361460292, 46.46143422085972], [-60.91423149992918, 46.46140684213241], [-60.91434873799701, 46.461372081361496], [-60.91442789023639, 46.46134562560422], [-60.91451940417804, 46.46133649512522], [-60.91466167473144, 46.461328290412766], [-60.914717431505984, 46.461315942564255], [-60.914740482906865, 46.46131083707503], [-60.91483230623701, 46.46129360306804], [-60.91483934892289, 46.461292660530255], [-60.914961905604464, 46.46127616695876], [-60.915020779162745, 46.461270868737486], [-60.9150533850087, 46.461267935413524], [-60.9154961188906, 46.46126970880989], [-60.91558656810137, 46.46128845778926], [-60.91571643898735, 46.46129801650997], [-60.91578763313697, 46.46128588658278], [-60.91582131018306, 46.461280137596226], [-60.9158659735695, 46.46127419288527], [-60.91595221069304, 46.46126272408433], [-60.91601727027274, 46.461263910053475], [-60.91609509577491, 46.46127252861285], [-60.9161353232213, 46.46128214478455], [-60.91617253068535, 46.46129103990242], [-60.91643212912155, 46.46138217054208], [-60.91663806337987, 46.46148715451983], [-60.9166605602608, 46.461498625374524], [-60.91666463537894, 46.46150070661569]]}, "properties": {"OBJECTID": 188790, "FEAT_CODE": "WARV50", "FEAT_DESC": "River - Single Line", "RIVNAME_1": " ", "RIVNAME_2": " ", "ZVALUE": 9999, "FID": null, "SHAPE_Length": 1330.9777410207557}}, {"type": "Feature", "id": 305849, "geometry": {"type": "LineString", "coordinates": [[-60.898922565866236, 46.469587331419504], [-60.899076325381785, 46.46964166357379], [-60.89912946368987, 46.469660432880815], [-60.899233927107645, 46.46968755221201], [-60.89938984685503, 46.469697617105815], [-60.89940280508699, 46.46969767520104], [-60.899520080343876, 46.46969820095583], [-60.899598212965095, 46.46969874545524], [-60.899637642855254, 46.46968956996449], [-60.89966608152978, 46.4696833785014], [-60.89967573648427, 46.469681269901585], [-60.89971551243664, 46.469663100836854], [-60.89974223737309, 46.46964559199087], [-60.89972895760682, 46.46961834831454], [-60.89967754968417, 46.46960030406893], [-60.89961277967384, 46.46959100521746], [-60.89953369099348, 46.46958146125718], [-60.89952827195846, 46.46958079470069], [-60.89945590432491, 46.469571932164556], [-60.899385821748474, 46.46957172447729], [-60.89933868784724, 46.469571578421615], [-60.89924788487379, 46.46956181001953], [-60.899242479207196, 46.46956113469521], [-60.89917009828978, 46.469552280733666], [-60.8990653235892, 46.46953325553732], [-60.898871359400275, 46.46949639128036], [-60.89871331527994, 46.4694613388939], [-60.898663423780704, 46.46945026998929], [-60.89860308981133, 46.4694397741137], [-60.89855926565614, 46.46943215565126], [-60.89845510760382, 46.4694140412194], [-60.898371179442556, 46.4694026615113], [-60.898351444600486, 46.469399985750435], [-60.898247781653694, 46.46938593018831], [-60.89813695979682, 46.46937174291605], [-60.898026138001185, 46.46935755553729], [-60.89784453334139, 46.46933801659507], [-60.89783088499276, 46.46933795463321], [-60.89777941724112, 46.46933771924458], [-60.897726624612794, 46.46935564827991], [-60.897661770859195, 46.46938235540402], [-60.89763504540401, 46.46939986375538], [-60.89763469897747, 46.469408857290595], [-60.89766134037914, 46.46942734701674], [-60.89769372369437, 46.4694340624482], [-60.897751796394076, 46.469446110206825], [-60.89784264652213, 46.46945498067566], [-60.89807668484988, 46.46946558375319], [-60.89820072229333, 46.46947010514855], [-60.89837585258044, 46.46947648364289], [-60.89853276150875, 46.4694946678071], [-60.89853663434773, 46.46949523399031], [-60.89866230160697, 46.46951324870099], [-60.898736332583816, 46.46953574116899], [-60.89875371352582, 46.46954102857168], [-60.898922565866236, 46.469587331419504]]}, "properties": {"OBJECTID": 305849, "FEAT_CODE": "WARVIS10", "FEAT_DESC": "River Island - Island to the left line", "RIVNAME_1": "Northeast Margaree River", "RIVNAME_2": " ", "ZVALUE": 124.7, "FID": null, "SHAPE_Length": 340.3224665114803}}]}