{"type": "FeatureCollection", "features": [{"type": "Feature", "id": 3808, "geometry": {"type": "LineString", "coordinates": [[-61.058646126239914, 46.60235157085307], [-61.05862153744621, 46.60232604435452], [-61.05858732067417, 46.6023079591328], [-61.05857009565572, 46.60229889203893], [-61.05855304478596, 46.60229152883735], [-61.05846593871703, 46.60225391638215], [-61.058406633384045, 46.6022239305908], [-61.058322279546964, 46.6021812889345], [-61.0582718529737, 46.60214619800734], [-61.05825731597459, 46.602136087544096], [-61.05825427587519, 46.60213310203284], [-61.05819298239181, 46.60207289746267], [-61.058121947312834, 46.60196669210086], [-61.05809010594334, 46.60191905612997], [-61.05806884248567, 46.60188416331468], [-61.05805187137465, 46.60185630913063], [-61.057999566288686, 46.60171232610533], [-61.0579483090095, 46.601612459257844], [-61.05793096473848, 46.60159249143344], [-61.05790941842709, 46.601567709418795], [-61.05787152500815, 46.601531958176786], [-61.05780622800638, 46.601495750537126], [-61.057752063498725, 46.60149000683644], [-61.05771517302583, 46.60148610442979], [-61.05751933868518, 46.601485478206264], [-61.057506978138555, 46.60148206437394], [-61.05745339881804, 46.60146725879756], [-61.05739965520625, 46.60145011048944], [-61.057337210390976, 46.60143018644482], [-61.05722604833413, 46.601383641704224], [-61.057207279122, 46.60137578112591], [-61.057193456233875, 46.601366159639554], [-61.057142304390396, 46.601330578903095], [-61.05708432314071, 46.60128552245474], [-61.05703814523153, 46.60124960318847], [-61.05678026772782, 46.60124852457833], [-61.05668564454222, 46.601248122685114], [-61.056667724291174, 46.6012460992347], [-61.05651658501961, 46.60122905038954], [-61.056334122568465, 46.60121964969787], [-61.05619188454211, 46.60121913111693], [-61.05592939352159, 46.6012181791636], [-61.05561447522027, 46.60129831331349], [-61.05547120959773, 46.60132467639959], [-61.05540528788968, 46.60134245482416], [-61.05531392889897, 46.601377800018135], [-61.05530556598389, 46.60138235564164], [-61.05511684133595, 46.60148514449046], [-61.05494686651342, 46.60160104946161], [-61.054854190683315, 46.60170926027339], [-61.05469697129326, 46.6018703892042], [-61.054603695311705, 46.60199569798626], [-61.054508600578956, 46.60211344302171], [-61.05445886708807, 46.602175018720295], [-61.05442624480139, 46.60223058572554], [-61.054406026160216, 46.60226502550647], [-61.05439536729364, 46.60229430911174], [-61.05437996021243, 46.60233658846528], [-61.05435291200306, 46.602399117031084], [-61.05433680319213, 46.602421612151936], [-61.0543267975244, 46.602435571415526], [-61.05431278147355, 46.60246234098464], [-61.0542073826143, 46.60251811868276], [-61.05407720067073, 46.60258701910588], [-61.054067861207386, 46.60259695782759]]}, "properties": {"OBJECTID": 3808, "FEAT_CODE": "WACO20", "FEAT_DESC": "Coast - Water to the right line", "RIVNAME_1": " ", "RIVNAME_2": " ", "ZVALUE": 0.4, "FID": null, "SHAPE_Length": 492.20410535843064}}, {"type": "Feature", "id": 3809, "geometry": {"type": "LineString", "coordinates": [[-61.05169870251518, 46.61560503170111], [-61.05168751011335, 46.61544375614645], [-61.05168746666935, 46.615335759504475], [-61.05170041067432, 46.61529350162652], [-61.051728886120046, 46.61520057026439], [-61.05176958410751, 46.61497627209274], [-61.05177018549247, 46.61485029610921], [-61.0517997555517, 46.61446290551045], [-61.05181373203753, 46.61432814869912], [-61.05185445147884, 46.61415783079598], [-61.051867513348114, 46.61410317336804], [-61.05187145229279, 46.61406982472644], [-61.051923769638094, 46.61362714962908], [-61.05193322955656, 46.613601175751626], [-61.051936807017576, 46.613591373060586], [-61.05194572862893, 46.61357603661154], [-61.05196325131375, 46.613545925230035], [-61.05199090961103, 46.61335740345929], [-61.052018611934685, 46.613276878363635], [-61.052032326319875, 46.613222223024685], [-61.05208794961699, 46.61280018633444], [-61.05209387917085, 46.61272990097186], [-61.05210158742232, 46.61263842470001], [-61.052168417742564, 46.6124136624272], [-61.052249281488116, 46.61219814777479], [-61.05227068815604, 46.612147115275064], [-61.05230212087138, 46.612072152422925], [-61.052381708080674, 46.6119286222322], [-61.052461587884395, 46.61170408199668], [-61.052542126819574, 46.611497561249706], [-61.05259560978613, 46.61135357738236], [-61.05263308621588, 46.611289957923994], [-61.05267487263082, 46.61121904111546], [-61.052756360067825, 46.61108618960727], [-61.05287321446182, 46.61089571235836], [-61.05292574368384, 46.61081471873925], [-61.05303145887789, 46.61070762256224], [-61.05316872154415, 46.61055544402241], [-61.05317696303821, 46.610546305662616], [-61.05322258911441, 46.61050850077958], [-61.05342595569265, 46.61033995181594], [-61.053479144308234, 46.61027695949186], [-61.05353509276962, 46.610229511538094], [-61.053584225437184, 46.61018786033651], [-61.05362941261564, 46.61015718455475], [-61.05366316810248, 46.61013429690639], [-61.05374579254417, 46.61007237239126], [-61.053794679817194, 46.610035738735846], [-61.05387181842915, 46.609972010837296], [-61.05410958407895, 46.60977560706627], [-61.054181231151375, 46.609718607266664], [-61.05426685786386, 46.60965048768606], [-61.054304012488004, 46.609625290766445], [-61.05434582485284, 46.609596933196], [-61.054412803692856, 46.60954410167331], [-61.05442511385889, 46.60953438446353], [-61.05448074883688, 46.60950913288698], [-61.054503435882296, 46.6094988272235], [-61.05474098210769, 46.60928326710996], [-61.05502945108524, 46.60906858154112], [-61.05503020319726, 46.609068000354135], [-61.05513417948557, 46.60898846562056], [-61.05529990900228, 46.608882360909], [-61.055357379568214, 46.60884556654694], [-61.055395294650936, 46.608816242355395], [-61.05546213925302, 46.608764550889966], [-61.05553132329593, 46.60872082786769], [-61.05564652409202, 46.608647990268146], [-61.055746705671645, 46.608610940884404], [-61.055790774877266, 46.6085946447058], [-61.055934686030746, 46.6085142941876], [-61.05601332782615, 46.60846973268073], [-61.05601298843398, 46.608442727910955], [-61.05594962904031, 46.60835255419551], [-61.05592792446601, 46.608332511970794], [-61.05587124402763, 46.60828012435179], [-61.05581866930007, 46.60825313156445], [-61.055814053916144, 46.608246357350914], [-61.055806262356626, 46.60823492131258], [-61.0558061335995, 46.60822501948971], [-61.055805923065165, 46.60820791654273], [-61.05582005507176, 46.60816479638872], [-61.05582058349048, 46.608163167432316], [-61.05588613925214, 46.6080463862098], [-61.0560179290317, 46.607866824183176], [-61.0560844671849, 46.60775905920959], [-61.05609846560981, 46.60769630847242], [-61.05609845524751, 46.60768309678373], [-61.0560984129058, 46.607588311560285], [-61.05608627487771, 46.607453119220644], [-61.056088458043426, 46.607246154955426], [-61.05611584177764, 46.607174632059575], [-61.05628639676052, 46.60693273092016], [-61.05639211202663, 46.60678873295292], [-61.05640866169145, 46.60675612042123], [-61.056432841581604, 46.60670842811869], [-61.056446650622, 46.60666591436756], [-61.05645927383471, 46.606626980329885], [-61.056499032646784, 46.60653766830352], [-61.056538180569625, 46.60646542725388], [-61.05657995678599, 46.606414983055046], [-61.05660505560088, 46.60638466669238], [-61.05664315856362, 46.60634637260188], [-61.05665788261212, 46.60633156635547], [-61.05667262621369, 46.60631803839253], [-61.056775345962215, 46.60622376633355], [-61.0568288482956, 46.60615177808489], [-61.05702589967113, 46.605972450738236], [-61.05709835782461, 46.60588524197779], [-61.05714462975383, 46.605829555141185], [-61.0574209356545, 46.60551565146276], [-61.057476417980034, 46.60544667542885], [-61.05750019621367, 46.60541711040766], [-61.05750674257071, 46.60541041784805], [-61.057553053552446, 46.60536311020022], [-61.05759734054114, 46.60528768018434], [-61.05760589216887, 46.60527311096662], [-61.057631652142966, 46.605246549467516], [-61.05764668580689, 46.60518435608339], [-61.05767302937973, 46.6050753674993], [-61.05771182090208, 46.60501301962116], [-61.057756107371226, 46.60493758953172], [-61.05776465857704, 46.604923029294014], [-61.057776666274414, 46.60488885447522], [-61.05781844262281, 46.60477003931342], [-61.05784093352369, 46.60472460393527], [-61.05787192296867, 46.60466206050483], [-61.05797920214901, 46.604500367238494], [-61.05799061561962, 46.60448317368531], [-61.058095986885675, 46.60434816793413], [-61.05814913191436, 46.60428607262504], [-61.05816961816893, 46.604267116175606], [-61.05822745700113, 46.60421361421764], [-61.05838470108483, 46.6041130757082], [-61.05843725816997, 46.6040794722443], [-61.058477371954844, 46.60405315423684], [-61.058562257991014, 46.60401667967649], [-61.05858213689548, 46.60400813446297], [-61.058584967288574, 46.60400676056306], [-61.05867383277878, 46.60396379271311], [-61.05870022135151, 46.60391924229534], [-61.05872697646654, 46.60386479845335], [-61.058731032796125, 46.60385542665132], [-61.058754020779084, 46.603802259808326], [-61.058784741450815, 46.60375486701077], [-61.05880653444001, 46.60372125416078], [-61.05887209733843, 46.603640478977816], [-61.05893233281156, 46.603579430615014], [-61.058977773838045, 46.60353336756996], [-61.05898813568432, 46.60352585771432], [-61.05900324340764, 46.603514891534275], [-61.0590042649101, 46.60347899117655], [-61.0589255234001, 46.603497382017565], [-61.058872681924775, 46.60351448447993], [-61.05875231409005, 46.603560607623336], [-61.05866350781176, 46.60359463086596], [-61.05863053616121, 46.60359904798137], [-61.058597918454794, 46.603603426097344], [-61.05841511340061, 46.60360301360378], [-61.05836320388605, 46.60359403260123]]}, "properties": {"OBJECTID": 3809, "FEAT_CODE": "WACO20", "FEAT_DESC": "Coast - Water to the right line", "RIVNAME_1": " ", "RIVNAME_2": " ", "ZVALUE": 0.4, "FID": null, "SHAPE_Length": 1580.2850432925832}}, {"type": "Feature", "id": 3810, "geometry": {"type": "LineString", "coordinates": [[-61.05836320388605, 46.60359403260123], [-61.05838995916574, 46.60353958883788], [-61.058414134966654, 46.60351786008545], [-61.05846955597354, 46.60346804281699], [-61.05849561683256, 46.60339648785987], [-61.058495888707746, 46.6033198242584], [-61.058495899769134, 46.603315495603304], [-61.05851172667167, 46.60301877506165], [-61.058511832294265, 46.60301070414736], [-61.058513295251736, 46.60290180593036], [-61.058499250647706, 46.602843564602416], [-61.05848715147022, 46.602793366009124], [-61.05846401094784, 46.60264985133731], [-61.05846255668172, 46.60264085397302], [-61.05846257745005, 46.60263698446565], [-61.05846316105357, 46.602550867489484], [-61.058472263448394, 46.60250479069218], [-61.058477509091354, 46.60247821371101], [-61.05848191472631, 46.60247368067124], [-61.058503267597736, 46.60245164298239], [-61.0586086397253, 46.60238954310439], [-61.058633787151976, 46.6023800703542], [-61.05864780074641, 46.602353309216575], [-61.058646126239914, 46.60235157085307]]}, "properties": {"OBJECTID": 3810, "FEAT_CODE": "WACO20", "FEAT_DESC": "Coast - Water to the right line", "RIVNAME_1": " ", "RIVNAME_2": " ", "ZVALUE": 0.4, "FID": null, "SHAPE_Length": 146.80478973523645}}, {"type": "Feature", "id": 3811, "geometry": {"type": "LineString", "coordinates": [[-61.05432645652617, 46.602769219587124], [-61.05442750794007, 46.60279547185922], [-61.05446955958667, 46.60280330598794], [-61.05448068840519, 46.60280538524141], [-61.05449774756888, 46.602813235174246], [-61.05451922522563, 46.60282313119844], [-61.05454534084255, 46.60285957416079], [-61.054561361383506, 46.602899346262824], [-61.05457052247914, 46.60292210028674], [-61.0545747584274, 46.60294419454926], [-61.05458262243622, 46.602985303843674], [-61.05458170619211, 46.6031202833809], [-61.05456912253864, 46.60316247578856], [-61.05455499619011, 46.60320982576419], [-61.0545344605851, 46.60323815839179], [-61.05450279918204, 46.60328182618741], [-61.05441048622581, 46.603380161148245], [-61.05437766028869, 46.603420974199615], [-61.054331222898746, 46.603478709048936], [-61.05427868642795, 46.60352371356925], [-61.05426428678865, 46.60353347621746], [-61.05423853884158, 46.60355092950034], [-61.05404337420815, 46.60360430677389], [-61.05382048265753, 46.60366621154818], [-61.053704682780115, 46.60369003392739], [-61.05365078833741, 46.60370112227497]]}, "properties": {"OBJECTID": 3811, "FEAT_CODE": "WACO20", "FEAT_DESC": "Coast - Water to the right line", "RIVNAME_1": " ", "RIVNAME_2": " ", "ZVALUE": 0.4, "FID": null, "SHAPE_Length": 153.30713070020266}}, {"type": "Feature", "id": 3812, "geometry": {"type": "LineString", "coordinates": [[-61.05365078833741, 46.60370112227497], [-61.05362495991918, 46.603706235496716], [-61.053558718490564, 46.60371935458273], [-61.0534415902102, 46.60374526001015], [-61.05336293781272, 46.603753811894556], [-61.0533461766617, 46.603755497521426], [-61.05327120281307, 46.60376305899588], [-61.05312726928302, 46.603771408429026], [-61.05304098800238, 46.60377093854244], [-61.05297059498465, 46.60377055009583], [-61.052933446577356, 46.60377563243251]]}, "properties": {"OBJECTID": 3812, "FEAT_CODE": "WACO20", "FEAT_DESC": "Coast - Water to the right line", "RIVNAME_1": " ", "RIVNAME_2": " ", "ZVALUE": 0.4, "FID": null, "SHAPE_Length": 55.93340793905279}}, {"type": "Feature", "id": 3813, "geometry": {"type": "LineString", "coordinates": [[-61.05286202410153, 46.60384076202073], [-61.05284662932647, 46.603866985950944], [-61.05284009331329, 46.6038781152614], [-61.05283811343604, 46.603898015830225], [-61.05282580051644, 46.60402186669625], [-61.05279936182872, 46.604067314879615], [-61.052772617511216, 46.60408485886348], [-61.052717685550796, 46.60409864700741], [-61.0526685248218, 46.604110985451406], [-61.05259539575942, 46.6041395561354], [-61.05257582250765, 46.60414719654682], [-61.05255130964438, 46.60416259155621], [-61.05241952825809, 46.60424534034491], [-61.052353279576096, 46.604272111114526], [-61.05224855647291, 46.60435222462677], [-61.05223050505236, 46.60436694664194], [-61.0521826454269, 46.60440599106925], [-61.052090939109085, 46.60448723510238], [-61.05202413811675, 46.60455998460562], [-61.05195913048651, 46.604630784688915], [-61.05189322028238, 46.60472055867076], [-61.05184700320173, 46.60480590725604], [-61.051840095609144, 46.60481865011966], [-61.05183997677937, 46.604825604842816], [-61.051838820220645, 46.604890625779056], [-61.05182515473899, 46.60498038971971], [-61.05181226403995, 46.60501213696501], [-61.05179937429296, 46.60504385722594], [-61.05177342425163, 46.60506144150438], [-61.05172041193613, 46.60509740106626], [-61.05166721188894, 46.60512439373108], [-61.05149718909357, 46.6051682953395], [-61.051419516424275, 46.60518587125362], [-61.05131408372886, 46.605212873743895], [-61.05124913833153, 46.605239666079676], [-61.051152960872855, 46.605338085538925], [-61.051117648298856, 46.60537422044217], [-61.0510910305171, 46.6054053106947], [-61.05106449423185, 46.60543631233301], [-61.05102501750702, 46.60551753660018], [-61.0510103824112, 46.60563428293028], [-61.05100156744066, 46.60568052601544], [-61.050983033996744, 46.60577781160959], [-61.05098165192994, 46.60593134046021], [-61.050980846150935, 46.60602076546683], [-61.05097501405768, 46.60604064534576], [-61.05096745514633, 46.60606643557854], [-61.05095538722238, 46.60607522958305], [-61.050889472451765, 46.606129004207496], [-61.05067930856934, 46.6062361181321], [-61.0506080045807, 46.60627812816075], [-61.0505739200072, 46.60629821041104], [-61.05052137735354, 46.606343222089], [-61.05052235960107, 46.60635223850417], [-61.05050709094384, 46.606486964300046], [-61.050494786416174, 46.60652818003793], [-61.050493718320915, 46.60653174369974], [-61.05049266419603, 46.606533462667095], [-61.05045488517102, 46.60659498838721], [-61.05040234277106, 46.60663998201402], [-61.050366312457975, 46.6066644228716], [-61.050205594826025, 46.606773431815014], [-61.05009983592087, 46.60680941829466], [-61.0500049523364, 46.606853104835295], [-61.04998299046401, 46.60686322398171], [-61.049798605423106, 46.606906878171735], [-61.049682082114295, 46.606915690690194], [-61.04952195100265, 46.60693157107993], [-61.04951170325399, 46.60693257526065], [-61.04915947040247, 46.60692297647338], [-61.04905277414831, 46.6069224973276], [-61.048441373761925, 46.60691972444602], [-61.04820421985343, 46.60691099745969], [-61.04816750909541, 46.606909641953756], [-61.047750012636435, 46.606862926269976], [-61.04771152804149, 46.60686151333808], [-61.04747614811435, 46.606852851122255], [-61.047358940104274, 46.606843650239256], [-61.04731477279392, 46.60683830628692], [-61.047280941758174, 46.60683421876684], [-61.04720375851444, 46.60683407982088], [-61.04716342353395, 46.60683401205818], [-61.04699199568651, 46.60681431829406], [-61.046915034162154, 46.60680547125698], [-61.04688361900403, 46.60680101989191], [-61.046785112441654, 46.60678705298952], [-61.04639308543814, 46.60675875767832], [-61.046081028216, 46.60672102773879], [-61.04558483487914, 46.606647742480085], [-61.0453164439608, 46.606617326438034], [-61.045089319280706, 46.606591584026496], [-61.04483183891061, 46.606549383782806], [-61.04458044752651, 46.606508177137115], [-61.04449000172386, 46.60648144054754], [-61.04417699817508, 46.606398988743685], [-61.04407346131146, 46.606371721952605], [-61.04373462531799, 46.60624443083521], [-61.04357827213277, 46.606198566762714], [-61.043382412901195, 46.60616190822357], [-61.043226717631924, 46.60613404527291], [-61.04319180916404, 46.606130163097355], [-61.042978301715316, 46.60610638641634], [-61.04271780745604, 46.606051539280564], [-61.04241878573363, 46.605978023724276], [-61.042365922379325, 46.60596001045686], [-61.04235287223189, 46.60595978706772], [-61.04205318823934, 46.60586916883326], [-61.04187138613803, 46.605804858369815], [-61.041826162555616, 46.60578647167791]]}, "properties": {"OBJECTID": 3813, "FEAT_CODE": "WACO20", "FEAT_DESC": "Coast - Water to the right line", "RIVNAME_1": " ", "RIVNAME_2": " ", "ZVALUE": 0.4, "FID": null, "SHAPE_Length": 1078.969189416856}}, {"type": "Feature", "id": 15191, "geometry": {"type": "LineString", "coordinates": [[-61.052933446577356, 46.60377563243251], [-61.0529063102127, 46.60377934627358], [-61.05289326050695, 46.603779124094665], [-61.05289293814537, 46.60378811828062], [-61.05286202410153, 46.60384076202073]]}, "properties": {"OBJECTID": 15191, "FEAT_CODE": "WACO25", "FEAT_DESC": "Coastline Indefinite - Water to the right line", "RIVNAME_1": " ", "RIVNAME_2": " ", "ZVALUE": 0.4, "FID": null, "SHAPE_Length": 10.431799111392213}}, {"type": "Feature", "id": 15192, "geometry": {"type": "LineString", "coordinates": [[-61.054067861207386, 46.60259695782759], [-61.054064929132, 46.60260007582293], [-61.05405140774933, 46.60261448822225], [-61.05415427366866, 46.60269542664172], [-61.05432645652617, 46.602769219587124]]}, "properties": {"OBJECTID": 15192, "FEAT_CODE": "WACO25", "FEAT_DESC": "Coastline Indefinite - Water to the right line", "RIVNAME_1": " ", "RIVNAME_2": " ", "ZVALUE": 0.4, "FID": null, "SHAPE_Length": 29.812972610046963}}, {"type": "Feature", "id": 187511, "geometry": {"type": "LineString", "coordinates": [[-61.05684530546613, 46.60459581660445], [-61.05706102880747, 46.604573337716126], [-61.05711257072938, 46.6045586619245], [-61.057158005212145, 46.604545709288224], [-61.057223618710886, 46.60450743236656], [-61.057316468505455, 46.60446629719201], [-61.05744227998976, 46.6044024126771], [-61.057488175786084, 46.60437910912273], [-61.05756474982286, 46.60432534074475], [-61.057614554123816, 46.60428986397017], [-61.05763857961642, 46.60427272266321], [-61.057646610230684, 46.60426541632671], [-61.05770343808152, 46.604213544402526], [-61.057732155444235, 46.60417802443219], [-61.057747129490586, 46.60415948742377], [-61.05777361249485, 46.6040772571948], [-61.05777670573182, 46.60404369595003], [-61.05777978398517, 46.60401018844858], [-61.05782006164037, 46.603941673988935], [-61.057915385112175, 46.60383057188143], [-61.05795025173279, 46.603798720149896], [-61.05797483231103, 46.603776269390956], [-61.058065812206735, 46.603732599943974], [-61.058153844351104, 46.60371111856472], [-61.05819516649212, 46.6037010385831], [-61.058282459982564, 46.60366551407292], [-61.05836320388605, 46.60359403260123]]}, "properties": {"OBJECTID": 187511, "FEAT_CODE": "WARV50", "FEAT_DESC": "River - Single Line", "RIVNAME_1": " ", "RIVNAME_2": " ", "ZVALUE": 9999, "FID": null, "SHAPE_Length": 171.55802198271695}}, {"type": "Feature", "id": 187512, "geometry": {"type": "LineString", "coordinates": [[-61.05589858695799, 46.604852615016426], [-61.05582091607182, 46.60487019394982], [-61.05578362645139, 46.60487847869558], [-61.05574192708752, 46.60488775042193], [-61.055705000958845, 46.6048928104394], [-61.05567764106444, 46.60489655713702], [-61.055559143657284, 46.60488734273498], [-61.05542890098194, 46.60487793750056], [-61.055324452084974, 46.60484105374349], [-61.05520754778363, 46.604750869015696], [-61.05513016518517, 46.604687446331326], [-61.05510506747178, 46.604662657402514], [-61.055039347678715, 46.60459772305769], [-61.05491676758348, 46.604519114075366], [-61.0548836300948, 46.60449786922303], [-61.054831703570336, 46.60445288763748], [-61.05462341969417, 46.604362047990215], [-61.05441547515999, 46.60429821275348], [-61.054363565704314, 46.60428922993619], [-61.054337452975645, 46.60428878568357], [-61.054233325032705, 46.604279814369846], [-61.05416365663764, 46.60427959198245], [-61.05410276192192, 46.60427940184168], [-61.05409604172991, 46.60427745156374], [-61.054036852442266, 46.60426027202359], [-61.0539725214089, 46.60419707962631], [-61.05395895631836, 46.60418062238808], [-61.05386865437573, 46.60407111666272], [-61.053817875068525, 46.60402950201229], [-61.053791273990434, 46.60400770209792], [-61.05377300721873, 46.603994917688674], [-61.05375305913147, 46.60398095270542], [-61.05371323326518, 46.60392627689399], [-61.05365078833741, 46.60370112227497]]}, "properties": {"OBJECTID": 187512, "FEAT_CODE": "WARV50", "FEAT_DESC": "River - Single Line", "RIVNAME_1": " ", "RIVNAME_2": " ", "ZVALUE": 9999, "FID": null, "SHAPE_Length": 239.5790892889494}}]}