{"type": "FeatureCollection", "features": [{"type": "Feature", "id": 188427, "geometry": {"type": "LineString", "coordinates": [[-60.88154909134422, 46.462908279391435], [-60.88146578642956, 46.462915753607184], [-60.88145759170785, 46.4629164927415], [-60.8813142667091, 46.46295162732927], [-60.88125696289817, 46.46296567619946], [-60.88117094118227, 46.46298677072749], [-60.881116680097946, 46.46299322598887], [-60.88102701218004, 46.46300390292189], [-60.88088403545036, 46.46303005250596], [-60.880848190410354, 46.46303818099022], [-60.88072635842505, 46.46306582931536], [-60.88057036674231, 46.463091737240475], [-60.880425992844636, 46.46315386002709], [-60.880282570881704, 46.46322500020078], [-60.88019060434504, 46.46327909446817], [-60.88012613384408, 46.46329589885858], [-60.880071112181184, 46.46331991636271], [-60.87998172398625, 46.4633589204087], [-60.87991134189938, 46.46338608195877], [-60.87989049040928, 46.46339412819612], [-60.87981166855442, 46.46341156625577], [-60.8796419271875, 46.463456117747555], [-60.87948488588861, 46.463509004481786], [-60.87938484634602, 46.46354256354158], [-60.87938063699409, 46.46354397044754], [-60.87932879639676, 46.463570908575164], [-60.87925282183358, 46.46360824388772], [-60.87918407045925, 46.46364202318106], [-60.879027281411275, 46.46372191372292], [-60.87888290413359, 46.463784034496584], [-60.87878824938529, 46.46382177890499], [-60.87872547676072, 46.46384681293478], [-60.87859576463351, 46.46390020553881], [-60.87839942329102, 46.46392537075768], [-60.87821736385027, 46.46395168269759], [-60.878047052216694, 46.463977321407455]]}, "properties": {"OBJECTID": 188427, "FEAT_CODE": "WARV50", "FEAT_DESC": "River - Single Line", "RIVNAME_1": " ", "RIVNAME_2": " ", "ZVALUE": 9999, "FID": null, "SHAPE_Length": 298.2730990876507}}, {"type": "Feature", "id": 188428, "geometry": {"type": "LineString", "coordinates": [[-60.879356472654635, 46.46222143396047], [-60.87932490328831, 46.46225059309507], [-60.87931729841585, 46.46225760696237], [-60.87923874474605, 46.462302040364584], [-60.87914611460917, 46.46237323033689], [-60.87906718485649, 46.462426665564664], [-60.87903362314021, 46.46244977570893], [-60.878989569413825, 46.46248012512189], [-60.878962457219934, 46.46250752186508], [-60.87887077874023, 46.46258772018993], [-60.87877875053945, 46.46267691187223], [-60.87877119411053, 46.46268267561285], [-60.878672720535356, 46.462757743740575], [-60.878542312002686, 46.462829123206696], [-60.87847712062374, 46.46286481312304], [-60.878385860926365, 46.46290001922687], [-60.878308514344894, 46.462929435522504], [-60.87829333869658, 46.462935201826596], [-60.878254512777175, 46.462962381006434], [-60.87814921551675, 46.46302432615449], [-60.878031470731244, 46.463104939997415], [-60.87795564722365, 46.46316284207137], [-60.877926775216615, 46.46318489594921], [-60.877908116662134, 46.463206212413205], [-60.87784772417699, 46.46327522775242], [-60.87782029635637, 46.463310718291915], [-60.87780150939585, 46.463356107140235], [-60.87779442257717, 46.46337323743227], [-60.87778607802144, 46.46340127927859], [-60.877767464895626, 46.4634636361964], [-60.87776659968348, 46.463531119532405], [-60.87776622194557, 46.46356261223881], [-60.877768277670036, 46.46356903134317], [-60.87777783818943, 46.4635988275544], [-60.877790441262235, 46.463643161114874], [-60.877798322294524, 46.463652505330046], [-60.877829038947766, 46.46368887720491], [-60.87784540554032, 46.463705416870305], [-60.877855356099566, 46.463715465491646], [-60.87794595111106, 46.46379724642562], [-60.877969240555515, 46.463838736351015], [-60.878047052216694, 46.463977321407455]]}, "properties": {"OBJECTID": 188428, "FEAT_CODE": "WARV50", "FEAT_DESC": "River - Single Line", "RIVNAME_1": " ", "RIVNAME_2": " ", "ZVALUE": 9999, "FID": null, "SHAPE_Length": 250.8253585223525}}, {"type": "Feature", "id": 188429, "geometry": {"type": "LineString", "coordinates": [[-60.878047052216694, 46.463977321407455], [-60.878038817823196, 46.46397773556331], [-60.87803400240926, 46.463977979180875], [-60.87794266965021, 46.46404918324785], [-60.87791558640153, 46.46408551719502], [-60.877889079808035, 46.464121087846706], [-60.87784949190045, 46.46420134326192], [-60.877809518930796, 46.46429150042504], [-60.87775612463729, 46.464390525343916], [-60.877743418168045, 46.46441719022217], [-60.87767716272404, 46.46447985067982], [-60.87760983753428, 46.46453685729025], [-60.8775721143216, 46.46456879966263], [-60.877522952790166, 46.464614884533496], [-60.877466680915575, 46.46466764131019], [-60.87734861677618, 46.46475634843432], [-60.87729367608401, 46.46480333389421], [-60.87724353232792, 46.464846196435644], [-60.87703269783179, 46.465042979630105]]}, "properties": {"OBJECTID": 188429, "FEAT_CODE": "WARV50", "FEAT_DESC": "River - Single Line", "RIVNAME_1": " ", "RIVNAME_2": " ", "ZVALUE": 9999, "FID": null, "SHAPE_Length": 143.8297443934518}}, {"type": "Feature", "id": 188505, "geometry": {"type": "LineString", "coordinates": [[-60.872474428557354, 46.46747461916256], [-60.87248372442124, 46.46747138118719], [-60.87252592566632, 46.46745667767281], [-60.87260475556, 46.46743924478646], [-60.87266960571693, 46.4674125517962], [-60.87281401255091, 46.46735043943039], [-60.87291865831771, 46.467305586934145], [-60.872954200642, 46.46729095736499], [-60.87298352118185, 46.467278894002106], [-60.87311853287048, 46.46724026723098], [-60.873166597240335, 46.467226509549924], [-60.87324582543416, 46.46719917472392], [-60.87330998720505, 46.46719046839604], [-60.87346729532628, 46.46716459486225], [-60.873550201101835, 46.46714883912442], [-60.873557838176126, 46.46714738819075], [-60.87358811365546, 46.46713588242983], [-60.873650383926275, 46.467112200868634], [-60.87380747612037, 46.46705842311125], [-60.8739038107997, 46.46701222715389], [-60.87393755065624, 46.466996042772244], [-60.87408229224466, 46.46692493511301], [-60.87422575451951, 46.466850212515716], [-60.874252463406116, 46.466836300281926], [-60.87427237167222, 46.46682945252455], [-60.87435675680764, 46.466800439832774], [-60.874421618388, 46.46677374606053], [-60.87444635284122, 46.46676872498824], [-60.874592290496906, 46.46673911953406], [-60.87470788539471, 46.46671673474842], [-60.87477472435264, 46.466703811407626], [-60.87481650798326, 46.46669143926234], [-60.87489197158992, 46.46666909126733], [-60.87496989624664, 46.466641740015206], [-60.875091420571685, 46.46658714635796], [-60.87512765102205, 46.46657087291827], [-60.87529737060812, 46.46652722771887], [-60.875454459554724, 46.466473447637185], [-60.87563659248903, 46.46641203278597], [-60.87569514549562, 46.46638542806265], [-60.87575458657701, 46.46635842581451], [-60.87580774613219, 46.466331513819526], [-60.87603000882786, 46.466242953226065], [-60.87608869262357, 46.46622301966897], [-60.87623855598802, 46.46617212824363], [-60.87640163672956, 46.46611326521619], [-60.87643538880991, 46.466101085286745], [-60.87646036405914, 46.46609086629978], [-60.876631269789954, 46.46602101539551], [-60.876769300829864, 46.46597962341758], [-60.876865845967785, 46.46595067271126], [-60.87697798478657, 46.465912597591206], [-60.877049312134524, 46.465888380376704], [-60.87746715791156, 46.46582773951227]]}, "properties": {"OBJECTID": 188505, "FEAT_CODE": "WARV50", "FEAT_DESC": "River - Single Line", "RIVNAME_1": " ", "RIVNAME_2": " ", "ZVALUE": 9999, "FID": null, "SHAPE_Length": 428.3101518762603}}, {"type": "Feature", "id": 188506, "geometry": {"type": "LineString", "coordinates": [[-60.86992196641276, 46.46749638948111], [-60.86996044872632, 46.46747820665367], [-60.870038906257086, 46.46743862880422], [-60.87006541284386, 46.46742526277415], [-60.87013890390452, 46.46738945329086], [-60.87024864258182, 46.467335977199234], [-60.87039233706716, 46.467291854452505], [-60.87041071778872, 46.4672877868865], [-60.87047116735055, 46.467274423044664], [-60.870797535440886, 46.46722200245443], [-60.87095424475493, 46.46717812139371], [-60.87111157227188, 46.46713140765648], [-60.87116245103369, 46.4671162992393], [-60.8712419693093, 46.46708088027781], [-60.87145950820493, 46.4669844646815], [-60.871503087368964, 46.466965152241876], [-60.87152403988441, 46.46695090847357], [-60.87160878581961, 46.46689331179117], [-60.871651470807606, 46.466857845796845], [-60.871673399266875, 46.46683961520711], [-60.87171324813735, 46.46678635755404], [-60.871753482650945, 46.46672320715723], [-60.87182030065351, 46.46657955235807], [-60.871834118025475, 46.46652581907035], [-60.87183492067892, 46.46647182550832], [-60.871821406062715, 46.46641757442438], [-60.87177151444608, 46.46632754647601], [-60.87176768033988, 46.466322993141745], [-60.87168064018071, 46.46621965570722], [-60.87160341682269, 46.46612911885235], [-60.87151423049504, 46.46601135946185], [-60.871506767666034, 46.46599231168971], [-60.87148935324884, 46.46594789686427], [-60.87143870127733, 46.46577685534076], [-60.87144028315065, 46.46576200792821], [-60.871453085357935, 46.46564212437713], [-60.871466903170685, 46.465588382134264], [-60.871485319906675, 46.4655673412194], [-60.87150643566904, 46.46554321858095], [-60.87161204828875, 46.465373295403275], [-60.871678663045884, 46.465301627228236], [-60.871849670466254, 46.465158103019135], [-60.871904908937545, 46.465090245901855], [-60.871915333046076, 46.46507743506037], [-60.871923288443526, 46.46506681024387], [-60.87195517998549, 46.46502418627538], [-60.872074340443405, 46.46490759636903], [-60.87212688694308, 46.46486267483062], [-60.87215965832588, 46.46483623103591], [-60.87227077479292, 46.46474655396162], [-60.87241456143526, 46.46466643070551], [-60.87247001403168, 46.46463214699735], [-60.87255869815538, 46.4645773138631], [-60.87272946481255, 46.464506692199144], [-60.87283375466008, 46.464470833067935], [-60.872925595035376, 46.464453642040844], [-60.87309429344183, 46.46443608087678], [-60.873152480483775, 46.464445254322776], [-60.87315901762771, 46.46444628493057], [-60.8731718130973, 46.46444915095073], [-60.873237777945945, 46.46446394999992], [-60.87334123164534, 46.46448297436069], [-60.873379961109244, 46.46449179473505], [-60.873438906853, 46.4644865102775], [-60.87347145101735, 46.46448359666959], [-60.87362875122246, 46.46445772276962], [-60.87368450992752, 46.464449660931734], [-60.8738108146648, 46.464431409212885], [-60.87394095200426, 46.4644023657264], [-60.873967163346165, 46.464396517231165], [-60.87406401303202, 46.4643777714608], [-60.87414957667223, 46.46436120972205], [-60.87423110824525, 46.464349522901145], [-60.87433292804444, 46.464334919282976], [-60.874384104532055, 46.46432444992495], [-60.87450230404909, 46.46430026879247], [-60.87454928431523, 46.46429521129499], [-60.87458076558882, 46.4642918276144], [-60.87468531793666, 46.46428297143312], [-60.87479269308086, 46.46428390554347], [-60.87486759647963, 46.46428455994233], [-60.874967521145145, 46.46427011852872], [-60.87504965846349, 46.46425825338521], [-60.875206257578675, 46.46425035512196], [-60.875544918287794, 46.464216149290834]]}, "properties": {"OBJECTID": 188506, "FEAT_CODE": "WARV50", "FEAT_DESC": "River - Single Line", "RIVNAME_1": " ", "RIVNAME_2": " ", "ZVALUE": 9999, "FID": null, "SHAPE_Length": 682.7365602340888}}, {"type": "Feature", "id": 188507, "geometry": {"type": "LineString", "coordinates": [[-60.86705172988277, 46.46798377009152], [-60.86710470626124, 46.467984029473904], [-60.86711684358133, 46.467984084916935], [-60.86714004766859, 46.46798159285042], [-60.86719532441649, 46.46797564916515], [-60.86727320647751, 46.467949202355925], [-60.86738551534374, 46.46790705385545], [-60.867508492138874, 46.46786089227455], [-60.86760014042877, 46.467815802200086], [-60.86761624817889, 46.46780057778992], [-60.86766641177327, 46.467753138888014], [-60.86773624965626, 46.46770586891573], [-60.867745347282415, 46.467699711655094], [-60.86775048903415, 46.467697125578994], [-60.86779716227374, 46.46767367829835], [-60.8678750787521, 46.467646331729064], [-60.86795426158756, 46.46761990871496], [-60.868094451246144, 46.46758555140299], [-60.86809760731279, 46.467584782265014], [-60.86834546415257, 46.46754170447129], [-60.868515578172996, 46.46748817678576], [-60.86865927438776, 46.467444056249256], [-60.868776236892785, 46.467417436997536], [-60.86899806132034, 46.46737387248803], [-60.86925851341803, 46.46737512708392], [-60.86934884599991, 46.46737936662919], [-60.86948083420521, 46.46738557038953], [-60.86955826078986, 46.467404113118995], [-60.86975269318453, 46.467495035434865], [-60.86979570815832, 46.46750121889694], [-60.8698174684007, 46.467504342331225], [-60.86984342257038, 46.46750446593426], [-60.86988256858325, 46.467504655329215], [-60.86991128960209, 46.467498629527306], [-60.86992196641276, 46.46749638948111]]}, "properties": {"OBJECTID": 188507, "FEAT_CODE": "WARV50", "FEAT_DESC": "River - Single Line", "RIVNAME_1": " ", "RIVNAME_2": " ", "ZVALUE": 9999, "FID": null, "SHAPE_Length": 242.06961544164287}}, {"type": "Feature", "id": 188508, "geometry": {"type": "LineString", "coordinates": [[-60.86847037537932, 46.46917931816745], [-60.868522439410945, 46.46918028887283], [-60.86853179333411, 46.46918024727114], [-60.86860060570462, 46.46917994621311], [-60.868678137665, 46.46916249183643], [-60.868808809200374, 46.46911812829727], [-60.86887499079323, 46.469091462281504], [-60.86890042348534, 46.469073936543815], [-60.86897065276463, 46.46901999518444], [-60.86899307802514, 46.469002764363225], [-60.86903589181712, 46.468960416817794], [-60.86911095174464, 46.46888616260673], [-60.86927249535761, 46.46875063782744], [-60.86933449444616, 46.46869863083151], [-60.869373568958075, 46.46865562847444], [-60.86944066549842, 46.46858181062707], [-60.8694948556073, 46.468514619155], [-60.86952004081956, 46.46848339979558], [-60.86953662604726, 46.46846060608611], [-60.869572344804304, 46.46841146618146], [-60.86966509983045, 46.468304295662975], [-60.86970470321412, 46.468224034395924], [-60.869711995944385, 46.46819136559544], [-60.869718909243886, 46.468160408708], [-60.86976057507637, 46.46792717828196], [-60.86977518659765, 46.46781945155148], [-60.86981599290556, 46.467675313249984], [-60.86992196641276, 46.46749638948111]]}, "properties": {"OBJECTID": 188508, "FEAT_CODE": "WARV50", "FEAT_DESC": "River - Single Line", "RIVNAME_1": " ", "RIVNAME_2": " ", "ZVALUE": 9999, "FID": null, "SHAPE_Length": 232.77030016069168}}, {"type": "Feature", "id": 188509, "geometry": {"type": "LineString", "coordinates": [[-60.86274052809794, 46.46921094197407], [-60.86283673268662, 46.46919435363456], [-60.86284411596224, 46.46919307867046], [-60.862922964256406, 46.46917565280431], [-60.86301420508191, 46.469140458698696], [-60.86317238246168, 46.46905971609066], [-60.86325002260401, 46.46900626775175], [-60.863320084287764, 46.46897072255292], [-60.86351180916845, 46.46887347062403], [-60.86381404077871, 46.46873961065438], [-60.86388663385974, 46.468704598403676], [-60.86390564530476, 46.468695422715996], [-60.86407446549877, 46.46864187746497], [-60.86410121407987, 46.468624377377246], [-60.864219223938385, 46.46857078260558], [-60.864323492125976, 46.46853582182973], [-60.8643947107362, 46.46851561544241], [-60.864415693361615, 46.468509653462846], [-60.864715690642434, 46.46846575753757], [-60.864793222729446, 46.468448305797885], [-60.86483989462867, 46.46843826057583], [-60.86512030629984, 46.46837791494538], [-60.86518176821396, 46.4683570488748], [-60.86519818989752, 46.468351469578444], [-60.86538067884831, 46.46828107779724], [-60.86547292771082, 46.46825400047532], [-60.865557725856576, 46.46822825995907], [-60.86559024509474, 46.468218391192494], [-60.86581171010525, 46.46818383507215], [-60.8659954207728, 46.468149455783696], [-60.866142665462945, 46.46811994851342], [-60.86621729840005, 46.468104997671304], [-60.86641304789075, 46.46806185149218], [-60.86650398130849, 46.468034748788455], [-60.866512112519125, 46.468031327565356], [-60.86660859823754, 46.46799080151963], [-60.86666080069569, 46.46795487600008], [-60.86669576267556, 46.467945484497925], [-60.86672661734851, 46.46793720433186], [-60.86683042659373, 46.467947241289465], [-60.86690823962114, 46.46795589311608], [-60.86705172988277, 46.46798377009152]]}, "properties": {"OBJECTID": 188509, "FEAT_CODE": "WARV50", "FEAT_DESC": "River - Single Line", "RIVNAME_1": " ", "RIVNAME_2": " ", "ZVALUE": 9999, "FID": null, "SHAPE_Length": 367.2950392311402}}, {"type": "Feature", "id": 188510, "geometry": {"type": "LineString", "coordinates": [[-60.87693973772576, 46.46174008266645], [-60.876924921704735, 46.461745648469794], [-60.87691462582398, 46.46174951623028], [-60.87686752899263, 46.46178141030173], [-60.87683570787865, 46.4618029501427], [-60.87678324788591, 46.461829416622194], [-60.87673076111448, 46.46185590058009], [-60.876613366664365, 46.46192751955926], [-60.876587299117155, 46.46195080418127], [-60.87657288942289, 46.461963667422886], [-60.876507684834934, 46.461999355974996], [-60.87639032476861, 46.46207007537093], [-60.87628394266122, 46.46215989841488], [-60.8761564725332, 46.46223872768768], [-60.8761398183812, 46.46224902019965], [-60.87602232415772, 46.46235663640339], [-60.87600451342724, 46.4623755653324], [-60.875929928505, 46.462454827895876], [-60.87589450100106, 46.46248368040413], [-60.87586403642007, 46.46250849414948], [-60.87581187123669, 46.462544424577196], [-60.87569828773998, 46.46261275645238], [-60.875679804139324, 46.462623869895445], [-60.87566911796677, 46.462629728273825], [-60.87561461119597, 46.462659558153], [-60.875562419675475, 46.46269548797711], [-60.87545768643018, 46.46277634096678], [-60.87544966140609, 46.46278175378298], [-60.87536540100716, 46.462838525363104], [-60.875314695836586, 46.46288477860663], [-60.87528708137174, 46.46290996916394], [-60.875241403284704, 46.462962246752014], [-60.875115326528885, 46.46310657518133]]}, "properties": {"OBJECTID": 188510, "FEAT_CODE": "WARV50", "FEAT_DESC": "River - Single Line", "RIVNAME_1": " ", "RIVNAME_2": " ", "ZVALUE": 9999, "FID": null, "SHAPE_Length": 208.30790824191456}}, {"type": "Feature", "id": 188511, "geometry": {"type": "LineString", "coordinates": [[-60.88353548509717, 46.46569004541793], [-60.883483295696344, 46.46572597887982], [-60.88343986972638, 46.46575054567102], [-60.88340472686257, 46.46577042384562], [-60.88337573039316, 46.465786302844634], [-60.8833395219699, 46.46580611627148], [-60.88329755115312, 46.46583916987005], [-60.88326025540302, 46.465868548049144], [-60.88322191228481, 46.46588597293631], [-60.88314225647671, 46.46592216267325], [-60.88308308866405, 46.46596875763476], [-60.88306297650038, 46.46598459406532], [-60.88303260916573, 46.466005253547195], [-60.88295864434166, 46.466055561404566], [-60.882827280496834, 46.46611792812603], [-60.882743736264885, 46.46616133550549], [-60.88272359756504, 46.466171807435614], [-60.88257921775192, 46.466233932815236], [-60.882507161140595, 46.46627297182973], [-60.88244750416212, 46.46630529253652], [-60.882352390230515, 46.46635247229235], [-60.88230407631923, 46.46637643511547], [-60.88215969514865, 46.466438568939495], [-60.88207931721962, 46.46646848961712], [-60.882016964863, 46.46649171525144], [-60.8819418747645, 46.46652230979006], [-60.881885947898375, 46.46654508740206], [-60.88185399757777, 46.46655214537098], [-60.88180712204658, 46.46656252676322], [-60.88175187445903, 46.46656846905576], [-60.88172864515808, 46.466570972621554], [-60.88165060630709, 46.46658323350631], [-60.88155959307039, 46.46659754889906], [-60.88154884915372, 46.46659918579442], [-60.88150718236135, 46.46660556862187], [-60.88145510363221, 46.466626176352804], [-60.88141590931831, 46.46664167687829], [-60.88133805695507, 46.46666758487564], [-60.88128526240437, 46.46668515529229], [-60.88124179103109, 46.46670010849751], [-60.881180986572275, 46.46672102238519], [-60.88107638338069, 46.466764983238356], [-60.880987052595295, 46.46680942507164], [-60.88093161611155, 46.46683699926028], [-60.880834456666925, 46.46689554272857], [-60.88081423763026, 46.46690773181646], [-60.88079478818894, 46.46692089815746], [-60.88069519991088, 46.46698831539893], [-60.88066488493842, 46.46700893022188], [-60.88059084976866, 46.467059280240164], [-60.88049852736369, 46.46712237705141], [-60.880274679997065, 46.46731891590465]]}, "properties": {"OBJECTID": 188511, "FEAT_CODE": "WARV50", "FEAT_DESC": "River - Single Line", "RIVNAME_1": " ", "RIVNAME_2": " ", "ZVALUE": 9999, "FID": null, "SHAPE_Length": 314.2208548189935}}, {"type": "Feature", "id": 188886, "geometry": {"type": "LineString", "coordinates": [[-60.8642098853618, 46.47163867903895], [-60.86436671853994, 46.47155880967675], [-60.864497870127906, 46.47146946047313], [-60.86450853283839, 46.47146394470087], [-60.864721227238704, 46.47135394258796], [-60.864839361634175, 46.47126434086304], [-60.86503499600254, 46.47115819550347], [-60.865174539026825, 46.4710823760991], [-60.86523196643531, 46.471051174765506], [-60.865376483556915, 46.47095307421123], [-60.8655270733091, 46.47087387867093], [-60.86554671636703, 46.47086355351591], [-60.86579480023759, 46.47074848618081], [-60.86597934970634, 46.47065923210356], [-60.86606421474334, 46.470613548654995], [-60.86622817014143, 46.470525277757794], [-60.86637268409029, 46.470427175881824], [-60.866449851009065, 46.47035681471162], [-60.866451026316724, 46.47035573865614], [-60.86651635208218, 46.47028405846713], [-60.86653333672836, 46.47025076075133], [-60.86655726357351, 46.47020381371619], [-60.86657119173451, 46.4701140834956], [-60.86655873625781, 46.47003285183407], [-60.866548250381996, 46.47000186744662], [-60.86653421470052, 46.46996039491246], [-60.86646976416462, 46.46984309325023], [-60.86640661551024, 46.46972581584573], [-60.86636809298801, 46.46964499766421], [-60.866343078118746, 46.469518532001295], [-60.86634353441981, 46.469473540943234], [-60.86637477396174, 46.46933582227876], [-60.866398618215406, 46.46923067127825], [-60.866417294764034, 46.46915808452083], [-60.86642626579116, 46.469123188273734], [-60.86644661947556, 46.46906134270947], [-60.86649426047741, 46.46891655016339], [-60.866547271213854, 46.468826649289184], [-60.86658613517351, 46.46875876818607], [-60.866639538790565, 46.46866547263087], [-60.86675847120354, 46.46852189329629], [-60.86686400054835, 46.46838796365968], [-60.86695686540943, 46.468244788714735], [-60.86705172988277, 46.46798377009152]]}, "properties": {"OBJECTID": 188886, "FEAT_CODE": "WARV50", "FEAT_DESC": "River - Single Line", "RIVNAME_1": " ", "RIVNAME_2": " ", "ZVALUE": 9999, "FID": null, "SHAPE_Length": 502.8523910351195}}, {"type": "Feature", "id": 188890, "geometry": {"type": "LineString", "coordinates": [[-60.87829609035748, 46.470772378800476], [-60.87829643998582, 46.47076338537952], [-60.878314967405124, 46.47070127884809], [-60.87832340047707, 46.470672995637834], [-60.8783897604613, 46.47057431915322], [-60.87840948937882, 46.47054094461461], [-60.87846923299663, 46.470439895320744], [-60.87854496594081, 46.47033699172197], [-60.878561358896526, 46.47031470614128], [-60.8786020986442, 46.470263892627614], [-60.87865446247003, 46.470198534937346], [-60.87875965180151, 46.470072688001366], [-60.878788977526234, 46.470038042474016], [-60.8788128970974, 46.470009776568354], [-60.87885145254991, 46.46995650146064], [-60.87891824360437, 46.46981283310622], [-60.87899796679866, 46.469705413277666], [-60.87900357153615, 46.46969593235434], [-60.87907743616037, 46.46957099795024], [-60.879183925235104, 46.46944516572816], [-60.87923621725295, 46.46937323649845], [-60.87925936834776, 46.46934227426827], [-60.87927606077215, 46.46931997613808], [-60.879319903079924, 46.46924559514868], [-60.87932905142353, 46.46923006000193], [-60.87936858025472, 46.4691848936914], [-60.879386293171045, 46.46915744852494], [-60.879408772927476, 46.46912263984874], [-60.87940901726239, 46.46909791262407], [-60.87940921844296, 46.46907764855497], [-60.87940931453253, 46.469041650691025], [-60.87935925084181, 46.46888862354493], [-60.87933402914234, 46.468848511084076], [-60.87930772846337, 46.468806668619244], [-60.87929996355553, 46.4687728559107], [-60.87929547289571, 46.46875333279946], [-60.8792822029236, 46.46872610490544], [-60.879283102698295, 46.46867713507472], [-60.87928336077461, 46.46866311799892], [-60.8792879050438, 46.46864539146899], [-60.8792971587629, 46.46860937447808], [-60.8793382771161, 46.468456238711866], [-60.87935218446684, 46.46836648856153], [-60.879357395116486, 46.4683507183702], [-60.87937875753272, 46.4682859912605], [-60.87943298728352, 46.468097099007444], [-60.87945459223831, 46.46801908350874], [-60.879460259241164, 46.46799860582229], [-60.87946065483251, 46.4679766893718], [-60.87946139046077, 46.467935627413354], [-60.87946157394704, 46.46790978306629], [-60.879461944929865, 46.46785463847957], [-60.87944729176368, 46.467789594308776], [-60.87943750305825, 46.46774618615759], [-60.8794233031485, 46.46768959230868], [-60.8793991544985, 46.467593376296996], [-60.87936249206079, 46.467430697790945], [-60.87931395860199, 46.4670707009435]]}, "properties": {"OBJECTID": 188890, "FEAT_CODE": "WARV50", "FEAT_DESC": "River - Single Line", "RIVNAME_1": " ", "RIVNAME_2": " ", "ZVALUE": 9999, "FID": null, "SHAPE_Length": 434.7557883610747}}, {"type": "Feature", "id": 188897, "geometry": {"type": "LineString", "coordinates": [[-60.86643573542044, 46.4559510758248], [-60.86639469603898, 46.45606820902569], [-60.86638122740632, 46.45611295732091], [-60.866342296287506, 46.456176130250284], [-60.86626276789046, 46.45624746438009], [-60.86614531329921, 46.45631825254809], [-60.866134326872356, 46.4563308003853], [-60.86610578338107, 46.456363414353206], [-60.86607895002277, 46.456416913079494], [-60.86603962486156, 46.456483489523066], [-60.86594646956789, 46.45664123841488], [-60.8659272423271, 46.456685708157515], [-60.865892064046136, 46.45676712184859], [-60.86587949723411, 46.45682543181387], [-60.86586502083588, 46.45689261606213], [-60.86586409537351, 46.456982598106435], [-60.86591338614117, 46.4571545169583], [-60.86596114824897, 46.45726326372842], [-60.865976753963295, 46.4572987987724], [-60.865996998541135, 46.45732726546112], [-60.86604095571526, 46.45738909652582], [-60.86608637416757, 46.45743086700232], [-60.866118895951146, 46.457460750824886], [-60.86616748109139, 46.457494804436244], [-60.866183540741524, 46.45750606610885], [-60.86623489101562, 46.4575250154186], [-60.86627456422444, 46.457542855768075], [-60.86628414855087, 46.45755219658249], [-60.86631219811277, 46.457579557897134], [-60.86633601859501, 46.457636495046884], [-60.86633838928437, 46.45764214624988], [-60.866350256815835, 46.457705367258505], [-60.86634944952512, 46.45775935177662], [-60.86634004003982, 46.45778785894031], [-60.866322862672156, 46.457839854942584], [-60.866309393492465, 46.45788460320801], [-60.866309289043045, 46.45792060098109], [-60.86633355844965, 46.45796605359559], [-60.86637274101799, 46.458029784397354], [-60.86643668418053, 46.45809307729855], [-60.86657937648771, 46.4581740396518], [-60.866625377365615, 46.45819559793314], [-60.866657387616556, 46.45821059516731], [-60.866712073766735, 46.458232513487], [-60.86677277328979, 46.45825684797171], [-60.866784752487646, 46.45826222846199], [-60.86681246021778, 46.45827468838715], [-60.86689885261154, 46.458328391994854], [-60.86691543139471, 46.458338709256296], [-60.86695600141626, 46.458369615997015], [-60.86705708444236, 46.458446642405285], [-60.867090546414104, 46.45847615648911], [-60.867160315950436, 46.45853768569649], [-60.86722543557064, 46.458590569178995], [-60.867238575791006, 46.45860123623988], [-60.867277196226595, 46.45864605638393], [-60.8673660105418, 46.45877281224112], [-60.86741376136632, 46.45884527944526], [-60.867443464688904, 46.4588903471848], [-60.867469530151325, 46.4589335290707], [-60.86748138261076, 46.45895316301014], [-60.86753175594436, 46.45909720151524], [-60.8675567794967, 46.45914172293376], [-60.86758290055173, 46.45918815480294], [-60.86765968802183, 46.45932278601904], [-60.867664233148, 46.459333121713556], [-60.867735035820466, 46.459494290033234], [-60.86774603395724, 46.45952946888432], [-60.86776050491451, 46.459575764418084], [-60.86777236142573, 46.45963898505122], [-60.867759278786075, 46.45970319852734], [-60.86774496963495, 46.45977347307639], [-60.867691176762186, 46.45991736858723], [-60.867638037767, 46.460040513434095], [-60.86762529386617, 46.460070038490045], [-60.86747863883908, 46.460357100581206], [-60.86744939961894, 46.460396487834274], [-60.867398907560485, 46.46046451238732], [-60.86733208606648, 46.46060816467541], [-60.86731403668477, 46.46064414266759], [-60.86727841721167, 46.46071516259201], [-60.867245444710335, 46.46076942902322], [-60.86721300040196, 46.46082284130559], [-60.86714011009176, 46.46089712582279], [-60.86705430668937, 46.46098457925943]]}, "properties": {"OBJECTID": 188897, "FEAT_CODE": "WARV50", "FEAT_DESC": "River - Single Line", "RIVNAME_1": " ", "RIVNAME_2": " ", "ZVALUE": 9999, "FID": null, "SHAPE_Length": 631.6711299135835}}, {"type": "Feature", "id": 189038, "geometry": {"type": "LineString", "coordinates": [[-60.87791184488765, 46.474791805461166], [-60.87794132422052, 46.47477171586711], [-60.877977413896325, 46.47474712301104], [-60.878030387623916, 46.47471144064736], [-60.878069716685864, 46.47468494590842], [-60.878187487356364, 46.4746043236038], [-60.87821162288567, 46.47458798672087], [-60.87826640994924, 46.47455088891684], [-60.87827746888935, 46.47453549732177], [-60.878292589639194, 46.47451447516731], [-60.878381053822814, 46.47442502886193], [-60.87839835592061, 46.47440753913707], [-60.87847713471794, 46.47429111130257], [-60.878503651107216, 46.47424569484714], [-60.878543945474924, 46.474147443615855], [-60.878597738275175, 46.474003543329026], [-60.878611298261355, 46.47392280479905], [-60.878618054090154, 46.47388942351115], [-60.87862581031215, 46.47385108383798], [-60.878637926893184, 46.473707949175335], [-60.87864026390269, 46.47368033583017], [-60.878681724994074, 46.473518206861975], [-60.87868184929622, 46.47350294532833], [-60.87868317351541, 46.473347235528905], [-60.87871099267496, 46.473167753592314], [-60.878725697989786, 46.47302402794649], [-60.87872651708137, 46.472984524555564], [-60.87872719296603, 46.47295205643409], [-60.878712836879494, 46.47289444265538], [-60.87870240069653, 46.4728526064451], [-60.87865138412779, 46.47269055249253], [-60.878587953090424, 46.472546276964735], [-60.87855773360894, 46.47247285296062], [-60.87852487198692, 46.472393007984245], [-60.87848636458956, 46.47231129424759], [-60.87848059310678, 46.472290541359115], [-60.87847379415589, 46.47226606144169], [-60.87847565166993, 46.47216332596731], [-60.878476050461515, 46.47214100459684], [-60.878476774178885, 46.471988019595145], [-60.87847817263149, 46.471952045914676], [-60.87846525380086, 46.47192482445574], [-60.87842640906363, 46.471843086432465], [-60.87838996496077, 46.471708311486445], [-60.87836466857254, 46.47155484359744], [-60.878328020983986, 46.47142397080923], [-60.87832692312786, 46.47142004447452], [-60.87831584840336, 46.471302840132054], [-60.87831718788958, 46.47116786635688], [-60.87830646319788, 46.47104165959584], [-60.87829609035748, 46.470772378800476]]}, "properties": {"OBJECTID": 189038, "FEAT_CODE": "WARV50", "FEAT_DESC": "River - Single Line", "RIVNAME_1": " ", "RIVNAME_2": " ", "ZVALUE": 9999, "FID": null, "SHAPE_Length": 468.35272661980343}}, {"type": "Feature", "id": 189039, "geometry": {"type": "LineString", "coordinates": [[-60.87829609035748, 46.470772378800476], [-60.87823558047009, 46.47079394457776], [-60.87809927774772, 46.4708425253232], [-60.877890351757436, 46.47092235555765], [-60.87787696360209, 46.470932006944395], [-60.87775898377947, 46.47098470735888], [-60.87762890379085, 46.471047091919694], [-60.877484855075295, 46.47110021708478], [-60.87739357186096, 46.4711363219318], [-60.877328117360584, 46.47114500655317], [-60.87726231237283, 46.47115968756889], [-60.87717173816224, 46.47117990256349], [-60.87707990062593, 46.471197097057534], [-60.87707856391367, 46.47119763923009], [-60.87701502194231, 46.47122379201079], [-60.87697478341358, 46.471237219639534], [-60.876935837982465, 46.47125022127209], [-60.87683779765032, 46.471267138384164], [-60.87683223733679, 46.47126809711081], [-60.876824443212485, 46.47126955434663], [-60.876648535681916, 46.471302484985955], [-60.87647911706017, 46.47133803785774], [-60.876318219644794, 46.47136917681385], [-60.87629668162884, 46.47137334867786], [-60.87628066028715, 46.47137467104667], [-60.87610066270218, 46.4713895070466], [-60.87603213414248, 46.47138980890045], [-60.87602249310942, 46.47138985478283], [-60.875971126754955, 46.47137090064354], [-60.87585400590556, 46.471334524947075], [-60.87580225461327, 46.47132546347985], [-60.87571110354315, 46.47132466980994], [-60.87551573646434, 46.47132374845878], [-60.87541217061941, 46.47134071466624], [-60.8753329637548, 46.47136804238293], [-60.87515022542286, 46.47141144566277], [-60.874994194347416, 46.47143734525504], [-60.87488892789511, 46.47146418827895]]}, "properties": {"OBJECTID": 189039, "FEAT_CODE": "WARV50", "FEAT_DESC": "River - Single Line", "RIVNAME_1": " ", "RIVNAME_2": " ", "ZVALUE": 9999, "FID": null, "SHAPE_Length": 281.315850145825}}, {"type": "Feature", "id": 189047, "geometry": {"type": "LineString", "coordinates": [[-60.87216996390187, 46.45874532854513], [-60.87216951280438, 46.458790319787695], [-60.872169241275, 46.45881867350596], [-60.87216861060328, 46.45888030227179], [-60.87214193104958, 46.458996804748715], [-60.87213511637515, 46.45902697166336], [-60.8721277649445, 46.45905954956729], [-60.87207397165923, 46.45920343812836], [-60.87205925386339, 46.45934716301121], [-60.87205896057638, 46.4593764073147], [-60.872058351439, 46.45943714548302], [-60.872046076733554, 46.459453026874826], [-60.87204463668384, 46.459454890054765], [-60.87203034339428, 46.45949416068092], [-60.87200525826943, 46.45956305618273], [-60.871980062087886, 46.459630455623355], [-60.871951463419215, 46.45970696264732], [-60.871879091231285, 46.45983164141967], [-60.87185791340989, 46.459868110887356], [-60.871834407182945, 46.4599238868479], [-60.87180483234089, 46.45999402171248], [-60.871754815098235, 46.46007473791981], [-60.87173812389625, 46.460101678967156], [-60.871734442829016, 46.46010791038715], [-60.87165865089762, 46.460236098321246], [-60.871618029500816, 46.460313308419664], [-60.87157847628254, 46.460388504406865], [-60.871499352724015, 46.46051393922587], [-60.87142022949488, 46.46063935599462], [-60.87134050544372, 46.46074677066898], [-60.871330437516285, 46.46076716603433], [-60.871313639800384, 46.46080116997561], [-60.87129095577329, 46.46083149133934], [-60.871273795120544, 46.46085442760851], [-60.87125710894299, 46.46089525556123], [-60.87124788044252, 46.460917835531504], [-60.871243199173584, 46.46093201324433], [-60.87123311267325, 46.46096256917017], [-60.87120713131082, 46.46106108454845], [-60.87120646327791, 46.46111729463956], [-60.871205437707424, 46.46120505180855], [-60.87117658817836, 46.4613069787393], [-60.871164640491614, 46.46134919090182], [-60.871109622085875, 46.46159116432833]]}, "properties": {"OBJECTID": 189047, "FEAT_CODE": "WARV50", "FEAT_DESC": "River - Single Line", "RIVNAME_1": " ", "RIVNAME_2": " ", "ZVALUE": 9999, "FID": null, "SHAPE_Length": 329.9181779100113}}, {"type": "Feature", "id": 189048, "geometry": {"type": "LineString", "coordinates": [[-60.869906619299556, 46.46084696187303], [-60.86990699071681, 46.46085813770103], [-60.86990721892561, 46.460864972896616], [-60.86990651714762, 46.46088295967186], [-60.86992037879665, 46.460897527828365], [-60.8699840944266, 46.46096450443287], [-60.87000768039591, 46.460986192701384], [-60.87002305696117, 46.46100032107416], [-60.87002789395303, 46.46100385816528], [-60.87003571981253, 46.461009565925046], [-60.87011373732473, 46.46104611917189], [-60.87012259615911, 46.46105105417714], [-60.87014077286682, 46.46106117573563], [-60.87015959649173, 46.461072074337004], [-60.87017743944073, 46.461082405669806], [-60.87019866210245, 46.46111326579308], [-60.87021631289472, 46.46115422928483], [-60.8702230495638, 46.461178510585405], [-60.87022887421789, 46.461199462922664], [-60.87022825593573, 46.46126038089623], [-60.87022796863827, 46.461289445301404], [-60.8702381883782, 46.46132626538441], [-60.870253078363724, 46.46137991233007], [-60.870259824949144, 46.46140093583955], [-60.87026470219634, 46.46141612857275], [-60.87029031287931, 46.461460705308355], [-60.87030574528117, 46.461482421618314], [-60.87031623934941, 46.461497187988485], [-60.87041801268127, 46.461659282512024]]}, "properties": {"OBJECTID": 189048, "FEAT_CODE": "WARV50", "FEAT_DESC": "River - Single Line", "RIVNAME_1": " ", "RIVNAME_2": " ", "ZVALUE": 9999, "FID": null, "SHAPE_Length": 102.3480212929646}}, {"type": "Feature", "id": 263616, "geometry": {"type": "LineString", "coordinates": [[-60.880838547312976, 46.469301241158234], [-60.88086388087104, 46.46931971956969], [-60.88088571264426, 46.4693341191063], [-60.88089055132883, 46.469337313765166], [-60.88092890142522, 46.469356024435086], [-60.88100728739553, 46.46938357708003], [-60.88101362568585, 46.469387735519376], [-60.881019976294986, 46.469391912186545], [-60.88114976368177, 46.46943751726678], [-60.88119982115966, 46.46945898279998], [-60.88127918027197, 46.46949301522856], [-60.881307952167646, 46.46950110836561], [-60.881409317223756, 46.469529626580375], [-60.881625445118516, 46.46958077305522], [-60.8816816553188, 46.469594072465526], [-60.88170078633227, 46.469597855908226], [-60.8817721405738, 46.469611948869165], [-60.88196770833299, 46.469640771969736], [-60.88214956917586, 46.46964687704129], [-60.882266907221464, 46.469650814639046], [-60.882453723923234, 46.46966952090253], [-60.88255365891167, 46.46967952579668], [-60.88282713965518, 46.469680990741224], [-60.882983055572524, 46.46969107796437], [-60.88304344467017, 46.469699747133895], [-60.883112590221685, 46.46970967639935], [-60.88326879605437, 46.46974587733792], [-60.883385884211314, 46.469783135823604], [-60.88348712782382, 46.46982423181528], [-60.88363210014689, 46.46988309305618], [-60.883878282126744, 46.46998394911731], [-60.884111483539485, 46.47008366441403], [-60.884254198356025, 46.47016551384561], [-60.88434395370201, 46.47020226550736], [-60.884480825310426, 46.47024770088991], [-60.88459087050083, 46.470284233813686], [-60.88462798207882, 46.47029193143055], [-60.88468132306904, 46.47030300729325], [-60.884811195343175, 46.47031261013537], [-60.885058646672746, 46.47031358814334], [-60.88519348244553, 46.47031443546259], [-60.88528004335904, 46.47031498366404], [-60.88537842249329, 46.47030534650373], [-60.88545002341203, 46.47029832794068], [-60.88549941726458, 46.4702862186508], [-60.8855933657397, 46.47026317949391], [-60.88567188229365, 46.47025383171957], [-60.8856722307008, 46.47024483825491], [-60.88584195393132, 46.47020117747473], [-60.88599935721336, 46.47013928881653], [-60.88607588160609, 46.47010132921886], [-60.8861427904632, 46.47006814172929], [-60.886170915420976, 46.470051597928205], [-60.88623476294484, 46.470014042825525], [-60.88628730308032, 46.469969114702174], [-60.88638002816001, 46.46986193913607], [-60.886410042791724, 46.46982114845885], [-60.88647214882449, 46.46973672550287], [-60.88651309285817, 46.46968110700256], [-60.88657801560249, 46.46959289309841], [-60.88668384733772, 46.469449950936905], [-60.88670913581637, 46.46942658663813], [-60.88672300909597, 46.46941377521694], [-60.88681565450434, 46.46934258845492], [-60.88686819385325, 46.46929765104735], [-60.88698554287744, 46.46922693875596], [-60.88713653847339, 46.46913968535289], [-60.88715608437506, 46.46912838270174], [-60.88727409991041, 46.46907475525913], [-60.8872832306654, 46.46907172902785], [-60.88732555875512, 46.46905771539127], [-60.88762658694863, 46.46898677864863]]}, "properties": {"OBJECTID": 263616, "FEAT_CODE": "WARV50", "FEAT_DESC": "River - Single Line", "RIVNAME_1": "First Fork Brook", "RIVNAME_2": " ", "ZVALUE": 9999, "FID": null, "SHAPE_Length": 613.4006523096822}}, {"type": "Feature", "id": 263755, "geometry": {"type": "LineString", "coordinates": [[-60.88052465457374, 46.46832794079257], [-60.88052436446265, 46.46835687913187], [-60.88052421000559, 46.46837293211172], [-60.880496336630344, 46.46845341456817], [-60.880473754794956, 46.46851569829911], [-60.880470079083196, 46.468525827053064], [-60.88046066801724, 46.46854746836151], [-60.88044290403929, 46.46858832261788], [-60.88044182394729, 46.4687503010056], [-60.88046356633546, 46.468803218589386], [-60.880478716047016, 46.468840084099966], [-60.88053004988637, 46.468994025289696], [-60.880554275082694, 46.4690745826108], [-60.88059383117786, 46.46912931539699], [-60.88063212066221, 46.469183124697096], [-60.88066903540991, 46.46922202264636], [-60.88068342634505, 46.469237175275616], [-60.880838547312976, 46.469301241158234]]}, "properties": {"OBJECTID": 263755, "FEAT_CODE": "WARV50", "FEAT_DESC": "River - Single Line", "RIVNAME_1": "First Fork Brook", "RIVNAME_2": " ", "ZVALUE": 9999, "FID": null, "SHAPE_Length": 119.36215975335838}}, {"type": "Feature", "id": 263756, "geometry": {"type": "LineString", "coordinates": [[-60.880274679997065, 46.46731891590465], [-60.880287949452374, 46.46734616167917], [-60.880313920268414, 46.46738174287155], [-60.8803777950369, 46.46748102621642], [-60.880415254413464, 46.46758971968579], [-60.880427031660815, 46.467688937082585], [-60.880426194376085, 46.46775611491051], [-60.88042579316776, 46.46778791316475], [-60.88043285218457, 46.467868764258405], [-60.880437523021826, 46.4679222293388], [-60.88044091080645, 46.467940309973564], [-60.88044938237239, 46.46798545759934], [-60.88046062264384, 46.468021359645476], [-60.880474874412755, 46.468066920429116], [-60.88048544862058, 46.46809347721442], [-60.88049979763051, 46.46812949088999], [-60.880511924695575, 46.468219705842536], [-60.880524051446315, 46.46830992978656], [-60.88052465457374, 46.46832794079257]]}, "properties": {"OBJECTID": 263756, "FEAT_CODE": "WARV50", "FEAT_DESC": "River - Single Line", "RIVNAME_1": "First Fork Brook", "RIVNAME_2": " ", "ZVALUE": 9999, "FID": null, "SHAPE_Length": 114.85389040146629}}, {"type": "Feature", "id": 263757, "geometry": {"type": "LineString", "coordinates": [[-60.87931395860199, 46.4670707009435], [-60.87938002368229, 46.467080026342494], [-60.87947046904067, 46.467098803836336], [-60.87954824823142, 46.46710834641583], [-60.879561298776544, 46.467107688482116], [-60.879652093608435, 46.467117472399664], [-60.879777601340805, 46.46713392996969], [-60.87979593774009, 46.46713634901077], [-60.88008094165839, 46.46721002456883], [-60.88012030247784, 46.467226477283134], [-60.88014629547668, 46.467237336162604], [-60.88018467878607, 46.467255147715896], [-60.880251723335086, 46.4673026504056], [-60.880274679997065, 46.46731891590465]]}, "properties": {"OBJECTID": 263757, "FEAT_CODE": "WARV50", "FEAT_DESC": "River - Single Line", "RIVNAME_1": "First Fork Brook", "RIVNAME_2": " ", "ZVALUE": 190.8, "FID": null, "SHAPE_Length": 80.49541873859944}}, {"type": "Feature", "id": 263758, "geometry": {"type": "LineString", "coordinates": [[-60.87746715791156, 46.46582773951227], [-60.87747430535147, 46.465866004857965], [-60.87748116188594, 46.46590270781651], [-60.877510663485495, 46.46594824611876], [-60.87753438937028, 46.465967136431196], [-60.87755235513032, 46.465981419842294], [-60.877601414609295, 46.465987568586], [-60.87763661806413, 46.46599198409244], [-60.87771732811992, 46.465990080440754], [-60.8777435055526, 46.465989468401524], [-60.87778229910594, 46.46598630057935], [-60.87787808787373, 46.46597846678107], [-60.87799258777058, 46.46598149211138], [-60.87801875806548, 46.46599077978439], [-60.878059380429185, 46.4660052316492], [-60.878072595802976, 46.46602847172255], [-60.87808986910928, 46.4660588970456], [-60.878097344712906, 46.466134635091265], [-60.87808350627279, 46.466222577417795], [-60.87807470712126, 46.46634841292029], [-60.87804761637435, 46.4664757088954], [-60.87798983983348, 46.466554735742314], [-60.87789319150286, 46.46662854105955], [-60.87777818135038, 46.466705605406645], [-60.87770949446116, 46.46676372977288], [-60.87766909224242, 46.46683137009934], [-60.877673364700684, 46.46689902977649], [-60.87767392890242, 46.46690796816614], [-60.87768309307121, 46.46692251115535], [-60.877709505976675, 46.46696442809274], [-60.87776282186716, 46.46700283047571], [-60.87781466788719, 46.46704017955802], [-60.87785574290533, 46.46705875285531], [-60.87789146764641, 46.46707490484655], [-60.877951088422286, 46.467094866349335], [-60.878025186493396, 46.46711968649278], [-60.87815481806467, 46.46713559239561], [-60.87828926332047, 46.46712818770963], [-60.87848807923092, 46.46710667755822], [-60.878590390097195, 46.46709227725487], [-60.8786858381005, 46.46707884750711], [-60.87879360747529, 46.46706374731369], [-60.87885610231516, 46.46705500694332], [-60.878995134733906, 46.46704753353775], [-60.87901793691893, 46.4670463095912], [-60.87913870234148, 46.46705574994858], [-60.879187903890305, 46.46705994766203], [-60.87931395860199, 46.4670707009435]]}, "properties": {"OBJECTID": 263758, "FEAT_CODE": "WARV50", "FEAT_DESC": "River - Single Line", "RIVNAME_1": "First Fork Brook", "RIVNAME_2": " ", "ZVALUE": 9999, "FID": null, "SHAPE_Length": 306.8972005582624}}, {"type": "Feature", "id": 263759, "geometry": {"type": "LineString", "coordinates": [[-60.87703269783179, 46.465042979630105], [-60.87703753598719, 46.46504650744246], [-60.87704536316141, 46.46505221474058], [-60.87726619322057, 46.46513461456962], [-60.8772959593922, 46.4651549130776], [-60.87730551287535, 46.465161444403776], [-60.87730745192995, 46.46516215540091], [-60.877331193405965, 46.46517092114087], [-60.8774083049935, 46.4651975526334], [-60.87747366806116, 46.465224865943036], [-60.877484826560504, 46.46523098605684], [-60.87752467956338, 46.46525281276298], [-60.87758959588289, 46.46532511729789], [-60.877628229505035, 46.46536993411776], [-60.87763386591711, 46.46538274663855], [-60.87764020868548, 46.4653971562576], [-60.87765231719945, 46.465487380216125], [-60.87763945732952, 46.46555014089785], [-60.877625034061374, 46.46557438890925], [-60.87761298002509, 46.465594648940304], [-60.8775590384773, 46.46567554675835], [-60.877520462645904, 46.465729730074514], [-60.87750647755405, 46.46575543519205], [-60.87746715791156, 46.46582773951227]]}, "properties": {"OBJECTID": 263759, "FEAT_CODE": "WARV50", "FEAT_DESC": "River - Single Line", "RIVNAME_1": "First Fork Brook", "RIVNAME_2": " ", "ZVALUE": 9999, "FID": null, "SHAPE_Length": 113.79358570138054}}, {"type": "Feature", "id": 263760, "geometry": {"type": "LineString", "coordinates": [[-60.875544918287794, 46.464216149290834], [-60.87554503852043, 46.46422845441481], [-60.87554516977167, 46.46424315372204], [-60.87555182960111, 46.46426713626686], [-60.875557736152565, 46.464288386837566], [-60.87555754810216, 46.46430894815844], [-60.87555728729043, 46.464333387092296], [-60.87556928755596, 46.46435970085584], [-60.87567184475256, 46.46446871463546], [-60.87573640771033, 46.464550013590866], [-60.8758051064642, 46.46460670257722], [-60.875813384619086, 46.464613534329914], [-60.87587196506041, 46.46464976745424], [-60.875930392549215, 46.46468591670713], [-60.87603409976048, 46.46473193409163], [-60.876240179485734, 46.46480037299581], [-60.876280978985264, 46.46481391979697], [-60.87647952474497, 46.464880850325244], [-60.876552238076435, 46.4649053487206], [-60.8768254985024, 46.46497883232939], [-60.87683968091007, 46.46498321768203], [-60.87703269783179, 46.465042979630105]]}, "properties": {"OBJECTID": 263760, "FEAT_CODE": "WARV50", "FEAT_DESC": "River - Single Line", "RIVNAME_1": "First Fork Brook", "RIVNAME_2": " ", "ZVALUE": 9999, "FID": null, "SHAPE_Length": 155.86633674109018}}, {"type": "Feature", "id": 263761, "geometry": {"type": "LineString", "coordinates": [[-60.875115326528885, 46.46310657518133], [-60.8751663348448, 46.463134523009884], [-60.87518890776335, 46.463166253278764], [-60.87520460190143, 46.463188333778405], [-60.87527671107231, 46.463280150175045], [-60.87528279177715, 46.46328788611942], [-60.87532107206685, 46.4633416970932], [-60.87532994929146, 46.46338499869443], [-60.875345154037845, 46.46345914361825], [-60.87536808421549, 46.46356971079123], [-60.87538243793827, 46.46363895293534], [-60.87542003847947, 46.463810632191795], [-60.87544440727471, 46.46395418378438], [-60.87548185459542, 46.46406287872745], [-60.875488850709026, 46.46407989258839], [-60.875544918287794, 46.464216149290834]]}, "properties": {"OBJECTID": 263761, "FEAT_CODE": "WARV50", "FEAT_DESC": "River - Single Line", "RIVNAME_1": "First Fork Brook", "RIVNAME_2": " ", "ZVALUE": 195.6, "FID": null, "SHAPE_Length": 129.79080776177952}}, {"type": "Feature", "id": 263762, "geometry": {"type": "LineString", "coordinates": [[-60.87041801268127, 46.461659282512024], [-60.87044474276532, 46.46164178058548], [-60.87044608670463, 46.46164138262348], [-60.87065421665512, 46.461579982954795], [-60.870694829789805, 46.461570830484234], [-60.87073175014028, 46.46156252721292], [-60.87080471087648, 46.461550116210184], [-60.870836635474774, 46.46154468083653], [-60.87095344770197, 46.461554956246964], [-60.87100518890456, 46.46156401975441], [-60.87106474283915, 46.461582138654215], [-60.871096573144996, 46.46159181232475], [-60.87110155755357, 46.46159157214691], [-60.871109622085875, 46.46159116432833]]}, "properties": {"OBJECTID": 263762, "FEAT_CODE": "WARV50", "FEAT_DESC": "River - Single Line", "RIVNAME_1": "First Fork Brook", "RIVNAME_2": " ", "ZVALUE": 201.8, "FID": null, "SHAPE_Length": 56.70256923310622}}, {"type": "Feature", "id": 263763, "geometry": {"type": "LineString", "coordinates": [[-60.871109622085875, 46.46159116432833], [-60.871144745578334, 46.461608900243164], [-60.87120030470633, 46.461636952598106], [-60.871276713173714, 46.461666383141896], [-60.87134272921515, 46.4616917951622], [-60.87145887529617, 46.46171916650669], [-60.87182359855595, 46.46178445613102], [-60.87203222632768, 46.46180815750029], [-60.87206995836942, 46.46181244179873], [-60.872096154818124, 46.46182165032737], [-60.87214832895333, 46.461840000295325], [-60.872225398188114, 46.46186753451711], [-60.87245452315995, 46.461956137057726], [-60.87248457196013, 46.46196775716932], [-60.872585083072, 46.46201236825127], [-60.872588270721586, 46.4620137865583], [-60.872650714172025, 46.46204668227304], [-60.87305407890963, 46.46225915174955], [-60.87306581619499, 46.46226442807531], [-60.87309377083139, 46.46227699005583], [-60.873145211704596, 46.46230716082215], [-60.873171428863266, 46.46232253443501], [-60.873203207741376, 46.46233555453045], [-60.873261163376924, 46.46235930349749], [-60.87328646724671, 46.4623663621653], [-60.87332685826662, 46.46237762545192], [-60.873465742255156, 46.46242249057874], [-60.873495363491976, 46.462432059487206], [-60.873676485185435, 46.46249662784596], [-60.873719954132376, 46.462510126221574], [-60.87379358574642, 46.46253300548288], [-60.873844978126364, 46.46255106113475], [-60.87405241541215, 46.462642218078976], [-60.87427356830443, 46.46271562983074], [-60.874393496926714, 46.46276536131933], [-60.874494021488886, 46.462807027986486], [-60.874714159961144, 46.46290652879276], [-60.874747899178175, 46.46292374286284], [-60.87494657935665, 46.463025139287296], [-60.87510262696721, 46.46309823920857], [-60.875115326528885, 46.46310657518133]]}, "properties": {"OBJECTID": 263763, "FEAT_CODE": "WARV50", "FEAT_DESC": "River - Single Line", "RIVNAME_1": "First Fork Brook", "RIVNAME_2": " ", "ZVALUE": 9999, "FID": null, "SHAPE_Length": 354.2204228730893}}, {"type": "Feature", "id": 263764, "geometry": {"type": "LineString", "coordinates": [[-60.86705430668937, 46.46098457925943], [-60.86708927814815, 46.461025164401974], [-60.86709292858858, 46.46102939947421], [-60.86720795256279, 46.46121875288227], [-60.867233525856186, 46.4612642206043], [-60.86728445956396, 46.461327270289026], [-60.867292662063356, 46.46133699923008], [-60.8673230467554, 46.46137298976795], [-60.86733528952639, 46.46142631771706], [-60.86734693815682, 46.46156153390195], [-60.867359393321955, 46.461642765577274], [-60.86740965137533, 46.46182281062309], [-60.86744608063167, 46.46205747922175], [-60.867468006865145, 46.46214464750229], [-60.867470882872226, 46.46215604105533], [-60.86750796146195, 46.462273740718665], [-60.86752726251531, 46.46230408849413], [-60.86755949559315, 46.46235479231725], [-60.867596306765826, 46.46238031873709], [-60.86761148451314, 46.46239086175366], [-60.867641437429235, 46.462407917305654], [-60.86767518645423, 46.46242714963659], [-60.867753204321374, 46.46246370449371], [-60.867934966115776, 46.462545393762085], [-60.86803840116992, 46.46256442259323], [-60.86811814186824, 46.462575881541056], [-60.86816792631371, 46.46258303785772], [-60.8682469852783, 46.462592612018675], [-60.86835398916693, 46.46259296027018], [-60.86836417242639, 46.462592997147404], [-60.86838625946695, 46.462590034005416], [-60.86849380088895, 46.462575614274044], [-60.868572637881876, 46.46255818430011], [-60.868846873438144, 46.462505697313304], [-60.868898016212064, 46.462496741770174], [-60.869081430451, 46.462435379229554], [-60.86916295236014, 46.462414884920605], [-60.8692248102336, 46.462399343005565], [-60.86942114938442, 46.46237420251243], [-60.86948188306406, 46.4623637694636], [-60.86957717885555, 46.4623474105165], [-60.86965726325686, 46.46230700823544], [-60.86968213328946, 46.462294466784506], [-60.86974100030921, 46.46225042909877], [-60.869813604512615, 46.46219611743986], [-60.86987951540069, 46.46214244601452], [-60.869945177067194, 46.462061779135695], [-60.870063282424695, 46.46197217139221], [-60.87015612712344, 46.46182900236586], [-60.87020602577341, 46.46177813741229], [-60.870209022967884, 46.46177508827539], [-60.87030131227784, 46.46171290810019], [-60.87041801268127, 46.461659282512024]]}, "properties": {"OBJECTID": 263764, "FEAT_CODE": "WARV50", "FEAT_DESC": "River - Single Line", "RIVNAME_1": "First Fork Brook", "RIVNAME_2": " ", "ZVALUE": 9999, "FID": null, "SHAPE_Length": 427.7597920554924}}, {"type": "Feature", "id": 263765, "geometry": {"type": "LineString", "coordinates": [[-60.86334882510775, 46.46055898747238], [-60.86346497786809, 46.460586358086296], [-60.863672847971664, 46.460632542402216], [-60.863719947001215, 46.460640703473], [-60.86377762739921, 46.46065070023582], [-60.86389443617014, 46.46066098190781], [-60.864063371058634, 46.460670439188455], [-60.864187168015555, 46.46068285900873], [-60.86435005152904, 46.460699194853866], [-60.86449293659919, 46.46070906395043], [-60.86459151942942, 46.46070985242447], [-60.864662188381914, 46.46071042542991], [-60.864870517230685, 46.46071161649531], [-60.86500107886353, 46.460703254942295], [-60.86522185876082, 46.46068577804702], [-60.86534890715985, 46.4606706725465], [-60.86536578552983, 46.46066867472218], [-60.86538706436923, 46.460666381063966], [-60.865444256386105, 46.4606602309962], [-60.8656911206503, 46.46060814050935], [-60.8658183098756, 46.46059708708343], [-60.86588715136323, 46.46059110026859], [-60.86593962495171, 46.46059104482103], [-60.86597831924668, 46.4605910021326], [-60.86609986449797, 46.46059206493913], [-60.86616058507133, 46.46059259532232], [-60.86630345690506, 46.460602470907006], [-60.86643390066506, 46.460630105224574], [-60.86655065375128, 46.460675483754734], [-60.866699545381444, 46.460766281524954], [-60.8667440031562, 46.4607933909055], [-60.866796341474036, 46.46082046731835], [-60.86697674649275, 46.460903041819755], [-60.86698354249834, 46.46090876657396], [-60.867041045329, 46.46095733205785], [-60.867049207219765, 46.46097409820178], [-60.86705430668937, 46.46098457925943]]}, "properties": {"OBJECTID": 263765, "FEAT_CODE": "WARV50", "FEAT_DESC": "River - Single Line", "RIVNAME_1": "First Fork Brook", "RIVNAME_2": " ", "ZVALUE": 9999, "FID": null, "SHAPE_Length": 303.55403858847825}}, {"type": "Feature", "id": 309345, "geometry": {"type": "LineString", "coordinates": [[-60.88052465457374, 46.46832794079257], [-60.88058482598515, 46.46839684364353], [-60.88062691505909, 46.46844503544706], [-60.88064140910216, 46.46848570474578], [-60.880652756420126, 46.46851751379438], [-60.88068990269934, 46.468634301270754], [-60.88072736341216, 46.46874299464102], [-60.880778827627275, 46.46886004750003], [-60.880827752573374, 46.46907605228754], [-60.880840134029306, 46.46919328063934], [-60.88083960915556, 46.46922860456047], [-60.880838547312976, 46.469301241158234]]}, "properties": {"OBJECTID": 309345, "FEAT_CODE": "WARVSP50", "FEAT_DESC": "River Split - Single Line", "RIVNAME_1": " ", "RIVNAME_2": " ", "ZVALUE": 9999, "FID": null, "SHAPE_Length": 112.17356233759548}}]}