{"type": "FeatureCollection", "features": [{"type": "Feature", "id": 8749, "geometry": {"type": "LineString", "coordinates": [[-60.77150665935234, 46.854206706045495], [-60.77150863232696, 46.85413367812509], [-60.77153202580086, 46.85409556222564], [-60.77154984818598, 46.85406653522679], [-60.77157174546772, 46.853985642897314], [-60.771589258952616, 46.85395710484404], [-60.771612961128774, 46.85391849997137], [-60.77166888534274, 46.853853821359], [-60.771747226482475, 46.853763201979675], [-60.77178408018582, 46.85371269497593], [-60.77179221672211, 46.85370152315671], [-60.771789275689756, 46.85366481121069], [-60.771786335860696, 46.85362838726948], [-60.77179409218543, 46.85361974588397], [-60.7718436679176, 46.853564545936464]]}, "properties": {"OBJECTID": 8749, "FEAT_CODE": "WACO20", "FEAT_DESC": "Coast - Water to the right line", "RIVNAME_1": " ", "RIVNAME_2": " ", "ZVALUE": 0.4, "FID": null, "SHAPE_Length": 77.67874831460549}}, {"type": "Feature", "id": 8750, "geometry": {"type": "LineString", "coordinates": [[-60.7718436679176, 46.853564545936464], [-60.77186757364941, 46.85353084066253], [-60.77188009759521, 46.85351318469683], [-60.771893217693204, 46.853464636303784], [-60.7718943917597, 46.853421362919754], [-60.771895493519224, 46.85338078795575], [-60.77189717593727, 46.853318571675246], [-60.77190530815341, 46.85327770165036], [-60.77190630298208, 46.85327268134398], [-60.77193474756234, 46.85324055835006], [-60.77194018613986, 46.853200427816354], [-60.771944600171686, 46.8531676208639], [-60.77192629858446, 46.85311598571802], [-60.771919870281494, 46.85306178296771], [-60.77192055142126, 46.853036444842125], [-60.77192190290724, 46.852986029363905], [-60.77192311963055, 46.85294140689298], [-60.77192417864121, 46.85290218100768], [-60.77192496064014, 46.85287313708097], [-60.771925847883466, 46.852839964465836], [-60.77197802977775, 46.852659300172725], [-60.77197919137159, 46.85261600854108], [-60.77198810057178, 46.85257823144181], [-60.77198863632783, 46.85255830813929], [-60.771989057255304, 46.8525430623038], [-60.771969744056555, 46.85252792714385], [-60.77195045559534, 46.85251282846006], [-60.771962151759844, 46.85249012568232], [-60.77197123791351, 46.85247248375288], [-60.771992481306405, 46.8524159220494], [-60.77200207621834, 46.852401835799796], [-60.77200890767902, 46.85239176347803], [-60.77202016820382, 46.852375783783906], [-60.77203349102965, 46.85235688343573], [-60.77204260907926, 46.85233276253229], [-60.77205895756665, 46.85228955964415], [-60.77207358506313, 46.85223341805913], [-60.7720765322573, 46.85222210916944], [-60.77212579755181, 46.852149642140674], [-60.77213139316297, 46.85208224637773], [-60.772131630924164, 46.85207935319108], [-60.77216155260732, 46.8519931183296], [-60.77216864574627, 46.85196118247869], [-60.77217053421864, 46.85195263379472], [-60.77216897295929, 46.85188034697111], [-60.77216877802035, 46.85187142474016], [-60.77218849762522, 46.85184661031264], [-60.77221776571458, 46.85180977857796], [-60.77225072346714, 46.85175605475214], [-60.772307650213854, 46.8516918003083], [-60.77234109885345, 46.851668063115824], [-60.77236389790298, 46.851651885072606], [-60.7723812798812, 46.85159256627885], [-60.772381969971974, 46.851566688353984], [-60.77238294887174, 46.85153034071518], [-60.772380249068746, 46.851484301060545], [-60.772422880500514, 46.85136573564512], [-60.77242819250242, 46.851314380323885], [-60.77243003254537, 46.85124674942955], [-60.77242746488477, 46.85119529468956], [-60.77243651878359, 46.851152102708454], [-60.77247446431186, 46.851060552322195], [-60.77250358729638, 46.85100406292907], [-60.77254196729541, 46.850896295003245], [-60.772561365047146, 46.85083833833726], [-60.772576257382184, 46.85079384709802], [-60.77260207921031, 46.85074200011248], [-60.77261376735585, 46.85071852315642], [-60.77262683960609, 46.85067268255942], [-60.77267967387563, 46.850613774908624], [-60.77272899633524, 46.8505385998918], [-60.77292018995934, 46.850318982814834], [-60.77294556296896, 46.85026845892883], [-60.77297019152289, 46.850219441450115], [-60.77307249134774, 46.85007995259713], [-60.77312183412252, 46.850008701555055], [-60.773157714693994, 46.84995308146988], [-60.77319734793808, 46.849872371998856], [-60.77321707188317, 46.84983219544281], [-60.77323696869627, 46.84979164427153], [-60.77325110563598, 46.84975366282589], [-60.77325134174413, 46.84975302846144]]}, "properties": {"OBJECTID": 8750, "FEAT_CODE": "WACO20", "FEAT_DESC": "Coast - Water to the right line", "RIVNAME_1": " ", "RIVNAME_2": " ", "ZVALUE": 0.4, "FID": null, "SHAPE_Length": 447.6187003003617}}, {"type": "Feature", "id": 8751, "geometry": {"type": "LineString", "coordinates": [[-60.77325134174413, 46.84975302846144], [-60.77325137241957, 46.849752921065274], [-60.77325155386953, 46.84975233963364], [-60.77330352615684, 46.84966252886142], [-60.773391247727254, 46.8495526161095], [-60.77344053059853, 46.84951197983055], [-60.77352228368572, 46.84944457213822], [-60.77371951212965, 46.84922094940329], [-60.77423062757694, 46.84890637422507], [-60.77443889976527, 46.84880231557146], [-60.774696151581566, 46.84867378580068], [-60.77508318182642, 46.84848589916458], [-60.77513958850514, 46.8484585128597], [-60.77550385381113, 46.848327562497396], [-60.77560093293496, 46.848309777192924], [-60.77564883209397, 46.84832544051255], [-60.77566542404437, 46.84833086576442], [-60.775727965617655, 46.84835056648356], [-60.775739274872, 46.84835686096283], [-60.77584876441333, 46.8483275994539], [-60.77592781190799, 46.84831923672274], [-60.77596008692403, 46.84831684030831], [-60.77603307237681, 46.84831138347444], [-60.77608515107378, 46.84832049527149], [-60.77611063454195, 46.848338989477604], [-60.77614981658538, 46.84837484886413], [-60.77616966283599, 46.84838373908284], [-60.77618974129749, 46.84839272380589], [-60.77628151096286, 46.84839360754178], [-60.77632547695021, 46.84838381573037], [-60.77635963186154, 46.848376236069]]}, "properties": {"OBJECTID": 8751, "FEAT_CODE": "WACO20", "FEAT_DESC": "Coast - Water to the right line", "RIVNAME_1": " ", "RIVNAME_2": " ", "ZVALUE": 0.4, "FID": null, "SHAPE_Length": 309.9287917773027}}, {"type": "Feature", "id": 9780, "geometry": {"type": "LineString", "coordinates": [[-60.77645231881043, 46.84832313189785], [-60.776465278681655, 46.84829548552424], [-60.77646639246389, 46.84826850887061], [-60.77642738469786, 46.84819665524642], [-60.7764278482574, 46.84816922498351], [-60.77642830164489, 46.84814267646728], [-60.77648027891457, 46.848031607680106], [-60.776482969648306, 46.84802584633873], [-60.776489575142456, 46.848016129331675], [-60.77655000132765, 46.84792725532298], [-60.77661425366775, 46.84785626551533], [-60.776695685436195, 46.84776629672665], [-60.77671837836672, 46.847726879212274], [-60.77673666358462, 46.8476950975563], [-60.776750315331775, 46.847650365668756], [-60.77673867099287, 46.84755114562184], [-60.776744071484984, 46.847536617484984], [-60.77675195149456, 46.84751540595322], [-60.77680145048622, 46.84747673429942], [-60.77684411815319, 46.84744340153944], [-60.7768971016989, 46.84739943389036], [-60.77701732317417, 46.84728297728784], [-60.77714898170578, 46.84717574219837], [-60.77722968565946, 46.84709541527735], [-60.7773227298318, 46.84697033086077], [-60.7773496519298, 46.84694315361449], [-60.77737610760945, 46.846916471269246], [-60.77750908853399, 46.84679018265082], [-60.777535832126695, 46.84676478378094], [-60.77764130003767, 46.846720035404594], [-60.77773305600213, 46.84665792167231], [-60.777752636079335, 46.846631609659724], [-60.777773326956485, 46.84660380731385], [-60.777854202523265, 46.84648748554255], [-60.777933593397975, 46.84640714161744], [-60.778077778875094, 46.84628008000705], [-60.778106458294154, 46.84625479959246], [-60.778196898171, 46.84616954937811], [-60.77837121197049, 46.846005256839135], [-60.77846504223803, 46.845924283981475], [-60.77846887509819, 46.84592135259292], [-60.77866280453653, 46.84577244254263], [-60.77874091721998, 46.84571413085384], [-60.778769729339906, 46.84569261461261], [-60.77883527012812, 46.84563000003673], [-60.778909374471596, 46.845536881592125], [-60.778941784986806, 46.84549616737144], [-60.7791276090451, 46.84528069234124], [-60.779181468823815, 46.84521823779645], [-60.77934118313626, 46.84506654757244], [-60.77940217110992, 46.845004888235806], [-60.7794739440756, 46.84493232388128], [-60.779593412245426, 46.84483386680386], [-60.77983196724536, 46.84464680825579], [-60.780229738292554, 46.84435213631068], [-60.7804147453826, 46.84425493192292], [-60.78066515452392, 46.84413019771964], [-60.78071839377115, 46.84410246823702], [-60.78083672114715, 46.84404083142472], [-60.78088735597348, 46.8440088216115], [-60.78104814530398, 46.84390724071339], [-60.78132364997172, 46.843715127025824], [-60.781405996176446, 46.8436576965586], [-60.78144766122103, 46.843626907472235], [-60.78155074241643, 46.84355071017109], [-60.78169260754947, 46.84346748924958], [-60.78176310310372, 46.843426135733274], [-60.7818019161022, 46.84340439865199], [-60.78192152330966, 46.8433374128658], [-60.78214549315268, 46.843249069533634], [-60.782566720178956, 46.84311683402091], [-60.78273717002183, 46.843054441543366], [-60.782837179095985, 46.84301425329167], [-60.782935880760334, 46.84297459758258], [-60.78300199716748, 46.84292998164166], [-60.7830549450042, 46.84288601043869], [-60.78312158797318, 46.842796407442236], [-60.783145287657284, 46.84276868941628], [-60.78317532583015, 46.842733552671234], [-60.7832131826628, 46.8426610847509], [-60.7833490121881, 46.842401229847844], [-60.78345641815295, 46.84221343158429], [-60.78354970289893, 46.84209691418739], [-60.78356426212292, 46.84207872039136], [-60.78356804980361, 46.842073367107176], [-60.78357679628535, 46.84206097333261]]}, "properties": {"OBJECTID": 9780, "FEAT_CODE": "WACO20", "FEAT_DESC": "Coast - Water to the right line", "RIVNAME_1": " ", "RIVNAME_2": " ", "ZVALUE": 0.4, "FID": null, "SHAPE_Length": 911.9010362313774}}, {"type": "Feature", "id": 9781, "geometry": {"type": "LineString", "coordinates": [[-60.78357679628535, 46.84206097333261], [-60.78361628086572, 46.84202574048745], [-60.78370953879551, 46.84192675334584], [-60.783762207186726, 46.84187742173288], [-60.783776380071075, 46.841864152118355], [-60.783804073571915, 46.84183912115436], [-60.78385538562013, 46.841792787036596], [-60.78406827308925, 46.841623221320134], [-60.784169236189626, 46.84153902512419], [-60.78434668874008, 46.841391028213565], [-60.78462419361773, 46.84121281342773], [-60.78475615484777, 46.841097475914275], [-60.78495593193177, 46.8409276546923], [-60.78496292846194, 46.84092144554358], [-60.7851274487236, 46.84077527591162], [-60.78550174584447, 46.840474344508245], [-60.785538421052564, 46.84044486125766], [-60.78595049740594, 46.84008745916555], [-60.78619956386752, 46.83985354163574], [-60.786254702198036, 46.839801763816475], [-60.78626242307214, 46.839795154629066], [-60.786348485855754, 46.839721683507214], [-60.78649358111836, 46.83960569815694], [-60.78658892014372, 46.83950593896579], [-60.78673340138772, 46.83935475361606], [-60.786946961011346, 46.83910419155082], [-60.78700605326984, 46.83900050007474], [-60.7870134031244, 46.83898759305014], [-60.787025549962166, 46.838965500386585], [-60.787067262659065, 46.83888964096413], [-60.78710443828696, 46.838839306181924], [-60.787160306341896, 46.83876364851864], [-60.78718815962174, 46.8386921827009], [-60.7872156072894, 46.8385667303778], [-60.78725566007287, 46.83848561010335], [-60.78731012734019, 46.83840476859183], [-60.78737601888243, 46.83833314743607], [-60.78760121110242, 46.83811881586374], [-60.78770010498922, 46.83803904024294], [-60.78773413634863, 46.8380115930312], [-60.78792145160824, 46.83787039584124], [-60.787958790144934, 46.8378422475531], [-60.78796987826718, 46.8378357033532], [-60.78818459975978, 46.83770892174858], [-60.788712253165414, 46.837441938512654]]}, "properties": {"OBJECTID": 9781, "FEAT_CODE": "WACO20", "FEAT_DESC": "Coast - Water to the right line", "RIVNAME_1": " ", "RIVNAME_2": " ", "ZVALUE": 0.4, "FID": null, "SHAPE_Length": 653.8405326271431}}, {"type": "Feature", "id": 11126, "geometry": {"type": "LineString", "coordinates": [[-60.76948202637854, 46.85811522004235], [-60.76948272448058, 46.85811166988056], [-60.76949573015865, 46.85804506671563], [-60.769501795213166, 46.85801204007963], [-60.76950959262954, 46.85796949882771], [-60.76957867900767, 46.85789192069903], [-60.769626954576744, 46.85785464123719], [-60.76966773821961, 46.85780376157384], [-60.769718299674956, 46.857775904031975], [-60.76973974095012, 46.857764082770835], [-60.769754160637916, 46.857764678830954], [-60.76983421013051, 46.85776795807766], [-60.76986244002572, 46.85774395790681], [-60.76990291983829, 46.857703889543764], [-60.76993991494756, 46.85764754528451], [-60.769941222891354, 46.85759886589972], [-60.76994036356605, 46.85759332350466], [-60.76992779962062, 46.857512137805756], [-60.7698855654858, 46.85747104218261], [-60.76985440613862, 46.857457133684534], [-60.76986346221335, 46.85741396898096], [-60.76989258629101, 46.85740638318066], [-60.76990314295346, 46.85740363713508], [-60.7699099860446, 46.857393943146334], [-60.7699277293143, 46.85736877562067], [-60.769929799599026, 46.85735680174273], [-60.76993706260711, 46.857314799007064], [-60.76993787525343, 46.85728504475328], [-60.76991831260237, 46.85727938979045], [-60.769906484224194, 46.85726976384065], [-60.76989131816292, 46.85725741800296], [-60.769892067655924, 46.85722982237992], [-60.76989220324889, 46.857224965334055], [-60.76992117194449, 46.85717393627952], [-60.76995483700614, 46.857138432766305], [-60.769961724427496, 46.85713115148379], [-60.769964337444186, 46.857129195542484], [-60.77002205741033, 46.857085908387994], [-60.77003555568851, 46.857023859463666], [-60.77001322134031, 46.856974899263825], [-60.769959028200276, 46.85693906022444], [-60.76996338868546, 46.856922154301934], [-60.76997223611779, 46.85688782295456], [-60.77000267980503, 46.85684488611035], [-60.770025473975544, 46.856812743465674], [-60.770079246971676, 46.85671872159375], [-60.770094160560866, 46.85669915052853], [-60.7701119312794, 46.85667584638822], [-60.770125198272645, 46.85662191042318], [-60.77010630318805, 46.85659190706004], [-60.77010699124514, 46.856566425100524], [-60.770107696060464, 46.856540538493405], [-60.77010916244889, 46.85648644453354], [-60.770135633935894, 46.85647067149342], [-60.770149192841586, 46.85646258428251], [-60.77017904573996, 46.85637910246658], [-60.77024434169001, 46.85629604139785], [-60.77030087189789, 46.85624534238537], [-60.77031304516218, 46.856209572918864], [-60.77032654704233, 46.856169914592876], [-60.7703876909746, 46.85609491700658], [-60.77046794809077, 46.85604180046543], [-60.77048798675702, 46.85603658430707], [-60.770547320033174, 46.85602114554457], [-60.77055702053187, 46.855987109753485], [-60.77056038200591, 46.855975314012184], [-60.77055038350581, 46.85590756049843], [-60.77052448602333, 46.85590092725188], [-60.77048384237269, 46.8558905058734], [-60.7704648745722, 46.85586320997619], [-60.77048902258715, 46.855815146636104], [-60.7705148573367, 46.85576373237477], [-60.77054067743149, 46.85568288970038], [-60.7705692692675, 46.85564536126756], [-60.7705662071899, 46.85561285867152], [-60.77057934679637, 46.85556800058517], [-60.770583578724114, 46.85555355797387], [-60.77060765601792, 46.85553761217939], [-60.77061327812848, 46.85552001085849], [-60.77062055920556, 46.855497195197515], [-60.7706213710379, 46.85546744991532], [-60.77064166530741, 46.855431658661786], [-60.77065032605128, 46.855416393401605], [-60.770699205650644, 46.85535748163039], [-60.77072445717906, 46.855298280451315], [-60.770817411734825, 46.85521284214032], [-60.77090640585466, 46.855127362590764], [-60.77092757516658, 46.85509957982409], [-60.77098811367107, 46.85502014239643], [-60.771000814503076, 46.85499886320685], [-60.77101700809464, 46.85497180243412], [-60.77105006727858, 46.85491539012007], [-60.77105641985513, 46.854911194153246], [-60.77109018152961, 46.85488883134344], [-60.771088301229376, 46.85485375994599], [-60.771087568226456, 46.85484009353631], [-60.77108512447827, 46.854826555788854], [-60.771080717406896, 46.85480213548434], [-60.77112543191667, 46.85475127786812], [-60.77117803996825, 46.854700511008154], [-60.77120693404098, 46.8546521709895], [-60.77125595773935, 46.854587844128766], [-60.77128024825973, 46.85455880817951], [-60.771300757345955, 46.85453428827279], [-60.77129427032726, 46.85448278418198], [-60.77129930571852, 46.85444226785502], [-60.771348111360034, 46.85438605418894], [-60.771429395512534, 46.854295042387015], [-60.77150665935234, 46.854206706045495]]}, "properties": {"OBJECTID": 11126, "FEAT_CODE": "WACO20", "FEAT_DESC": "Coast - Water to the right line", "RIVNAME_1": " ", "RIVNAME_2": " ", "ZVALUE": 0.4, "FID": null, "SHAPE_Length": 503.5566048870448}}, {"type": "Feature", "id": 11168, "geometry": {"type": "LineString", "coordinates": [[-60.77645231881043, 46.84832313189785], [-60.77641320924233, 46.848349370112125], [-60.77639291700263, 46.84835954106652], [-60.77635963186154, 46.848376236069]]}, "properties": {"OBJECTID": 11168, "FEAT_CODE": "WACO20", "FEAT_DESC": "Coast - Water to the right line", "RIVNAME_1": " ", "RIVNAME_2": " ", "ZVALUE": 0.4, "FID": null, "SHAPE_Length": 9.233079320370326}}, {"type": "Feature", "id": 158707, "geometry": {"type": "LineString", "coordinates": [[-60.77220205079715, 46.848884000217346], [-60.77219985116122, 46.84888675621055], [-60.772188314665705, 46.84890118265253], [-60.77219888317146, 46.848920620230935], [-60.77220619623676, 46.8489340907907], [-60.77224263389858, 46.848979797457794], [-60.77226569104746, 46.84900301497772], [-60.77228901229642, 46.849026507618156], [-60.772317316030026, 46.84904564254675], [-60.77233438962954, 46.84905717927592], [-60.77236552834078, 46.849081634059715], [-60.77238940440057, 46.8491002777874]]}, "properties": {"OBJECTID": 158707, "FEAT_CODE": "WARV10", "FEAT_DESC": "Double Line River - Water to the left line", "RIVNAME_1": "Red River", "RIVNAME_2": " ", "ZVALUE": 0.4, "FID": null, "SHAPE_Length": 29.383200582379764}}, {"type": "Feature", "id": 158708, "geometry": {"type": "LineString", "coordinates": [[-60.77275644349178, 46.849286620201944], [-60.772763966922405, 46.84928739661974], [-60.77277133381658, 46.849288151990905], [-60.77279640311121, 46.84927921759921], [-60.772800290514574, 46.84927783536522], [-60.772808267244876, 46.849271457055394], [-60.77282472238241, 46.84925830522535], [-60.77282895670625, 46.84925487787286], [-60.77284537846355, 46.84924158139913], [-60.77287244068586, 46.84923266778642], [-60.772893965336934, 46.84922951400535], [-60.772907637582406, 46.849227512286866], [-60.77293349112772, 46.84923069736874], [-60.772954552071965, 46.849237487923226], [-60.77296371708095, 46.84924043814654], [-60.77299136282433, 46.84924088627508], [-60.773024707206126, 46.849237071593905], [-60.77304033838868, 46.84923527897858], [-60.77310269933013, 46.84922255265768], [-60.773136127820834, 46.84921575176929], [-60.773141670837326, 46.84921461773421], [-60.77317282526111, 46.84920824954372], [-60.77320376467056, 46.8491978814116], [-60.77321478925026, 46.849190437464486], [-60.773224586168055, 46.84918381556931], [-60.77322383703208, 46.84917179574515], [-60.77322201779979, 46.84916408382126], [-60.77321708242241, 46.84914322607238]]}, "properties": {"OBJECTID": 158708, "FEAT_CODE": "WARV10", "FEAT_DESC": "Double Line River - Water to the left line", "RIVNAME_1": "Red River", "RIVNAME_2": " ", "ZVALUE": 0.4, "FID": null, "SHAPE_Length": 44.36579773718661}}, {"type": "Feature", "id": 158709, "geometry": {"type": "LineString", "coordinates": [[-60.77253815196059, 46.84920529039202], [-60.772547515713114, 46.84918155219851], [-60.7725456969796, 46.84917129343368], [-60.77254444049458, 46.849164249413406], [-60.77254382169889, 46.84916367040192], [-60.772536051941614, 46.84915648157725], [-60.77253169270274, 46.849149926115274], [-60.77252855879714, 46.8491435564988], [-60.77252715558116, 46.849140694358205], [-60.77256015428913, 46.84913159941462], [-60.77259250032514, 46.8491332100804], [-60.77262548784636, 46.849134851224385], [-60.7726526242416, 46.849133975601696], [-60.77267670046004, 46.849133193388774], [-60.77272997768849, 46.84914377895407], [-60.77273467423886, 46.849144716329015], [-60.77275485023174, 46.84914626102229], [-60.772796130192, 46.84914943145861], [-60.772815112357236, 46.849152248819934], [-60.77284793943868, 46.84915713557191], [-60.77286351705319, 46.849156637856424], [-60.7728695984597, 46.84915644125643], [-60.772873017063695, 46.84915783071928], [-60.772875687380505, 46.8491589176341], [-60.772870316643754, 46.84917047635369], [-60.772868733225565, 46.84917387431514], [-60.77283026882264, 46.84918984651158], [-60.77278811850589, 46.84920994067883], [-60.772777628363905, 46.8492165130442], [-60.77275204285869, 46.849232537935656], [-60.77275076654377, 46.84923739078259], [-60.77274885132714, 46.84924468803732], [-60.77274840476136, 46.849268806824654], [-60.77275393216066, 46.849281054661574], [-60.77275644349178, 46.849286620201944]]}, "properties": {"OBJECTID": 158709, "FEAT_CODE": "WARV10", "FEAT_DESC": "Double Line River - Water to the left line", "RIVNAME_1": "Red River", "RIVNAME_2": " ", "ZVALUE": 0.4, "FID": null, "SHAPE_Length": 53.745181573129116}}, {"type": "Feature", "id": 158710, "geometry": {"type": "LineString", "coordinates": [[-60.77238940440057, 46.8491002777874], [-60.77240549120464, 46.849119498807916], [-60.772413953041095, 46.84912961693274], [-60.77241706086122, 46.849132494264296], [-60.772447507923324, 46.8491606703239], [-60.77246504925187, 46.84917865973408], [-60.772472825592, 46.84918664064187], [-60.77249747107536, 46.84920190654028], [-60.77251365199419, 46.84920807119954], [-60.77253815196059, 46.84920529039202]]}, "properties": {"OBJECTID": 158710, "FEAT_CODE": "WARV10", "FEAT_DESC": "Double Line River - Water to the left line", "RIVNAME_1": "Red River", "RIVNAME_2": " ", "ZVALUE": 0.4, "FID": null, "SHAPE_Length": 17.368689434106535}}, {"type": "Feature", "id": 183438, "geometry": {"type": "LineString", "coordinates": [[-60.77220205079715, 46.848884000217346], [-60.77221081627176, 46.84888202003139], [-60.77224000006102, 46.84887540673648], [-60.772251986059985, 46.848877700990606], [-60.77227517970078, 46.84889095879336], [-60.772278550112894, 46.84889287830235], [-60.772313274635394, 46.848910554351605], [-60.77234367853908, 46.84892296259177], [-60.77235027480845, 46.84892807671064], [-60.77238517781644, 46.8489551066248], [-60.772402030837796, 46.84897197571362], [-60.77241354270599, 46.84898065931678], [-60.77244970651409, 46.84900793874434], [-60.772502276906536, 46.8490276810775], [-60.77253472702996, 46.84904136202687], [-60.77256903367232, 46.84905455714346], [-60.7725893439704, 46.84906236808658], [-60.77262606462341, 46.84908126182702], [-60.77270362500248, 46.849090817241915], [-60.77272854277967, 46.8490944251257], [-60.77274147764539, 46.849096296827724], [-60.772803061998765, 46.84910234636945], [-60.772833850929175, 46.8491051325797], [-60.7728467103264, 46.84910629184547], [-60.77290064131925, 46.84911661107507], [-60.7729052517996, 46.84911645783615], [-60.772936092072484, 46.8491154652562], [-60.77297719952921, 46.84911011880536], [-60.773047299932195, 46.849110070373996], [-60.77306207030922, 46.84911006088741], [-60.77314315261206, 46.849112799988696], [-60.77316343030036, 46.84911378862432], [-60.773192635583065, 46.849115220998115], [-60.77321506956018, 46.849126555943656], [-60.77321650544644, 46.849138463142026], [-60.77321708242241, 46.84914322607238]]}, "properties": {"OBJECTID": 183438, "FEAT_CODE": "WARV20", "FEAT_DESC": "Double Line River - Water to the right line", "RIVNAME_1": "Red River", "RIVNAME_2": " ", "ZVALUE": 0.4, "FID": null, "SHAPE_Length": 88.49358841883002}}, {"type": "Feature", "id": 268130, "geometry": {"type": "LineString", "coordinates": [[-60.78154498810662, 46.84012361190843], [-60.78155775975843, 46.840131950053696], [-60.781596319361476, 46.84015070561285], [-60.7816215964474, 46.840162382038116], [-60.78163494260036, 46.84016855344912], [-60.78168792945176, 46.84018757971561], [-60.7817113901961, 46.84018762962227], [-60.78179284009635, 46.840187813907605], [-60.78185994676822, 46.8402085897601], [-60.78191068478801, 46.840224296526536], [-60.7819544234682, 46.8402462751782], [-60.78200191319869, 46.84027016241852], [-60.78207872669728, 46.840315748794374], [-60.782092784281645, 46.84032502975111], [-60.7821437461688, 46.84036110648953], [-60.7821577910418, 46.840370378192304], [-60.78219086386946, 46.840401680402664], [-60.78219566111885, 46.840406210120676], [-60.78219594281591, 46.840415296017746], [-60.782196231176634, 46.84042422005404], [-60.78220129353456, 46.84044238006519], [-60.782208795271124, 46.84046946081166], [-60.78218110515463, 46.84050492181253], [-60.782167416752685, 46.840519802524256], [-60.7821152040515, 46.84057653978719], [-60.782102299555746, 46.84060327895211], [-60.782101558743534, 46.840621272473044], [-60.78212685727403, 46.84067575954244], [-60.78216529889491, 46.84072960144051], [-60.78219924937811, 46.840753289133545], [-60.78223031892809, 46.84077495909317], [-60.78223863331171, 46.84078070891489], [-60.78225711155238, 46.84079347733037], [-60.78232157817185, 46.84088382140709], [-60.78235430668862, 46.84092572723348], [-60.782385117809525, 46.84096514803735], [-60.78239554589691, 46.84097976726861], [-60.78241115749748, 46.84100164152522], [-60.78240950620561, 46.84107361404253], [-60.78244831724142, 46.841118463560754], [-60.78250060332015, 46.84115457479904], [-60.782591464020484, 46.84120942352318], [-60.78261184957398, 46.84122174287621], [-60.782682324166224, 46.84126429016237], [-60.78274080894456, 46.84130403120406], [-60.782761427507715, 46.84131801994217], [-60.78280675564003, 46.84136641542239], [-60.78281293675522, 46.841373014804745], [-60.782829635100725, 46.841404818445916], [-60.78285063801892, 46.84144484099614], [-60.78290073437177, 46.84159790232984], [-60.78294024163528, 46.84166250093844], [-60.7829781511921, 46.841724494732844], [-60.78302972847044, 46.84184158694235], [-60.783031368094626, 46.84184317561689], [-60.78306756312943, 46.84187831782786], [-60.78307581816674, 46.84188934010856], [-60.78308123847766, 46.84189658169266], [-60.783109723033675, 46.841911613728605], [-60.78313259839781, 46.841923675249774], [-60.783145690301026, 46.84192392892342], [-60.78318414560486, 46.84195004345789], [-60.78318524266148, 46.84195079366899], [-60.78319834767676, 46.841951047590655], [-60.78322710264862, 46.84195919126633], [-60.78326316967104, 46.84196940248804], [-60.7833813892936, 46.84199689139525], [-60.78357679628535, 46.84206097333261]]}, "properties": {"OBJECTID": 268130, "FEAT_CODE": "WARV50", "FEAT_DESC": "River - Single Line", "RIVNAME_1": "Bear Brook", "RIVNAME_2": " ", "ZVALUE": 9999, "FID": null, "SHAPE_Length": 294.19430018915415}}, {"type": "Feature", "id": 284088, "geometry": {"type": "LineString", "coordinates": [[-60.76507788943248, 46.8545658016037], [-60.76514252881015, 46.85455716486698], [-60.765221585569, 46.854548809703005], [-60.7653133783309, 46.85454970267067], [-60.76540595442036, 46.85453172106215], [-60.765459245661496, 46.85452309649127], [-60.76551027789414, 46.854514850750235], [-60.765641817554965, 46.85450662933317], [-60.76569653996441, 46.854506825043], [-60.765812319641384, 46.85450725009321], [-60.76591106669989, 46.85450367967195], [-60.766022544418526, 46.85449965578386], [-60.76623275604251, 46.854492060831205], [-60.76645513906763, 46.8544757036713], [-60.7665607860372, 46.85445885823847], [-60.76656890297763, 46.854457675772856], [-60.766679577402115, 46.854441387340934], [-60.76687592396757, 46.85438852341879], [-60.766956100344586, 46.854353190622945], [-60.76700509084252, 46.854324259676446], [-60.767047546034526, 46.854299178909734], [-60.76712934893433, 46.8542486597026], [-60.767219876382356, 46.85419274005115], [-60.76741845824273, 46.85408593124684], [-60.76760281344818, 46.854005833799015], [-60.7677268611214, 46.8539485609069], [-60.76781412924969, 46.8539082631981], [-60.76790227123474, 46.85387124926366], [-60.76802507155164, 46.85381968434967], [-60.76819590685883, 46.853749230569846], [-60.768368053243776, 46.85367878410884], [-60.768526369938925, 46.853625175574436], [-60.768566466896296, 46.85361170251028], [-60.76860487381408, 46.85359880843241], [-60.76863652025367, 46.85359900265542], [-60.768670449672754, 46.853599187396746], [-60.76884129678961, 46.85359172888721], [-60.769038204244076, 46.85355686205281], [-60.769235496725685, 46.853513011957205], [-60.76945972306576, 46.853451687756674], [-60.7695215442404, 46.853433130230535], [-60.76957794592335, 46.85341619491123], [-60.76970964875861, 46.85337196528543], [-60.769828256825676, 46.853327480261555], [-60.76992115186476, 46.85330139273301], [-60.77014315540697, 46.8532940204416], [-60.77016489229866, 46.853294021108766], [-60.77023498349218, 46.853294010207605], [-60.77027568902942, 46.85329433553023], [-60.770313666685, 46.853294643674964], [-60.77040545791483, 46.85329552352923], [-60.7704301179847, 46.85329937886959], [-60.77052406709286, 46.853314042806886], [-60.770706941553065, 46.853332905221734], [-60.770890717436934, 46.853361684277466], [-60.77094404054765, 46.853374422416884], [-60.7710465951473, 46.85339891896654], [-60.77106810338016, 46.853403810696236], [-60.77108558322091, 46.853407777997326], [-60.77112588207747, 46.85341666255009], [-60.77114086505652, 46.853420419211716], [-60.77116483295663, 46.853426420771996], [-60.77121655656929, 46.85344452728162], [-60.771268652412765, 46.853453641590406], [-60.77132824853099, 46.853471712415065], [-60.77136063781567, 46.85348153174332], [-60.77141273372149, 46.85349064598749], [-60.77141348689785, 46.85349083164732], [-60.77145168470925, 46.85350040411343], [-60.77152294603825, 46.85351428333253], [-60.77154407965663, 46.85351840272445], [-60.77155718738206, 46.85351865802665], [-60.771595383792196, 46.853524144676975], [-60.77162239108839, 46.85352802747721], [-60.771786885988924, 46.853555178638466], [-60.7718436679176, 46.853564545936464]]}, "properties": {"OBJECTID": 284088, "FEAT_CODE": "WARV50", "FEAT_DESC": "River - Single Line", "RIVNAME_1": "Rorys Brook", "RIVNAME_2": " ", "ZVALUE": 9999, "FID": null, "SHAPE_Length": 556.2468403641922}}, {"type": "Feature", "id": 284942, "geometry": {"type": "LineString", "coordinates": [[-60.77192346795131, 46.84862751816518], [-60.77200147445924, 46.84867605029779], [-60.77209232433551, 46.84876671583931], [-60.772100386302924, 46.84877476533117], [-60.77210802179432, 46.84878297750711], [-60.77220205079715, 46.848884000217346]]}, "properties": {"OBJECTID": 284942, "FEAT_CODE": "WARV50", "FEAT_DESC": "River - Single Line", "RIVNAME_1": "Red River", "RIVNAME_2": " ", "ZVALUE": 9999, "FID": null, "SHAPE_Length": 35.754715131395436}}, {"type": "Feature", "id": 284943, "geometry": {"type": "LineString", "coordinates": [[-60.77189743037399, 46.84825248162727], [-60.77183260013771, 46.848311596285264], [-60.77176691586653, 46.848396738637874], [-60.77175322475549, 46.84842678209115], [-60.77173224626902, 46.84847285559914], [-60.77177147480751, 46.848515448974965], [-60.77178736615103, 46.8485326954022], [-60.771805948117674, 46.84854803235094], [-60.771837340956274, 46.84857394113988], [-60.77192346795131, 46.84862751816518]]}, "properties": {"OBJECTID": 284943, "FEAT_CODE": "WARV50", "FEAT_DESC": "River - Single Line", "RIVNAME_1": "Red River", "RIVNAME_2": " ", "ZVALUE": 9999, "FID": null, "SHAPE_Length": 50.49534630527453}}, {"type": "Feature", "id": 284944, "geometry": {"type": "LineString", "coordinates": [[-60.76859007798596, 46.84695963775588], [-60.768613347214014, 46.84695963261211], [-60.76868189522301, 46.8469596285832], [-60.768839615506614, 46.846951905110004], [-60.76891828938292, 46.846952539378485], [-60.76892830836809, 46.84695069188154], [-60.76901081434372, 46.846935444810754], [-60.76906617923585, 46.84692564407901], [-60.76920769682736, 46.84690058621946], [-60.76930516055198, 46.84688775444957], [-60.769404206646804, 46.84687471946167], [-60.769483625246416, 46.846857368985134], [-60.769602013791754, 46.846848877657244], [-60.76969227995577, 46.84684926040943], [-60.76972005614854, 46.84684937889602], [-60.769863925238106, 46.84685938287582], [-60.77002015584563, 46.846887626487614], [-60.770098444260164, 46.84689725186846], [-60.77028921055784, 46.84691886067243], [-60.7703478156837, 46.84692551944283], [-60.77041733457203, 46.84693279583975], [-60.77062207665483, 46.84695425346551], [-60.77083373331297, 46.84697724935874], [-60.77088455515938, 46.84698276626732], [-60.77097032684548, 46.846990017006874], [-60.77111981978262, 46.84700264881378], [-60.771369551670446, 46.84702191274235], [-60.77161793593617, 46.84704204982095], [-60.77191881943967, 46.84706140887047], [-60.77195152989741, 46.84706654559763], [-60.772219860747796, 46.847108668452925], [-60.772376660188044, 46.84715491878695], [-60.77247017033259, 46.84719422207084], [-60.77250686249607, 46.84720965052034], [-60.77254442866565, 46.84722900172911], [-60.77261218947892, 46.84726389782846], [-60.77269811972368, 46.84733171656026], [-60.77271506421756, 46.84734509560759], [-60.77281998226173, 46.847409243139815], [-60.77289774998553, 46.8474638446426], [-60.77297437447118, 46.84754543114443], [-60.77302648344929, 46.84761754097627], [-60.77302890690083, 46.84762110692698], [-60.77303884610422, 46.84763578048036], [-60.7732027065443, 46.847753046662206], [-60.77321079803663, 46.847784810163034], [-60.77322368714623, 46.84783536786452], [-60.77322408826416, 46.84790497730133], [-60.773159104207686, 46.84799862954744], [-60.773149940422776, 46.848011833348075], [-60.77311877850685, 46.84803870209845], [-60.77305640066818, 46.84809247452016], [-60.773054572367975, 46.8480932308838], [-60.77288712331672, 46.84816232693371], [-60.77275133868594, 46.84818922884261], [-60.77272533751107, 46.848194383319914], [-60.77266434510791, 46.84819878460125], [-60.77252498083579, 46.848208841607644], [-60.77240087848757, 46.848183530835264], [-60.77222927508721, 46.84815420821271], [-60.77209104828457, 46.84815328952873], [-60.771948315397864, 46.84820609054825], [-60.77189743037399, 46.84825248162727]]}, "properties": {"OBJECTID": 284944, "FEAT_CODE": "WARV50", "FEAT_DESC": "River - Single Line", "RIVNAME_1": "Red River", "RIVNAME_2": " ", "ZVALUE": 9999, "FID": null, "SHAPE_Length": 524.171376449749}}, {"type": "Feature", "id": 284945, "geometry": {"type": "LineString", "coordinates": [[-60.76129767201423, 46.84521257757731], [-60.76131077762767, 46.845212834018334], [-60.76150616850539, 46.84527695337365], [-60.76171560238701, 46.84535034656949], [-60.761898078200346, 46.84544121091258], [-60.761965495324084, 46.84546806112905], [-60.76198839809353, 46.84547717560172], [-60.76208055463453, 46.84553207497385], [-60.762246037790284, 46.845639552320485], [-60.76224914141068, 46.84564156590312], [-60.7624439773656, 46.84575067900088], [-60.76257189193746, 46.84581437679385], [-60.7626264561559, 46.8458415332285], [-60.76267327777019, 46.845867206311155], [-60.762808561310685, 46.84594139729656], [-60.7629647927416, 46.84603262867761], [-60.76301744318333, 46.84605976550315], [-60.763068783467794, 46.84608686768884], [-60.7631526516221, 46.84611999647521], [-60.763186216738504, 46.8461332609207], [-60.763329716174475, 46.846215261434665], [-60.763359357762184, 46.84623077998103], [-60.76348504869667, 46.84629659313775], [-60.76359850029069, 46.84636971744223], [-60.76365495133348, 46.8464061076915], [-60.76372315405108, 46.84644946819286], [-60.76379807886523, 46.846497099781786], [-60.7638043731461, 46.84650377439842], [-60.76382320805433, 46.846523689316015], [-60.76384696128318, 46.84656351712656], [-60.763861223124344, 46.84658742840306], [-60.76387132067642, 46.84661149227321], [-60.76388748022815, 46.846650037728516], [-60.763887025591316, 46.846676784178584], [-60.76388655041987, 46.84670402519639], [-60.76383822753165, 46.846800724659744], [-60.76379213568621, 46.84689296798839], [-60.7637917627018, 46.846901951138754], [-60.763791899155216, 46.84690624653862], [-60.76379231423145, 46.84691994279958], [-60.76379082005129, 46.84695592935359], [-60.763784057179095, 46.846988339144616], [-60.763777734782, 46.84701866967439], [-60.763789355110895, 46.84711789063618], [-60.76378869991774, 46.847149465863204], [-60.76378805219037, 46.8471808612472], [-60.76379920924724, 46.84719646835789], [-60.76380044892061, 46.847198202481245], [-60.76380553653954, 46.84720298162888], [-60.76383958447392, 46.847234965149916], [-60.76391844954182, 46.84726259591442], [-60.76408780789178, 46.84729021326453], [-60.76415967038179, 46.84730327191109], [-60.76419327150478, 46.84730937320626], [-60.76421658017016, 46.847309369727874], [-60.76428508920995, 46.84730936757311], [-60.764384883753166, 46.84730994970871], [-60.76441622537119, 46.847310130153275], [-60.76452054778014, 46.84729326973717], [-60.76470489225736, 46.84727617279061], [-60.76490140533447, 46.84725031383069], [-60.76500772293692, 46.847233095972605], [-60.76516419518626, 46.8472077502853], [-60.7652479919227, 46.84719841677372], [-60.76532232694223, 46.847190140317316], [-60.765381847430554, 46.847190852885134], [-60.76544031943105, 46.84719154494393], [-60.765741947026186, 46.84719293591072], [-60.76580958500688, 46.84719558866556], [-60.76601695210132, 46.84720370563743], [-60.76627922411251, 46.84720522666858], [-60.766489780112785, 46.84718863858676], [-60.76651249985999, 46.84718512236201], [-60.76654127969767, 46.84718065350091], [-60.7666334574059, 46.847171644571766], [-60.76666909205451, 46.847166985508196], [-60.76669939825962, 46.847163032372016], [-60.76676533909357, 46.84715442013389], [-60.76680465749796, 46.84715518759857], [-60.76709332226365, 46.84712122416745], [-60.76736891784373, 46.847086105031366], [-60.767553526218656, 46.84707019656955], [-60.76765851983073, 46.84706115790152], [-60.76784385733171, 46.84703113407963], [-60.76792130680561, 46.847018587967426], [-60.7682100074965, 46.84698372247602], [-60.76859007798596, 46.84695963775588]]}, "properties": {"OBJECTID": 284945, "FEAT_CODE": "WARV50", "FEAT_DESC": "River - Single Line", "RIVNAME_1": "Red River", "RIVNAME_2": " ", "ZVALUE": 9999, "FID": null, "SHAPE_Length": 692.8746779795989}}, {"type": "Feature", "id": 285373, "geometry": {"type": "LineString", "coordinates": [[-60.77321708242241, 46.84914322607238], [-60.773264367587906, 46.84914169852105], [-60.77330348600726, 46.849147022566925], [-60.773328047650345, 46.84915036240515], [-60.77334199734394, 46.84915211879807], [-60.77339568139664, 46.84915889621059], [-60.773405937944126, 46.849172882947364], [-60.773412941230546, 46.84918243264656], [-60.77341286231739, 46.84920528067146], [-60.77341270909632, 46.84924134741732], [-60.77341932835337, 46.84928398055748], [-60.773420661798184, 46.84930502918316], [-60.773421690886885, 46.84932138318109], [-60.77343668020819, 46.849355737741654], [-60.7734401311262, 46.849363643405674], [-60.77342262635978, 46.84939901249548], [-60.773378082629726, 46.84946113264946], [-60.773375452274884, 46.849464789225244], [-60.77330928833885, 46.84954188661876], [-60.77324669473723, 46.84961352780985], [-60.77322215996501, 46.84966251117888], [-60.7732291229581, 46.849710469682265], [-60.77323700192992, 46.84972549009068], [-60.77325155386953, 46.84975233963364], [-60.77325137241957, 46.849752921065274], [-60.77325134174413, 46.84975302846144]]}, "properties": {"OBJECTID": 285373, "FEAT_CODE": "WARV50", "FEAT_DESC": "River - Single Line", "RIVNAME_1": "Red River", "RIVNAME_2": " ", "ZVALUE": 0.4, "FID": null, "SHAPE_Length": 84.79989228988973}}, {"type": "Feature", "id": 294632, "geometry": {"type": "LineString", "coordinates": [[-60.76549692004849, 46.8494203081287], [-60.76556334898892, 46.849391151401306], [-60.765683634153966, 46.84933836094041], [-60.765907704662, 46.84921533152507], [-60.766092826935775, 46.84905251065117], [-60.76620808553881, 46.84898014671411], [-60.766258684186596, 46.84894838565195], [-60.76632114098181, 46.84889985614191], [-60.76640822682136, 46.848828039908064], [-60.76644245243787, 46.848799819879886], [-60.76658809516574, 46.84867892079516], [-60.76673968441519, 46.8485869987908], [-60.76692889506544, 46.84848331966436], [-60.76703577753186, 46.84838450405262], [-60.767200346446494, 46.84830250015515], [-60.767328966535004, 46.84827731890594], [-60.76746654974457, 46.84826785443894], [-60.76749992521219, 46.84826549988467], [-60.76766688226851, 46.84825370152426], [-60.76779484594082, 46.84820922115117], [-60.76780988501371, 46.8482039889135], [-60.76782055834603, 46.84820155131755], [-60.767903589298605, 46.84818255352146], [-60.76793831867313, 46.848162721349], [-60.76797255041493, 46.848143185438616], [-60.76806565595924, 46.84806307990505], [-60.76808446105315, 46.848048948660285], [-60.768121191349316, 46.848021343954734], [-60.76818362811455, 46.84803337024581], [-60.76819436372637, 46.84803544254768], [-60.7682183880062, 46.848046665510026], [-60.76829106535458, 46.84808062514056], [-60.768363448938935, 46.84810236675918], [-60.76840090499804, 46.84811707347215], [-60.76842008412053, 46.84812462011098], [-60.76851827218182, 46.84815641334324], [-60.76853284629804, 46.84816113431816], [-60.76855656061074, 46.84816147984422], [-60.76864734065934, 46.84816280938043], [-60.76877124871128, 46.848164271937044], [-60.768794393697874, 46.848162212460835], [-60.76881831531313, 46.848160087130324], [-60.76892954218785, 46.84817256050886], [-60.76897795365648, 46.84818973952506], [-60.76906555154401, 46.84820297592691], [-60.76911296122479, 46.84820412535478], [-60.76915669242775, 46.84820826284682], [-60.769324862524584, 46.84822416798348], [-60.76940972707635, 46.848256213647126], [-60.76946044783312, 46.8482721145635], [-60.769510313651146, 46.848287755805174], [-60.76959343640975, 46.84830517029], [-60.76968784698875, 46.848324946622625], [-60.769694222161576, 46.848324305946555], [-60.76972703267747, 46.84832102178671], [-60.76983422904966, 46.848341830187316], [-60.76987288276041, 46.848362472390505], [-60.769924036706264, 46.848389774829556], [-60.769961988252255, 46.8484020338409], [-60.76999079432972, 46.84841658042986], [-60.77005161836521, 46.84844730208907], [-60.77014502234575, 46.84852466380895], [-60.77020882401908, 46.84859752477582], [-60.770371160596426, 46.848697657382765], [-60.77043521799159, 46.848743758884424], [-60.77051329735998, 46.8488057116116], [-60.77051623116793, 46.84880803663883], [-60.77056128339579, 46.84883350999526], [-60.77058784015813, 46.84884853456874], [-60.77070674393107, 46.84888885606284], [-60.77076089450196, 46.84889639075752], [-60.77085573556261, 46.84890960492088], [-60.77087667708787, 46.84891071488957], [-60.77091904582991, 46.84891292627932], [-60.770977051494626, 46.848915424301296], [-60.77104452467878, 46.84891831372625], [-60.77111856057502, 46.84892585767668], [-60.771185242408215, 46.848932655355405], [-60.77134167092662, 46.84894515198213], [-60.77136436112063, 46.84894140923142], [-60.771402173362986, 46.84893518021052], [-60.771514967639355, 46.84891014495767], [-60.77158740099558, 46.84891679344476], [-60.77160301688009, 46.84891822252548], [-60.771786037168695, 46.84896205953011], [-60.77182328232282, 46.84897207230362], [-60.77188422849585, 46.848988468260984], [-60.77197287562445, 46.84898843969752], [-60.77197552015876, 46.84898983211215], [-60.77207248292456, 46.84904055122529], [-60.772161699961416, 46.849084774829336], [-60.772187304372984, 46.8490974676306], [-60.77227370931971, 46.84911552903276], [-60.77228815736939, 46.84911855517867], [-60.77236289299084, 46.84910507127042], [-60.77238940440057, 46.8491002777874]]}, "properties": {"OBJECTID": 294632, "FEAT_CODE": "WARV55", "FEAT_DESC": "River - Single Line Indefinite", "RIVNAME_1": " ", "RIVNAME_2": " ", "ZVALUE": 9999, "FID": null, "SHAPE_Length": 626.2932642917535}}, {"type": "Feature", "id": 309878, "geometry": {"type": "LineString", "coordinates": [[-60.77253815196059, 46.84920529039202], [-60.77261175822813, 46.84924575393593], [-60.77264940516614, 46.84927936177567], [-60.77266494414288, 46.849288996696835], [-60.77267815572151, 46.84929718239553], [-60.772706179250854, 46.8492986458841], [-60.7727098442947, 46.84929883422524], [-60.77275644349178, 46.849286620201944]]}, "properties": {"OBJECTID": 309878, "FEAT_CODE": "WARVSP50", "FEAT_DESC": "River Split - Single Line", "RIVNAME_1": " ", "RIVNAME_2": " ", "ZVALUE": 0.4, "FID": null, "SHAPE_Length": 21.08846998272353}}, {"type": "Feature", "id": 309879, "geometry": {"type": "LineString", "coordinates": [[-60.77189743037399, 46.84825248162727], [-60.771896385330294, 46.84832307984135], [-60.7718964682326, 46.84832361242247], [-60.77190950820969, 46.84840568922926], [-60.77195273738245, 46.84852751947957], [-60.77193804039665, 46.84857775609582], [-60.77192346795131, 46.84862751816518]]}, "properties": {"OBJECTID": 309879, "FEAT_CODE": "WARVSP50", "FEAT_DESC": "River Split - Single Line", "RIVNAME_1": " ", "RIVNAME_2": " ", "ZVALUE": 9999, "FID": null, "SHAPE_Length": 42.36237673410029}}, {"type": "Feature", "id": 311324, "geometry": {"type": "LineString", "coordinates": [[-60.766790077570256, 46.839535074177604], [-60.766776406792204, 46.83957980457268], [-60.76678451233618, 46.839631043659665], [-60.766787839411954, 46.83965202332102], [-60.766800763107575, 46.83968827337873], [-60.76682006130336, 46.83971533343136], [-60.7668391872402, 46.83974212013479], [-60.76690475745675, 46.839805505179484], [-60.76702042407237, 46.83990060106817], [-60.76705948735248, 46.83993270855642], [-60.76712505842948, 46.83999608448913], [-60.76718951192649, 46.840086427916376], [-60.767291271750715, 46.84025761243081], [-60.767356098131955, 46.84033897258825], [-60.76739944212797, 46.840388055455634], [-60.767419986923635, 46.840411314964165], [-60.767453095141846, 46.84044598794218], [-60.767497918199545, 46.84049293076623], [-60.76756311781363, 46.84056529863807], [-60.7676528436282, 46.84064714447448], [-60.767720044771536, 46.840687045306396], [-60.76774372520179, 46.84070110550485], [-60.76783513420503, 46.840773993589124], [-60.76790033460569, 46.840846361279084], [-60.76794232916278, 46.84090555998361], [-60.768015575662204, 46.84100879968973], [-60.76806696045326, 46.84108605443756], [-60.768118048013804, 46.84116288938823], [-60.768247705580585, 46.841325608787955], [-60.768330092129965, 46.84140959677228], [-60.7683898901476, 46.84147057348942], [-60.768467092480115, 46.84157017328303], [-60.76847119904001, 46.84157678697768], [-60.7685174937715, 46.84165125139924], [-60.768582336735975, 46.84173261115956], [-60.768659898789245, 46.84182322738787], [-60.76867579798263, 46.84184087939991], [-60.768725115011435, 46.841895585899636], [-60.76880135468362, 46.841986158240026], [-60.76881992501101, 46.842006769143914], [-60.76886654470583, 46.84205852515693], [-60.768916463335714, 46.84209744927851], [-60.76897074034741, 46.84213976116393], [-60.76902264570766, 46.8421848706006], [-60.769113314477615, 46.84227573309095], [-60.76924203953842, 46.84242943369578], [-60.76928366155456, 46.84248850763069], [-60.76929282825363, 46.84250151956546], [-60.76933104057078, 46.84259225903961], [-60.76939439734794, 46.8427725922222], [-60.76942646631862, 46.84291857645947], [-60.76943191736548, 46.84294340420469], [-60.769431483681274, 46.842969080159826], [-60.76943099368592, 46.84299738285439], [-60.76942390678976, 46.84302821176936], [-60.76940217811878, 46.843122813255356], [-60.76935211723762, 46.84325546995714], [-60.769334422484256, 46.843302381035414], [-60.7693200577309, 46.84333697380354], [-60.769267397699, 46.84346397313608], [-60.76919980753572, 46.84360753728728], [-60.769187137616875, 46.84365852406972], [-60.769157310018684, 46.84377859799667], [-60.76913122398091, 46.84384316431692], [-60.76910323381167, 46.84391253520166], [-60.76904968573331, 46.84406538150489], [-60.76899519924664, 46.84420921003975], [-60.768926668903845, 46.84434376524194], [-60.768859821238635, 46.84446935377415], [-60.768753643557204, 46.844594175253874], [-60.768685870222356, 46.8447107461879], [-60.76859295264671, 46.84480072830368], [-60.76849969946634, 46.8448988032944], [-60.768433595195795, 46.84500640718902], [-60.76843187733088, 46.84500861454295], [-60.76841974444697, 46.84502413591204], [-60.76837946545241, 46.845078246850235], [-60.768369929184736, 46.84510390723474], [-60.7683661797168, 46.845113994468], [-60.768365902080745, 46.84513652365164], [-60.768365627797294, 46.845158971905654], [-60.76838507896975, 46.8451814539343], [-60.768404429783644, 46.84520382600875], [-60.76842624342245, 46.845246215875264], [-60.76845541311142, 46.845302905334535], [-60.76847342646198, 46.84539111821252], [-60.76847938895488, 46.84542037469505], [-60.76850508696774, 46.84552888719739], [-60.768524329572756, 46.84560547876458], [-60.7685298464769, 46.84562744600584], [-60.7685345590891, 46.84564065010442], [-60.76854277263955, 46.845663695876354], [-60.76855495372392, 46.84571793009267], [-60.76855458080369, 46.845726931258405], [-60.76855420862837, 46.845735914439764], [-60.768560610618, 46.84575899687323], [-60.76856676228455, 46.845781156481166], [-60.76856666584318, 46.84579963044961], [-60.76856658267986, 46.84581715073639], [-60.76857863457868, 46.84590648024293], [-60.768585298541254, 46.84593052172432], [-60.768591175184135, 46.84595172202582], [-60.76863255495899, 46.84599515941163], [-60.76864271124136, 46.84600582383813], [-60.76864733455311, 46.84601263658768], [-60.768655072044, 46.8460240637889], [-60.76865526502688, 46.8460510658702], [-60.768654609368966, 46.846082722109315], [-60.768653967865994, 46.84611403664569], [-60.76863920565072, 46.846248740323496], [-60.76863180960909, 46.84631645184702], [-60.7686244060949, 46.84638434321247], [-60.768623591313485, 46.84645149913204], [-60.76862280006427, 46.846518403525636], [-60.768622121951886, 46.846550284310446], [-60.76862145247346, 46.84658227325677], [-60.76862019249246, 46.846644344808304], [-60.76859340434872, 46.84675271555469], [-60.76859007798596, 46.84695963775588]]}, "properties": {"OBJECTID": 311324, "FEAT_CODE": "WARV50", "FEAT_DESC": "River - Single Line", "RIVNAME_1": " ", "RIVNAME_2": " ", "ZVALUE": 9999, "FID": null, "SHAPE_Length": 901.664837849942}}]}