{"type": "FeatureCollection", "features": [{"type": "Feature", "id": 4942, "geometry": {"type": "LineString", "coordinates": [[-60.87740978043054, 46.79801512945743], [-60.87741536719234, 46.79799670321645], [-60.877423335026876, 46.797970383625454], [-60.87731885558321, 46.797861351510676], [-60.87728004414716, 46.79783425395562], [-60.87711096038293, 46.797716202382155], [-60.87708470532693, 46.79770237798053], [-60.87705959310032, 46.797689150745526], [-60.87696765768997, 46.79766133725349], [-60.87695999136628, 46.797654346393934], [-60.87692844270045, 46.79762552060742], [-60.87692915043601, 46.79760753481327], [-60.8769064943985, 46.79757585022739], [-60.876903066300976, 46.797571052890696], [-60.87686516127658, 46.797535251533034], [-60.87682289958907, 46.79750925971983], [-60.87674744730676, 46.797462871076995], [-60.876697784571526, 46.79743647187417], [-60.87669481943293, 46.79743489593227], [-60.87665541404356, 46.797419243456616], [-60.87660449922868, 46.7973990216051], [-60.87653909503124, 46.79736270973293], [-60.876460949878116, 46.79731716186308], [-60.87642539990146, 46.79729412031489], [-60.87629227294663, 46.797207837095044], [-60.87625305873279, 46.79717202022753]]}, "properties": {"OBJECTID": 4942, "FEAT_CODE": "WACO20", "FEAT_DESC": "Coast - Water to the right line", "RIVNAME_1": " ", "RIVNAME_2": " ", "ZVALUE": 0.4, "FID": null, "SHAPE_Length": 133.28792903586768}}, {"type": "Feature", "id": 4943, "geometry": {"type": "LineString", "coordinates": [[-60.87625305873279, 46.79717202022753], [-60.87628041727751, 46.797109522845766], [-60.87628052847048, 46.79709870755296], [-60.87628087798495, 46.7970645250735], [-60.876255041761986, 46.7970550549954], [-60.87617548134851, 46.7970454785149], [-60.876163094763314, 46.79702724063524], [-60.87615491935561, 46.79701920533121], [-60.87609875260064, 46.79696396782679], [-60.87604495312348, 46.796926494191105], [-60.87603370363339, 46.79691865379124], [-60.87599662532084, 46.79688318246952], [-60.87593014906465, 46.79681953696227], [-60.87593018317216, 46.7968086842401], [-60.875930255675534, 46.7967835410795], [-60.87595694138936, 46.79673813926313], [-60.876006587105735, 46.79663977888453], [-60.87601094989455, 46.796631148400614], [-60.87607631873889, 46.796568456802724], [-60.87612919344143, 46.79652355014723], [-60.8761629424503, 46.79649811423293], [-60.87624805115169, 46.79643396210389], [-60.87641962829896, 46.79633635307529], [-60.87647013831674, 46.79631355905301], [-60.87653835273315, 46.796282760119794], [-60.87657712092725, 46.79626097203429], [-60.87661741657118, 46.79623833033826], [-60.87665647527137, 46.7962214793252], [-60.87665740853486, 46.796221073671845]]}, "properties": {"OBJECTID": 4943, "FEAT_CODE": "WACO20", "FEAT_DESC": "Coast - Water to the right line", "RIVNAME_1": " ", "RIVNAME_2": " ", "ZVALUE": 0.4, "FID": null, "SHAPE_Length": 141.85890041286277}}, {"type": "Feature", "id": 4944, "geometry": {"type": "LineString", "coordinates": [[-60.87665740853486, 46.796221073671845], [-60.876657934092556, 46.79622070544871], [-60.87669648027956, 46.79619390049962], [-60.87675638325796, 46.796186822760475], [-60.8768413002879, 46.79617679842058], [-60.87688499864216, 46.79615892650054], [-60.87690656167233, 46.796150102217], [-60.87693349416472, 46.79613170314881], [-60.87699556088806, 46.79608461781456], [-60.87703885269497, 46.79605176317966], [-60.87709101880233, 46.79602483286216], [-60.87712380534219, 46.796020509550544], [-60.87715688137518, 46.79601615560343], [-60.87727501692675, 46.79604444609802], [-60.87730124167019, 46.79604403274331], [-60.8773409806787, 46.79603319676332], [-60.877366148544276, 46.79602633816539], [-60.877388782829776, 46.79602392328796], [-60.877445105757374, 46.796017903697944], [-60.877487306353984, 46.79601811068527], [-60.877510614167086, 46.79601822813016], [-60.87762761934555, 46.796108575604286], [-60.877679998150064, 46.79610954730885], [-60.87772002470787, 46.796091399965924], [-60.877888347503266, 46.79620971554352], [-60.87790077022267, 46.79622704496189], [-60.87790897179191, 46.796256409360424], [-60.877913405994185, 46.79627227667404], [-60.87792388004184, 46.79630150323461], [-60.87792638237638, 46.796308515236966], [-60.878009398586585, 46.796352820541806], [-60.878095815732244, 46.79639895276021], [-60.878122253798516, 46.7964264415158], [-60.878111240080926, 46.79644059138684], [-60.87810845134964, 46.79644419344579], [-60.8780956057724, 46.79647093558857], [-60.87810725415706, 46.79649729508399], [-60.87810763923951, 46.79649816617495], [-60.87810985515624, 46.7965004661404], [-60.878134077358766, 46.79652565492826], [-60.87826463747743, 46.79657127381899], [-60.87827737901933, 46.79658050058998], [-60.878275859101535, 46.79665247712062], [-60.8782814313054, 46.79665807013626], [-60.87830233309712, 46.79667905755343], [-60.87845909618724, 46.796725171170976], [-60.87852460583552, 46.79672548604368], [-60.87854384393041, 46.796705800982274], [-60.87855053373084, 46.796698968449306], [-60.878551043627155, 46.7966770012117], [-60.878552406517215, 46.79661800799439], [-60.87857838279846, 46.79659059134417], [-60.87860457245036, 46.796591076985706], [-60.87870974223999, 46.79658222775823], [-60.8787617814395, 46.79659218313432], [-60.878786840758686, 46.79665475308196], [-60.878826727693585, 46.7966734915699], [-60.87894689579291, 46.79671280636091], [-60.8790220914166, 46.79673741009298], [-60.879114075183196, 46.79676431388823], [-60.879120120866354, 46.79676653184175], [-60.87913991143953, 46.79677379231984]]}, "properties": {"OBJECTID": 4944, "FEAT_CODE": "WACO20", "FEAT_DESC": "Coast - Water to the right line", "RIVNAME_1": " ", "RIVNAME_2": " ", "ZVALUE": 0.4, "FID": null, "SHAPE_Length": 267.2601149618335}}, {"type": "Feature", "id": 4945, "geometry": {"type": "LineString", "coordinates": [[-60.87410164959358, 46.80311579494297], [-60.874153128376065, 46.80310685212021], [-60.87427094869882, 46.80310757446293], [-60.87429725932278, 46.803107730351904], [-60.87452094615394, 46.80311818597764], [-60.87460423761909, 46.80313008276153], [-60.874716448273865, 46.80314611649957], [-60.874851595227234, 46.803147160117035], [-60.87496538587102, 46.80314804087546], [-60.87500435655326, 46.80315685524972], [-60.87502618528943, 46.80316066249731], [-60.875056422931316, 46.80316593084854], [-60.875113427521924, 46.803181730743034], [-60.87512254147779, 46.80318425787765], [-60.87514629491127, 46.803181126270985], [-60.875188413110436, 46.80317558191119], [-60.87522207644223, 46.80316641571757], [-60.875253329299376, 46.80315788870503], [-60.87527662267788, 46.803138486508054], [-60.875306176258064, 46.80311387289059], [-60.875359412746434, 46.803059964882735], [-60.875372616254836, 46.80302421225882], [-60.87537866032096, 46.80300052993888], [-60.87538656354628, 46.80296957458569], [-60.875348870181575, 46.80286178103177], [-60.87533088359077, 46.80283662649108], [-60.87532278471054, 46.80282529875601], [-60.87532394137888, 46.80276232403405], [-60.87533691088685, 46.80269956869391], [-60.87534671092742, 46.80268167978357], [-60.875390572806836, 46.80260157122679], [-60.87542989478523, 46.80254854770703], [-60.8754307124443, 46.802547419960355], [-60.87546270854537, 46.802510693392605], [-60.87552405227591, 46.802440259863424], [-60.87553405524592, 46.8024125562962], [-60.875537290925706, 46.80240360792445], [-60.875564512638284, 46.802278121007426], [-60.875559770226495, 46.80223880430467], [-60.87555364838292, 46.802187924680425], [-60.87550236477921, 46.80202588204654], [-60.87547813771398, 46.801919589512856], [-60.87546548715412, 46.80186410691045], [-60.875435354597236, 46.801801613057464], [-60.875413375927145, 46.80175603661276], [-60.87540286966913, 46.80174327825746], [-60.87527206179237, 46.80158424036972], [-60.87520817791864, 46.801475951329195], [-60.87511703938168, 46.8013941634189], [-60.87497383617111, 46.801303308846286], [-60.87495880626037, 46.8012929412747], [-60.874921524390416, 46.80126723926504], [-60.8749215607705, 46.80125899643561], [-60.8749216317864, 46.80123124342057], [-60.874960294656624, 46.801205251186474], [-60.874962017693356, 46.80120409526287], [-60.87498225037536, 46.80120914179912], [-60.87500095155815, 46.80121380890603], [-60.8750749560903, 46.80124281181905], [-60.875092586189886, 46.801249717881205], [-60.87512524585503, 46.80125568816446], [-60.87519668097949, 46.80126874123032], [-60.87537966867976, 46.8013144461302], [-60.87541895651467, 46.80131517574402], [-60.87546144535859, 46.8013038425165], [-60.875485179966304, 46.80129750668315], [-60.8755108059694, 46.80127908369607], [-60.87564311238504, 46.8011807466036], [-60.875695957038566, 46.80113673055785], [-60.875728357840295, 46.80109302784398], [-60.87577623334317, 46.80102842772299], [-60.87587038468801, 46.80086728563383], [-60.87587882018606, 46.80084443063513], [-60.8758967767428, 46.800795779968524], [-60.87592510740149, 46.800642415201146], [-60.87593887735906, 46.80052567787411], [-60.87595385013492, 46.80044496071758], [-60.875981728203556, 46.8004139261944], [-60.8759935980698, 46.800400701374734], [-60.87601746330306, 46.800384378454886], [-60.8760461230127, 46.80036477874308], [-60.87608555217407, 46.800328612964485], [-60.87609946255044, 46.80027487444587], [-60.8761134794716, 46.80018514005981], [-60.87613719139813, 46.80016105673333], [-60.87619265600049, 46.80010471483363], [-60.87621959075198, 46.800086315981815], [-60.87631166283, 46.80007812575102], [-60.87632129455557, 46.80007114997344], [-60.87632378982079, 46.800069351403465], [-60.87633634729429, 46.80004564594039], [-60.87633794746089, 46.80004261582729], [-60.87633796557449, 46.80003316672951], [-60.87633801848125, 46.80000751924774], [-60.87633957627954, 46.79993465253019], [-60.87630051540534, 46.79986193175411], [-60.87631405833904, 46.7998171858467], [-60.87634095750385, 46.799799686251404], [-60.87638332711967, 46.79978502066773], [-60.87639278675002, 46.7997817494675], [-60.876471736513814, 46.79977331552673], [-60.87650982870982, 46.799778756291765], [-60.876536895852404, 46.79978262448938], [-60.87658954818961, 46.79980970020003], [-60.8766224917329, 46.799815432341845], [-60.876641625097584, 46.7998187662838], [-60.87666717601643, 46.799814875771965], [-60.87669436140308, 46.799810745605846], [-60.87670843314178, 46.799797840560835], [-60.876733789719665, 46.79977457958675], [-60.87674634729534, 46.79975086508056], [-60.876747947075856, 46.79974784395395], [-60.876761502703864, 46.799703098229216], [-60.87674688552166, 46.79965660571265], [-60.876735890885016, 46.79962162774093], [-60.87667102406878, 46.79950433078215], [-60.876671501881624, 46.79947354349272], [-60.87667185121526, 46.79945034936419], [-60.876698502315456, 46.79940584669529], [-60.8767921172145, 46.79932478907355], [-60.87685338576909, 46.799262452929085], [-60.876897221389214, 46.79921784615351], [-60.87699056545262, 46.799110684902345], [-60.87707023421551, 46.79898437093908], [-60.877075712964555, 46.798974024229615], [-60.87708439118538, 46.79895763525506], [-60.87711711994974, 46.798899206104466], [-60.87716473179484, 46.798814234712545], [-60.87716506204529, 46.79870625629092], [-60.87714806056599, 46.79864541943056], [-60.877139778043066, 46.79861578350189], [-60.877136205465526, 46.79861165845189], [-60.87710091647021, 46.79857096501771], [-60.87708983261509, 46.79853658838275], [-60.877089236233736, 46.79853475942464], [-60.87710172969067, 46.79851699233101], [-60.87711137084301, 46.79849877633192], [-60.877115886868204, 46.798490247645866], [-60.87714182941858, 46.79846373064673], [-60.87714976019098, 46.79846333784101], [-60.87715496007075, 46.79846307435027], [-60.87720744659017, 46.798428059412956], [-60.877239099285084, 46.79839996544535], [-60.877248183404966, 46.79839190849189], [-60.87728732683202, 46.79832963854846], [-60.87728849402377, 46.79826666396416], [-60.877289739098934, 46.798263996226545], [-60.87730137689933, 46.79823899566491], [-60.87735900993002, 46.798155767030025], [-60.877381963569945, 46.79812260691236], [-60.87739081755532, 46.79808842023571], [-60.87740978043054, 46.79801512945743]]}, "properties": {"OBJECTID": 4945, "FEAT_CODE": "WACO20", "FEAT_DESC": "Coast - Water to the right line", "RIVNAME_1": " ", "RIVNAME_2": " ", "ZVALUE": 0.4, "FID": null, "SHAPE_Length": 811.741760278307}}, {"type": "Feature", "id": 4946, "geometry": {"type": "LineString", "coordinates": [[-60.87913991143953, 46.79677379231984], [-60.879242411502084, 46.796899885073906], [-60.879311791949846, 46.79696609333081], [-60.87934745324856, 46.79699999839692], [-60.87937308296785, 46.79700940095095], [-60.87942562711328, 46.79700052050528], [-60.87943570908072, 46.79699940246135], [-60.879503500372785, 46.79699201952546], [-60.879560759594895, 46.79694885745979], [-60.87962234056532, 46.79690242766506], [-60.87965685530828, 46.79686747448349], [-60.87967556646408, 46.79684851742263], [-60.87970560176583, 46.79682817733018], [-60.87974153375147, 46.79680384275868], [-60.879801897633605, 46.79678104090224], [-60.879834647152165, 46.796768661606485], [-60.87987336402051, 46.79675048924019], [-60.87988670869105, 46.79675538026687], [-60.879899200409675, 46.79675996750238], [-60.87989885598224, 46.79679341212775], [-60.87989875617962, 46.79680495659068], [-60.87989437374267, 46.79681810458833], [-60.8798719919759, 46.796885455774884], [-60.87983132558927, 46.797020603041176], [-60.879837367250566, 46.797125639755485], [-60.8798422117822, 46.79720978452621], [-60.879827599254, 46.7972815094299], [-60.87985407397123, 46.79730809851132], [-60.87987043668635, 46.79731956108162], [-60.87993186904607, 46.79736262803183], [-60.879995101191085, 46.79738890830341], [-60.879997628594985, 46.797389954078994], [-60.880007422723736, 46.797391827471905], [-60.88004965537816, 46.797399917634735], [-60.88008932915507, 46.79739075339194], [-60.88012875341093, 46.79735458612203], [-60.88014758925629, 46.7973371252067], [-60.880195392272995, 46.79729282466287], [-60.880220367468056, 46.79727486552902], [-60.88022101475402, 46.797274400551], [-60.88022853294185, 46.79727282995702], [-60.88026065308, 46.79726613553829], [-60.880281738964115, 46.79727312283547], [-60.88028653820948, 46.79727471466828], [-60.88031306842697, 46.79726620676438], [-60.880333881396176, 46.797241780868276], [-60.88036664730818, 46.79720330328059], [-60.880386477364546, 46.797198558989045], [-60.88040501139052, 46.797194114662744], [-60.88041904950095, 46.7972033742145], [-60.880470985692995, 46.79724933375385], [-60.880586231550915, 46.79738466088608], [-60.88062544848978, 46.79742048530931]]}, "properties": {"OBJECTID": 4946, "FEAT_CODE": "WACO20", "FEAT_DESC": "Coast - Water to the right line", "RIVNAME_1": " ", "RIVNAME_2": " ", "ZVALUE": 0.4, "FID": null, "SHAPE_Length": 233.27079881076483}}, {"type": "Feature", "id": 4947, "geometry": {"type": "LineString", "coordinates": [[-60.88062544848978, 46.79742048530931], [-60.880638780300146, 46.79742537600896], [-60.88065128533379, 46.797429963408], [-60.880834355662515, 46.797439654300376], [-60.88086345531216, 46.797439797350606], [-60.880899879334436, 46.79743996806966], [-60.88096609665244, 46.79742228672419], [-60.88101683775637, 46.797387579689946], [-60.881018615040965, 46.79738637068293], [-60.88102354885302, 46.79737986546052], [-60.881072511091546, 46.79731537322886], [-60.881139037288534, 46.79718971294695], [-60.88122783971993, 46.79709211153764], [-60.88128558080087, 46.79702863674736], [-60.88134432246942, 46.796935338237056], [-60.88143232930885, 46.7967955684459], [-60.881472914442256, 46.7966964259641], [-60.88149905977391, 46.796597916020346], [-60.881539188676875, 46.796543762383735], [-60.881579179708744, 46.79652649498237], [-60.881631947077494, 46.79651758165927], [-60.8816979254645, 46.79647290607393], [-60.881763274166616, 46.79641021986357], [-60.881790612508496, 46.7963477297958], [-60.88179066009848, 46.796331162663606], [-60.88179074138682, 46.79631173432571], [-60.88180775443359, 46.795978169199486], [-60.88179694799117, 46.795852876557625], [-60.88179806473983, 46.79569090686748], [-60.88176176554925, 46.79544724921499], [-60.881744084623826, 46.79539860371181], [-60.881735746499686, 46.79537567167819], [-60.88172730481282, 46.79535771443068], [-60.88168495062311, 46.79526763750114], [-60.88166518323081, 46.79524911055987], [-60.88164576978871, 46.79523091414981], [-60.881567873484435, 46.79521237276409]]}, "properties": {"OBJECTID": 4947, "FEAT_CODE": "WACO20", "FEAT_DESC": "Coast - Water to the right line", "RIVNAME_1": " ", "RIVNAME_2": " ", "ZVALUE": 0.4, "FID": null, "SHAPE_Length": 297.8782549624132}}, {"type": "Feature", "id": 11127, "geometry": {"type": "LineString", "coordinates": [[-60.881567873484435, 46.79521237276409], [-60.88154235528321, 46.79519480124879], [-60.88151957323191, 46.79516294424597], [-60.88151626910189, 46.79515832033189], [-60.8815105910439, 46.79514674086812], [-60.88150291127996, 46.79513107457715], [-60.881453644388074, 46.79495107287708], [-60.881430467899676, 46.79492325831046], [-60.881401084007884, 46.79488800322031], [-60.88135835068477, 46.79484598528975], [-60.88133673877006, 46.794824715291604], [-60.881298264697854, 46.79477000597352], [-60.88130805217684, 46.79473766316227], [-60.881311815176126, 46.79472525959088], [-60.881363977912414, 46.79469832726288], [-60.88140361417056, 46.79469006181676], [-60.881469121423706, 46.794690374963], [-60.88153427561445, 46.79469968100022], [-60.88158668848994, 46.794699751601925], [-60.88160039154685, 46.794684490262426], [-60.88162642782763, 46.794655481122305], [-60.881693449551435, 46.79458383545112], [-60.88176022108704, 46.794485177708616], [-60.881813852911456, 46.794287282508385], [-60.881827097903084, 46.79425464368889], [-60.881828359247514, 46.79425155322719], [-60.88183011303105, 46.79423224584416], [-60.88184221694292, 46.7940988188632], [-60.881843275959696, 46.79407184006945], [-60.88189613780652, 46.794023735696115], [-60.88196150229683, 46.79396423545973], [-60.88202541309368, 46.79390037052981], [-60.88204196986255, 46.79388383904623], [-60.88205551983196, 46.79383908356233], [-60.88205005046828, 46.793819516459536], [-60.88204288107087, 46.79379385224229], [-60.88197747739154, 46.79375754347004], [-60.88180799125499, 46.79370220860706], [-60.88178151726692, 46.79367561997541], [-60.88178292930853, 46.79363964824912], [-60.88195427249465, 46.79351412823014]]}, "properties": {"OBJECTID": 11127, "FEAT_CODE": "WACO20", "FEAT_DESC": "Coast - Water to the right line", "RIVNAME_1": " ", "RIVNAME_2": " ", "ZVALUE": 0.4, "FID": null, "SHAPE_Length": 238.88158009308876}}, {"type": "Feature", "id": 11128, "geometry": {"type": "LineString", "coordinates": [[-60.88195427249465, 46.79351412823014], [-60.882072699495005, 46.79343442556515], [-60.88217859472596, 46.7934075876506], [-60.88241449669142, 46.793373247715934], [-60.882532779598456, 46.79336464670346], [-60.882551673960975, 46.79336467243522], [-60.88263758969687, 46.79336478668306], [-60.88276993338036, 46.79337988027532], [-60.88280719071029, 46.79338412457443], [-60.882838569388745, 46.793384237307755], [-60.88299060100086, 46.793384809872535], [-60.88301507093636, 46.79339335320525], [-60.883042306676906, 46.79340287465763], [-60.88305469152672, 46.79342019382086], [-60.88306839309455, 46.79343935523997], [-60.88306717500872, 46.79352919238323], [-60.88306631072803, 46.79359230765416], [-60.88310553976801, 46.79362813147343], [-60.88317186095518, 46.793666787438596], [-60.88318368510015, 46.79367368382848], [-60.883261580147355, 46.79369221509828], [-60.883305521603695, 46.79369242515342], [-60.883327086236775, 46.79369252716084], [-60.88340343450942, 46.79366163164046], [-60.88345890539367, 46.79363916930044], [-60.883491313876476, 46.793632407314604], [-60.883498540572255, 46.79363090310897], [-60.88355757702503, 46.793631122346625], [-60.88368196449032, 46.79363159654749], [-60.88374721914978, 46.793604905317075], [-60.88377734036654, 46.79356424494444], [-60.883787330398874, 46.793550750549755], [-60.8838008915758, 46.79350600406678], [-60.88382813782267, 46.7934795096579], [-60.88388065077485, 46.79344358319255], [-60.88395864656588, 46.793426126982176], [-60.88401347554528, 46.7934327207795], [-60.884038203585924, 46.793435688996965], [-60.884120615463864, 46.79345498718371], [-60.884155062885846, 46.793463057844114], [-60.88423436803403, 46.79344562566197], [-60.884330842507445, 46.793395680885446], [-60.88440556888607, 46.793356997161744]]}, "properties": {"OBJECTID": 11128, "FEAT_CODE": "WACO20", "FEAT_DESC": "Coast - Water to the right line", "RIVNAME_1": " ", "RIVNAME_2": " ", "ZVALUE": 0.4, "FID": null, "SHAPE_Length": 234.2668954118236}}, {"type": "Feature", "id": 11129, "geometry": {"type": "LineString", "coordinates": [[-60.88440556888607, 46.793356997161744], [-60.88455016297664, 46.79331197380491], [-60.88478616344278, 46.79324164193149], [-60.88479991652178, 46.793235434596696], [-60.88490487330217, 46.79318803102467], [-60.88495860513188, 46.793161099068335], [-60.88501047912267, 46.79313509568346], [-60.88510297800115, 46.7930819080453], [-60.88515584216941, 46.79303698801999], [-60.88515835720109, 46.79303433467259], [-60.88518181300709, 46.79300957876405], [-60.88523927679774, 46.792920511344775], [-60.88526272779248, 46.79288417301575], [-60.885316109262696, 46.79275916811606], [-60.8853232634409, 46.79274379427505], [-60.88532897319312, 46.79273150754995], [-60.88542158429408, 46.79264232475608], [-60.885461353843304, 46.79259716255056], [-60.88546921400731, 46.792577814984874], [-60.88547585728666, 46.79256143275002], [-60.88546812885565, 46.79255166947242], [-60.88546212351856, 46.79254407991616], [-60.885429798979786, 46.792535346927735], [-60.885358394618706, 46.79251605515789], [-60.885305378876694, 46.79249798520063], [-60.88524485288064, 46.79245555882149], [-60.885227585440674, 46.792443450324384], [-60.885224617522084, 46.792439939665485], [-60.88518875656476, 46.792397735210386], [-60.885125884545616, 46.79226338082717], [-60.88513850945835, 46.79220871745647], [-60.885175619448326, 46.792176582410264], [-60.88517921371472, 46.792173472040865]]}, "properties": {"OBJECTID": 11129, "FEAT_CODE": "WACO20", "FEAT_DESC": "Coast - Water to the right line", "RIVNAME_1": " ", "RIVNAME_2": " ", "ZVALUE": 0.4, "FID": null, "SHAPE_Length": 183.4077585809998}}, {"type": "Feature", "id": 11130, "geometry": {"type": "LineString", "coordinates": [[-60.88517921371472, 46.792173472040865], [-60.88518570323048, 46.79217104515505], [-60.88520446652494, 46.7921640394414], [-60.88529338177993, 46.79216446812967], [-60.88533547509523, 46.79216466124357], [-60.885337394136805, 46.792164174746794], [-60.88540163582887, 46.79214788523194], [-60.885413593836795, 46.79213431007634], [-60.88544140466339, 46.792102732016964], [-60.8854695678385, 46.7919862504768], [-60.88549624308894, 46.79194084622941], [-60.88550569530673, 46.79193437032742], [-60.88552182595919, 46.7919233201385], [-60.88555728304908, 46.79190259274244], [-60.88561435742885, 46.79186923363776], [-60.88568027845231, 46.79182545462831], [-60.88577361415751, 46.791717386048525], [-60.88581369979068, 46.79166413003551], [-60.88583896534704, 46.79165469753144], [-60.885847473077476, 46.79165292886815], [-60.88587859872121, 46.79164643048279], [-60.88596824598214, 46.791646548194336], [-60.88598341869054, 46.79164656758418], [-60.88611452573096, 46.791611192440016], [-60.88615301560644, 46.791618401252684], [-60.88616785757302, 46.7916211773438], [-60.886194080167726, 46.791620761913656], [-60.8862499689137, 46.791654453626506], [-60.88628496714475, 46.7916755380585], [-60.88633737716417, 46.79167560643547], [-60.88637644077685, 46.79164842980312], [-60.886402727657554, 46.79161291758434], [-60.88640343208836, 46.79159493166104], [-60.88640815073758, 46.79154905855082], [-60.886418233062265, 46.79145121360628], [-60.88641938147175, 46.791449659916054], [-60.88644451981524, 46.79141570137473], [-60.88646266144377, 46.79141150980281], [-60.886484188147016, 46.79140653481529], [-60.88650176291312, 46.79140644552211], [-60.88652350427291, 46.79140636120455], [-60.88657577944286, 46.79144332480467], [-60.88665427721071, 46.79147987284504], [-60.88674565107089, 46.79148876032715], [-60.88677088117301, 46.79148022690936], [-60.886799545586314, 46.791480360415754], [-60.886836384667156, 46.79148053691873], [-60.886909961954295, 46.79153165402951], [-60.88692822932255, 46.79154432971076], [-60.886954352755545, 46.791579910149665], [-60.88697983588028, 46.79159837976533], [-60.88700182126913, 46.79156830463473], [-60.88703244362964, 46.79152646472569], [-60.887054567322814, 46.791453365678734], [-60.88705953363473, 46.79143696137721], [-60.88706005563384, 46.791415597279624], [-60.88706174530374, 46.791347007536096], [-60.88708506257047, 46.79129562824598], [-60.887114804143145, 46.79123009444296], [-60.88714537614999, 46.791166105878446], [-60.88720901551376, 46.791032955115675], [-60.887258039776796, 46.79079282769835], [-60.887264117978134, 46.79076307970803], [-60.88727776129912, 46.79068233643916], [-60.887318936019035, 46.7906012016508], [-60.88732704926013, 46.79059042612255], [-60.88735901927833, 46.790547945048054], [-60.887380547762056, 46.790539901105625], [-60.88738428404693, 46.790538512187986], [-60.887389240097306, 46.7905421135025], [-60.887397025442624, 46.79054774694737], [-60.887436933140116, 46.79056558288788], [-60.887445902023785, 46.79058583532489], [-60.887448983587504, 46.790592803822044], [-60.88747577577594, 46.790611297503744], [-60.887514739312834, 46.79062011651225], [-60.88755400657993, 46.79062084159307], [-60.887598895086285, 46.79060248358545], [-60.887619268801004, 46.790594148291575], [-60.88765893633848, 46.79058498131039], [-60.887698216677116, 46.79058570658305], [-60.887749823134556, 46.79063975629632], [-60.8878057834779, 46.79067898324934], [-60.88782761664175, 46.790694289472384], [-60.88786693226023, 46.79069411539128], [-60.887895216685195, 46.79068821196375], [-60.88790656463731, 46.79068584762205], [-60.887933842272844, 46.7906584618626], [-60.88794748491448, 46.7905777095027], [-60.88793484186087, 46.79053247874144], [-60.88793236395275, 46.79052883320692], [-60.88792243923017, 46.790514250826604], [-60.887727296969466, 46.79037835575782], [-60.88766293628951, 46.79031507106617], [-60.887585705921154, 46.790179552938575], [-60.887630041288276, 46.7901696262079], [-60.8876636958461, 46.790162094095855]]}, "properties": {"OBJECTID": 11130, "FEAT_CODE": "WACO20", "FEAT_DESC": "Coast - Water to the right line", "RIVNAME_1": " ", "RIVNAME_2": " ", "ZVALUE": 0.4, "FID": null, "SHAPE_Length": 453.87017727046145}}, {"type": "Feature", "id": 11133, "geometry": {"type": "LineString", "coordinates": [[-60.87070404738327, 46.804590616656924], [-60.87075647003778, 46.8045906833862], [-60.87077880570166, 46.80459626477164], [-60.87079540480882, 46.80460041646892], [-60.87082861843225, 46.80462293928465], [-60.870834975177345, 46.804627251335624], [-60.870848071887416, 46.80462749507481], [-60.87086317229839, 46.80462545424263], [-60.87091263586691, 46.80461880623205], [-60.87092860194403, 46.804624386042256], [-60.87093977126122, 46.804628301678385], [-60.870938706403074, 46.8046552802315], [-60.8709637734593, 46.80471784297382], [-60.87097782491853, 46.804727103922176], [-60.87100401838974, 46.804727591367154], [-60.871056563987224, 46.804691671419725], [-60.87109047941229, 46.804660552458515], [-60.87109598660214, 46.80465550724997], [-60.87110979317011, 46.80463776525535], [-60.8711359866002, 46.80463825266943], [-60.87113883558176, 46.80464244543369], [-60.87114837347975, 46.80465648207873], [-60.87116181568345, 46.80469346799248], [-60.87117438244361, 46.804728061757835], [-60.871173734314226, 46.8047584318625], [-60.871172853506664, 46.80480001096002], [-60.87119821341543, 46.80485449758643], [-60.87121629857145, 46.80487911463912], [-60.87122434522995, 46.8048900907123], [-60.87130296173994, 46.80489064458577], [-60.871328445514074, 46.80490911766345], [-60.87134203231892, 46.80496336720148], [-60.87135597269627, 46.80496980020668], [-60.871380648784104, 46.804981175672495], [-60.87140684238548, 46.8049816630273], [-60.871420329195956, 46.804972023556665], [-60.87142138601354, 46.8049698203538], [-60.87143318093805, 46.80494526430269], [-60.87145948432236, 46.80490975586371], [-60.87146054892962, 46.804882777302666], [-60.87142375925748, 46.80480605640865], [-60.871421797276064, 46.80480197014943], [-60.87143503968774, 46.8047653097619], [-60.87146194291946, 46.80474781139473], [-60.87150162314543, 46.804738659247306], [-60.87156654307998, 46.80472095020312], [-60.87161233132276, 46.80469717054348], [-60.8716334457737, 46.80468620604028], [-60.87167217143983, 46.804668027619485], [-60.87167666019093, 46.80465956164209], [-60.87168633265234, 46.80464129269689], [-60.87183776303664, 46.804296811677155], [-60.87202181913639, 46.803878079814304], [-60.87205807357726, 46.80387834018151], [-60.872100421102274, 46.803878632872035], [-60.8722058421796, 46.803897692596486], [-60.87222948762831, 46.80390860773952], [-60.872244457125205, 46.80391552774974], [-60.872257199305146, 46.80392475519185], [-60.87237374760547, 46.804060114704036], [-60.872381299113115, 46.80407633717123], [-60.87239912222089, 46.80411458334283], [-60.87245015264502, 46.804249624255434], [-60.87249077033615, 46.80430641021842], [-60.87251474374684, 46.804339920035986], [-60.87259312799024, 46.80441247335547], [-60.872800557533346, 46.80450362512875], [-60.872856005901674, 46.80452666876895], [-60.87286633535855, 46.804530946578176], [-60.87304896458387, 46.80458563895818], [-60.87306886897409, 46.804588069882485], [-60.873127225770546, 46.80459519342736], [-60.873173520523494, 46.80460175972596], [-60.87325886445022, 46.80461383963033], [-60.873363354635686, 46.80462298157487], [-60.87346647437059, 46.80464793699232], [-60.87348019708213, 46.804651251880806], [-60.87357291341395, 46.80466017478484], [-60.87365116136239, 46.8046697376482], [-60.873697125293056, 46.80465211604837], [-60.873742982647805, 46.80463453744665], [-60.873795500178545, 46.80459861572221], [-60.87392819829864, 46.804491297463144], [-60.873980715920595, 46.80445536665567], [-60.87401469361835, 46.80445088637617], [-60.874046589273675, 46.80444669137707], [-60.874151752683396, 46.80443874614595], [-60.874282544004565, 46.80441237814647], [-60.87436115956853, 46.80441293890002], [-60.87441393612964, 46.80440402007163], [-60.87444965437002, 46.80437998018617], [-60.87445297961297, 46.80437774710515], [-60.87446752917492, 46.80434111965383], [-60.87448235347865, 46.804197403779575], [-60.87447051061249, 46.804107801154274], [-60.874469238893205, 46.804098166107885], [-60.87447030196566, 46.80407118749028], [-60.87454264303395, 46.803955565559384], [-60.87457660405148, 46.80390127281271], [-60.87459051697026, 46.80384753454878], [-60.87456894993046, 46.80379284015446], [-60.874565494578846, 46.803784073485936], [-60.874514351496444, 46.80368502925243], [-60.87450100872879, 46.80365777399182], [-60.874513993061036, 46.80360764526431], [-60.87451492094264, 46.8036040537209], [-60.874516020793294, 46.80360175229477], [-60.87452777116611, 46.80357728508983], [-60.87454595969542, 46.80355273950612], [-60.87456791277393, 46.80352312516805], [-60.87456838695561, 46.803492130848475], [-60.87456872877556, 46.80346915258588], [-60.874516769563485, 46.80342408992826], [-60.87441684457998, 46.803377641106756], [-60.87432114097935, 46.80333316051801], [-60.87424309753121, 46.80325160624875], [-60.87415209570519, 46.80323282533633], [-60.87414033128066, 46.80322472320666], [-60.874126576273696, 46.803215252167014], [-60.87410760409406, 46.80317454605628], [-60.8741011999374, 46.80316079287461], [-60.87410164959358, 46.80311579494297]]}, "properties": {"OBJECTID": 11133, "FEAT_CODE": "WACO20", "FEAT_DESC": "Coast - Water to the right line", "RIVNAME_1": " ", "RIVNAME_2": " ", "ZVALUE": 0.4, "FID": null, "SHAPE_Length": 638.3015764222885}}, {"type": "Feature", "id": 161115, "geometry": {"type": "LineString", "coordinates": [[-60.87445406244162, 46.79533600784354], [-60.87450228840468, 46.79539248456271], [-60.874550515175834, 46.795448943276895], [-60.874574039723775, 46.79547648672633], [-60.87464696830849, 46.795561878633485], [-60.87468617994941, 46.79559770501721], [-60.87473809657393, 46.79564366682287], [-60.87477670728138, 46.79566148307631], [-60.874862627999825, 46.795691508483024], [-60.874907262361546, 46.795707105724794], [-60.875076747291295, 46.79576245078209], [-60.87516125068768, 46.795788543869016], [-60.87519456240556, 46.795798837000106], [-60.87521515200032, 46.795802423219385], [-60.8752466221139, 46.795807903414364], [-60.8753248710614, 46.79581745619109], [-60.875390121049946, 46.795839978724956], [-60.8754295918504, 46.795853598979036], [-60.87544544360636, 46.79586202887837], [-60.87548221753372, 46.79588157467706], [-60.87557288852798, 46.795908456953555], [-60.8756258684045, 46.79592743969535], [-60.87580802449843, 46.796027107343754], [-60.87587247080422, 46.7960544113938], [-60.87597743987772, 46.79611755668611], [-60.87602371094097, 46.79614452320436], [-60.87605558290862, 46.79616310486002], [-60.876106545764976, 46.79620004886308], [-60.876168922164624, 46.796211700242694], [-60.876250941356275, 46.79622702803738], [-60.87640790111011, 46.79620114339997]]}, "properties": {"OBJECTID": 161115, "FEAT_CODE": "WARV10", "FEAT_DESC": "Double Line River - Water to the left line", "RIVNAME_1": "Fishing Cove River", "RIVNAME_2": " ", "ZVALUE": 0.4, "FID": null, "SHAPE_Length": 187.2132490488669}}, {"type": "Feature", "id": 170247, "geometry": {"type": "LineString", "coordinates": [[-60.87445406244162, 46.79533600784354], [-60.874467169767584, 46.795342910976885], [-60.874505399988394, 46.795363060115896], [-60.874508125618426, 46.7953670525225], [-60.874517799093134, 46.79538128941496], [-60.87454458906442, 46.79539978607736], [-60.87464895428408, 46.7954449224475], [-60.87467408066351, 46.79547238764113], [-60.874722477141496, 46.79549925918438], [-60.87480485587778, 46.79554501290164], [-60.874830398182986, 46.795562586372256], [-60.87485547001792, 46.79558478582343], [-60.874882302159534, 46.79560853887806], [-60.8749349754736, 46.795635624767684], [-60.874983462055006, 46.79565256246082], [-60.87503837308835, 46.79567174333801], [-60.87513068478201, 46.79569055692172], [-60.875175863657226, 46.79570131345911], [-60.875208579406035, 46.79570910266489], [-60.87523276404752, 46.79570924585924], [-60.87535269065458, 46.79570997924368], [-60.875471967880415, 46.7957268724854], [-60.87548430826266, 46.79572863156234], [-60.87551003762727, 46.79573380708799], [-60.875666322896265, 46.79576530054556], [-60.87575791381036, 46.79580209917152], [-60.87584929286838, 46.79581099544264], [-60.87585721185497, 46.79581655115606], [-60.87588882411463, 46.795838727824375], [-60.87603095237596, 46.79595656879631], [-60.87609600091685, 46.79600186483568], [-60.87613176128544, 46.79601421003315], [-60.87620072260071, 46.7960380069309], [-60.8762661118939, 46.79607431873126], [-60.876265403975296, 46.79609230452252], [-60.87625271867019, 46.79610862805461], [-60.87625161446115, 46.796110047470975], [-60.876251862044015, 46.79613705046609], [-60.876277343520215, 46.796155522427604], [-60.87640790111011, 46.79620114339997]]}, "properties": {"OBJECTID": 170247, "FEAT_CODE": "WARV20", "FEAT_DESC": "Double Line River - Water to the right line", "RIVNAME_1": "Fishing Cove River", "RIVNAME_2": " ", "ZVALUE": 0.4, "FID": null, "SHAPE_Length": 188.5818333827403}}, {"type": "Feature", "id": 179139, "geometry": {"type": "LineString", "coordinates": [[-60.86305676244454, 46.79862897686606], [-60.86308298843999, 46.79862856679395], [-60.86311540352158, 46.798636668822645], [-60.86312191782508, 46.79863829341146], [-60.86315095653342, 46.79864329954372], [-60.86322733468891, 46.79865646143524], [-60.86339730044265, 46.79866683543418], [-60.863685537325374, 46.7986686184264], [-60.86382742299129, 46.79867493063551], [-60.863894846966794, 46.7986779264764], [-60.86397309777776, 46.79868748704997], [-60.86420844790838, 46.798734178541594], [-60.864404156783195, 46.7987891290264], [-60.864522489358066, 46.798803487194235], [-60.864561968485276, 46.798808273875025], [-60.86466961316688, 46.798811894014875], [-60.864862981208695, 46.798818391888524], [-60.86490945869568, 46.79881290567769], [-60.86500781187557, 46.79880129598464], [-60.86515168913268, 46.79877517363987], [-60.86519138876381, 46.79876180329409], [-60.865204816998684, 46.79875727515277], [-60.8653090165989, 46.79874032061971], [-60.865454202726845, 46.79871423131675], [-60.86567647944207, 46.79866078177684], [-60.86578270007374, 46.798625856584245], [-60.865913593941386, 46.79856351120462], [-60.86616490535353, 46.79843860659409], [-60.866230650971154, 46.79839722038047], [-60.86637590518429, 46.798305750051306], [-60.866493702831946, 46.79824315076197], [-60.86654683009986, 46.79822524264117], [-60.866914963252384, 46.79812861333539], [-60.867221303627666, 46.79805757729529], [-60.867256207089, 46.79804948050198], [-60.86742700450168, 46.79800496726825], [-60.86749497626193, 46.797982151727766], [-60.86771652879908, 46.79790776996571], [-60.86792673596282, 46.797827983644595], [-60.86809282549397, 46.797775894122054], [-60.868124445614875, 46.79776598098257], [-60.86836071651627, 46.797722686421146], [-60.868422412347755, 46.797710435759356], [-60.86845186682794, 46.79770458593574], [-60.8684872665241, 46.79769121532568], [-60.868544988490555, 46.79766942311889], [-60.86858512743184, 46.797646880324265], [-60.86862406079135, 46.79762499901455], [-60.86869748961573, 46.797533015528735], [-60.8687026192022, 46.79752656847909], [-60.868836229765094, 46.79732926935789], [-60.86894197072366, 46.79724034449186], [-60.86898432520296, 46.79719918693078], [-60.869034638873984, 46.797150276076344], [-60.86905231865641, 46.797135963259905], [-60.86910095720788, 46.79709661460657], [-60.869272904198, 46.79699002370369], [-60.869510164879024, 46.796855841581575], [-60.86960268471861, 46.796802676759505], [-60.86968246500717, 46.79674026617014], [-60.869774030405466, 46.796678074968995], [-60.86986659863447, 46.79662400188784], [-60.86995874997144, 46.79657982038448], [-60.8699687622644, 46.796576155028525], [-60.8701036840605, 46.796526713088866], [-60.87022302400508, 46.796494547873536], [-60.8702348124945, 46.796491365534195], [-60.8705100409732, 46.79645689130114], [-60.87075909277996, 46.796421929214134], [-60.87095609789257, 46.796377898483044], [-60.87112757435377, 46.79631629337484], [-60.8713381248347, 46.79622751670557], [-60.8713861987608, 46.796208063397216], [-60.8714699616489, 46.79617417298091], [-60.871566753738016, 46.79610863079417], [-60.871601907687065, 46.796084833264146], [-60.871667525817486, 46.796049156214366], [-60.87168638078274, 46.796036583751786], [-60.8717213586968, 46.79601325988188], [-60.87176073850326, 46.79597800359997], [-60.87188006640812, 46.7958434224842], [-60.87190575403122, 46.795811772220844], [-60.87195995189376, 46.795745014388295], [-60.87211854856869, 46.79561118146424], [-60.87212814257742, 46.795598841651014], [-60.87213235274075, 46.79559343028353], [-60.87220058669416, 46.79551831191268], [-60.87230358762075, 46.79540492641055], [-60.872449688606814, 46.795288850562805], [-60.87287241182794, 46.7950033285003]]}, "properties": {"OBJECTID": 179139, "FEAT_CODE": "WARV50", "FEAT_DESC": "River - Single Line", "RIVNAME_1": " ", "RIVNAME_2": " ", "ZVALUE": 9999, "FID": null, "SHAPE_Length": 912.4387246515944}}, {"type": "Feature", "id": 179140, "geometry": {"type": "LineString", "coordinates": [[-60.881495566806294, 46.78550510290916], [-60.88149553377328, 46.785514623746174], [-60.88149536157548, 46.78557709493987], [-60.881493847121064, 46.78564906272517], [-60.881532247911764, 46.78573886867633], [-60.88151642228861, 46.78600855996976], [-60.88146219572324, 46.78618843629428], [-60.881448191766005, 46.78627818073916], [-60.881402925636436, 46.7863966575374], [-60.88137956268779, 46.78645779930098], [-60.88137454167289, 46.78647723518177], [-60.88136566158781, 46.78651153872749], [-60.881353034400675, 46.786566201691954], [-60.8813521740524, 46.78661315403192], [-60.88135187267852, 46.78662917652001], [-60.881356632840784, 46.78664976548552], [-60.88136419169344, 46.7866825015786], [-60.88137069253066, 46.786692791379615], [-60.88141600309906, 46.78676445638013], [-60.88143721434019, 46.78680553582499], [-60.8814671439985, 46.78686349774655], [-60.88150495497447, 46.78693530281161], [-60.88151782947144, 46.78700752803925], [-60.88154285299817, 46.78707098776172], [-60.88154797018325, 46.78708315081922], [-60.881569221133674, 46.787133572429276], [-60.88158534614455, 46.78720476890188], [-60.88159378922041, 46.787242021088375], [-60.881605720336616, 46.78730523835641], [-60.88157872660099, 46.78735873536113], [-60.88156470651716, 46.787383458289554], [-60.881512567313465, 46.787475403376206], [-60.88149557623043, 46.787504049047065], [-60.88145924974854, 46.78756531973346], [-60.88144689258163, 46.78758172192785], [-60.88141916340885, 46.78761856524267], [-60.881385073097285, 46.7876645872064], [-60.881379040982345, 46.78767272801584], [-60.88137480718448, 46.78768111811594], [-60.88135204718038, 46.78772621596422], [-60.881325977222986, 46.78775683534795], [-60.88126001919835, 46.787834305222646], [-60.88120542722331, 46.78792328890878], [-60.88119498714121, 46.78800232693417], [-60.881192378880485, 46.78802204147545], [-60.881189143020194, 46.788237968956004], [-60.88118649685448, 46.78847191530068], [-60.88119950029265, 46.78850814503582], [-60.88119833827089, 46.788571119838686], [-60.88124892160821, 46.78875114621834], [-60.88128622961224, 46.788868830338075], [-60.88129763178807, 46.7888877784117], [-60.88135142176097, 46.788977122424114], [-60.881376127886945, 46.789048683910785], [-60.881467255493085, 46.7891304767052], [-60.88148073839557, 46.789144486582195], [-60.88149369257713, 46.78915794669814], [-60.88149621215455, 46.78916552501589], [-60.88150542169589, 46.78919326994744], [-60.88150502804952, 46.78926171265613], [-60.88150474749471, 46.78931025062242], [-60.881516236272475, 46.789418457056136], [-60.881567263943026, 46.789553494129066], [-60.881656217659604, 46.78982422644533], [-60.88170609760502, 46.79002223850357], [-60.881710888601695, 46.79003938121574], [-60.88171874840199, 46.7900674701121], [-60.881795963747074, 46.79020299195973], [-60.881820569123924, 46.79031053225939], [-60.88183355959132, 46.79034677966922], [-60.88185551922214, 46.79038519102428], [-60.88188505738436, 46.790436827921816], [-60.881884870691245, 46.79045560636345], [-60.881884601598635, 46.79048182584281], [-60.881882836472535, 46.790526799521444], [-60.881882664152805, 46.79058927966452], [-60.8818826322127, 46.79059877351599], [-60.88188604109439, 46.79060573022586], [-60.881895975738885, 46.790626027981865], [-60.88193562334616, 46.79067882397892], [-60.88199807017452, 46.790762001302994], [-60.88205547966609, 46.79084766818269], [-60.88208844211523, 46.79089686656448], [-60.88211382088427, 46.790951333224506], [-60.88215257909773, 46.79103214603043], [-60.88222935475995, 46.791212656775286], [-60.88226811332193, 46.79129346954451], [-60.882292875434985, 46.791329934803656], [-60.8823193270784, 46.791357404862765], [-60.88234711624324, 46.79138651957866], [-60.88237092842185, 46.791411465912894], [-60.88240968733004, 46.79149227863732], [-60.88244886606676, 46.79152900171351], [-60.88250214888094, 46.79160399959539], [-60.882538283858224, 46.79165484946728], [-60.88255797383666, 46.79167332084019], [-60.882577449704556, 46.79169157225946], [-60.882603452646556, 46.79171646009734], [-60.88268099408482, 46.79179068294982], [-60.88269032045994, 46.7918071266007], [-60.882706739420634, 46.79183616578252], [-60.88273211958034, 46.791890623321486], [-60.882770981278256, 46.79193543993921], [-60.882939589020616, 46.792079851892254], [-60.882963927174565, 46.792095079406025], [-60.883070041034316, 46.792161461216274], [-60.88314853737194, 46.79219801163652], [-60.88318561385301, 46.79221118894131], [-60.88322607718841, 46.79222554483486], [-60.88334420790863, 46.792253828994895], [-60.8833985742189, 46.792269180013655], [-60.88340900680974, 46.792272126868106], [-60.88344384735263, 46.79228919548894], [-60.88353885602616, 46.79233572556191], [-60.88354997577469, 46.79234587569159], [-60.88361728683946, 46.792407372374164], [-60.88365440385238, 46.79243322152773], [-60.88368233737065, 46.79245267315257], [-60.88374189463139, 46.79250072510852], [-60.883772517771106, 46.792525437156876], [-60.883850561249176, 46.79260697605606], [-60.88390217874908, 46.792661027698216], [-60.88394125782442, 46.79273375528136], [-60.88399284969824, 46.79278779740763], [-60.88400456209811, 46.79279587057717], [-60.88404515966235, 46.792823862854895], [-60.884075623595244, 46.79284161528673], [-60.88412330502131, 46.79286940557496], [-60.884161564379575, 46.79289621163319], [-60.884177974376584, 46.792919157790955], [-60.884187651329746, 46.79293269197164], [-60.88418694612785, 46.792950677865], [-60.88420030446182, 46.79297793232228], [-60.88421283114063, 46.79305915020434], [-60.88425098970921, 46.79312195223783], [-60.88440556888607, 46.793356997161744]]}, "properties": {"OBJECTID": 179140, "FEAT_CODE": "WARV50", "FEAT_DESC": "River - Single Line", "RIVNAME_1": " ", "RIVNAME_2": " ", "ZVALUE": 9999, "FID": null, "SHAPE_Length": 960.1501264519129}}, {"type": "Feature", "id": 179969, "geometry": {"type": "LineString", "coordinates": [[-60.88526984472877, 46.78641638498443], [-60.88526645930581, 46.78646400162955], [-60.88525518153125, 46.78662310188362], [-60.88523982658558, 46.786847804938965], [-60.885237964676826, 46.786928765802195], [-60.88525025236938, 46.78698298979973], [-60.88527602023194, 46.7870275635566], [-60.88534061343315, 46.78711785236242], [-60.88544508929054, 46.78722687726636], [-60.88549705576598, 46.78727193521531], [-60.88562641731433, 46.78738051996751], [-60.88570448265122, 46.78746205807851], [-60.885781286388024, 46.787507574920724], [-60.88585927457505, 46.787584737753114], [-60.88587211472237, 46.78759744831077], [-60.8859105886232, 46.78765215614675], [-60.88597518361, 46.78774244461455], [-60.88602020362112, 46.78781033161467], [-60.8860531241683, 46.78785997807148], [-60.886117367415025, 46.78795925942943], [-60.88618231495787, 46.78804056381457], [-60.886215673915494, 46.788084710644874], [-60.88629816137465, 46.78819389543231], [-60.88637549868475, 46.78829340956648], [-60.88642852561641, 46.78834556025929], [-60.88643984240761, 46.78835669469755], [-60.886531012299486, 46.78843757438415], [-60.8865320139526, 46.78843876282035], [-60.886569839594834, 46.788483289044144], [-60.88666912149485, 46.788636080274244], [-60.88671071836566, 46.78870007897835], [-60.88673570324692, 46.78874596084902], [-60.88674983449242, 46.78877188838128], [-60.88677441330909, 46.788880345073714], [-60.88683855955677, 46.78901563110234], [-60.88685483548536, 46.789060407132524], [-60.886864583345364, 46.78908718962731], [-60.886875208818374, 46.78909958917625], [-60.88694227432825, 46.78917772841926], [-60.88700422095021, 46.78925743797831], [-60.88701961383648, 46.7892772511373], [-60.887083255311836, 46.78935852186564], [-60.887106205028275, 46.7893797615059], [-60.88716162533242, 46.789431065101894], [-60.88729069565186, 46.789548642009585], [-60.88735599920025, 46.78962094380416], [-60.88735902989658, 46.78962519352521], [-60.887382086828566, 46.78965742344301], [-60.887384067345565, 46.789658710942994], [-60.88739486287164, 46.78966576789649], [-60.88740303511536, 46.7897053634912], [-60.887419078921674, 46.78978319920496], [-60.887432790546356, 46.78980145134931], [-60.887483339968725, 46.78988248008465], [-60.88748802234761, 46.78988570736352], [-60.88751013182494, 46.78990097375488], [-60.887522204280245, 46.78992729514361], [-60.8876636958461, 46.790162094095855]]}, "properties": {"OBJECTID": 179969, "FEAT_CODE": "WARV50", "FEAT_DESC": "River - Single Line", "RIVNAME_1": " ", "RIVNAME_2": " ", "ZVALUE": 9999, "FID": null, "SHAPE_Length": 465.9436590763156}}, {"type": "Feature", "id": 179970, "geometry": {"type": "LineString", "coordinates": [[-60.882808302950444, 46.788679221749895], [-60.88292541582902, 46.78873358601294], [-60.88302750327872, 46.788771509058556], [-60.883121712798236, 46.78880651440188], [-60.883213860134205, 46.788833300988586], [-60.88334323968992, 46.78887090978531], [-60.8835188732912, 46.78892918200762], [-60.88356441446715, 46.78894429769702], [-60.88364329445386, 46.788970955481425], [-60.883721447089904, 46.78901649865016], [-60.883799322221066, 46.789035038211686], [-60.88382611237404, 46.789053532719876], [-60.88389257491861, 46.78911117980789], [-60.88393001988294, 46.78914364956839], [-60.883955500474855, 46.78916212882242], [-60.883991908620935, 46.789219039952215], [-60.88400735371815, 46.7892431742321], [-60.88404621465974, 46.78928799042209], [-60.884081982673976, 46.78933884203621], [-60.884084674740954, 46.78934269860439], [-60.88416156838068, 46.789487221380334], [-60.88420032906199, 46.78956802455172], [-60.88419846535888, 46.789648985334956], [-60.884198382718026, 46.78967682817389], [-60.88419826387903, 46.78972096838747], [-60.88418471718333, 46.789765715208354], [-60.884170213353734, 46.78980145385278], [-60.88410405643925, 46.78991812336285], [-60.884103974897954, 46.78994660518354], [-60.88410385446743, 46.78999011540291], [-60.88410279673115, 46.79001709425538], [-60.88408995503714, 46.79004385515895], [-60.88403925211516, 46.79010455475764], [-60.88402258934905, 46.79012450437494], [-60.884014817365795, 46.790135249984715], [-60.883996266420006, 46.79016091533659], [-60.88390392198576, 46.790277100352505], [-60.88389321026646, 46.790294982155174], [-60.883877281541345, 46.790321604937546], [-60.883808654888966, 46.79050122488617], [-60.88377917624633, 46.7905462619122], [-60.883755690944874, 46.790582140342075], [-60.883748162871726, 46.79059702120247], [-60.88372869757121, 46.79063563783356], [-60.8837134726329, 46.79070211426971], [-60.88370181898468, 46.79075303368622], [-60.88370082370998, 46.79081951236572], [-60.88370020545731, 46.79086100648851], [-60.88372440821077, 46.79093414293366], [-60.88373886510329, 46.79097780581268], [-60.88374493103264, 46.79100455645606], [-60.88375113897132, 46.79103202968358], [-60.883802402275826, 46.79109507430563], [-60.883835568508964, 46.791141459113355], [-60.88391916957358, 46.791258324715415], [-60.88400882884011, 46.79141117419416], [-60.88401586328536, 46.791426261422735], [-60.8840342097864, 46.79146564045916], [-60.88406808263801, 46.79150103191378], [-60.884112252541286, 46.791547170182355], [-60.884137416970425, 46.79157374306181], [-60.884163150707074, 46.79161921635158], [-60.884165206748115, 46.7916215852401], [-60.884202000329125, 46.79166403225914], [-60.88422749562287, 46.79168250271516], [-60.88434591231895, 46.791736898593484], [-60.88440526540857, 46.791767091486484], [-60.88443584108711, 46.791782650022135], [-60.884448934796374, 46.791782892154615], [-60.88451469037279, 46.7918102065631], [-60.88460589271627, 46.79184453408259], [-60.884658021336676, 46.79186415387237], [-60.8847095633296, 46.791877346170054], [-60.88480202231473, 46.791901014397666], [-60.884866468843995, 46.791928304399455], [-60.88487350690968, 46.791932943256896], [-60.88488051949404, 46.791937563643835], [-60.884905649588354, 46.79196502666401], [-60.884931872349966, 46.79196461152616], [-60.885011004800496, 46.792031428640996], [-60.88517921371472, 46.792173472040865]]}, "properties": {"OBJECTID": 179970, "FEAT_CODE": "WARV50", "FEAT_DESC": "River - Single Line", "RIVNAME_1": " ", "RIVNAME_2": " ", "ZVALUE": 9999, "FID": null, "SHAPE_Length": 498.47683545909666}}, {"type": "Feature", "id": 179971, "geometry": {"type": "LineString", "coordinates": [[-60.87964271354087, 46.78834700922428], [-60.87973394157448, 46.788392797476874], [-60.87975910275015, 46.78841936228093], [-60.87976802942405, 46.78844427627998], [-60.87977209141346, 46.78845560990595], [-60.879806086367516, 46.78850311820673], [-60.87981059532111, 46.788509411409045], [-60.8798111980582, 46.78852742153042], [-60.879823833859675, 46.78857265308516], [-60.879807603646434, 46.788752332797905], [-60.87980701928419, 46.788810233590134], [-60.87980668908791, 46.788842319598565], [-60.87981380662442, 46.788857588624296], [-60.87983206464184, 46.788896786729595], [-60.87984424345884, 46.78898700718429], [-60.87984420876329, 46.78899756292522], [-60.879844035850525, 46.78905899913472], [-60.879867722392326, 46.789256526598706], [-60.87988060787727, 46.789328761191946], [-60.87986579029805, 46.78947247817484], [-60.87986443214488, 46.78960744511545], [-60.87986360868488, 46.78966142669816], [-60.87984864529367, 46.78974214465359], [-60.87986643067917, 46.78981672891835], [-60.87987453332863, 46.78985061810619], [-60.87987244240195, 46.790003570405965], [-60.87987525063389, 46.790018471580105], [-60.87988437199353, 46.79006678780196], [-60.87993610230885, 46.79018384867206], [-60.87993509375336, 46.7902635563137], [-60.87993484838085, 46.79028281063874], [-60.87994748464641, 46.790328042175275], [-60.87998563637975, 46.790390845546796], [-60.880037484361274, 46.79047190165447], [-60.880062154342475, 46.790544354589144], [-60.880075497282476, 46.79057160025943], [-60.8800618432474, 46.79065234249455], [-60.88006103302602, 46.79070632431506], [-60.88006967345949, 46.790724861350185], [-60.88008642274335, 46.79076079163426], [-60.88015029182257, 46.790869068856956], [-60.88017462444268, 46.7909454482803], [-60.88017595354605, 46.79094963966365], [-60.88017861144531, 46.79096370109141], [-60.88018788366502, 46.79101285702746], [-60.88017398005223, 46.79106659623043], [-60.88014758574597, 46.791138102924506], [-60.8801446648266, 46.79114307950489], [-60.88012090645823, 46.79118350586324], [-60.88005423997412, 46.79124616675543], [-60.879988176129025, 46.791326837719254], [-60.87998707598314, 46.79132782527299], [-60.87994879165422, 46.79136210575449], [-60.879907958618794, 46.79143424476439], [-60.87986811685921, 46.79151450165398], [-60.87985442689643, 46.79159614313525], [-60.87983237585032, 46.7917188382397], [-60.87981250667656, 46.79182935249253], [-60.87981144672792, 46.79185633126146], [-60.8797968642181, 46.79190065338409], [-60.87978466286741, 46.791937730063374], [-60.87978412394715, 46.79201781536509], [-60.87979581748313, 46.79205402996365], [-60.87983514034418, 46.7921537529002], [-60.87983549896958, 46.7921559644167], [-60.879846752296295, 46.792225063915254], [-60.87988486984498, 46.792288766613225], [-60.87992362558492, 46.79236958011779], [-60.879936955779954, 46.79239682555971], [-60.87997483715062, 46.79243352543868], [-60.88009254482669, 46.792505902524034], [-60.88010275106198, 46.79251294024479], [-60.880144852208176, 46.79254196071661], [-60.8801703330389, 46.79256044080866], [-60.880247845855045, 46.79272206762528], [-60.88027262101004, 46.79275851555842], [-60.880311834127575, 46.79279434905072], [-60.880338271638124, 46.79282183729988], [-60.88037806741945, 46.7928635222202], [-60.880389886115616, 46.792875881477975], [-60.88050613368186, 46.792985137899734], [-60.880535750744734, 46.793031430902445], [-60.880557984811254, 46.79306619379069], [-60.88058314849845, 46.7930927584355], [-60.88067463507552, 46.79316554908164], [-60.8807116205412, 46.79319105477294], [-60.880726943126355, 46.7932016160139], [-60.880791742215514, 46.79321991537114], [-60.88081185181177, 46.79322469762227], [-60.8808696353817, 46.79323845724001], [-60.880932777406414, 46.793275264727626], [-60.880947778573166, 46.79328400209244], [-60.88098566459781, 46.793301595843275], [-60.881064873157015, 46.79333836786741], [-60.881081643780824, 46.7933424222665], [-60.881105124712334, 46.79334811285834], [-60.88112516376739, 46.79336704091186], [-60.881143030106884, 46.79338390384039], [-60.88119818912392, 46.79338975814578], [-60.88123566677044, 46.793393728054234], [-60.881274644301264, 46.793402549443115], [-60.88139252629321, 46.79340383260071], [-60.88147792158417, 46.79340886079109], [-60.88154940773965, 46.793413046390434], [-60.881601819718554, 46.79341310797182], [-60.881630679550824, 46.79341863707218], [-60.8816538430137, 46.793423070746464], [-60.881715184832835, 46.793441665540136], [-60.88195427249465, 46.79351412823014]]}, "properties": {"OBJECTID": 179971, "FEAT_CODE": "WARV50", "FEAT_DESC": "River - Single Line", "RIVNAME_1": " ", "RIVNAME_2": " ", "ZVALUE": 9999, "FID": null, "SHAPE_Length": 680.6240251124345}}, {"type": "Feature", "id": 179972, "geometry": {"type": "LineString", "coordinates": [[-60.873381609784964, 46.79854148588168], [-60.87337725243982, 46.798549963374306], [-60.87336741531044, 46.79856912936125], [-60.873367763587524, 46.79860384676811], [-60.873367942972195, 46.79862223600761], [-60.87335257736915, 46.79871283596353], [-60.873338511521276, 46.79876580632115], [-60.87332641606594, 46.79881134374985], [-60.87329979546167, 46.79894643480973], [-60.873283825014724, 46.799027439080106], [-60.87325649146424, 46.7991889212978], [-60.873215461754384, 46.79933214996604], [-60.87313325764162, 46.79965550235749], [-60.87310433632002, 46.79977812232643], [-60.873090760167194, 46.79983561048081], [-60.87307628865864, 46.799970324372204], [-60.87306952589707, 46.80000889633059], [-60.87306298894564, 46.80004207280925], [-60.87305685688297, 46.80010154424365], [-60.87304810074802, 46.800186687353886], [-60.87304087138479, 46.800210500516464], [-60.873034541919345, 46.80023143258242], [-60.87299257143864, 46.8003532789383], [-60.87296646608112, 46.80042905502092], [-60.872925542902664, 46.800536296696], [-60.87291116636007, 46.80063501447364], [-60.87287091696313, 46.80072516067795], [-60.87286056651066, 46.800821478452455], [-60.87285643114002, 46.800859883258376], [-60.872852023177344, 46.80087927613378], [-60.87284216278571, 46.800922614189936], [-60.87280226764022, 46.80100376749267], [-60.872735116809274, 46.801111412365984], [-60.87272415985107, 46.80112971151988], [-60.87270846157945, 46.80115591403144], [-60.87270432740485, 46.80117168520871], [-60.87266834824924, 46.80130905891331], [-60.87263821509375, 46.801361658400424], [-60.87262753303848, 46.80138029563644], [-60.872599873996265, 46.80143595593899], [-60.872560627033074, 46.80151494333652], [-60.87245464282369, 46.80167676260167], [-60.87231998305635, 46.80190104468383], [-60.87228315129181, 46.80196828760741], [-60.87226631634873, 46.801999040641405], [-60.872224209077125, 46.80226914124149], [-60.872214870627396, 46.80228792941887], [-60.872184347059736, 46.80234940398585], [-60.87216985930186, 46.80248411741536], [-60.87215298871872, 46.80274568789132], [-60.872139494117654, 46.80280039659477], [-60.872126468288855, 46.802853188131], [-60.87211067022045, 46.80298788617161], [-60.872094659601316, 46.803010024028], [-60.87208433276688, 46.80302429407997], [-60.87193538202848, 46.803117358744785], [-60.871913681168145, 46.80313091324033], [-60.87183424848206, 46.80318433234929], [-60.871780653605136, 46.8032472315136], [-60.87176188139935, 46.80327856939342], [-60.871753996478546, 46.80329173291082], [-60.87172765863154, 46.80332814072885], [-60.87172729593656, 46.80337952088753], [-60.87172708430871, 46.80340913416715], [-60.871716111652646, 46.80345737412459], [-60.87169854374647, 46.80353458663508], [-60.87168015810823, 46.80357871092198], [-60.87167248605916, 46.80359710707845], [-60.871632683959476, 46.803642254848754], [-60.871500132189, 46.80371358435373], [-60.87147183141402, 46.80373761733452], [-60.87144724609496, 46.80375849763023], [-60.871414127254155, 46.80380631651539], [-60.871366637564115, 46.80387489073823], [-60.871360063410556, 46.80389269533771], [-60.87135343154316, 46.80391063385482], [-60.87132546703836, 46.80392946236986], [-60.87131438657797, 46.803936914738905], [-60.871221820049385, 46.80399098898835], [-60.87116921017996, 46.80401294965939], [-60.87111654717209, 46.804034927316316], [-60.87106366044037, 46.80407984040267], [-60.87102362534724, 46.80409799425118], [-60.87093062866656, 46.80419615760075], [-60.87089122868821, 46.80423142219106], [-60.87088291579654, 46.80425442308877], [-60.87087798640778, 46.80426807352205], [-60.87083068477326, 46.80435443394681], [-60.8708243145983, 46.80436606868337], [-60.87070404738327, 46.804590616656924]]}, "properties": {"OBJECTID": 179972, "FEAT_CODE": "WARV50", "FEAT_DESC": "River - Single Line", "RIVNAME_1": " ", "RIVNAME_2": " ", "ZVALUE": 9999, "FID": null, "SHAPE_Length": 723.0058702753332}}, {"type": "Feature", "id": 262251, "geometry": {"type": "LineString", "coordinates": [[-60.87287241182794, 46.7950033285003], [-60.8728978915988, 46.79502180119028], [-60.87290968798727, 46.795025719303375], [-60.872923774434895, 46.795030381952714], [-60.87293516569856, 46.79503826129655], [-60.87295055022768, 46.795048887727106], [-60.87304117031711, 46.7950766620219], [-60.873277024624564, 46.79507744696719], [-60.873330268973916, 46.79507272209502], [-60.87336907539715, 46.795069258721846], [-60.87344771484712, 46.795069532594944], [-60.87348700909309, 46.795069651038666], [-60.87363075105014, 46.79507952239656], [-60.873695904200915, 46.79508883288359], [-60.87370899862104, 46.79508907625778], [-60.87390505898565, 46.79513501757802], [-60.873983907479655, 46.79516258135544], [-60.8740751773083, 46.7952074748924], [-60.87416676615891, 46.79524427476246], [-60.8742188251463, 46.79525334163372], [-60.874274585812316, 46.79529218450706], [-60.874283857853655, 46.795298647419536], [-60.87432244582992, 46.79531736335266], [-60.874422266351324, 46.79533149331518], [-60.87445406244162, 46.79533600784354]]}, "properties": {"OBJECTID": 262251, "FEAT_CODE": "WARV50", "FEAT_DESC": "River - Single Line", "RIVNAME_1": "Fishing Cove River", "RIVNAME_2": " ", "ZVALUE": 0.4, "FID": null, "SHAPE_Length": 130.97809603171783}}, {"type": "Feature", "id": 262252, "geometry": {"type": "LineString", "coordinates": [[-60.87282138828069, 46.7948682876983], [-60.872832955945, 46.79494049853871], [-60.87287241182794, 46.7950033285003]]}, "properties": {"OBJECTID": 262252, "FEAT_CODE": "WARV50", "FEAT_DESC": "River - Single Line", "RIVNAME_1": "Fishing Cove River", "RIVNAME_2": " ", "ZVALUE": 0.4, "FID": null, "SHAPE_Length": 15.68118964157711}}, {"type": "Feature", "id": 262253, "geometry": {"type": "LineString", "coordinates": [[-60.87200218449346, 46.794341882743126], [-60.87209188814281, 46.79445964445167], [-60.87212339349849, 46.794470516848115], [-60.87219660405874, 46.794495790128664], [-60.87223113412451, 46.79451702314583], [-60.87231430542408, 46.79456817509648], [-60.872378342320545, 46.79461308547826], [-60.87239208848991, 46.79462271857215], [-60.8724822568783, 46.79469549126138], [-60.87249135662565, 46.794701663133374], [-60.872521821012356, 46.7947223254824], [-60.872564031986116, 46.7947398584615], [-60.872587574196714, 46.79474963770116], [-60.872656240934226, 46.794784482619306], [-60.87282138828069, 46.7948682876983]]}, "properties": {"OBJECTID": 262253, "FEAT_CODE": "WARV50", "FEAT_DESC": "River - Single Line", "RIVNAME_1": "Fishing Cove River", "RIVNAME_2": " ", "ZVALUE": 9999, "FID": null, "SHAPE_Length": 87.19494622255198}}, {"type": "Feature", "id": 262254, "geometry": {"type": "LineString", "coordinates": [[-60.87079100076855, 46.79368758420951], [-60.87080899029667, 46.79368729805902], [-60.87081722436354, 46.79368717232324], [-60.87089810725107, 46.79369363634741], [-60.87106671805825, 46.79370710558056], [-60.87111866368815, 46.793721652438805], [-60.871197619246736, 46.79374375746485], [-60.87140570269193, 46.79381691623656], [-60.871502606795495, 46.793856723984064], [-60.8715617160616, 46.79388101535729], [-60.87180926723667, 46.79401701302451], [-60.87184524747378, 46.79405462517629], [-60.871887294428845, 46.794098559804574], [-60.871916827518916, 46.79413983178065], [-60.87192579385798, 46.79415237284208], [-60.87197610523145, 46.79430539975823], [-60.87197672554099, 46.794306284245394], [-60.87200218449346, 46.794341882743126]]}, "properties": {"OBJECTID": 262254, "FEAT_CODE": "WARV50", "FEAT_DESC": "River - Single Line", "RIVNAME_1": "Fishing Cove River", "RIVNAME_2": " ", "ZVALUE": 9999, "FID": null, "SHAPE_Length": 127.3636314217949}}, {"type": "Feature", "id": 263181, "geometry": {"type": "LineString", "coordinates": [[-60.867735138268436, 46.79296020800762], [-60.867760295851205, 46.79298676637622], [-60.86803426407433, 46.79315027204901], [-60.868073898677196, 46.7931778920905], [-60.86822936534245, 46.79328620000171], [-60.86834571374025, 46.7933594638225], [-60.86860670341169, 46.79348671938541], [-60.86868202734447, 46.79351348321599], [-60.868684224198056, 46.79351426210031], [-60.868749973911626, 46.79354157647433], [-60.868827862758394, 46.79356013547499], [-60.86890332260307, 46.793560569234394], [-60.869037473445346, 46.79356134023935], [-60.86941705777708, 46.79357200990736], [-60.86950124605075, 46.793575395663325], [-60.86966694049225, 46.79358206304763], [-60.86973638284997, 46.793590537724164], [-60.86982343010027, 46.793601167057524], [-60.869979564140365, 46.7936292817036], [-60.870150847897484, 46.79363876129281], [-60.870451810621155, 46.79364977267276], [-60.870484991127306, 46.79364540460245], [-60.87051765812167, 46.79364109895977], [-60.87055662121077, 46.79364991473819], [-60.870647026771984, 46.79366443972914], [-60.87079100076855, 46.79368758420951]]}, "properties": {"OBJECTID": 263181, "FEAT_CODE": "WARV50", "FEAT_DESC": "River - Single Line", "RIVNAME_1": "Fishing Cove River", "RIVNAME_2": " ", "ZVALUE": 9999, "FID": null, "SHAPE_Length": 259.08359753991317}}, {"type": "Feature", "id": 263182, "geometry": {"type": "LineString", "coordinates": [[-60.86540746412159, 46.79264141625343], [-60.86543297576327, 46.792658991269136], [-60.86547153216546, 46.79267771861875], [-60.8655124774132, 46.792689056959716], [-60.86553764798161, 46.79269604220564], [-60.865563159691916, 46.79271361719328], [-60.865655094009526, 46.792741430889784], [-60.865661257357964, 46.79274296779381], [-60.86569401967799, 46.792751156578845], [-60.86574859258013, 46.79276580889665], [-60.86575884840171, 46.79276856507692], [-60.86582431735233, 46.792769786427186], [-60.86590390496236, 46.79277847069606], [-60.86619080131609, 46.792780222433834], [-60.8662497463909, 46.79277576918163], [-60.86629594282831, 46.79277228405449], [-60.86637488363118, 46.79276385693016], [-60.8664516464556, 46.792763785642556], [-60.86646662439592, 46.79276376799208], [-60.8664931675315, 46.792755263530914], [-60.86655807374179, 46.79273757506986], [-60.86664236325622, 46.79269328560743], [-60.866677168178526, 46.792674999749], [-60.86684910543289, 46.79256841225948], [-60.866874320672295, 46.792559684961276], [-60.866900917559974, 46.79255047944875], [-60.866927105053406, 46.79255096773031], [-60.866979515588554, 46.79255104499078], [-60.86701659613163, 46.79255109738983], [-60.867031926124696, 46.79255112222722], [-60.86707477983322, 46.79256623037262], [-60.86718829900405, 46.792606234577086], [-60.86735804470089, 46.79268769448019], [-60.86749237818159, 46.792755741777285], [-60.867501923145625, 46.79276057242821], [-60.867605175599884, 46.79283359289821], [-60.867679038054966, 46.79290990825564], [-60.86768323022341, 46.79291424314404], [-60.867735138268436, 46.79296020800762]]}, "properties": {"OBJECTID": 263182, "FEAT_CODE": "WARV50", "FEAT_DESC": "River - Single Line", "RIVNAME_1": "Fishing Cove River", "RIVNAME_2": " ", "ZVALUE": 9999, "FID": null, "SHAPE_Length": 207.49622234655422}}, {"type": "Feature", "id": 263344, "geometry": {"type": "LineString", "coordinates": [[-60.87640790111011, 46.79620114339997], [-60.87650737386435, 46.796201522894876], [-60.87659133327925, 46.79620184835075], [-60.87665740853486, 46.796221073671845]]}, "properties": {"OBJECTID": 263344, "FEAT_CODE": "WARV50", "FEAT_DESC": "River - Single Line", "RIVNAME_1": "Fishing Cove River", "RIVNAME_2": " ", "ZVALUE": 0.4, "FID": null, "SHAPE_Length": 19.481352301431915}}, {"type": "Feature", "id": 278995, "geometry": {"type": "LineString", "coordinates": [[-60.87332344810957, 46.787781527602405], [-60.87332167601941, 46.78782650105294], [-60.8733217059895, 46.78792549587521], [-60.87329364071509, 46.78800596945253], [-60.873277383101815, 46.78828555099772], [-60.87326622106891, 46.78838494071727], [-60.873263257078186, 46.7884112810849], [-60.87320946268489, 46.78854617313803], [-60.87316855017625, 46.788653406271465], [-60.873115926751595, 46.78872532370355], [-60.87304890136099, 46.788796964349736], [-60.87296984543327, 46.788841400842436], [-60.87296332998716, 46.788843484573995], [-60.872943305567404, 46.78884989786756], [-60.87290352820897, 46.78889506461432], [-60.872837348340695, 46.78901172724277], [-60.87282458161739, 46.78902315318107], [-60.87279796102029, 46.78904699278005], [-60.87269186599798, 46.789145814115976], [-60.87265637404462, 46.78918828862454], [-60.872624484675846, 46.78922645636901], [-60.87247818347483, 46.789414524602286], [-60.87242544959854, 46.78952243756471], [-60.87241716045298, 46.789558875279226], [-60.872411184202505, 46.789585168599814], [-60.87239612908627, 46.78980087604543], [-60.87239832139075, 46.78981905076217], [-60.87240698627923, 46.78989107272725], [-60.87243297960165, 46.789956613352416], [-60.87247134346058, 46.79005336022395], [-60.87251413761405, 46.79014442080586], [-60.872522116200486, 46.790161398200816], [-60.87261221046943, 46.79036916160802], [-60.87263597891276, 46.79048350996009], [-60.87263642995011, 46.79048569622045], [-60.87263621703256, 46.79049940746152], [-60.87263479431199, 46.790593668507384], [-60.872620407074024, 46.790692395193105], [-60.87257597960907, 46.79077171834682], [-60.87254008079082, 46.79083578398498], [-60.87250019247296, 46.790916955417], [-60.872500051072116, 46.790964083036755], [-60.87249997532388, 46.79098893817726], [-60.872499643867535, 46.7910216091058], [-60.87249951204648, 46.791033926935135], [-60.87252428081883, 46.791070385450716], [-60.87256348786449, 46.79110621251164], [-60.87262817286084, 46.79116051229], [-60.872662915108386, 46.7912022409405], [-60.87268071936581, 46.79122358578828], [-60.87274423256122, 46.79134086002878], [-60.87278294144197, 46.79142257506661], [-60.872834179021005, 46.79148562415233], [-60.87284796328395, 46.79151887252526], [-60.87286050316322, 46.791549118932885], [-60.87287256911344, 46.79157543275641], [-60.872857834033546, 46.79178304661949], [-60.87284193344377, 46.79195374096292], [-60.872832018168964, 46.79207896425901], [-60.872826278653896, 46.79215143828936], [-60.872835078331164, 46.79222604554946], [-60.87283904668257, 46.79225966937102], [-60.872843991062226, 46.79227717528554], [-60.87286434354044, 46.79234923451279], [-60.8729018524186, 46.792394929293145], [-60.872902241288635, 46.79239570147868], [-60.87292856731922, 46.79244852289433], [-60.87295430500638, 46.7924939987944], [-60.87295342865665, 46.79253983481279], [-60.87295312002262, 46.79255697306939], [-60.872952948212756, 46.79257064007353], [-60.872951839634396, 46.792655943459096], [-60.8729439927719, 46.79269046353101], [-60.87293757389265, 46.792718674524146], [-60.87283176612334, 46.792843599759856], [-60.87279161837415, 46.792897750032466], [-60.87278257315618, 46.79297828910825], [-60.87277748963865, 46.7930234799264], [-60.87273713749309, 46.79314962215195], [-60.87273678022214, 46.79317297813706], [-60.87273631982055, 46.793203603777435], [-60.87276172553103, 46.79325717306663], [-60.87280018982121, 46.79331188510964], [-60.87284940324979, 46.79336748996446], [-60.87286416864275, 46.79338417054207], [-60.87290397797405, 46.79343800761059], [-60.872917072956405, 46.79346116374055], [-60.872929689540726, 46.79348349202222], [-60.87293509232274, 46.79352826585024], [-60.872940561602526, 46.79357367987651], [-60.872918749021686, 46.79363272482215], [-60.872914156425466, 46.79364518469435], [-60.87285882891172, 46.79385204374903], [-60.87284445410021, 46.79395077064628], [-60.87282939888787, 46.79416647800345], [-60.872829008228955, 46.794233561790016], [-60.872828718534095, 46.794283458465344], [-60.87282138828069, 46.7948682876983]]}, "properties": {"OBJECTID": 278995, "FEAT_CODE": "WARV50", "FEAT_DESC": "River - Single Line", "RIVNAME_1": "South Fishing Cove River", "RIVNAME_2": " ", "ZVALUE": 9999, "FID": null, "SHAPE_Length": 826.5708378961226}}, {"type": "Feature", "id": 309595, "geometry": {"type": "LineString", "coordinates": [[-60.867735138268436, 46.79296020800762], [-60.86801047493185, 46.79288974393176], [-60.86807696488927, 46.7928900020762], [-60.868193895263836, 46.79289046216259], [-60.86835072407183, 46.79290058404282], [-60.86839440274853, 46.79290079493522], [-60.86841624190961, 46.7929009048716], [-60.868436845186594, 46.792904105594346], [-60.86853475652704, 46.79291931207931], [-60.8686451167737, 46.7929338414627], [-60.86867814955495, 46.79293818265513], [-60.868763894701225, 46.792968146407944], [-60.86880869272525, 46.79298381209143], [-60.86892648429041, 46.79302020436879], [-60.869083583869056, 46.79305732870552], [-60.8691646471901, 46.79308939182167], [-60.86929130625872, 46.793139493093], [-60.869323803353545, 46.79314711792839], [-60.86937050447549, 46.793158067113126], [-60.86947426164778, 46.79318519797208], [-60.86967102133585, 46.79321316066887], [-60.86983668374696, 46.793235549292035], [-60.86987956578463, 46.793241342454856], [-60.86989967104771, 46.79324421865893], [-60.86994471635969, 46.793250646041386], [-60.870062841509395, 46.79327895282864], [-60.870284050680134, 46.79335146708104], [-60.87044138382979, 46.793415592310325], [-60.87049308549005, 46.79343365370664], [-60.87053010651692, 46.79345946934526], [-60.870662693378506, 46.79355200394523], [-60.87079100076855, 46.79368758420951]]}, "properties": {"OBJECTID": 309595, "FEAT_CODE": "WARVSP50", "FEAT_DESC": "River Split - Single Line", "RIVNAME_1": " ", "RIVNAME_2": " ", "ZVALUE": 9999, "FID": null, "SHAPE_Length": 260.5162289809602}}, {"type": "Feature", "id": 309596, "geometry": {"type": "LineString", "coordinates": [[-60.87079100076855, 46.79368758420951], [-60.87096098730698, 46.79379604162653], [-60.8710383163772, 46.793895574942724], [-60.87109026372828, 46.79394063905198], [-60.87118115187242, 46.79399542723314], [-60.871245821823095, 46.79402790376839], [-60.87127235568526, 46.794041221743974], [-60.87138946797909, 46.794095597771104], [-60.871480343951525, 46.794150376485916], [-60.87150621268882, 46.79415896630902], [-60.87163427251583, 46.794214202726835], [-60.87167626297475, 46.794232325899145], [-60.8717024161318, 46.79423902208062], [-60.87182028696655, 46.79426920319894], [-60.871926187363144, 46.79431151779856], [-60.87200218449346, 46.794341882743126]]}, "properties": {"OBJECTID": 309596, "FEAT_CODE": "WARVSP50", "FEAT_DESC": "River Split - Single Line", "RIVNAME_1": " ", "RIVNAME_2": " ", "ZVALUE": 9999, "FID": null, "SHAPE_Length": 119.84673121744206}}]}