{"type": "FeatureCollection", "features": [{"type": "Feature", "id": 8450, "geometry": {"type": "LineString", "coordinates": [[-60.113632660666866, 46.26210373266178], [-60.1136530122362, 46.2620982165876], [-60.113663477375454, 46.26209538485622], [-60.11370227381784, 46.262071487916884], [-60.11372401962484, 46.26206536802654], [-60.11375837010569, 46.262055705412244], [-60.11380861186961, 46.262043915161], [-60.113860882501214, 46.26202783794196], [-60.11386855894005, 46.26202547576227], [-60.113946165371544, 46.262026590371285], [-60.11401507085229, 46.26202758411991], [-60.114123026819904, 46.262029492327805], [-60.11415307331804, 46.26203605663441], [-60.11424228827525, 46.26205556414421], [-60.114301675555126, 46.26206681177223], [-60.11437315337468, 46.26208035386926], [-60.114498708630535, 46.26205823412729], [-60.11453948554629, 46.262028986674665], [-60.11457890700612, 46.26202876733598], [-60.11466289082269, 46.2620282874554], [-60.114703935664465, 46.26201963967821], [-60.114780762992, 46.26200346223052], [-60.11486063616878, 46.2620011953056], [-60.11490033901438, 46.262000064919334], [-60.115013949110214, 46.26201539070376], [-60.11512733551324, 46.26205079966875], [-60.11521548253284, 46.262077803800665], [-60.11528301695564, 46.262098491086164], [-60.11536175026616, 46.26213104466133], [-60.115401023351104, 46.26213488948257], [-60.115419536433905, 46.26213670701634], [-60.11543374806451, 46.26214383418707], [-60.11550585454516, 46.26218001850871], [-60.11558855464707, 46.262200539518766], [-60.11563168310396, 46.26221721720283], [-60.115690340260315, 46.262239912209424], [-60.115781015831054, 46.262281551427236], [-60.11584964346396, 46.262313066482804], [-60.11585117809649, 46.26231324923435], [-60.115930532248385, 46.26232285801289], [-60.11599959056378, 46.26235803802214], [-60.11600970317014, 46.26238269346426], [-60.116022162823455, 46.2624130694229], [-60.11604904719084, 46.26243835528024], [-60.11605654170027, 46.26244539380128]]}, "properties": {"OBJECTID": 8450, "FEAT_CODE": "WACO20", "FEAT_DESC": "Coast - Water to the right line", "RIVNAME_1": " ", "RIVNAME_2": " ", "ZVALUE": 0.5, "FID": null, "SHAPE_Length": 208.53646313734066}}, {"type": "Feature", "id": 11373, "geometry": {"type": "LineString", "coordinates": [[-60.11605654170027, 46.26244539380128], [-60.11607632209357, 46.26244779224723], [-60.1161027565893, 46.26245098870049], [-60.11611858372965, 46.26245107323654], [-60.116204958872686, 46.262451525628094], [-60.11626317510584, 46.262450484096554], [-60.11632066418922, 46.26244945118127], [-60.11639329644076, 46.26245263466419], [-60.11642475746019, 46.262454013832055], [-60.11661752259458, 46.262459032435856], [-60.116704413548234, 46.262447427903204], [-60.11684704417614, 46.2624431523646], [-60.11697059501296, 46.26243944817957], [-60.117136486563034, 46.26243628133987], [-60.117275330272555, 46.262435671876446], [-60.117379197847185, 46.262442559069825], [-60.11745068404933, 46.26244730603496], [-60.11749664232185, 46.262450868799164], [-60.117543182366624, 46.26245447322541], [-60.11762921971034, 46.26247621101123], [-60.117689361679965, 46.26249140009768], [-60.11783725879453, 46.26254976412183], [-60.11802739613508, 46.26263459277826], [-60.11811627499103, 46.26267193660643], [-60.11845381821314, 46.26275425477991], [-60.11850322498544, 46.26276630151521], [-60.118684047131254, 46.26283206522786], [-60.11874120201219, 46.262848798492556], [-60.11881185335723, 46.26286948129154], [-60.118979880932194, 46.262907029538994], [-60.1192002191561, 46.26293688727624], [-60.11931880406996, 46.26294327079389], [-60.119420203993066, 46.262948734836584], [-60.11945114211491, 46.262953412138124], [-60.11948456544374, 46.262958458110205], [-60.11959929119212, 46.26297434747483], [-60.11962758296518, 46.26297826497092], [-60.11966766779872, 46.26298025670064], [-60.119847615208336, 46.262989212859615], [-60.11998885296193, 46.263017974815114], [-60.12018322572441, 46.26304807608418], [-60.12029284900881, 46.263053125623294], [-60.12043934717405, 46.263073631233134], [-60.120549078914216, 46.263092957924655], [-60.12063739846737, 46.263113283891194], [-60.12073959171549, 46.26313680359569], [-60.12091466086895, 46.26318191580713], [-60.12094970474877, 46.263194427536796], [-60.120952481944, 46.263195415570934]]}, "properties": {"OBJECTID": 11373, "FEAT_CODE": "WACO20", "FEAT_DESC": "Coast - Water to the right line", "RIVNAME_1": " ", "RIVNAME_2": " ", "ZVALUE": 0.5, "FID": null, "SHAPE_Length": 393.47915641211415}}, {"type": "Feature", "id": 11374, "geometry": {"type": "LineString", "coordinates": [[-60.120952481944, 46.263195415570934], [-60.12102133479, 46.26321998485465], [-60.121131831343476, 46.263259401192826], [-60.12114000698221, 46.263262865375175], [-60.12134309121183, 46.2633489057894], [-60.121465724517066, 46.26339297483483], [-60.12157756937577, 46.263433171747735], [-60.12175949943585, 46.26348606988309], [-60.12176989125606, 46.26348909483388], [-60.12199113119317, 46.26354517010551], [-60.122283117687836, 46.263667245092044], [-60.1225230452968, 46.263785037921465], [-60.122780173258136, 46.26392033724575], [-60.122944637926906, 46.26406050266235], [-60.12303179215825, 46.264220375888975], [-60.123049848224554, 46.2643437223041], [-60.123069682722246, 46.26441153592735], [-60.123087155315076, 46.2644711716897], [-60.123127440461694, 46.264545458592494], [-60.123162920832726, 46.26461088507829], [-60.123248646041795, 46.264718510722005], [-60.12338827444678, 46.26483713308043], [-60.12358941420284, 46.26497884207002], [-60.12377293522805, 46.26514726136271], [-60.12386366231758, 46.26523969375891], [-60.123940741489044, 46.265315437729065], [-60.12396565988922, 46.26533647801142], [-60.12401655320995, 46.265379449197546], [-60.1240419351297, 46.26541518981003], [-60.12413012174309, 46.26551551439971], [-60.12423073044772, 46.26565125324392], [-60.124318442245006, 46.265746777509925], [-60.124331407771535, 46.265760892520184], [-60.12441912505687, 46.26587020548011], [-60.124507728348966, 46.26598764104495], [-60.12455766953403, 46.26605403409729], [-60.12458294325153, 46.26608763876311], [-60.12460242473878, 46.26610867706076], [-60.12463330612008, 46.266142008841044], [-60.124671588819204, 46.26617898305905], [-60.12472090912387, 46.26627832892718], [-60.12475690118662, 46.26635932949042], [-60.12477021710912, 46.266377665461846], [-60.124769758262225, 46.26639734681908], [-60.12476810578083, 46.26646761646192], [-60.12474119688956, 46.26648584006926]]}, "properties": {"OBJECTID": 11374, "FEAT_CODE": "WACO20", "FEAT_DESC": "Coast - Water to the right line", "RIVNAME_1": " ", "RIVNAME_2": " ", "ZVALUE": 0.5, "FID": null, "SHAPE_Length": 493.8806273024409}}, {"type": "Feature", "id": 11702, "geometry": {"type": "LineString", "coordinates": [[-60.13289570751835, 46.26364387820494], [-60.132899925965866, 46.263640626922495], [-60.13291263408336, 46.26363085639789], [-60.1329304828083, 46.26361558062703], [-60.132951550295935, 46.263597559504426], [-60.13303589441605, 46.26354494473277], [-60.13303891217362, 46.26354306737706], [-60.13305871553434, 46.26353186382526], [-60.13315543182628, 46.263477156346006], [-60.1331730997474, 46.263456637758566], [-60.133197315821135, 46.263428507134954], [-60.13323717404172, 46.26339530578661], [-60.13351612838894, 46.26316289462222], [-60.13363542653571, 46.26306508334497], [-60.133688837100706, 46.263029296744186], [-60.133717223053345, 46.26301028004913], [-60.13371910004096, 46.26298922117031], [-60.13371983630193, 46.26298107626696], [-60.133779444928244, 46.262931944511884], [-60.133815161521895, 46.262902500226595], [-60.13393367416306, 46.2628227147606], [-60.13398618206018, 46.262780092059685], [-60.13401286747135, 46.26276705390556], [-60.13408120493246, 46.26273367569472], [-60.13413051123505, 46.26269993702202], [-60.134145327472915, 46.26268979622593], [-60.13416393419702, 46.262680128534875], [-60.134257818708015, 46.26263139736007], [-60.13439562144999, 46.26255170829684], [-60.134436366412196, 46.262519392811626], [-60.13446951703812, 46.262493106105126], [-60.13446974381304, 46.2624703407429], [-60.13446521878012, 46.26245633059715], [-60.13446411340079, 46.26245289171273], [-60.134555473736526, 46.262386357158455], [-60.134585176525825, 46.262369200361555], [-60.13461756856078, 46.262350490934885], [-60.13465658237693, 46.26230781747344], [-60.13473625797339, 46.26225059313953], [-60.134877902257536, 46.26217360096419], [-60.134883982143755, 46.26217023428581], [-60.13498849429786, 46.26211251662378], [-60.13515362828749, 46.261998131451875], [-60.13528862268246, 46.26188214420922], [-60.13534324213528, 46.261851004360786], [-60.13540577154971, 46.261770929563205], [-60.135460595294276, 46.26169080551794], [-60.13546921897528, 46.26159705741468], [-60.13544334324098, 46.26147632502824], [-60.135386234579265, 46.26135656453199], [-60.135374256256426, 46.26133144101852], [-60.13535248121394, 46.26126846810216], [-60.135347226323475, 46.261260739979015], [-60.135315118061996, 46.26121352867944], [-60.13521344229857, 46.26112277489795], [-60.13519884030548, 46.261111392209756], [-60.13504883113728, 46.26099444103865], [-60.13493619399466, 46.26084040918932], [-60.134835254767246, 46.260685770573325], [-60.13477534371252, 46.260591428650685], [-60.13476090521591, 46.26056870047947], [-60.134697577667374, 46.2605140096675], [-60.134672079597244, 46.26049932047633], [-60.134504830715095, 46.26040297014295], [-60.1344223920154, 46.26035271402876], [-60.134415551210786, 46.26034852824624], [-60.13433925206648, 46.26029351184905], [-60.13419973658153, 46.26015680584296], [-60.13402283977832, 46.25996605938883], [-60.13399984412562, 46.25988447871245], [-60.1339518300374, 46.259740950510114], [-60.133951572758, 46.25974016101899], [-60.1339481800948, 46.259732560553054], [-60.133927171079854, 46.25968554630654], [-60.1339050888186, 46.25963074676836], [-60.13390189540705, 46.25962280928398], [-60.13389092162315, 46.25955953103251]]}, "properties": {"OBJECTID": 11702, "FEAT_CODE": "WACO20", "FEAT_DESC": "Coast - Water to the right line", "RIVNAME_1": " ", "RIVNAME_2": " ", "ZVALUE": 0.5, "FID": null, "SHAPE_Length": 572.3068775075385}}, {"type": "Feature", "id": 12208, "geometry": {"type": "LineString", "coordinates": [[-60.12840493787554, 46.26660934167239], [-60.12849958058755, 46.26655055383429], [-60.12862008070474, 46.26646408254277], [-60.12866922872597, 46.26642083781933], [-60.12881085078507, 46.26629624043858], [-60.128924661026254, 46.266192733913314], [-60.12897635543187, 46.2661457008764], [-60.12900985801687, 46.26611451037909], [-60.12907372294362, 46.266055101577805], [-60.1291321471092, 46.266000470238026], [-60.129239020403496, 46.265924645347745], [-60.1294435388533, 46.26573275654943], [-60.1295448542796, 46.265633876663806], [-60.12958966583501, 46.265590144563475], [-60.12968143986662, 46.26548559756579], [-60.12975357883061, 46.26540340921557], [-60.129808162088345, 46.26531917766984], [-60.12985743686347, 46.26524315611052], [-60.12995485561858, 46.26514853415796], [-60.13013553575207, 46.26502485337733], [-60.13021187667304, 46.26498344316451], [-60.13035086879444, 46.26490804606195], [-60.130383201028025, 46.26489476358521], [-60.130569809088186, 46.264818069175874], [-60.13079683099903, 46.26469061011362], [-60.130938368729446, 46.26462433964726], [-60.13103664452819, 46.26458159867879], [-60.13115154428389, 46.26453164274815], [-60.13122140429887, 46.26449179718633], [-60.1312757504774, 46.264461264451754], [-60.13139598987218, 46.264400245846815], [-60.131537577534, 46.26434119422334], [-60.13158006812422, 46.26432347726082], [-60.13161142582846, 46.26431219506001], [-60.13164979409151, 46.26429837074918], [-60.13173112044891, 46.26426930725828], [-60.13182399525451, 46.264242999768136], [-60.131938245321074, 46.26420471827207], [-60.13207415597597, 46.26414600947965], [-60.13210684249767, 46.26413188937014], [-60.13218962142444, 46.26409064845655], [-60.13224259604481, 46.264064248022336], [-60.132264036532305, 46.26405226666785], [-60.13245409857832, 46.263946080522956], [-60.13256041382391, 46.26388451316736], [-60.13260548256241, 46.26385840914668], [-60.13273374363027, 46.263767952111756], [-60.13279174088316, 46.2637236226536], [-60.132850400752545, 46.263678778771684], [-60.13289570751835, 46.26364387820494]]}, "properties": {"OBJECTID": 12208, "FEAT_CODE": "WACO20", "FEAT_DESC": "Coast - Water to the right line", "RIVNAME_1": " ", "RIVNAME_2": " ", "ZVALUE": 0.5, "FID": null, "SHAPE_Length": 486.1229307209398}}, {"type": "Feature", "id": 12909, "geometry": {"type": "LineString", "coordinates": [[-60.12680271796599, 46.2675898556953], [-60.1267908111766, 46.26754455417135], [-60.12726048898652, 46.26739795872892], [-60.127315649877836, 46.267339034069046], [-60.127393834851, 46.267255505184394], [-60.127408239456486, 46.267227966117524], [-60.12740870938241, 46.26721897752195], [-60.127389497178285, 46.26719325726637], [-60.12738950795739, 46.267191313448414]]}, "properties": {"OBJECTID": 12909, "FEAT_CODE": "WACO20", "FEAT_DESC": "Coast - Water to the right line", "RIVNAME_1": " ", "RIVNAME_2": " ", "ZVALUE": 0.5, "FID": null, "SHAPE_Length": 71.40863923261668}}, {"type": "Feature", "id": 12910, "geometry": {"type": "LineString", "coordinates": [[-60.12738950795739, 46.267191313448414], [-60.12738960323581, 46.267182540442434], [-60.12741693961029, 46.26714917926868], [-60.12745347009479, 46.267126876770455], [-60.12748876633777, 46.26710534426259], [-60.12752856569395, 46.267083069932596], [-60.127574139447184, 46.26705755662501], [-60.12769056834345, 46.26699117187384], [-60.127739915860786, 46.266953071802625], [-60.1277664091636, 46.26693260493948], [-60.127890681293074, 46.26685420362091], [-60.127901250043344, 46.26684939309879], [-60.12798953777961, 46.26680916677022], [-60.12807855253991, 46.26678283728628], [-60.1281695136694, 46.266756511660205], [-60.12826854048871, 46.26669405405156], [-60.12840493787554, 46.26660934167239]]}, "properties": {"OBJECTID": 12910, "FEAT_CODE": "WACO20", "FEAT_DESC": "Coast - Water to the right line", "RIVNAME_1": " ", "RIVNAME_2": " ", "ZVALUE": 0.5, "FID": null, "SHAPE_Length": 103.02529562780799}}, {"type": "Feature", "id": 12911, "geometry": {"type": "LineString", "coordinates": [[-60.12474119688956, 46.26648584006926], [-60.12475426720658, 46.266514574338984], [-60.124765639072386, 46.266539557688944], [-60.125194825156186, 46.26708969066012], [-60.12526914815176, 46.26718495824484], [-60.1252596927066, 46.26719105659678], [-60.12522885504706, 46.267210945534224], [-60.125394743639895, 46.26733932561376], [-60.12593372919259, 46.267579697249666], [-60.126425046406986, 46.26763975908702], [-60.12666565863314, 46.26760796446207], [-60.12680271796599, 46.2675898556953]]}, "properties": {"OBJECTID": 12911, "FEAT_CODE": "WACO20", "FEAT_DESC": "Coast - Water to the right line", "RIVNAME_1": " ", "RIVNAME_2": " ", "ZVALUE": 0.5, "FID": null, "SHAPE_Length": 228.7760377213174}}, {"type": "Feature", "id": 35462, "geometry": {"type": "LineString", "coordinates": [[-60.127291816059355, 46.262134367756204], [-60.12730540498395, 46.2621224058995], [-60.127390630015626, 46.26207335460173], [-60.12746618275675, 46.262029604287534], [-60.12752226017121, 46.26200715423778], [-60.12755022281898, 46.26202506614399], [-60.12756436097633, 46.26203412504257], [-60.12758741752561, 46.26204833141285], [-60.1276103103105, 46.262062443656596], [-60.12762642768664, 46.262079814696335], [-60.127642716641084, 46.26209737905659]]}, "properties": {"OBJECTID": 35462, "FEAT_CODE": "WALK20", "FEAT_DESC": "Lake - Water to the right line", "RIVNAME_1": " ", "RIVNAME_2": " ", "ZVALUE": 11.525, "FID": null, "SHAPE_Length": 36.59350386571158}}, {"type": "Feature", "id": 35463, "geometry": {"type": "LineString", "coordinates": [[-60.127642716641084, 46.26209737905659], [-60.127631034732566, 46.26210935290107], [-60.12760815104572, 46.2621241142315], [-60.127598092895774, 46.26213059364302], [-60.12747990104683, 46.26220086717407], [-60.12742755342456, 46.26223537254567], [-60.12740830115768, 46.26223527545534], [-60.127387285077226, 46.26221778120338], [-60.1273758490848, 46.2622056850873], [-60.127297447762835, 46.26214777599075], [-60.12729240510944, 46.26213575963279], [-60.127291816059355, 46.262134367756204]]}, "properties": {"OBJECTID": 35463, "FEAT_CODE": "WALK20", "FEAT_DESC": "Lake - Water to the right line", "RIVNAME_1": " ", "RIVNAME_2": " ", "ZVALUE": 11.525, "FID": null, "SHAPE_Length": 38.6580306046926}}, {"type": "Feature", "id": 176584, "geometry": {"type": "LineString", "coordinates": [[-60.12653011606696, 46.26692803023751], [-60.126562634450835, 46.26691321445453], [-60.126582402927205, 46.266904216250474], [-60.12665207814758, 46.26687646539303], [-60.12672738560402, 46.26687105116953], [-60.1267389011432, 46.266870224749525], [-60.12675492468321, 46.266874767950824], [-60.1267869583407, 46.26688386300949], [-60.12680340009231, 46.266904482458926], [-60.1268371858529, 46.26694683309253], [-60.12687018232322, 46.266996337193824], [-60.12691865949763, 46.26703222597944], [-60.12692450657137, 46.26703655822324], [-60.126925341371326, 46.267037470258984], [-60.1269493148672, 46.267063463344726], [-60.1269844511138, 46.26709289630395], [-60.127040008329125, 46.26711773057923], [-60.12706580230497, 46.267129260758], [-60.127109435782494, 46.2671560272378], [-60.12714996339484, 46.26718088851185], [-60.12719337546502, 46.26720146610818], [-60.12724667825453, 46.26722672961155], [-60.12725902627169, 46.26722338595687], [-60.12730992264171, 46.267209536128924], [-60.12733087369447, 46.26719181913233], [-60.12738950795739, 46.267191313448414]]}, "properties": {"OBJECTID": 176584, "FEAT_CODE": "WARV50", "FEAT_DESC": "River - Single Line", "RIVNAME_1": " ", "RIVNAME_2": " ", "ZVALUE": 9999, "FID": null, "SHAPE_Length": 87.2080392675024}}, {"type": "Feature", "id": 294921, "geometry": {"type": "LineString", "coordinates": [[-60.125804906413414, 46.261390956415795], [-60.12573660482827, 46.261332526304074], [-60.125724718406545, 46.26132235377714], [-60.12568276153934, 46.26131151466139], [-60.12565020215948, 46.26130310808369], [-60.125640202650644, 46.2613005253763], [-60.125590825159385, 46.26129982299636], [-60.125561018937994, 46.26130551732128], [-60.12548857444725, 46.26131935519165], [-60.12537931566198, 46.26134808038533], [-60.125368868410234, 46.261350832636715], [-60.1251587858286, 46.261369820156744], [-60.12502592002856, 46.26143555468443], [-60.12490657984276, 46.26149599520239], [-60.124760442120106, 46.261473857315835], [-60.12450591450625, 46.26144224968711], [-60.124183947064786, 46.261408934784754], [-60.124078720412946, 46.26138662885199], [-60.12397060668705, 46.26136370111195], [-60.1237040179153, 46.26131239213564], [-60.123393432080434, 46.26128849699235], [-60.12336748222315, 46.26128422538087], [-60.12334018104932, 46.26127973972715], [-60.12302983444062, 46.261396292179356], [-60.122941437955866, 46.261431507714214], [-60.122910861232675, 46.261484632158826], [-60.12290867751479, 46.26148842034123], [-60.122867665483284, 46.261543073042986], [-60.12282703267522, 46.26157486521279], [-60.122813879904285, 46.26158517244574], [-60.12264779139916, 46.261623138201536], [-60.122503757912376, 46.26162996877365], [-60.12247098249579, 46.26165171625516], [-60.12241486844257, 46.261688959594196], [-60.12237434969397, 46.26171584024652], [-60.12233320682398, 46.261783882085496], [-60.122323663806064, 46.26184296346498], [-60.122320885235276, 46.26186009327514], [-60.12230935097807, 46.26186922616387], [-60.12224761528524, 46.26191816336162], [-60.122204205594066, 46.26194845429038], [-60.12214864604973, 46.26198724153819], [-60.121902214759885, 46.262175667323575], [-60.121867139296214, 46.26221431347519], [-60.12181874469374, 46.262287248661266], [-60.12175469964731, 46.26238422565143], [-60.121721395322666, 46.26243909913641], [-60.121702307299415, 46.26247055169224], [-60.12169239623987, 46.2625455634853], [-60.1216903487369, 46.26256111862452], [-60.1216775966965, 46.26258309136606], [-60.12164183207641, 46.26264479715886], [-60.12163923513168, 46.26271172184769], [-60.12162978929224, 46.26279122756379], [-60.12162927348843, 46.26279562477293], [-60.12162783950691, 46.26280144791491], [-60.12161318965828, 46.26286113859021], [-60.12160347789393, 46.26292094468524], [-60.121539239752785, 46.26298219402001], [-60.12150705247721, 46.2629949196218], [-60.12142890997784, 46.26302581114367], [-60.12134112872847, 46.26304797233257], [-60.1213057264811, 46.26305691769198], [-60.12118773093027, 46.263103185544296], [-60.120952481944, 46.263195415570934]]}, "properties": {"OBJECTID": 294921, "FEAT_CODE": "WARV55", "FEAT_DESC": "River - Single Line Indefinite", "RIVNAME_1": " ", "RIVNAME_2": " ", "ZVALUE": 9999, "FID": null, "SHAPE_Length": 507.13255581191623}}, {"type": "Feature", "id": 294926, "geometry": {"type": "LineString", "coordinates": [[-60.12839174723234, 46.25970766171075], [-60.12858867249808, 46.25982264180912], [-60.12889878195011, 46.26001948092518], [-60.12902899761947, 46.260085054420315], [-60.12905977196018, 46.26010055250809], [-60.12925920119218, 46.260192490287125], [-60.12951504980306, 46.26042383982217], [-60.12967707964092, 46.260573492846056], [-60.129762533956786, 46.260656868702796], [-60.129825912022305, 46.260718700865155], [-60.129860543526455, 46.26076744418623], [-60.12993780981837, 46.26087617537995], [-60.129986193927984, 46.26091477868623], [-60.12999516320751, 46.260921934343955], [-60.130021947059305, 46.26094080607741], [-60.13009859751758, 46.260981325516205], [-60.13020978973033, 46.26104075847385], [-60.13021145061323, 46.26104175424138], [-60.1303361929859, 46.26111629715503], [-60.130444851728114, 46.2611807694777], [-60.13045289436385, 46.26118554371301], [-60.13056771825586, 46.26126639853314], [-60.1306497288153, 46.26131213746875], [-60.130659702839466, 46.2613176982347], [-60.13066883266433, 46.261321284705254], [-60.13072880100918, 46.26134481494034], [-60.13072993628654, 46.261410807516924], [-60.1307260834154, 46.26143812601874], [-60.13072164804689, 46.2614696420855], [-60.13071210266877, 46.26150011176303], [-60.13070573600867, 46.26152040080256], [-60.13069931429552, 46.26157032683424], [-60.130735039491185, 46.26159118705667], [-60.13085644371799, 46.261662099384885], [-60.131051640458736, 46.26180495105738], [-60.13108634666198, 46.26183439897715], [-60.13114901305189, 46.26188754511449], [-60.13119471654018, 46.261943973410354], [-60.131232398861705, 46.26203250275564], [-60.13122610909739, 46.262074439756056], [-60.1312256083741, 46.26212529753767], [-60.13134845921894, 46.262179468884355], [-60.13138163532931, 46.262210642371386], [-60.13140574464139, 46.262233289792455], [-60.13142714099029, 46.26225819119232], [-60.13148198399512, 46.262322013196815], [-60.13149124053141, 46.26238856069517], [-60.131494532338905, 46.26241226044429], [-60.13153027313878, 46.262448997539735], [-60.13158613829557, 46.2625064188604], [-60.13161012744609, 46.26254032274043], [-60.13163938658445, 46.262581658274236], [-60.131646500538665, 46.2626432647343], [-60.13164505598729, 46.26267491892864], [-60.13164397245482, 46.26269866182141], [-60.131637870942875, 46.262711388216985], [-60.13159279570945, 46.26280549883765], [-60.13155330605731, 46.26289900265496], [-60.13156539063072, 46.26297700667748], [-60.13156783732637, 46.26299278283756], [-60.131601271713116, 46.263106532553294], [-60.131646092358515, 46.26316523359491], [-60.13166023182166, 46.2631837334509], [-60.131661849825164, 46.26319848075489], [-60.13166377006202, 46.26321589076991], [-60.13166359911975, 46.26323458034047], [-60.131663432759396, 46.26325069590729], [-60.13166298980605, 46.26329622688677], [-60.13166817689051, 46.26338430918253], [-60.13166961407427, 46.2634087363926], [-60.131684407932056, 46.26342812571577], [-60.13169627409416, 46.263443688355466], [-60.13170567278797, 46.26345257373595], [-60.131732521465445, 46.263477944984864], [-60.13181677485171, 46.263539967119165], [-60.1319508684199, 46.26363439991076], [-60.132104382415896, 46.263715531446614], [-60.13220246471713, 46.26374209680885], [-60.13226428487073, 46.26373169614429], [-60.13234188119986, 46.263686553847144], [-60.13245284873922, 46.26362435633921], [-60.132561034521316, 46.26356373597611], [-60.13263479093723, 46.26351856009928], [-60.13272747723002, 46.26351100400693], [-60.132735831150995, 46.26353046556781], [-60.13274231208464, 46.263545532918094], [-60.13274445173461, 46.2635505368487], [-60.132770231149166, 46.26357676305533], [-60.13278271475928, 46.263589451944945], [-60.13282731174494, 46.263604467890346], [-60.132863491627674, 46.263616653447855], [-60.13287544796578, 46.26362676397575], [-60.13289570751835, 46.26364387820494]]}, "properties": {"OBJECTID": 294926, "FEAT_CODE": "WARV55", "FEAT_DESC": "River - Single Line Indefinite", "RIVNAME_1": " ", "RIVNAME_2": " ", "ZVALUE": 9999, "FID": null, "SHAPE_Length": 644.6784193794691}}]}