{"type": "FeatureCollection", "features": [{"type": "Feature", "id": 4651, "geometry": {"type": "LineString", "coordinates": [[-60.1367225500802, 45.840119345207675], [-60.13670700126917, 45.84017237570069], [-60.13668039447177, 45.840263202743145], [-60.13662435584534, 45.84045171666125], [-60.13661472736748, 45.840485246619416], [-60.136596128701186, 45.840550018808216], [-60.136514366448736, 45.84073788751877], [-60.136420302078285, 45.840889443951355], [-60.13620973200954, 45.841102884616994], [-60.1360904569966, 45.84121870483621], [-60.13605126574975, 45.84125462549864], [-60.13599925852647, 45.841289333568184], [-60.13595520081763, 45.84130541111677], [-60.13585620513735, 45.84134154164972], [-60.13580461365707, 45.84136815023526], [-60.13575312092957, 45.84136775852951], [-60.13561071275508, 45.84135699408545], [-60.13550820235135, 45.841347212478055], [-60.13534159007078, 45.84134458931913], [-60.135315185539284, 45.84134416982938], [-60.1352641541197, 45.84133479756305], [-60.13525026589929, 45.841327383367386], [-60.13521276096203, 45.84130739636462], [-60.13516057148477, 45.84126917406283], [-60.13511222972509, 45.84123376656352], [-60.135078736253945, 45.84121591438214], [-60.135060836274356, 45.841206374289555], [-60.1348677738311, 45.84120422982903], [-60.1348167430852, 45.84119484837791], [-60.13477954374334, 45.84116691209157], [-60.134753972955025, 45.84111316496812], [-60.13474811287532, 45.84109387295585], [-60.13474295863875, 45.84107688488972], [-60.13474332427443, 45.84105347368302], [-60.13474351973388, 45.84104089530806], [-60.13474312822969, 45.84103974236654], [-60.134731219281946, 45.84100458295118], [-60.13469314959031, 45.84096852396897]]}, "properties": {"OBJECTID": 4651, "FEAT_CODE": "WACO20", "FEAT_DESC": "Coast - Water to the right line", "RIVNAME_1": " ", "RIVNAME_2": " ", "ZVALUE": 0.6, "FID": null, "SHAPE_Length": 272.4173416205814}}, {"type": "Feature", "id": 4688, "geometry": {"type": "LineString", "coordinates": [[-60.13441274076469, 45.84138812073988], [-60.13436129424692, 45.84138682947368], [-60.13433713460251, 45.84137805924772], [-60.13431072485717, 45.841368467461585], [-60.134259232172546, 45.841368075082066], [-60.13414194605208, 45.841420036687296], [-60.13394377166932, 45.84146923858169], [-60.13393453535614, 45.841471544979534], [-60.13386971944618, 45.841479809882834], [-60.13381822667151, 45.84147941730197], [-60.13369100361048, 45.84142401808996], [-60.133638938661385, 45.84142323302497], [-60.1336009260054, 45.84142265672055], [-60.13358073052151, 45.84141894536316], [-60.13354989530201, 45.84141327470361], [-60.13346452684657, 45.841372157400485], [-60.13343553428173, 45.84135819812604], [-60.13340683649436, 45.841347774604344], [-60.13338496570433, 45.8413398267222], [-60.133371273118286, 45.84134264224949], [-60.13334591837943, 45.84134785623235], [-60.13333628736883, 45.84136585926949], [-60.13333168442224, 45.84137448358583], [-60.13332718102504, 45.84137741282191], [-60.13331834743683, 45.84138315863055], [-60.133323474581005, 45.84139415147092], [-60.13333110907859, 45.8414104818034], [-60.13336866991077, 45.841456429469844], [-60.133329522985804, 45.84149145021938], [-60.13332523440231, 45.84149947036627], [-60.13331527519516, 45.84151809522486], [-60.133328049724746, 45.841545418721125], [-60.13337658065515, 45.841568860509035], [-60.1334046910145, 45.84158244661201], [-60.133431603931285, 45.841594274467376], [-60.133467659456315, 45.841610130248796], [-60.13349375778049, 45.84162878733381], [-60.13349237171014, 45.84165575527969], [-60.13347489732389, 45.841667503787626], [-60.13345367388362, 45.84168178643127], [-60.13340125685664, 45.84169937228734], [-60.13338317324493, 45.84169917027121], [-60.13327254755352, 45.84169794078577], [-60.13324585388595, 45.841706901511685], [-60.13322013045798, 45.84171552655691], [-60.13315521364578, 45.8417508002674], [-60.13303736350162, 45.841838750234324], [-60.13301149371414, 45.84186600345162], [-60.13301103160942, 45.84187499276276], [-60.13307343796047, 45.841938666161646], [-60.133072413653906, 45.841983645015816], [-60.13305898968121, 45.84201931158952], [-60.133029401375765, 45.84205251104915], [-60.13297972413996, 45.84210823037947], [-60.13290009641734, 45.84217913818883], [-60.132871793996955, 45.84220084872758], [-60.132795523152794, 45.842259311489514], [-60.13267255154805, 45.84234965271577], [-60.132650976662866, 45.84236550154316], [-60.132559410672386, 45.84241810746099], [-60.13240292634026, 45.842505986547195], [-60.13228558991351, 45.842558845068346], [-60.13219541000987, 45.842584482765055], [-60.132065023446664, 45.84261011852752], [-60.132014180285516, 45.84262762626832], [-60.13197149523579, 45.842656536058975], [-60.131948798902556, 45.84267189753546], [-60.13191451345078, 45.84270125233071], [-60.13185584484552, 45.842751470761854], [-60.131685987989094, 45.84284891393183], [-60.13167337479053, 45.84286178339108], [-60.13166016283463, 45.84287527687122], [-60.13163383000258, 45.842911510053995], [-60.13162040486548, 45.842947176426286], [-60.13161398732762, 45.842974296966496], [-60.13160559266279, 45.8430098106913], [-60.131604296877086, 45.84304827504623], [-60.131603180058896, 45.843081757390856], [-60.13163513103646, 45.84313385631799], [-60.13165308601943, 45.84316311032946], [-60.13166509298147, 45.843198587552905], [-60.131665384396, 45.84319943195911], [-60.13171584036145, 45.84324480403216], [-60.13171746657046, 45.84324598800277], [-60.13179159628521, 45.84329982158328], [-60.13195683232391, 45.84339217246151], [-60.13199490178041, 45.84342823234031], [-60.132056846312025, 45.84350089559438], [-60.13212017782885, 45.84354659091349], [-60.13227220371387, 45.843620616677285], [-60.132301321935884, 45.84365218518466], [-60.13234783492641, 45.84370262446062], [-60.13238635421772, 45.84372969459194], [-60.13241164200443, 45.8437393306475], [-60.13243849773322, 45.84374427159794], [-60.132462661739694, 45.84374871289293], [-60.13248436674131, 45.84374887999555], [-60.13251415657048, 45.84374910613471], [-60.132562848918724, 45.843741886203425], [-60.1325660673891, 45.84374140897907], [-60.132568518369816, 45.843740579445296], [-60.13261848661225, 45.84372382356386], [-60.13265116301855, 45.843724266177155], [-60.13269570572213, 45.84372486277689], [-60.132822108367655, 45.843771250561886], [-60.132873603691806, 45.84377163465271], [-60.13290722737436, 45.84375715946547], [-60.13291311448037, 45.84375462503091], [-60.13299242880763, 45.843664807436895], [-60.13303240161456, 45.8436388084625], [-60.13309736293716, 45.84363979162302], [-60.13312248276224, 45.843640170364694], [-60.13314686690791, 45.84366688530122], [-60.13315665924325, 45.84370437696434], [-60.13315870471235, 45.84371218711287], [-60.133169618314945, 45.84377546754222], [-60.13312898308308, 45.843864456320375], [-60.133099271094224, 45.84389778769937], [-60.13304971488477, 45.843953375074214], [-60.13300948284601, 45.844034264110405], [-60.13300893290808, 45.84407026295202], [-60.13301646529458, 45.84408182025166], [-60.13302087086295, 45.844088564552955], [-60.133059041653866, 45.844097623878525], [-60.13311187698456, 45.84407194786451], [-60.1331226585438, 45.84406689905293], [-60.13315014791045, 45.8440540069364], [-60.13318924292369, 45.84404508760052], [-60.13319621972098, 45.84404690995209], [-60.13322736750477, 45.844055045800715], [-60.133278300475496, 45.84409142823894], [-60.13334219579991, 45.84410113338003], [-60.13339439784182, 45.844095792397475], [-60.13341987754418, 45.84409318280519], [-60.13343603860308, 45.84409321953208], [-60.13345851001606, 45.84409326167708], [-60.13348489274554, 45.84410014370266], [-60.13349663514418, 45.84410321079986], [-60.133557195183506, 45.8441324540705], [-60.133573293309816, 45.84414022998251], [-60.13365005054476, 45.84415026686542], [-60.13374017875945, 45.84415072936859], [-60.13376837245286, 45.844144929502306], [-60.13377922755492, 45.84414270876148], [-60.13392184140857, 45.844099484170535], [-60.13398370054753, 45.844077391619386], [-60.1341173103698, 45.84402968332697], [-60.13415513334068, 45.84402997566686], [-60.134168818370135, 45.84403007615145], [-60.134171595571644, 45.84403217106731], [-60.13418120579281, 45.84403938800022], [-60.134282348352095, 45.844076130193784], [-60.13434794581881, 45.844077776673714], [-60.13435870108649, 45.844072736086396], [-60.13438621637109, 45.84405983532181], [-60.13440763129184, 45.84406615140126], [-60.13444964997399, 45.84407852916537], [-60.134464921976395, 45.844084087994254], [-60.13447619879561, 45.84408819641191], [-60.134496965504184, 45.844080058742286], [-60.134566901144396, 45.84405266902255], [-60.134709026611034, 45.84401843210237], [-60.134799670119264, 45.84398379414149], [-60.13485162661521, 45.84397520600137], [-60.13498080312155, 45.84396764652372], [-60.135097520129506, 45.84395167343463], [-60.135187747230496, 45.843925134538416], [-60.13524728151472, 45.84388510715477], [-60.13526646403744, 45.84387220411633], [-60.13531795906334, 45.843872596096205], [-60.13533578164108, 45.84387939792438], [-60.13534322172748, 45.843882230870065], [-60.13534621524127, 45.84388638339273], [-60.13535644664521, 45.84390056451665], [-60.13534310934, 45.84390923978778], [-60.135198477764874, 45.84404241564756], [-60.1351454980335, 45.844095991831445], [-60.13511793916636, 45.84413130395634], [-60.13511787096856, 45.844145667700595], [-60.13511782712519, 45.84415830388087], [-60.135142628081184, 45.84417692802512], [-60.13521984794813, 45.844177965546216], [-60.135295907949846, 45.844147929767416], [-60.13537629283355, 45.84411618426692], [-60.13542723924997, 45.84411096386501], [-60.13545396151361, 45.844108231978524], [-60.135570229839594, 45.84410124806009], [-60.13558927688108, 45.844098755623776], [-60.13563376284601, 45.84409294100213], [-60.13565273659539, 45.84408435309908], [-60.135673319242315, 45.84407503147819], [-60.13572899116202, 45.84402544698711], [-60.13575294635623, 45.844004121735225], [-60.13576078644093, 45.84399866584748], [-60.13579167811837, 45.8439771905704], [-60.135837323494584, 45.843958578655666], [-60.13585613431602, 45.84395090472447], [-60.13589610604756, 45.84392490472146], [-60.13592243712923, 45.843888661517305], [-60.13592275460018, 45.84386693227851], [-60.135922951412695, 45.84385357086117], [-60.13594199307141, 45.84382861195418], [-60.13595056866197, 45.84381735991458], [-60.13595860095638, 45.84380916355662], [-60.135976391830894, 45.84379100495981], [-60.13600980178774, 45.843777666613036], [-60.13604212108434, 45.84376475094331], [-60.13609280431487, 45.84375612129749], [-60.13615303815377, 45.843762393679484], [-60.13619528641731, 45.84376679275003], [-60.13621741638571, 45.84376696080047], [-60.136246794234914, 45.84376718463129], [-60.13629919907968, 45.843749606165375], [-60.136312523339924, 45.843740930455276], [-60.13633885406284, 45.84370468714557], [-60.136352737547796, 45.84366003981002], [-60.136345281132904, 45.84363219298537], [-60.13634085144266, 45.84361562821227], [-60.1363311586743, 45.843597725307916], [-60.136316148898814, 45.843570004058805], [-60.1363086636375, 45.84355852016663], [-60.136304209948214, 45.84355170277813], [-60.13629702936682, 45.84353052354363], [-60.1362919079968, 45.8435153905663], [-60.13629863478343, 45.84350678340055], [-60.136305693800864, 45.84349772552097], [-60.13642404986243, 45.84339989288275], [-60.13658303535619, 45.8432130609813]]}, "properties": {"OBJECTID": 4688, "FEAT_CODE": "WACO20", "FEAT_DESC": "Coast - Water to the right line", "RIVNAME_1": " ", "RIVNAME_2": " ", "ZVALUE": 0.6, "FID": null, "SHAPE_Length": 1004.5031474210653}}, {"type": "Feature", "id": 4780, "geometry": {"type": "LineString", "coordinates": [[-60.13658303535619, 45.8432130609813], [-60.13672925610122, 45.84299890599481], [-60.136818238576495, 45.84288493572884], [-60.13690294734195, 45.842776438786295], [-60.13695401166586, 45.84271370482425], [-60.136982669237646, 45.842678527813995], [-60.137009834074924, 45.84264633767126], [-60.13708825904787, 45.84255336260633], [-60.13711452966946, 45.842518017697536], [-60.137194771254855, 45.842410218601024], [-60.13726511770339, 45.84233963314014], [-60.137300678187366, 45.84230394506216], [-60.13748404221442, 45.842143843792805], [-60.137576162595366, 45.84205524416808], [-60.13760945235819, 45.84201435954139], [-60.13765588223883, 45.84195733266228], [-60.1376793733629, 45.84192092783746], [-60.137696469908875, 45.84189444371861]]}, "properties": {"OBJECTID": 4780, "FEAT_CODE": "WACO20", "FEAT_DESC": "Coast - Water to the right line", "RIVNAME_1": " ", "RIVNAME_2": " ", "ZVALUE": 0.6, "FID": null, "SHAPE_Length": 170.73436873868644}}, {"type": "Feature", "id": 4781, "geometry": {"type": "LineString", "coordinates": [[-60.13469314959031, 45.84096852396897], [-60.134681560262884, 45.84096549683816], [-60.13465502726949, 45.84095855730816], [-60.13463242756856, 45.84095853017942], [-60.1346163960246, 45.840958496871316], [-60.13453953024883, 45.84097546965338], [-60.134486665685415, 45.84100203669153], [-60.13446038086467, 45.84103738964764], [-60.1344472604958, 45.84105914859191], [-60.134433634608804, 45.84108172293098], [-60.134406380254106, 45.84113594446235], [-60.134406330247316, 45.84115045268335], [-60.1344062803444, 45.84116295370274], [-60.13444398800194, 45.841180992861105], [-60.13450428930324, 45.84122449560087], [-60.13450730613485, 45.84122668653296], [-60.134507011039666, 45.841242205705996], [-60.134505734629265, 45.841307655330965], [-60.134478117780745, 45.84134386594909], [-60.13446599491372, 45.84135623497288], [-60.13445229510957, 45.84137022058486], [-60.134448365815125, 45.841372003156245], [-60.13441274076469, 45.84138812073988]]}, "properties": {"OBJECTID": 4781, "FEAT_CODE": "WACO20", "FEAT_DESC": "Coast - Water to the right line", "RIVNAME_1": " ", "RIVNAME_2": " ", "ZVALUE": 0.6, "FID": null, "SHAPE_Length": 68.0556008073784}}, {"type": "Feature", "id": 4783, "geometry": {"type": "LineString", "coordinates": [[-60.13463630960061, 45.833301013543945], [-60.13479948927493, 45.833483327098094], [-60.13504879132241, 45.83381901709577], [-60.13518393797561, 45.834015694177], [-60.135210536219134, 45.83405439949276], [-60.13527186857516, 45.83416394952525], [-60.1353459558463, 45.83432602491396], [-60.1354006116784, 45.83442091586493], [-60.13545591960205, 45.83451690326005], [-60.13551812349362, 45.83463457584966], [-60.13557383333052, 45.83475007826833], [-60.13564031002136, 45.834887867038525], [-60.13572302636925, 45.83503640524323], [-60.1357511335733, 45.83508686748394], [-60.13582517719415, 45.83524984153492], [-60.135915141720396, 45.835474421196565], [-60.13597013353296, 45.83561171462794], [-60.136003578449106, 45.83571171676066], [-60.13604269534701, 45.83582865688276], [-60.13608925948258, 45.83599994234376], [-60.13612427519799, 45.836170938100274], [-60.13613022225501, 45.836337523309325], [-60.13613166506454, 45.83637814465362], [-60.13613343303359, 45.83640766701757], [-60.136141362525734, 45.83654040448055], [-60.13617496840272, 45.83673836760597], [-60.1362816782194, 45.83711818278713], [-60.136342347104, 45.83729368329182], [-60.136412871415935, 45.83749770283775], [-60.136460723920905, 45.83766902041995], [-60.13648945669006, 45.83777330564355], [-60.136520428639976, 45.83788564883536], [-60.13658178724478, 45.8381814457692], [-60.136600946442734, 45.838273807658744], [-60.13665834538958, 45.8385353737452], [-60.136668142747, 45.83867063322936], [-60.13668946295347, 45.83883228435519], [-60.13670304758465, 45.8389191058633], [-60.13672340167507, 45.8390491575289], [-60.136754459306076, 45.83925994581971], [-60.136777836568555, 45.839418660199065], [-60.13678192447981, 45.83950660266741], [-60.13678702198173, 45.83961601963848], [-60.13679184459382, 45.83969918304039], [-60.136795897253826, 45.83976924880013], [-60.13678099358539, 45.83985888421086], [-60.1367225500802, 45.840119345207675]]}, "properties": {"OBJECTID": 4783, "FEAT_CODE": "WACO20", "FEAT_DESC": "Coast - Water to the right line", "RIVNAME_1": " ", "RIVNAME_2": " ", "ZVALUE": 0.6, "FID": null, "SHAPE_Length": 785.0447629371126}}, {"type": "Feature", "id": 4818, "geometry": {"type": "LineString", "coordinates": [[-60.139564603956906, 45.84185395393868], [-60.13960180621377, 45.841881888729915], [-60.13967897232265, 45.841909024537614], [-60.13972986164792, 45.84194630309816], [-60.13974851676352, 45.841966752478285], [-60.13975424832661, 45.84197301668725], [-60.13975404656072, 45.841985990949865], [-60.139753132524454, 45.84204499604177], [-60.139765072326014, 45.84206329698503], [-60.139792217321606, 45.84206359897967], [-60.139829414796054, 45.84206400878261], [-60.1398803101483, 45.84203964917117], [-60.13992052547843, 45.84202038654061], [-60.13994073731905, 45.84201123487805], [-60.13996007906665, 45.84200247545787], [-60.14007586881488, 45.84200447587369], [-60.14011368806012, 45.84199552220705], [-60.140189409805615, 45.84196644678805], [-60.14029629331908, 45.84192538854699], [-60.140382453206186, 45.84190421622243], [-60.14039933054119, 45.841900066476676], [-60.14046414661506, 45.84189178886487], [-60.14065721211129, 45.8418939239195], [-60.140709069916916, 45.84191232437881], [-60.140746733662844, 45.84193126943937], [-60.14078526884913, 45.841958337132866], [-60.14080503741915, 45.84201987639], [-60.14080859189326, 45.84203092851644], [-60.1408208540955, 45.842035159994275], [-60.14083391369258, 45.842039663465215], [-60.140865306998116, 45.84203321289718], [-60.140873117659545, 45.84203158130879], [-60.14089913176856, 45.84202329485142], [-60.14091576909372, 45.84202332444355], [-60.14093776340007, 45.84202336216857], [-60.14098169168666, 45.84205526332409], [-60.14101350185656, 45.84207836415092], [-60.14104731167093, 45.84207853571031], [-60.14110362706477, 45.842078820761515], [-60.14115599611615, 45.842062130257396], [-60.14118315365016, 45.84204736470624], [-60.141220908458294, 45.84202685188663], [-60.14135063679265, 45.84198329536108], [-60.1414540844559, 45.84197508434966], [-60.14169905845609, 45.8419695163567], [-60.141788676758125, 45.84197986073986], [-60.141821895520394, 45.841957136952075], [-60.1418407267774, 45.84194426001721], [-60.141852480342614, 45.841934293211935], [-60.1418932374051, 45.841899669888186], [-60.141996734581156, 45.841865356976015], [-60.14210303340424, 45.84182336431311], [-60.142153152929886, 45.841803565732505], [-60.14223129110877, 45.841786619668625], [-60.14237295875214, 45.8417613626511], [-60.14242111178361, 45.84177064168807], [-60.14247497764127, 45.84178102678443], [-60.1425139746284, 45.841799095537084], [-60.14256592851391, 45.84179049481662], [-60.14265229773007, 45.841749127967496], [-60.14265702430209, 45.84174686101578], [-60.142689630776566, 45.84173758701767], [-60.142747197960176, 45.8417212238931], [-60.14276269462064, 45.84172139568707], [-60.142875908537285, 45.84172263572705], [-60.14303084835264, 45.84171482075957], [-60.143120466545206, 45.84172516409352], [-60.143222486585586, 45.84174480958461], [-60.14330709088384, 45.84177535137701], [-60.14340203898595, 45.841809617261184], [-60.143446173724755, 45.84183524899532], [-60.14352835225955, 45.841882984680595], [-60.14380789484761, 45.84205739518249], [-60.14393420922266, 45.84213076217579], [-60.144013312586694, 45.84219279503861], [-60.14407411646937, 45.84224048169316]]}, "properties": {"OBJECTID": 4818, "FEAT_CODE": "WACO20", "FEAT_DESC": "Coast - Water to the right line", "RIVNAME_1": " ", "RIVNAME_2": " ", "ZVALUE": 0.6, "FID": null, "SHAPE_Length": 416.38463930675135}}, {"type": "Feature", "id": 13609, "geometry": {"type": "LineString", "coordinates": [[-60.137909304755865, 45.84033787755328], [-60.138049531885436, 45.840108512027015], [-60.138085829016596, 45.8400534091839], [-60.13810260254647, 45.84002793400524], [-60.13817630976607, 45.83995325578375], [-60.13822769887697, 45.83990117745851], [-60.13823436847741, 45.839894422930826], [-60.13832591558959, 45.83979054275728], [-60.13836000445876, 45.8397518651539], [-60.13840665994998, 45.839698921025665], [-60.1384146763014, 45.839692020223886], [-60.138442296384525, 45.839668229994786], [-60.138550824434965, 45.83957472125482], [-60.13859837061865, 45.839504157573806], [-60.13860517996141, 45.839494175197345], [-60.138619158258784, 45.83942251818992], [-60.13861971667862, 45.8393983287198], [-60.13861980470982, 45.839394604546484], [-60.13861989842886, 45.839390016427686], [-60.13862017794576, 45.83937753916131], [-60.138618272437505, 45.83937401705133], [-60.13859547522261, 45.83933191547175], [-60.13855869017849, 45.839295889970764], [-60.138543854166436, 45.839285113079924], [-60.138520204004784, 45.83926792264759], [-60.13849489669182, 45.83925918754243], [-60.138340567738105, 45.83923011689019], [-60.138174663903236, 45.83920075589296], [-60.138111045768156, 45.83916415665429], [-60.138105299413624, 45.83915618181467], [-60.138085661203014, 45.839128317759716], [-60.13807236311646, 45.83909836239952], [-60.13806142026992, 45.83907370461043], [-60.1380529050791, 45.83902708242964], [-60.13804992889226, 45.83901079717299], [-60.138038297148974, 45.838947112136346], [-60.13804017895576, 45.83887856331547], [-60.138042741258324, 45.838785207021154], [-60.13805718129462, 45.83870456073188], [-60.13808066249746, 45.838639703661045], [-60.13809917542325, 45.838588601462114], [-60.13810716500782, 45.83853403114875], [-60.13811507084421, 45.83848008879943], [-60.13810567176438, 45.83833674759916], [-60.138084496042545, 45.83829141922254], [-60.13808014548375, 45.83828209322738], [-60.13805672974454, 45.83823650167383], [-60.13801829603666, 45.838182432827715], [-60.137993496198085, 45.83816381832091], [-60.13792924356664, 45.838136095976054], [-60.13783896031874, 45.83808739696207], [-60.13782774547912, 45.83808134622784], [-60.13779054658278, 45.838053410922996], [-60.13775247678569, 45.83801735294582], [-60.1377173186331, 45.83789945959008], [-60.13770441472151, 45.8378229343082], [-60.137694611810716, 45.83776477663443], [-60.13767950220589, 45.837720194318145], [-60.13765770654575, 45.83765584037449], [-60.13764472952781, 45.837624155829744], [-60.137609641877624, 45.837538523496285], [-60.137603806264416, 45.83752601892911], [-60.137596878910266, 45.837511200756936], [-60.137603891804275, 45.83749423882764], [-60.13761159771802, 45.83747556609606], [-60.137624543418255, 45.837448887899136]]}, "properties": {"OBJECTID": 13609, "FEAT_CODE": "WACO20", "FEAT_DESC": "Coast - Water to the right line", "RIVNAME_1": " ", "RIVNAME_2": " ", "ZVALUE": 0.6, "FID": null, "SHAPE_Length": 375.54368622816355}}, {"type": "Feature", "id": 13610, "geometry": {"type": "LineString", "coordinates": [[-60.137624543418255, 45.837448887899136], [-60.13763786500399, 45.8374402299641], [-60.13765334053272, 45.83743476734914], [-60.13766408153065, 45.83743097721782], [-60.137697559803314, 45.83742601093886], [-60.13771599868775, 45.837423277878685], [-60.13773458996699, 45.83742309589624], [-60.137741766322435, 45.837423023781085], [-60.137745053788564, 45.8374244563353], [-60.13786898469031, 45.83747841839081], [-60.13789400266129, 45.837493528036646], [-60.137945175304516, 45.8375244328737], [-60.13805810306577, 45.83760738088209], [-60.138260409252126, 45.83778076011415], [-60.13830054686243, 45.83781567263009], [-60.138386135140294, 45.837890122244985], [-60.138439143454335, 45.83795428625704], [-60.13846130701253, 45.837981115437906], [-60.138475922469986, 45.83801074373831], [-60.1385102961432, 45.83808045328016], [-60.13854632713515, 45.83820646908821], [-60.13851463566187, 45.83842259693408], [-60.13851010441976, 45.83843837898836], [-60.13848641302836, 45.83852089968238], [-60.13848586651664, 45.838545107455026], [-60.13848539328266, 45.83856587871354], [-60.13850820206686, 45.83860799861174], [-60.13851009560555, 45.83861150242214], [-60.13852145680946, 45.83861922192668], [-60.13853622757311, 45.838629259111066], [-60.13858076919329, 45.8386543988927], [-60.13858630113368, 45.83865751684048], [-60.138676310522264, 45.838684975228574], [-60.138959425362756, 45.838688469832405], [-60.13905465284787, 45.83870935299871], [-60.13939495338624, 45.83878398258833], [-60.13946509290224, 45.83879688307138], [-60.13949701180016, 45.83880275030235], [-60.139599903537814, 45.838804014016574], [-60.1397801402494, 45.83880624320776], [-60.14011633523708, 45.838729156339326], [-60.1402721430608, 45.83870425612868], [-60.14030958957996, 45.8387045370025], [-60.14037512386046, 45.83870503532468], [-60.140388600990114, 45.83871017037087], [-60.14040037229336, 45.838714668629954], [-60.140425185597124, 45.83873329194846], [-60.140437996302374, 45.8387597154683], [-60.14043089461548, 45.83877339901036], [-60.14042370654111, 45.838787260406626], [-60.14039788785787, 45.83881361649242], [-60.14037124390963, 45.838830950985], [-60.14033838642146, 45.83885745479073], [-60.14029333158953, 45.83889379710875], [-60.140175133840266, 45.838963752924336], [-60.14012261189427, 45.83900834199374], [-60.13996468214666, 45.839150200764905], [-60.13995673404759, 45.839154520122406], [-60.13994487804635, 45.83916096481099], [-60.13989977248145, 45.83918547849717], [-60.13975672754065, 45.839237700688045], [-60.13973337446297, 45.83924911386296], [-60.139665588151225, 45.83928222218141], [-60.13962644666978, 45.83931724523219], [-60.1396037726096, 45.8393548410569], [-60.139599705354605, 45.83936157985457], [-60.13955462499234, 45.839485536161654], [-60.13954423551757, 45.839514105799715], [-60.13951007454652, 45.83958961370064], [-60.139503567683875, 45.83960399615644], [-60.13950939198147, 45.83962627533367], [-60.13951542238297, 45.83964930675035], [-60.139552183020726, 45.839685322327334], [-60.139653555148044, 45.83976797920734], [-60.13974163940986, 45.83985838592815], [-60.139842174104906, 45.83993202074218], [-60.139951928169985, 45.840001917011996], [-60.139956903593614, 45.840005092958755], [-60.13999860285961, 45.84002441839303], [-60.14013553790979, 45.84008787564081], [-60.14029995339371, 45.84017120198959], [-60.140364670458396, 45.840189933702796], [-60.140428563230685, 45.84019962581645]]}, "properties": {"OBJECTID": 13610, "FEAT_CODE": "WACO20", "FEAT_DESC": "Coast - Water to the right line", "RIVNAME_1": " ", "RIVNAME_2": " ", "ZVALUE": 0.6, "FID": null, "SHAPE_Length": 548.8757458380214}}, {"type": "Feature", "id": 13611, "geometry": {"type": "LineString", "coordinates": [[-60.137696469908875, 45.84189444371861], [-60.13770986764319, 45.8418642485004], [-60.137724123395884, 45.84183213959442], [-60.13773764221033, 45.84176947210982], [-60.137752954679534, 45.84159080080077], [-60.137756893173496, 45.84154492286642], [-60.13776263341257, 45.84152315854608], [-60.13777128283622, 45.84149037803052], [-60.13782440697194, 45.84138369883872], [-60.13791795555671, 45.8412672318994], [-60.13808886876847, 45.84109869869672], [-60.13812225795799, 45.84106087671983], [-60.13812850702786, 45.841053787625015], [-60.13818281857441, 45.840974140770854], [-60.13819722051024, 45.840919596185515], [-60.13818533294373, 45.84087519372956], [-60.13815243467933, 45.84084321693318], [-60.13814730717265, 45.84083823691278], [-60.13813044705632, 45.84082925442175], [-60.138095912519724, 45.84081084597725], [-60.137975923340015, 45.84077277961948], [-60.13791724037596, 45.84075416181214], [-60.137854270551976, 45.840726480597304], [-60.13785289182219, 45.84072549193716], [-60.137803337463865, 45.84069010018451], [-60.137785013987134, 45.84067274610897], [-60.13776526594051, 45.84065404218341], [-60.137753424898655, 45.84060874075509], [-60.1377815522533, 45.840537438570514], [-60.13784840779365, 45.84043920441742], [-60.13786485210002, 45.84041211885846], [-60.13787386895988, 45.840397268365194]]}, "properties": {"OBJECTID": 13611, "FEAT_CODE": "WACO20", "FEAT_DESC": "Coast - Water to the right line", "RIVNAME_1": " ", "RIVNAME_2": " ", "ZVALUE": 0.6, "FID": null, "SHAPE_Length": 194.95583656093882}}, {"type": "Feature", "id": 13612, "geometry": {"type": "LineString", "coordinates": [[-60.14040411281012, 45.840446439584376], [-60.140344874176535, 45.84045045541175], [-60.14032169671421, 45.840453412244266], [-60.14028005977425, 45.840458732996815], [-60.14023381845321, 45.84046896091475], [-60.140203196234495, 45.840475709651756], [-60.1401891313506, 45.84048278310599], [-60.14015033426749, 45.84050228837976], [-60.140085873858865, 45.84053932364457], [-60.14005876534592, 45.840554900246936], [-60.13979922939666, 45.84066901097895], [-60.13968180668235, 45.84074887769428], [-60.1396664017908, 45.840775548508574], [-60.13964082005768, 45.8408198581784], [-60.13964028043035, 45.8408439401082], [-60.13963980157199, 45.840864828235624], [-60.13964535704868, 45.84088607456284], [-60.13965164373938, 45.840910138493335], [-60.1397396960128, 45.841001453490435], [-60.13985257021133, 45.841110491978604], [-60.13994107123816, 45.841192817144275], [-60.14000708421371, 45.841298305328934], [-60.140014867448365, 45.84131076854396], [-60.14002684196001, 45.84133240967032], [-60.14003961778183, 45.84135550201323], [-60.14005136410125, 45.84142780356631], [-60.14004952024423, 45.84146376103487], [-60.140041992667726, 45.84148800095316], [-60.14003563986923, 45.841508417907484], [-60.13999645088604, 45.84154433997838], [-60.13993199936479, 45.841570628284295], [-60.139855572171086, 45.841588857761465], [-60.13978858360737, 45.84160484839116], [-60.13975541911529, 45.84160917507983], [-60.13972505442259, 45.841613148857505], [-60.13967263930004, 45.84163073764241], [-60.13964553271305, 45.84165706128462], [-60.13961617765645, 45.84169031329793], [-60.13960588279705, 45.84170196358622], [-60.13955239715826, 45.84179064171574], [-60.13955216084943, 45.84180629738523], [-60.13955183913538, 45.841826631390106], [-60.139564603956906, 45.84185395393868]]}, "properties": {"OBJECTID": 13612, "FEAT_CODE": "WACO20", "FEAT_DESC": "Coast - Water to the right line", "RIVNAME_1": " ", "RIVNAME_2": " ", "ZVALUE": 0.6, "FID": null, "SHAPE_Length": 220.43003119911745}}, {"type": "Feature", "id": 14238, "geometry": {"type": "LineString", "coordinates": [[-60.13787386895988, 45.840397268365194], [-60.13790192751006, 45.8403496368332], [-60.137909304755865, 45.84033787755328]]}, "properties": {"OBJECTID": 14238, "FEAT_CODE": "WACO25", "FEAT_DESC": "Coastline Indefinite - Water to the right line", "RIVNAME_1": " ", "RIVNAME_2": " ", "ZVALUE": 0.6, "FID": null, "SHAPE_Length": 7.153966120270104}}, {"type": "Feature", "id": 15266, "geometry": {"type": "LineString", "coordinates": [[-60.14484782668549, 45.841088805052266], [-60.144641820169255, 45.84111335618739], [-60.14449977653365, 45.841120604792486], [-60.144435895217704, 45.84111090625007], [-60.14433689513217, 45.84107781800504], [-60.14427001797566, 45.8410554521597], [-60.14420483775224, 45.84104572099865], [-60.14413998023519, 45.84103823909982], [-60.14411522040343, 45.84103537853615], [-60.14408814750832, 45.84103493535917], [-60.14401228111758, 45.8410337036725], [-60.14397401563168, 45.841051648382816], [-60.14384245001352, 45.841131165585836], [-60.14377800068788, 45.84115745611946], [-60.14373849491153, 45.841174469631184], [-60.14368700213412, 45.84117408150797], [-60.14365524715856, 45.841164727201175], [-60.14362356844331, 45.84115539279521], [-60.143522915041785, 45.841115367780056], [-60.14348347416898, 45.841099682507995], [-60.14332913723981, 45.84107061842807], [-60.143313310928974, 45.841074371862014], [-60.14329133195572, 45.841079573510314], [-60.143173182208024, 45.84112343096688], [-60.14309587138209, 45.84114939029168], [-60.14307326604339, 45.84115274003813], [-60.14304396421664, 45.84115709233118], [-60.14304238367562, 45.84115652172697], [-60.14299339244644, 45.84113872511371], [-60.142941995037255, 45.841111336299], [-60.14291206263679, 45.841100596247934], [-60.14283956551885, 45.84107456956899], [-60.14277654342505, 45.841072992420706], [-60.14269789981908, 45.84109982721459], [-60.14264892072657, 45.84114061770504], [-60.14264543665548, 45.84114351881352], [-60.142641337392675, 45.84114736762339], [-60.142579144572586, 45.84120576620705], [-60.14254814996979, 45.841227321757806], [-60.142540430829825, 45.84123270013162], [-60.142516175858766, 45.8412466295594], [-60.14244887569975, 45.84128531425738], [-60.1423062752469, 45.84132854984855], [-60.14215174697763, 45.84135348486859], [-60.14208655397482, 45.84134375217677], [-60.142003269455316, 45.841328445055446], [-60.14198450236816, 45.841324995966644], [-60.14193300950226, 45.84132460704908], [-60.14180329601021, 45.84136816460998], [-60.141738053226966, 45.84138453312251], [-60.141673237900626, 45.84139281147683], [-60.14158357449116, 45.84138336596281], [-60.14155335066663, 45.84137781178635], [-60.14153254230744, 45.841373987484275], [-60.14148239865681, 45.84135179592589], [-60.141405357474746, 45.8413176977577], [-60.14139159040563, 45.84131443676607], [-60.1413671866133, 45.841308650222054], [-60.14132496663691, 45.841308250178955], [-60.14125135258325, 45.841307541097486], [-60.14122385482135, 45.841320912006026], [-60.14119851017812, 45.8413332297084], [-60.14112943355453, 45.84137539750492], [-60.14106822670403, 45.84141276681625], [-60.14095126494633, 45.84148364545986], [-60.14088552774769, 45.841509902108974], [-60.140878588909985, 45.84151211358732], [-60.14085934345169, 45.84151824730797], [-60.140820712171546, 45.841518179972525], [-60.14077014132051, 45.84149980279115], [-60.14076045870661, 45.841494240767105], [-60.14070634340575, 45.84146311050675], [-60.14068703756363, 45.84143500320959], [-60.140681177249824, 45.84142647659332], [-60.1406569328573, 45.84137186393093], [-60.14067321342454, 45.8412552597803], [-60.14066472026044, 45.84124609116717], [-60.140647586513495, 45.84122761523331], [-60.14053460115464, 45.841145577495524], [-60.14050943524664, 45.841108943548484], [-60.140501836091204, 45.84108058036167], [-60.140497545333, 45.84106455027957], [-60.140510964790636, 45.841028873718415], [-60.14060312463804, 45.84093937254081], [-60.14061633089191, 45.84092794809195], [-60.14064355286912, 45.84090438138722], [-60.140656984591374, 45.840868714116375], [-60.140657242179685, 45.840858414520234], [-60.140660533039856, 45.84072388825772], [-60.14071554676436, 45.84064930729762], [-60.14073942004143, 45.84061695282082], [-60.14075124975848, 45.840582136508466], [-60.140754585751665, 45.840572328047465], [-60.14075519937766, 45.84054503463872], [-60.14075559092124, 45.840527348645416], [-60.140735862934996, 45.840503713236416], [-60.1407179912498, 45.840482302533964], [-60.1406792509885, 45.840468046978124], [-60.14061561051591, 45.84044463492901], [-60.140559655610915, 45.84044388161426], [-60.140461180568614, 45.84044256737477], [-60.14040411281012, 45.840446439584376]]}, "properties": {"OBJECTID": 15266, "FEAT_CODE": "WACO20", "FEAT_DESC": "Coast - Water to the right line", "RIVNAME_1": " ", "RIVNAME_2": " ", "ZVALUE": 0.6, "FID": null, "SHAPE_Length": 507.4289089002223}}, {"type": "Feature", "id": 15341, "geometry": {"type": "LineString", "coordinates": [[-60.140428563230685, 45.84019962581645], [-60.14050577786373, 45.84020065963378], [-60.14070031640562, 45.840148826024794], [-60.140790027905375, 45.840132170787655], [-60.14115144167884, 45.84009081599347], [-60.14144476114412, 45.840051130519036], [-60.14157808337048, 45.84003309129737], [-60.141638099885334, 45.84002117349884], [-60.14198370413606, 45.83995256153343], [-60.14200481999131, 45.83994836463539], [-60.1422765573538, 45.839897569693086], [-60.1424310948306, 45.83987262573435], [-60.14267748718516, 45.839839188312155], [-60.14279295781867, 45.83981791962312], [-60.14285819423391, 45.83980590679014], [-60.14328446696946, 45.83973016464692], [-60.143479461877774, 45.83966933680112], [-60.14364790794916, 45.83959884351077], [-60.143726503403514, 45.83957289794575], [-60.14379187154656, 45.83952862859312], [-60.143896756506514, 45.83946735492506], [-60.143922304210285, 45.839441486322585], [-60.143949697688235, 45.83941377369477], [-60.14398649329994, 45.839385279151934], [-60.14404089561188, 45.83934314759021], [-60.144063766373904, 45.839320011278026], [-60.14409386271736, 45.83928955794003], [-60.14414917532993, 45.83921581087777], [-60.14417404007054, 45.83918265239498], [-60.14420164537637, 45.83914727622426], [-60.144292549547416, 45.839030809905246], [-60.144348411333404, 45.838981036919144], [-60.14437215847482, 45.83895989366485], [-60.14463454584339, 45.838764835586325], [-60.14465094983966, 45.83875481377679], [-60.14476481851675, 45.83868528511941], [-60.14494369712475, 45.838591018363665], [-60.14494745550807, 45.838589042137464], [-60.14495316242697, 45.83858623254752], [-60.14509012831038, 45.83851880229923], [-60.145212157800955, 45.83844278057633], [-60.14524708807725, 45.83842101667341], [-60.14549646882138, 45.838253534227974], [-60.14552269646102, 45.838244297956244], [-60.14557408214576, 45.83822332340153], [-60.145587129176846, 45.83821799701576], [-60.145664801339876, 45.83821003786454], [-60.14581923850167, 45.83821209855847], [-60.14583803517671, 45.83821495369766], [-60.14588312965978, 45.838221796579724], [-60.145921618949885, 45.838249761494566], [-60.1459349857084, 45.838262849935894], [-60.145958408208436, 45.83828578472412], [-60.14600841659041, 45.838338790080414], [-60.14600971086931, 45.838340172571364], [-60.146011983084634, 45.83834761012208], [-60.146020732114884, 45.838376451737886], [-60.14602658104318, 45.83840433876883], [-60.146032119576496, 45.8384307418901], [-60.14600859919041, 45.83847918193686], [-60.14600620989297, 45.83848409971749], [-60.146000903725714, 45.83849770247548], [-60.14597803526382, 45.83855630284449], [-60.145984721743716, 45.83859424683514], [-60.14598902160687, 45.8386186837972], [-60.14603934536151, 45.83869195808256], [-60.14606236845737, 45.83870835719982], [-60.146064207053364, 45.83870967228804], [-60.14608499677723, 45.838721398103566], [-60.146179356041856, 45.83877465690848], [-60.14622946689646, 45.83880201211484], [-60.1463342836081, 45.8388467022795], [-60.14638195969305, 45.83886702985386], [-60.14640321434235, 45.83887218756192], [-60.14649770879403, 45.838895125395595], [-60.14667780999988, 45.838923928997524], [-60.146726817625364, 45.83892477571939], [-60.1467936067912, 45.838925922775054], [-60.1470189127224, 45.8389199058572], [-60.14703732725879, 45.83891941190924], [-60.14715399638983, 45.83892952794284], [-60.14718441392588, 45.83893304226968], [-60.14733322574979, 45.83895020789961], [-60.14741487463503, 45.83897403913962], [-60.14746137703724, 45.8389876132533], [-60.1475504722244, 45.8390330436156], [-60.14760009118688, 45.8390702869346], [-60.14765011004394, 45.83912464196097], [-60.14768717475958, 45.83920567608285], [-60.147698117058326, 45.83922589547668], [-60.1477118849664, 45.83925129797948], [-60.147759217055444, 45.8392924715015], [-60.14777476538873, 45.83930597426089], [-60.14792753538733, 45.839416001422094], [-60.14794089095243, 45.83942907134369], [-60.147964326706244, 45.83945202404727], [-60.14798949689662, 45.839488656457625], [-60.1480018057659, 45.83952496758968], [-60.14799631139512, 45.839545532444674], [-60.14798747261547, 45.83957861503663], [-60.14797138907615, 45.83961486499357], [-60.147959818396174, 45.83964093063411], [-60.1478161338057, 45.83975615334839], [-60.14765627618759, 45.83996098097547], [-60.14747147480554, 45.84017508617662], [-60.147364626452365, 45.84030022955729], [-60.14733660530383, 45.840319088420706], [-60.14728593879774, 45.84035316906392], [-60.14725688278494, 45.840361038937594], [-60.14722195171127, 45.8403704721797], [-60.147192215143434, 45.84037427462095], [-60.14715713823505, 45.84037875369671], [-60.147119842118926, 45.840367956764105], [-60.14709241848623, 45.8403600257768], [-60.14701702927301, 45.840323047381716], [-60.14696815954593, 45.84028096204516], [-60.14688999459092, 45.840213662130964], [-60.14685600707958, 45.840149266340745], [-60.146841860949216, 45.84012245014301], [-60.146833973255156, 45.84011300909078], [-60.14680424365934, 45.84007740560294], [-60.14673687942332, 45.84002881836718], [-60.14667756347848, 45.839986030798215], [-60.14664321309815, 45.839973543147444], [-60.14660044187985, 45.83995800974429], [-60.14643417797012, 45.839910640951366], [-60.14632198491365, 45.83990940295321], [-60.14630545888856, 45.839909223915576], [-60.14616379753778, 45.83993448597479], [-60.14614680849552, 45.83993429534064], [-60.14609944440931, 45.83993377748273], [-60.14606151496956, 45.83992882396699], [-60.14602268983732, 45.83992375803972], [-60.14601101394733, 45.83992367319614], [-60.145919706462436, 45.8399229838849], [-60.145842031929305, 45.83993094315204], [-60.145776745920735, 45.83994821298607], [-60.14574253034709, 45.83996002190195], [-60.14572563316813, 45.83996583711159], [-60.14568520874868, 45.84000083016181], [-60.145662045130294, 45.840031961288155], [-60.14564510433707, 45.8400547331183], [-60.14564481574756, 45.84007396085759], [-60.14564454985723, 45.84009073191467], [-60.14566968206176, 45.8401268238314], [-60.145694934172056, 45.840163089757354], [-60.1457197503812, 45.8401817029881], [-60.145752583262514, 45.840190876647405], [-60.145886060431394, 45.8402281738831], [-60.14602678610775, 45.84027280788073], [-60.14606472721814, 45.84028483641765], [-60.146140940985184, 45.84033085497019], [-60.14614827704552, 45.84033849109968], [-60.14616661628511, 45.84035759940033], [-60.14617675715364, 45.840390958241294], [-60.146177637968925, 45.84039387855225], [-60.14615136119682, 45.84042922539643], [-60.14612227087678, 45.84045865131227], [-60.146098394887225, 45.84048281601322], [-60.14607404726388, 45.84050512373251], [-60.14605921092267, 45.840518731291326], [-60.1460191524685, 45.84057173543316], [-60.14595175707656, 45.84070596451607], [-60.1459616709895, 45.840814223303624], [-60.14598068250808, 45.84086247539411], [-60.14598674658168, 45.84087785652607], [-60.14601151491559, 45.84092258014381], [-60.146092867029004, 45.84104965437838], [-60.146110480109094, 45.8410771693892]]}, "properties": {"OBJECTID": 15341, "FEAT_CODE": "WACO20", "FEAT_DESC": "Coast - Water to the right line", "RIVNAME_1": " ", "RIVNAME_2": " ", "ZVALUE": 0.6, "FID": null, "SHAPE_Length": 1162.71822532367}}, {"type": "Feature", "id": 186821, "geometry": {"type": "LineString", "coordinates": [[-60.1377850492519, 45.835650927548215], [-60.13785269628312, 45.835750220399255], [-60.13785929483142, 45.8357598997916], [-60.13785883360563, 45.8357688891505], [-60.13788214579299, 45.835797403417686], [-60.13789639466599, 45.83581483536503], [-60.13789379568034, 45.83594078310865], [-60.137866131838685, 45.83600310506036], [-60.13781112278724, 45.83614663186136], [-60.13774325248186, 45.83628984520483], [-60.1376869046704, 45.83645945004922], [-60.137660346295455, 45.83655768633168], [-60.137645579539885, 45.83661232974452], [-60.137603890668935, 45.8367471984623], [-60.137560500355846, 45.8368901253331], [-60.1375064116837, 45.837015682208936], [-60.1374653274375, 45.837113662257764], [-60.137455622703776, 45.837150457722174], [-60.13745093881424, 45.837168207111475], [-60.137488448693254, 45.83724025483487], [-60.13749103050798, 45.83724640418805], [-60.13749992547978, 45.83726754534036], [-60.1375068396536, 45.83727734967631], [-60.13752513389712, 45.83730328094947], [-60.13753047349928, 45.83732369389443], [-60.137536974180456, 45.83734858240352], [-60.13754892517305, 45.83736688387329], [-60.13757453597154, 45.837394528731714], [-60.137624543418255, 45.837448887899136]]}, "properties": {"OBJECTID": 186821, "FEAT_CODE": "WARV50", "FEAT_DESC": "River - Single Line", "RIVNAME_1": " ", "RIVNAME_2": " ", "ZVALUE": 9999, "FID": null, "SHAPE_Length": 209.49714237675326}}]}