{"type": "FeatureCollection", "features": [{"type": "Feature", "id": 19023, "geometry": {"type": "LineString", "coordinates": [[-61.25474030526331, 46.36607395517463], [-61.254737931845206, 46.366094996845256], [-61.25467474098254, 46.36617642674824], [-61.25464620255335, 46.36621320587678], [-61.25453221111285, 46.366260956249114], [-61.25444433359893, 46.366381887914365], [-61.25443583185053, 46.36639083905849], [-61.25434500134955, 46.3664865166714], [-61.25429788813301, 46.36650236616856], [-61.254195079854114, 46.36658265082535], [-61.25420978676705, 46.36663682116939], [-61.25423691960038, 46.366620504592625], [-61.254316263426816, 46.366572792442454], [-61.25434058384888, 46.36658679875517], [-61.254378130492654, 46.36660842298931], [-61.25439012686244, 46.36671094469697], [-61.25439522588809, 46.36675451935546], [-61.254400329756, 46.36683180793092], [-61.254401479143006, 46.36684918640083], [-61.25433304880741, 46.36697300690493], [-61.25431854665569, 46.36700053232587], [-61.25425645564146, 46.36711838361245], [-61.254245700655154, 46.36715520020217], [-61.25422334578314, 46.36723168246206], [-61.25421738172871, 46.36735600679851], [-61.25421665852294, 46.367399915546834], [-61.254214803004196, 46.36751280967603], [-61.25411121117966, 46.36763638107543], [-61.254098055930605, 46.36772280475472], [-61.254096718924536, 46.36780391894767], [-61.25413606852875, 46.367861597618294], [-61.25416535762778, 46.36790451570642], [-61.254213984586094, 46.36792402321229], [-61.25431668223287, 46.3679652002784], [-61.25445471861284, 46.36788515643014], [-61.25454455083597, 46.36782251134786], [-61.2545850922467, 46.36779424047306], [-61.25458529800504, 46.36778166167494], [-61.25458567895692, 46.36775909559952], [-61.254646089156935, 46.36764870644879], [-61.25469982528379, 46.36763230992386], [-61.25473243746857, 46.36762234985377], [-61.254770780983215, 46.36766591901467], [-61.2548574805861, 46.36761792279164], [-61.254814237206325, 46.367551040970014], [-61.254811796440734, 46.367547259727516], [-61.2548684674017, 46.36753749589451], [-61.25490185531554, 46.36753175059776], [-61.25501616110351, 46.36750767454861], [-61.25513698490859, 46.367482230876846], [-61.25519991094729, 46.36745567843105], [-61.25533787095238, 46.36737835933415], [-61.2554150690678, 46.36719512832204], [-61.25544414844582, 46.367089921585006], [-61.255536024743975, 46.36702057494345], [-61.255546934940256, 46.367012335466846], [-61.25563516223074, 46.3669779608988], [-61.25572377141303, 46.3669434300902], [-61.25576135243967, 46.366898256705554], [-61.25581538456889, 46.366833327398986], [-61.255871801633745, 46.366777605409546], [-61.256021736361575, 46.36662952150539], [-61.256134004467064, 46.36656115145786]]}, "properties": {"OBJECTID": 19023, "FEAT_CODE": "WACOIS10", "FEAT_DESC": "Coastal Island - Water to the right line", "RIVNAME_1": " ", "RIVNAME_2": " ", "ZVALUE": 0.4, "FID": null, "SHAPE_Length": 493.0987303760491}}, {"type": "Feature", "id": 19024, "geometry": {"type": "LineString", "coordinates": [[-61.268610010238234, 46.35311625908472], [-61.26861207798519, 46.35298990375478], [-61.26855101446468, 46.35292490808187], [-61.26835828818119, 46.3528400621157], [-61.26831778271113, 46.352820467597006], [-61.26818878977654, 46.35275807870088], [-61.268034595572836, 46.35269237385672], [-61.267982423904066, 46.352658211507965], [-61.26783102890109, 46.352559059888264], [-61.2675105871153, 46.352451721283835], [-61.2671625544911, 46.352371053482564], [-61.266868496959226, 46.35231231687774], [-61.26662887398454, 46.352248635924646], [-61.26634269366999, 46.35218457241853], [-61.26634170159461, 46.352184296374055], [-61.26611860040565, 46.35212099990494], [-61.26583479235506, 46.35214837486915], [-61.26569783402164, 46.35216410811301], [-61.265593670251235, 46.35217608176399], [-61.2654865785675, 46.35218816389498], [-61.26534867652466, 46.352203729402106], [-61.26532181475394, 46.352184709845424], [-61.26525682483012, 46.35218848463993], [-61.26524022255346, 46.3521894476987], [-61.2652126303011, 46.35223991485222], [-61.26518020946629, 46.352299209699574], [-61.26510123248754, 46.35232849407757], [-61.26502397807037, 46.352357147545746], [-61.26488318287964, 46.352420566457916], [-61.264793322444405, 46.352489807327565], [-61.26476916857293, 46.3525084216465], [-61.26465168590893, 46.35260318105226], [-61.264584261619376, 46.35265755237759], [-61.26452062645175, 46.35268132726741], [-61.26429519324023, 46.35276555545131], [-61.26406782877961, 46.35289555474219], [-61.26368457140898, 46.353061993790135]]}, "properties": {"OBJECTID": 19024, "FEAT_CODE": "WACOIS10", "FEAT_DESC": "Coastal Island - Water to the right line", "RIVNAME_1": " ", "RIVNAME_2": " ", "ZVALUE": 0.4, "FID": null, "SHAPE_Length": 458.95127195014135}}, {"type": "Feature", "id": 19025, "geometry": {"type": "LineString", "coordinates": [[-61.256134004467064, 46.36656115145786], [-61.25617947902364, 46.36653345926325], [-61.25622841796456, 46.366493318952394], [-61.25636546381297, 46.36638087582633], [-61.25651993261371, 46.36624425436477], [-61.25662612590788, 46.3662004600713], [-61.25666141824795, 46.366185905343606], [-61.256710315582595, 46.3661727910664], [-61.25683780862476, 46.36613865433685], [-61.25708007355012, 46.36612164826817], [-61.25727546173623, 46.366106960077374], [-61.25732928934201, 46.36612194656501], [-61.2574153079917, 46.36614589268402], [-61.257434319710285, 46.36614779347252], [-61.257473754974725, 46.36615176055929], [-61.25755987294475, 46.36613620726535], [-61.25756039523406, 46.3661046613714], [-61.25756134325244, 46.36604705808602], [-61.25768692232291, 46.36600480927408], [-61.2577637485121, 46.36597604627263], [-61.257792931535896, 46.36596512407194], [-61.25781820654447, 46.36585183077591], [-61.25780018021241, 46.36576252846706], [-61.257826592274114, 46.36575493001345], [-61.257855064188846, 46.36574674194722], [-61.257936482962954, 46.36578940949122], [-61.25794405323575, 46.36579337683336], [-61.25803351937557, 46.365810292055365], [-61.258052835829325, 46.36580710340793], [-61.25806482036316, 46.365805126031844], [-61.25814405805072, 46.365732803718366], [-61.2581567483183, 46.36567346234712], [-61.25822281736352, 46.36563994515422], [-61.258282661877836, 46.36560960907436], [-61.25838357795563, 46.365487586099576], [-61.25839809837894, 46.365470041392534], [-61.25847738193697, 46.36539501955627], [-61.2585990464706, 46.36536951303112], [-61.258763154819185, 46.36533510390292], [-61.258926854445384, 46.365268549459216], [-61.25904988304901, 46.365218511339314], [-61.25928470406779, 46.36517172337126], [-61.25945392124928, 46.365081231294425], [-61.259691056917596, 46.36489401536137], [-61.25985610605862, 46.364819686163564], [-61.260009143052955, 46.364764163813085], [-61.26021471494457, 46.36459563628433], [-61.260401457584635, 46.36441165692636], [-61.26044857567368, 46.36436524112058], [-61.26071372065316, 46.364129696468645], [-61.260848355442555, 46.36400385531905], [-61.26100128994589, 46.36395104806583], [-61.26113408325343, 46.36393562608597], [-61.26115364291686, 46.363933349609894], [-61.261231612217884, 46.363933959533064], [-61.26126183800128, 46.363899544407495], [-61.26129517983105, 46.36386156768207], [-61.26134860106666, 46.36382705531719], [-61.26146857010221, 46.36374953617523], [-61.261546116415296, 46.36370405965076], [-61.26164569250551, 46.36364564312075], [-61.26168297630093, 46.36364116107904], [-61.261751175435826, 46.36363296412184], [-61.261813372793995, 46.363579964061834], [-61.26185790608719, 46.363542022333625], [-61.26200176831823, 46.36332720249621], [-61.26193984918547, 46.363299729234164], [-61.261941622404116, 46.36319178365309], [-61.26202896253051, 46.36309529991578], [-61.26210676454129, 46.36310401566574], [-61.262152587931936, 46.3631069442597], [-61.26225083802588, 46.363113234767255], [-61.26233846445828, 46.36299786422502], [-61.26240803120653, 46.36297725871649], [-61.26247162668258, 46.36295842540096], [-61.26255829792333, 46.362868645062534], [-61.262768953654074, 46.36265041138064], [-61.26306461947542, 46.362442261922396], [-61.26306169191711, 46.36238288068814], [-61.263040393463456, 46.36225590060609], [-61.263109305518036, 46.36209187031231], [-61.26331461060823, 46.3619262130952], [-61.263550535050896, 46.36179317747313], [-61.26368965322381, 46.361698990917354], [-61.263747482061675, 46.36165982838681], [-61.26378411622404, 46.36163805586353], [-61.26387729928066, 46.36158263627088], [-61.263947343332454, 46.361585868976015], [-61.264053354411196, 46.361535450026516], [-61.26408223525735, 46.36143588098502], [-61.264090525454115, 46.361426556908306], [-61.264129859768914, 46.36138232536535], [-61.26419215394544, 46.3613769982768], [-61.26433267008614, 46.36136501083185], [-61.26439695964225, 46.361244154390015], [-61.26443774857514, 46.36118025290306], [-61.264540842206635, 46.36101873864901], [-61.26475654175869, 46.36092604633262], [-61.264926208758624, 46.36078985112749], [-61.265021230615375, 46.36069351766711], [-61.26504387197605, 46.360608649619415], [-61.26505856232314, 46.36055360378224], [-61.26512252640142, 46.36043719696303], [-61.26515887415349, 46.36037104982225], [-61.26530615778402, 46.36017271160212], [-61.26538820619813, 46.36004757907673], [-61.26545387766068, 46.359947415909396], [-61.26554713599813, 46.359719034745005], [-61.26572665315278, 46.35945091327574], [-61.265850848916934, 46.359233576141996], [-61.266001600884074, 46.35905690752984], [-61.266179406064076, 46.358891232984384], [-61.266334271298106, 46.35879321402377], [-61.266360243421275, 46.3587767779556], [-61.266374292936675, 46.358631398545874], [-61.266389124214754, 46.35862319949013], [-61.26646066357718, 46.35858356849245], [-61.266517174898304, 46.35853575359986], [-61.26652378587161, 46.358530174866615], [-61.26649845593894, 46.358414132188564], [-61.266542193535756, 46.358378093540594], [-61.26658913440588, 46.35833941245671], [-61.266656770481774, 46.358272344247546], [-61.26670775211478, 46.35822179942482], [-61.26682729962172, 46.35804764456573], [-61.26688841486111, 46.35789902764266], [-61.26694879383423, 46.35775230751544], [-61.26708743519886, 46.35752387502223], [-61.26713262071605, 46.35744941022626], [-61.267315857995335, 46.357181540573194], [-61.267416262395294, 46.35698574699932], [-61.26748050995136, 46.35694683284028], [-61.267490873335966, 46.35694055492129], [-61.26752694227471, 46.356932812574144], [-61.267611827692534, 46.3569145780339], [-61.26764374990611, 46.356863662955746], [-61.26760765780665, 46.35681745017086], [-61.26758661926008, 46.356790527437454], [-61.267522119397825, 46.3566931062911], [-61.26743430587346, 46.356595511774266], [-61.267513751406256, 46.35649111914738], [-61.2675146608311, 46.356434802116226], [-61.26751519428791, 46.35640230230817], [-61.26756632670707, 46.35636499833214], [-61.26758392406813, 46.35631409117878], [-61.267586742309454, 46.35630594391433], [-61.26758100095868, 46.35628032399172], [-61.26757224122815, 46.35624122137087], [-61.26764421039911, 46.35611795940905], [-61.26765539588254, 46.356104583955656], [-61.26778294467547, 46.35595215822726], [-61.26786966944082, 46.35585922460704], [-61.26789765404056, 46.35582922872069], [-61.26801169735238, 46.35574668987656], [-61.26804395052051, 46.35573215757607], [-61.26814089465516, 46.35568847341727], [-61.26814554349552, 46.35567915687486], [-61.26816900862236, 46.35563216350794], [-61.268170074063384, 46.35556759585458], [-61.268161179377074, 46.35554756216973], [-61.2681400887121, 46.355500082808184], [-61.26813388202858, 46.35546738188315], [-61.268129346715256, 46.35544349025043], [-61.2681383449856, 46.355363580823116], [-61.26813843353947, 46.355362835167014], [-61.268159381387235, 46.35526880581184], [-61.26816034179432, 46.355209618546766], [-61.26821331076275, 46.355158158142956], [-61.26821953317854, 46.35515210542461], [-61.268239046137786, 46.35512075712006], [-61.26833124120474, 46.354972691178574], [-61.268426398252956, 46.35493450568672], [-61.26847593824379, 46.354914628123105], [-61.26854060058743, 46.35490321455713], [-61.26859280602058, 46.35489400628086], [-61.26865981882261, 46.354835342392235], [-61.268633330429076, 46.35479208335469], [-61.268444308452125, 46.35470991266234], [-61.26835646758312, 46.354617754390645], [-61.26835537548509, 46.35455769903], [-61.26835440963414, 46.35450475555964], [-61.26836128073578, 46.35444731381407], [-61.26836790684049, 46.35439186635048], [-61.26839810882762, 46.35420649238778], [-61.26845157654152, 46.35402400880872], [-61.268473756713064, 46.35385473126311], [-61.26848440483589, 46.353677314061635], [-61.268496575746994, 46.35359363665015], [-61.26850627546933, 46.35352687775821], [-61.26854480725697, 46.35341929067741], [-61.26857541397637, 46.35333380448801], [-61.268610010238234, 46.35311625908472]]}, "properties": {"OBJECTID": 19025, "FEAT_CODE": "WACOIS10", "FEAT_DESC": "Coastal Island - Water to the right line", "RIVNAME_1": " ", "RIVNAME_2": " ", "ZVALUE": 0.4, "FID": null, "SHAPE_Length": 1999.425801847166}}, {"type": "Feature", "id": 19026, "geometry": {"type": "LineString", "coordinates": [[-61.26368457140898, 46.353061993790135], [-61.263622663789945, 46.35306403247663], [-61.26355246750756, 46.35306635922621], [-61.26347877775675, 46.35306038888763], [-61.26337711018982, 46.353102629356485], [-61.263333214397214, 46.35317490731986], [-61.26319414542841, 46.353367482023046], [-61.262929320473106, 46.35364785749112], [-61.262712434291835, 46.35384523410815], [-61.26250261500042, 46.354085737597764], [-61.262413747536876, 46.35414930369322], [-61.262294250362416, 46.35423479606644], [-61.26217682627098, 46.35435614872667], [-61.26209268901876, 46.35444308741158], [-61.261922851672864, 46.35461129784786], [-61.26180751115278, 46.35470952486892], [-61.261694267285186, 46.35480597465946], [-61.26154318473038, 46.35501472658961], [-61.26141175436079, 46.35520749624309], [-61.261341869885094, 46.355254808246244], [-61.261183795504934, 46.355361834654374], [-61.26106171304519, 46.35545778937334], [-61.26095863248059, 46.355580816945874], [-61.260948987797924, 46.35559105619569], [-61.26076475745632, 46.35578660385181], [-61.2606507522298, 46.355937220848], [-61.26055811463628, 46.35605961494454], [-61.26043940548248, 46.35616714928351], [-61.260337064169306, 46.35625983962834], [-61.26030690800975, 46.356277029659374], [-61.26026250752065, 46.35630234588085], [-61.260236232907246, 46.35624557919398], [-61.26019632576029, 46.356256284818016], [-61.26015811029618, 46.35626652117598], [-61.26014556303415, 46.35632027604656], [-61.26015947595924, 46.35642003648275], [-61.260154041652775, 46.35651423748075], [-61.26008263895261, 46.35659986548033], [-61.25995147711546, 46.356771199572414], [-61.25994053020958, 46.35678395690628], [-61.2598206261804, 46.35692371030318], [-61.25972278190861, 46.35704826544298], [-61.25971339370149, 46.357060236485566], [-61.25958549613464, 46.35726664772703], [-61.25945064318895, 46.35749720784128], [-61.259353354592996, 46.3576635489784], [-61.25932011370164, 46.35770292980375], [-61.259206518069746, 46.35783753251355], [-61.25911903091771, 46.3579338499312], [-61.259024243122404, 46.358038192070495], [-61.25893244886437, 46.35817758960359], [-61.2587856419437, 46.358348918047064], [-61.25865059766911, 46.35851494449229], [-61.258580105014396, 46.35862536230933], [-61.2585786958693, 46.358627572835985], [-61.25847940102974, 46.358748090802194], [-61.25843288300783, 46.35881172291529], [-61.25835595157147, 46.35891693051661], [-61.2583209767944, 46.35895355853899], [-61.25827673770168, 46.35899987336779], [-61.25815166447134, 46.359031231598394], [-61.2580450238958, 46.359124745349796], [-61.257925851302936, 46.35926938584767], [-61.257765256022296, 46.359564693397516], [-61.25772510416863, 46.35959976634021], [-61.25767044474458, 46.35964752411292], [-61.25757407484437, 46.359824740653046], [-61.25748409199896, 46.36008560115978], [-61.257388268384005, 46.36023047097813], [-61.257348025844834, 46.360314970221665], [-61.25733580924469, 46.36034063189795], [-61.25734610825375, 46.36042431758707], [-61.25734989849318, 46.360440026307046], [-61.257364332448105, 46.36049997011376], [-61.25733302262866, 46.36056600258518], [-61.25731592476604, 46.36060208380941], [-61.2572936968891, 46.36066172073936], [-61.25725478327393, 46.36076613912886], [-61.25714600945562, 46.36098378303344], [-61.25705451768182, 46.36109905470848], [-61.25691414643203, 46.36110604943216], [-61.256740305519266, 46.36125305907058], [-61.25672868083427, 46.361258056783804], [-61.25665399091378, 46.361290145668015], [-61.25663662582102, 46.361397934437726], [-61.25663786120487, 46.361493937908826], [-61.2566383342399, 46.36153014298325], [-61.25663786672303, 46.361558728743354], [-61.2566366450622, 46.36163267182724], [-61.25655074348317, 46.361880237825275], [-61.256522379984865, 46.36192062009664], [-61.25648289095667, 46.36197686161886], [-61.25648255171522, 46.361997736363065], [-61.256481644097036, 46.36205240630583], [-61.256460175955986, 46.362162472449945], [-61.256439066401136, 46.36227066306473], [-61.25636624538345, 46.36239267190429], [-61.256358898758336, 46.362404979801006], [-61.256302934062106, 46.3624858638625], [-61.256279045755996, 46.362520410353596], [-61.25626493361656, 46.36266605751283], [-61.25625804883656, 46.362846851766555], [-61.25612958661992, 46.36307260029281], [-61.25601712326031, 46.36327149384985], [-61.2558619561583, 46.36345927782118], [-61.255723224417615, 46.36359588656328], [-61.25559487895278, 46.36381089929314], [-61.255567278490076, 46.36383746901851], [-61.25546411795764, 46.36393679338675], [-61.25534820106235, 46.36410601468723], [-61.255193419742206, 46.3642668397342], [-61.25513556302098, 46.36428986057394], [-61.25504029851575, 46.36432775433465], [-61.25502575954421, 46.364343408344155], [-61.2548735016939, 46.364507403458774], [-61.254834448809035, 46.36455187910128], [-61.2548098972167, 46.36457984517895], [-61.254773001480686, 46.364687605458656], [-61.25477165526315, 46.36476863855702], [-61.25478628825484, 46.36487043550737], [-61.25478915185175, 46.36489032413727], [-61.254795710844796, 46.36496602393864], [-61.25484196281922, 46.36499879687492], [-61.254907035091016, 46.36501783514848], [-61.254927399297046, 46.36502378898335], [-61.25507637476522, 46.36521679014602], [-61.25513368851679, 46.36537739624018], [-61.255154695428715, 46.36543624360911], [-61.25515211908662, 46.36548774705759], [-61.255148877562355, 46.36555238029438], [-61.25508430982514, 46.365681570200366], [-61.254950062956524, 46.36577509161417], [-61.25480528966596, 46.36579827048949], [-61.254726957162745, 46.36581387756682], [-61.25472648873499, 46.36584204928896], [-61.25472611523925, 46.365865200482816], [-61.25473015364105, 46.3658890220287], [-61.25474034377806, 46.36594909032712], [-61.25474707745286, 46.36601400183401], [-61.25474153592046, 46.36606307501185], [-61.25474030526331, 46.36607395517463]]}, "properties": {"OBJECTID": 19026, "FEAT_CODE": "WACOIS10", "FEAT_DESC": "Coastal Island - Water to the right line", "RIVNAME_1": " ", "RIVNAME_2": " ", "ZVALUE": 0.4, "FID": null, "SHAPE_Length": 1706.3081785383367}}]}