{"type": "FeatureCollection", "features": [{"type": "Feature", "id": 11181, "geometry": {"type": "LineString", "coordinates": [[-61.128624351162976, 45.951070902529025], [-61.12839051446912, 45.95123268242207], [-61.12832539697673, 45.95125051679684], [-61.12822227437166, 45.951285729600166], [-61.12792534788631, 45.95136636971816], [-61.127780244516096, 45.95139944508389], [-61.12777062216242, 45.95140163653994], [-61.12776797343764, 45.95140212416564], [-61.12757716408661, 45.95143716839176], [-61.12747304119342, 45.951463363548704], [-61.12725388027244, 45.951534475854636], [-61.12714943654188, 45.95157056608896], [-61.12705920898105, 45.95160598923897], [-61.12692965563577, 45.95165966875724], [-61.126632542305146, 45.95178440526303], [-61.12634862730795, 45.95190035688402], [-61.12625706585098, 45.95193665757978], [-61.12608860783722, 45.95203470090835], [-61.125959735632236, 45.95210639164512], [-61.12588118969955, 45.95217800778552], [-61.125751483230495, 45.9523126886168], [-61.12571253632876, 45.95235795257323], [-61.12560933540367, 45.95251016918559], [-61.125583011784656, 45.952563740725324], [-61.12546506287641, 45.95277061872155], [-61.12537392299978, 45.952986037026115], [-61.12526888198168, 45.95319312661622], [-61.12525574463718, 45.95323792289225], [-61.125266270621665, 45.95327552000704], [-61.125266640838255, 45.953276786162526]]}, "properties": {"OBJECTID": 11181, "FEAT_CODE": "WACO20", "FEAT_DESC": "Coast - Water to the right line", "RIVNAME_1": " ", "RIVNAME_2": " ", "ZVALUE": 0.2, "FID": null, "SHAPE_Length": 381.6040508962006}}, {"type": "Feature", "id": 11247, "geometry": {"type": "LineString", "coordinates": [[-61.11179403686469, 45.96711198521686], [-61.111795498294526, 45.96703101337461], [-61.11171737264724, 45.967013521092326], [-61.11161377926558, 45.96699647184291], [-61.111601842372025, 45.96699451042216], [-61.11149790463198, 45.9669765823215], [-61.11137037416779, 45.966931280436114], [-61.111340583291344, 45.96691803415224], [-61.11126738470026, 45.9668854660794], [-61.11115109169626, 45.966813357065], [-61.11108186308485, 45.96677639923525], [-61.111048408495506, 45.966758547017356], [-61.11097149408521, 45.966705072026905], [-61.11095084579526, 45.96668638746921], [-61.110881338381425, 45.966623476303724], [-61.11085816595615, 45.9665947593727], [-61.110830560221274, 45.96656053279002], [-61.11077940991964, 45.96647058143018], [-61.11077971582404, 45.96646158593259], [-61.11074117744032, 45.96637993461497], [-61.110741975103785, 45.96628095068544], [-61.11076794759331, 45.96620037518497], [-61.110782340951125, 45.96611870814038], [-61.11078265671595, 45.965957603394], [-61.11075388873151, 45.965888867434344], [-61.11066925774214, 45.96568661141724], [-61.110618108463676, 45.96559665998861], [-61.11060336095425, 45.96558019708449], [-61.11055344802619, 45.96552448619268], [-61.110510291422315, 45.96548036273418], [-61.11046489069667, 45.96543391600039], [-61.11042563647468, 45.96539345727613], [-61.110412518164, 45.965379946474904], [-61.11031127118396, 45.965245063537786], [-61.110259235853455, 45.965181189903156], [-61.110169598705305, 45.96504650787874], [-61.110108054328364, 45.964920328015026], [-61.11008152289314, 45.96486593976031], [-61.11004780862592, 45.96481289076192], [-61.11003006928043, 45.964784983579044], [-61.11001465167392, 45.96477077765145], [-61.109991274943624, 45.96474923960086], [-61.10995354251713, 45.96472705001818], [-61.10991408917721, 45.96470385089041], [-61.10986761590324, 45.96466278650289], [-61.109811344694656, 45.964613054457786], [-61.10977062245428, 45.96457442532825], [-61.10973507711815, 45.96454068813989], [-61.10966740001103, 45.96445292894836], [-61.109658438011266, 45.964441313944505], [-61.10960698539483, 45.96436035758259], [-61.10948018440337, 45.96418004823503], [-61.10947920057951, 45.96417103139471], [-61.10940605726507, 45.964067187590835], [-61.109402868526395, 45.96406266154231], [-61.10932657161222, 45.96399119451441], [-61.10930040185818, 45.96396375973152], [-61.109297261056845, 45.96395934248003], [-61.10923637014199, 45.96387359445227], [-61.10921117136372, 45.9638551762786], [-61.10919848312988, 45.96384232049232], [-61.10918497111601, 45.963828641019894], [-61.109159479135805, 45.96381921854219], [-61.109043300292115, 45.963819104708186], [-61.10890174660979, 45.9638455634004], [-61.10888884754857, 45.96384534987692], [-61.10872108593118, 45.96384436382849], [-61.10861716765911, 45.96382644241197], [-61.10854033915391, 45.9637948925398], [-61.108528068617616, 45.96378986508135], [-61.1083985809352, 45.96372651731685], [-61.108258084103795, 45.96364498598325], [-61.108236465503374, 45.963632873266576], [-61.10819350659569, 45.96360881443933], [-61.1080829937577, 45.96353138863106], [-61.10801324749684, 45.963482521600966], [-61.10797993531033, 45.9634647428344], [-61.10791057322803, 45.963427717841235], [-61.107769145899574, 45.963373172173135], [-61.10751223160791, 45.9633005122734], [-61.10728011915564, 45.96321927114211], [-61.10713869330172, 45.96316471571388], [-61.10700897908037, 45.96314636541851], [-61.10686825606219, 45.963109831424035], [-61.10673920601097, 45.96310949295127], [-61.10659152153534, 45.96309167242269], [-61.106583681121016, 45.96309072342735], [-61.10645457953073, 45.9630903837786], [-61.106247329467514, 45.96309804615308], [-61.106236242002936, 45.96309845639689], [-61.10623238340176, 45.96309844643726], [-61.10617171700309, 45.96309828682193], [-61.105886579748, 45.96313316213608], [-61.105642374583475, 45.963141713792844], [-61.1054610525927, 45.96312250597036], [-61.10531909080582, 45.963121951769665], [-61.10514116762788, 45.963104887937696], [-61.10512614225331, 45.96310345064694], [-61.104854774071185, 45.96307554782972], [-61.104585003243535, 45.96303866130633], [-61.104468482771445, 45.963011535460396], [-61.10434066068804, 45.96297521240168], [-61.10421185582368, 45.962929872328374], [-61.10415958456426, 45.962911003778416], [-61.1040694892936, 45.962866305919654], [-61.104048615328345, 45.96284715732447], [-61.10398061372543, 45.96278473492603], [-61.1039350306546, 45.96270452143076], [-61.103929491100956, 45.96269477188745], [-61.103877465189484, 45.962630904465215], [-61.10385817856863, 45.96261403232085], [-61.10382608459346, 45.962585948911524], [-61.10373726709164, 45.96254127199567], [-61.1036497197859, 45.9625100539354], [-61.103633984837195, 45.96250445540985], [-61.103492344967584, 45.96249489471587], [-61.10333712978925, 45.96246713434325], [-61.1032341993738, 45.96245820698104], [-61.10296349783764, 45.96244832085654], [-61.102847655324936, 45.96243919673551], [-61.10283272631948, 45.9624391018268], [-61.10257669071527, 45.962437396831355], [-61.102449118028034, 45.962413496568495], [-61.10243434476711, 45.962410731027255], [-61.10229233691872, 45.96237417004186], [-61.10224163816775, 45.96234632616873], [-61.102226682008734, 45.96233606909344], [-61.102202569128906, 45.96231957552346], [-61.10213926125389, 45.962283421632876], [-61.10203654725863, 45.962192609656576], [-61.10199369354972, 45.96216860423809], [-61.10197196267351, 45.96215643446158], [-61.101894141231284, 45.96212994892393], [-61.10188512272281, 45.96212609085073], [-61.101830539674445, 45.96210278154456], [-61.10176598606137, 45.96206570669049], [-61.10163778725054, 45.96200237264403], [-61.10141889540214, 45.96191232878613], [-61.10136102798255, 45.961877128929345], [-61.10132912919368, 45.96185773450164], [-61.10127578320984, 45.96182014359152], [-61.10122578961135, 45.961784912519555], [-61.10114950642609, 45.96171344021519], [-61.10109162648619, 45.96167824001227], [-61.10105974083499, 45.961658844826765], [-61.10097799581775, 45.96161276221772], [-61.100867280969496, 45.96155033896979], [-61.10067912786395, 45.96146197564762], [-61.10063483668964, 45.96144116801892], [-61.100390138943375, 45.961350694029385], [-61.10023585191127, 45.96129592516637], [-61.10021997412717, 45.96129263693852], [-61.10014614777084, 45.961277323337356], [-61.100018011826066, 45.961249999768235], [-61.10000009001215, 45.961246101478835], [-61.09999094515546, 45.96124405926806], [-61.09997830364658, 45.96124123885653], [-61.09995284026373, 45.96123181479196], [-61.09994363313522, 45.96122857446648], [-61.09990183116997, 45.96121386533295], [-61.099656815111274, 45.96113238503751], [-61.099450150228364, 45.96108048805868], [-61.09939960636109, 45.96106781144514], [-61.09938490952126, 45.96106433573487], [-61.09932151139435, 45.961049402104], [-61.09919340251128, 45.96102206905707], [-61.09911558433382, 45.960995572671344], [-61.099089787680356, 45.960995143434275], [-61.099077197093685, 45.96098593336821], [-61.09892292531256, 45.96093116297903], [-61.09866536721634, 45.96087647353735], [-61.09839493715948, 45.960821569254676], [-61.098227551531885, 45.960797802601355], [-61.0982010044067, 45.96079403946129], [-61.0981848499388, 45.96079017030762], [-61.098124212662576, 45.960775659995015], [-61.09786666902464, 45.960720968989214], [-61.09769888505804, 45.96068397309506], [-61.09764454715829, 45.96066452710411], [-61.097622388715294, 45.960656597642775], [-61.09753167359754, 45.96062988541103], [-61.09751950162504, 45.96062692853681], [-61.09741648274535, 45.960601865433226], [-61.0973131776253, 45.960565942785514], [-61.09727255448984, 45.96053154107825], [-61.09724921411983, 45.96051177411446], [-61.09721015380875, 45.96048412183779], [-61.09708228490212, 45.960411787578444], [-61.09707132653032, 45.96040429658418], [-61.09704319393842, 45.96038503479017], [-61.09698056472618, 45.960355603749946], [-61.096965716598156, 45.96034864198782], [-61.09695333366542, 45.96034355740496], [-61.09687663102391, 45.96031205575429], [-61.09682516521253, 45.96029769753465], [-61.096811435841495, 45.96029386858628], [-61.09681050594252, 45.960293889097024], [-61.096785595839734, 45.960294338162704], [-61.09670855451615, 45.960320956420404], [-61.09670749008911, 45.960321136699264], [-61.09665662297129, 45.9603299918406], [-61.09646345439436, 45.96035557516981], [-61.09637310565429, 45.96035586982183], [-61.09624437063574, 45.96034652416076], [-61.09581818161768, 45.96031781985886], [-61.095676856941544, 45.960299263144435], [-61.09540581620477, 45.960262342725684], [-61.09516088045042, 45.960216856367346], [-61.09487792348173, 45.96018874557292], [-61.094684351496866, 45.960187317461795], [-61.094567628936275, 45.96020516295484], [-61.09451457982723, 45.96021102856246], [-61.09448991416804, 45.96021375834806], [-61.094479375620665, 45.96022075602057], [-61.09447669437475, 45.960222547413814], [-61.09447425163791, 45.96022302870236], [-61.09429609694694, 45.96025823738485], [-61.09410573976381, 45.96026654653116], [-61.09410221117213, 45.960266703677085], [-61.09372801144978, 45.960264960546354], [-61.09359927718219, 45.96025561191422], [-61.0935746898546, 45.96025605666502], [-61.09357346268205, 45.96025609018972], [-61.09341979037536, 45.96018331221698], [-61.093389890339616, 45.96017272357294], [-61.09318773060825, 45.96010113418023], [-61.09312320807639, 45.96010095726762], [-61.09298070631918, 45.960154382111845], [-61.092851773431185, 45.960226034434164], [-61.09283856658871, 45.96023481452612], [-61.092748581660594, 45.96026211408729], [-61.092743610191675, 45.96026294914679], [-61.09249027269203, 45.96030550435553], [-61.092334785312175, 45.96032360035289], [-61.09225705656532, 45.960332211994164], [-61.092153544757394, 45.960340384004084], [-61.09175351767508, 45.960339103135105], [-61.09112080296083, 45.9604986434769], [-61.09101762250259, 45.96053472175458], [-61.090930335829086, 45.960542794754716], [-61.0909269954325, 45.960543107957065], [-61.0909231657508, 45.960543764005095], [-61.09072059852189, 45.96057836113852], [-61.090603512984266, 45.960605206081816], [-61.09048834830457, 45.96061408187575], [-61.090228711842144, 45.96062953407804], [-61.090216775600275, 45.960630243596654], [-61.08997096819206, 45.96064773550789], [-61.089889632257936, 45.96065951643205], [-61.08972583196456, 45.960683239249086], [-61.08948104855692, 45.96070884773962], [-61.08919623671335, 45.96073468625207], [-61.088925573638825, 45.96076076974198], [-61.088635300781675, 45.96080428262241], [-61.08862852924071, 45.96080529439889], [-61.08852500322317, 45.96081346288188], [-61.08837082085902, 45.96083068426086], [-61.08822764070562, 45.96086609068498], [-61.08812506388686, 45.96088417531456], [-61.088008311858225, 45.96090202261031], [-61.0878790868527, 45.96090166888459], [-61.0876461241276, 45.96090887611708], [-61.08763379910175, 45.96090925483717], [-61.08762090088117, 45.96090903892381], [-61.08738958927505, 45.9609177673666], [-61.08736980691688, 45.9609169591413], [-61.08713056473554, 45.96090713012217], [-61.08634466607545, 45.96090476890906], [-61.0860991331693, 45.96092133902557], [-61.08582729424426, 45.96093840390452], [-61.08556951595241, 45.960928684056334], [-61.08556467757418, 45.96092864797846], [-61.085479197494685, 45.960928070538365], [-61.08536372153372, 45.96094593651544], [-61.085311787412934, 45.96095497573395], [-61.08530919680089, 45.96095562535888], [-61.08506571745681, 45.961017446526434], [-61.08480770959886, 45.961051822995245], [-61.084717049898046, 45.96106110377889], [-61.08453611539229, 45.96106887180185], [-61.08425227947994, 45.96110371491442], [-61.08402030739293, 45.96113043559298], [-61.08373649698943, 45.961165268850756], [-61.08358901355606, 45.961177528819896], [-61.083529398816175, 45.96118248713448], [-61.08346672713571, 45.961191885417676], [-61.08329719842555, 45.96121730302562], [-61.08307726277246, 45.96127031637908], [-61.082896008656306, 45.96132397843859], [-61.08270192995484, 45.96141342724984], [-61.0825987606999, 45.961448598051945], [-61.0825084585893, 45.96148488478827], [-61.0822885211651, 45.96153789659213], [-61.082171455592004, 45.961564733224826], [-61.08204277376139, 45.961590474659594], [-61.08193891682818, 45.96160853224074], [-61.08181056587646, 45.96162617845791], [-61.08152669981846, 45.96166101428946], [-61.081451545709676, 45.96166933779143], [-61.081448968066944, 45.96166960952271], [-61.08143158786031, 45.96167323288727], [-61.08128127472427, 45.961704595562615], [-61.081047560850344, 45.961750245145005], [-61.08100972368943, 45.96175763807949], [-61.08077653078236, 45.961820324932745], [-61.08063463336487, 45.961855743385605], [-61.08051759713749, 45.96188168775937], [-61.08027211377606, 45.96192615694055], [-61.08014343790584, 45.961952796391664], [-61.080046386879715, 45.96195201143073], [-61.08004021957696, 45.961951961785275], [-61.08003006153712, 45.96195236710292], [-61.07983344098668, 45.961960187169964], [-61.07947209882074, 45.961959522489295], [-61.0793917043903, 45.96194282496607]]}, "properties": {"OBJECTID": 11247, "FEAT_CODE": "WACO20", "FEAT_DESC": "Coast - Water to the right line", "RIVNAME_1": " ", "RIVNAME_2": " ", "ZVALUE": 0.2, "FID": null, "SHAPE_Length": 2913.211197288778}}, {"type": "Feature", "id": 11315, "geometry": {"type": "LineString", "coordinates": [[-61.12527547245352, 45.95334013311057], [-61.12528058306015, 45.95338143059707], [-61.12533126056231, 45.953562273652594], [-61.12533259093122, 45.953567974844454], [-61.12534365722012, 45.953615571451145], [-61.12535435457415, 45.95379576742695], [-61.125340472157106, 45.95393954876926], [-61.12531510379169, 45.95400302753948], [-61.12528839941761, 45.954029600038055], [-61.12521091203314, 45.954146235926544], [-61.125184860003195, 45.954191720305396], [-61.1250424779868, 45.954281180421084], [-61.124964838169525, 45.95432580906918], [-61.124692817493674, 45.95443295119101], [-61.12452372908265, 45.954548982976114], [-61.124497980157706, 45.95458546260078], [-61.124394317232465, 45.95467466649039], [-61.124380813028154, 45.95469244592098], [-61.12439439263366, 45.95471067001077], [-61.12441438430165, 45.954733904681106], [-61.12443288601642, 45.954755404778155], [-61.124458223899, 45.95484582646455], [-61.12449519991804, 45.954935530149676], [-61.124498393433306, 45.95494567221668], [-61.12452082833366, 45.95501696501955], [-61.12454257099278, 45.955112214970946], [-61.12454557225093, 45.955125378071614], [-61.12455811914471, 45.95525069196851], [-61.124558042075044, 45.95536769810961], [-61.12456741124097, 45.95539521364876], [-61.124582697793876, 45.955440107421516], [-61.124587116914235, 45.955447965459115], [-61.124608264224186, 45.955485529969074], [-61.124710316757955, 45.955622303758524], [-61.124749009726415, 45.95567415213786], [-61.124774879920764, 45.955710579063286], [-61.12477404497128, 45.95577356934149], [-61.12479051155185, 45.955812182054764], [-61.124812311502566, 45.955863303093345], [-61.12486315453398, 45.95596314388429], [-61.12487326694139, 45.955998853111794], [-61.12488851106195, 45.95605266570595], [-61.12492668478539, 45.956107295674705], [-61.125015951870196, 45.95621496750111], [-61.12505471959744, 45.95625161503841]]}, "properties": {"OBJECTID": 11315, "FEAT_CODE": "WACO20", "FEAT_DESC": "Coast - Water to the right line", "RIVNAME_1": " ", "RIVNAME_2": " ", "ZVALUE": 0.2, "FID": null, "SHAPE_Length": 366.5017767649189}}, {"type": "Feature", "id": 11316, "geometry": {"type": "LineString", "coordinates": [[-61.12505471959744, 45.95625161503841], [-61.1250673009389, 45.95626081309071], [-61.12507082511349, 45.95626574923709], [-61.125079634642205, 45.95627811658941], [-61.12507917930506, 45.956368114798465], [-61.12510512585554, 45.95644054516988], [-61.1251269932553, 45.956471703989976], [-61.125155608030646, 45.95651247813774], [-61.125156000259835, 45.95653948627835], [-61.1251292516118, 45.9565669490601], [-61.125116429952016, 45.95660274090973], [-61.12512580534583, 45.95663620587471], [-61.12512909981576, 45.95664795167899], [-61.1251611552779, 45.956710293647106], [-61.12517996154375, 45.95674689256528], [-61.12520524301612, 45.956800410803055], [-61.12520472486436, 45.956854405704604], [-61.12519247947045, 45.95687311494065], [-61.125153862933296, 45.95690847447471], [-61.12508813077675, 45.95694429804227], [-61.12503719287485, 45.95696236324393], [-61.12497206759416, 45.95698019557009], [-61.12492014337909, 45.956989243964124], [-61.12485913783565, 45.95700545173716], [-61.124856338143026, 45.957006197833664], [-61.12477766483068, 45.957042708865416], [-61.12477317903732, 45.957043706301064], [-61.12473997114259, 45.95705109070592], [-61.12461070634512, 45.95709577173129], [-61.12451955740146, 45.9571581794303], [-61.12446740476215, 45.9572122267038], [-61.12445458251636, 45.957248018466466], [-61.12445465790732, 45.95728402197205], [-61.124466645089576, 45.957311211468266], [-61.124620640338186, 45.957527971016816], [-61.124671198347315, 45.95763590769685], [-61.1246816532791, 45.95768173919097], [-61.124683564798886, 45.957690105093484], [-61.12468326123787, 45.95769910067679], [-61.12468648733284, 45.957716695737595], [-61.12469634042306, 45.95777041984757], [-61.12469611240053, 45.95781541893546], [-61.12475877874506, 45.95802346061233], [-61.124796439591684, 45.95813118552559], [-61.124835314746555, 45.958202928093776], [-61.12487379336371, 45.958248562499286], [-61.12488100397446, 45.958258986498386], [-61.12489839245244, 45.958284068460756], [-61.12495005970314, 45.95832091874336], [-61.1250076554378, 45.958336966990295], [-61.12501526230963, 45.958339089962514], [-61.12511729224665, 45.95837496661348], [-61.12513936799976, 45.95838161130059], [-61.12529742304749, 45.95842922589706], [-61.125386520036784, 45.958460965831726], [-61.12540071278657, 45.95846602302356], [-61.12551632408307, 45.95852012330173], [-61.125536672066964, 45.95852557848973], [-61.12561991755903, 45.95854792464778], [-61.12574873061147, 45.95859324072539], [-61.12579194732673, 45.95861168083881], [-61.12581234062506, 45.95862038592484], [-61.125815450553766, 45.9586203919414], [-61.12587686083525, 45.95862054432586], [-61.12591186573368, 45.95860428751161], [-61.12591619214289, 45.95860227935348], [-61.12598093903647, 45.95855744759059], [-61.12600635523021, 45.958530862816744], [-61.126046275390145, 45.95849551538587], [-61.12609803508885, 45.95841445926184], [-61.126136986081875, 45.958369195280014], [-61.12614980753146, 45.958333403322484], [-61.12615041388883, 45.95831542113838], [-61.12612416213962, 45.95825197758683], [-61.12612273514441, 45.95824990205149], [-61.12609954937491, 45.958216471665786], [-61.12607307050516, 45.95819803620361], [-61.12607022461256, 45.95819708946568], [-61.126047547760365, 45.958189517040765], [-61.12598362186089, 45.958171367353835], [-61.12596657063883, 45.958153491541495], [-61.12595745930902, 45.958143936488014], [-61.12594547152888, 45.95811673814244], [-61.12593249733798, 45.95808052304856], [-61.12592002322959, 45.957991212819124], [-61.12593355811842, 45.95797253366215], [-61.125933861480014, 45.95796353807285], [-61.125958974058086, 45.9579459488925], [-61.12599824107062, 45.9578916895731], [-61.125993800612754, 45.95788292218638], [-61.125984920307886, 45.95786536942126], [-61.12597262921606, 45.95784716666773], [-61.125946453616145, 45.95781974458435], [-61.12594996478722, 45.9578151218879], [-61.125959958420395, 45.95780195598631], [-61.125986284016605, 45.95774839343455], [-61.12600050362158, 45.957687593851134], [-61.126009146213896, 45.95766895143984], [-61.12602706969783, 45.95764909318106], [-61.126043742476334, 45.957644893389975], [-61.12606426756641, 45.95763973072202], [-61.12611982086245, 45.95763826580807], [-61.12617238057558, 45.95764903753858], [-61.12621081617425, 45.95767453652477], [-61.12624720475979, 45.95771099161485], [-61.126319427168305, 45.957761319241484], [-61.12636254278091, 45.9577842757677], [-61.12645462548456, 45.95781088851433], [-61.12655225147822, 45.95783882516784], [-61.12661117035062, 45.95784816188181], [-61.12664269633361, 45.95785316113347], [-61.12668798300511, 45.95785612687863], [-61.12673841908551, 45.957864442372994], [-61.126758144160796, 45.957867699992505], [-61.12681531818446, 45.957879798165976], [-61.12686022649651, 45.95790471001867], [-61.12687473356757, 45.957922264966484], [-61.12686191268562, 45.957958057016455], [-61.12686198962295, 45.95799406054019], [-61.126867386691266, 45.958009675006785], [-61.126886679738, 45.95806556982779], [-61.12686070436551, 45.95814704907922], [-61.126848186634, 45.95817384553168], [-61.12685979892927, 45.958327054537996], [-61.12687039727262, 45.95836485967214], [-61.12687247086972, 45.95837225613315], [-61.126877855379654, 45.95838786139179], [-61.12689716115101, 45.95844376541677], [-61.12692273079421, 45.9584891874739], [-61.126933757635186, 45.958499349891575]]}, "properties": {"OBJECTID": 11316, "FEAT_CODE": "WACO20", "FEAT_DESC": "Coast - Water to the right line", "RIVNAME_1": " ", "RIVNAME_2": " ", "ZVALUE": 0.2, "FID": null, "SHAPE_Length": 621.9081362365889}}, {"type": "Feature", "id": 14486, "geometry": {"type": "LineString", "coordinates": [[-61.125266640838255, 45.953276786162526], [-61.12526841423758, 45.953283124665695], [-61.12527547245352, 45.95334013311057]]}, "properties": {"OBJECTID": 14486, "FEAT_CODE": "WACO25", "FEAT_DESC": "Coastline Indefinite - Water to the right line", "RIVNAME_1": " ", "RIVNAME_2": " ", "ZVALUE": 0.2, "FID": null, "SHAPE_Length": 7.076919062059324}}, {"type": "Feature", "id": 17734, "geometry": {"type": "LineString", "coordinates": [[-61.1231672510779, 45.954976734548225], [-61.123167176476926, 45.954940731040864], [-61.123154508561626, 45.95489552007174], [-61.12314153688542, 45.95485930468102], [-61.1231291954764, 45.95484110978506], [-61.12311631991259, 45.95484178930924], [-61.12310311904852, 45.95485057300167], [-61.12310319360972, 45.954886576508976], [-61.12308938515407, 45.95491335135863], [-61.12307747397809, 45.954922156236634], [-61.12296111001548, 45.95496704735728], [-61.122885776576936, 45.95497540418288], [-61.122883393179265, 45.95497567104052], [-61.12276695461188, 45.95498455845556], [-61.12275729025593, 45.95498491268211], [-61.12254729585596, 45.95499264953364], [-61.12229061657539, 45.954875023784545], [-61.1222770376293, 45.95485679945515], [-61.122229012455485, 45.9548230589953], [-61.12221275180926, 45.95481164001386], [-61.12218718764668, 45.95476621695998], [-61.122152827657395, 45.95473363714303], [-61.12211091679864, 45.954693858746985], [-61.12209630105285, 45.954669658974716], [-61.12207303325315, 45.954631132076784], [-61.12203480235556, 45.95454049791261], [-61.122020385960745, 45.954520711686904], [-61.12200890410151, 45.954504969953035], [-61.12196157577904, 45.95444527418536], [-61.1219445450834, 45.9544238068688], [-61.121920816838234, 45.95439853021048], [-61.12184240734867, 45.95431502094894], [-61.121826325988835, 45.95429295718261], [-61.12181652221648, 45.954279493159945], [-61.12179185769117, 45.95420708308845], [-61.12177989446376, 45.95402688396794], [-61.12177980815057, 45.95399087126026], [-61.12180644011444, 45.95392830510223], [-61.12180796906131, 45.9537303176491], [-61.121795923369575, 45.95366711560392], [-61.12176993904102, 45.95359558387929], [-61.12175847636732, 45.953580427470335], [-61.121681003878834, 45.953478014287], [-61.12164223998582, 45.95344137464744], [-61.121625169553056, 45.953426441041955], [-61.12159085302492, 45.95339642692571], [-61.12157251413315, 45.95337511805116], [-61.121552362867035, 45.95335169124023], [-61.12151458478949, 45.953324068338986], [-61.12142417348529, 45.95328837948393], [-61.121282175516654, 45.95325184221911], [-61.121275186524386, 45.95325017018484], [-61.12120537309346, 45.953233478078246], [-61.12114212385758, 45.9532420954912], [-61.121140555147505, 45.95324231270708], [-61.12113743835121, 45.95324290048776], [-61.120908079626155, 45.95328619212941], [-61.120816855272075, 45.95331349343173], [-61.120591528700004, 45.953338651604234], [-61.12058498757277, 45.953339381048096], [-61.12053139892209, 45.953348886097345], [-61.12028770589519, 45.953392093678005], [-61.120120029618015, 45.953428046101294], [-61.120003697260394, 45.953472025679496], [-61.119848309020156, 45.953526172064436], [-61.119784171595605, 45.953553018269155], [-61.11973136730685, 45.95358815148279], [-61.119446820387935, 45.953722076675916], [-61.11936982747659, 45.95378561337832], [-61.119226219471194, 45.95391105736328], [-61.11908360896879, 45.95404551816146], [-61.11906325556176, 45.954065074318564], [-61.11901822672543, 45.95410835472952], [-61.11896377446052, 45.95413343381472], [-61.11894090009982, 45.95414397487063], [-61.11878585679308, 45.954188224856814], [-61.118734906589424, 45.95420628705125], [-61.11868301450452, 45.95421443308269], [-61.11861849955936, 45.95421427069737], [-61.11852846488751, 45.954205587473055], [-61.118245136189756, 45.95415051770978], [-61.11823420305791, 45.95414718742147], [-61.11815446451499, 45.9541229224956], [-61.11812894489229, 45.95411440160525], [-61.1180905588668, 45.95410476870349], [-61.11796108215709, 45.95404143185758], [-61.1178680553078, 45.95399689453998], [-61.11763980582044, 45.953887629181956], [-61.11756519630266, 45.95385443878031], [-61.117536847431026, 45.95384182988029], [-61.117452890480926, 45.95379050223328], [-61.11734468549896, 45.95372436501074], [-61.11722841263282, 45.953652226347394], [-61.11707465503108, 45.953543494455914], [-61.11696045540658, 45.95347912118066], [-61.11688220353575, 45.95343501560085], [-61.11685033413913, 45.953408640624225], [-61.11680563669017, 45.95337164951402], [-61.11668997427045, 45.95328153721299], [-61.116536206156056, 45.953172795413984], [-61.11639409718362, 45.95306424564138], [-61.116291637531035, 45.9529653500426], [-61.116244518682805, 45.95292063229265], [-61.1162153768818, 45.95289298802816], [-61.11619419076755, 45.952865519946194], [-61.116138741449404, 45.95279361805757], [-61.11610157175155, 45.952761080077444], [-61.11608737249739, 45.952748668145816], [-61.116044638419, 45.95270365359556], [-61.11601011476916, 45.9526672889739], [-61.11589567480866, 45.95254119371516], [-61.115879648286906, 45.95252330627333], [-61.11583102207383, 45.95246902287904], [-61.11579287267082, 45.95241439022708], [-61.11576728434722, 45.952369865371026], [-61.115757471679586, 45.95234872318464], [-61.115742031509456, 45.95231544540934], [-61.11573640833164, 45.95229556939753], [-61.1157040171193, 45.95218070983063], [-61.11570487506068, 45.95211771995197], [-61.11574374708679, 45.95203645586169], [-61.11580910436337, 45.951973629736045], [-61.11597759273788, 45.95187560205719], [-61.11610647691715, 45.951803922770914], [-61.11615863201947, 45.951749888309074], [-61.11623651004928, 45.95166025767457], [-61.11628921758801, 45.9515522198027], [-61.1163148567648, 45.95148063795022], [-61.1163939660874, 45.951355034201576], [-61.116484515136676, 45.9511576143907], [-61.11661569448816, 45.950941963131164], [-61.11666770763383, 45.95081591247131], [-61.11666824673263, 45.950761917894205], [-61.116655514507805, 45.950680702797534], [-61.11661787442302, 45.95057296639304], [-61.11661315208202, 45.950564581006965], [-61.116592316408145, 45.95052755115134], [-61.116477809004834, 45.95036545300671], [-61.11647610302856, 45.95036286871564], [-61.116400496487245, 45.95024807084963], [-61.11629924830931, 45.9501131928698], [-61.11624753706107, 45.95004033557134], [-61.116242169451, 45.950034621701484], [-61.116222629296225, 45.95001382317914], [-61.116221610880544, 45.950011511238415], [-61.1162190348883, 45.9500056633883], [-61.116146232367065, 45.94986945420363], [-61.116107983740704, 45.94977971773923], [-61.11601899677895, 45.949626131475874], [-61.11599245496909, 45.94957169928887], [-61.11596197387035, 45.949528803875964], [-61.11595427681529, 45.949517966247925], [-61.11582571496103, 45.94942764027047], [-61.115769940873925, 45.94940768414868], [-61.11574923751632, 45.94940027722108], [-61.11573664698085, 45.949391059976016], [-61.115649720246616, 45.949353740880795], [-61.11556877076794, 45.949318995475046], [-61.1155306934521, 45.94930036621399], [-61.11550113461872, 45.94928014034825], [-61.11549160105183, 45.94927361967363], [-61.11546701128199, 45.94925030756413], [-61.11537658926774, 45.94916462448873], [-61.11532947061859, 45.949105172384236], [-61.11531224629568, 45.9490834488454], [-61.11529055907545, 45.94904645869721], [-61.1152488181894, 45.94897529551811], [-61.11521561196457, 45.94891690094528], [-61.115197675953446, 45.948885346013576], [-61.115183086833774, 45.94883956237701], [-61.11517202010641, 45.94880481756152], [-61.11517032449777, 45.94879736410721], [-61.11515966497039, 45.94875061023356], [-61.11516067639145, 45.948606617630595], [-61.11517502743146, 45.9485258491782], [-61.11518818892925, 45.9484801633629], [-61.11518771431636, 45.94841805152382], [-61.115175733789656, 45.94839085211797], [-61.1151621587202, 45.948372626983705], [-61.11509397789286, 45.94836433759596], [-61.11508506043143, 45.94836324540145], [-61.11503314253965, 45.94837229840918], [-61.11490419604452, 45.948407964162506], [-61.114840672110276, 45.948416825569616], [-61.11478810551767, 45.94840695754043], [-61.114783215176786, 45.94840468069756], [-61.11474999857991, 45.948389227584705], [-61.11470449127308, 45.94837322960895], [-61.11469899615207, 45.94837128480394], [-61.11466024039207, 45.948334642890146], [-61.11464666550674, 45.94831641769727], [-61.114647580762075, 45.94828943105829], [-61.11466040703872, 45.94825364040894], [-61.11468711324716, 45.94822707940083], [-61.11473865640889, 45.94819102762278], [-61.114893865074215, 45.94806578060047], [-61.114971739460174, 45.947976159720625], [-61.11499786583776, 45.94796669017664], [-61.1150622734692, 45.94793175057643], [-61.11510160023183, 45.94791349822893], [-61.11516596868279, 45.94784165553825], [-61.11530865465672, 45.94774320308264], [-61.11533536030719, 45.94771664191211], [-61.11533529064031, 45.94768063843481], [-61.11527129744296, 45.947589576878244], [-61.11521555868429, 45.94748110933465], [-61.11516961224848, 45.94739169554638], [-61.11514373952757, 45.947355257344086], [-61.1151232181451, 45.94734098585766], [-61.11511854135619, 45.9473377404892], [-61.11510924836043, 45.94734392357149], [-61.11510535397278, 45.94734652348907], [-61.11507992472586, 45.94737311466798], [-61.11496217170469, 45.947534973330406], [-61.11488461587906, 45.947615598883786], [-61.11478060269837, 45.947714689004535], [-61.11455999752931, 45.94786676738983], [-61.11449463125015, 45.947929583688165], [-61.114442783066885, 45.947974630904746], [-61.1143904244172, 45.948072764103216], [-61.11432552602328, 45.948198610097556], [-61.114312076373274, 45.948252391583], [-61.11431182733158, 45.94829739037899], [-61.11432449958439, 45.94834260245666], [-61.11433428708398, 45.94836369036186], [-61.11434974934283, 45.948397022718254], [-61.11436796195957, 45.948415459504545], [-61.1143759579492, 45.948423556998776], [-61.11438894806034, 45.948428208695816], [-61.11445243335992, 45.94845092094082], [-61.11454508294494, 45.948475797597375], [-61.11455600237303, 45.948478731991585], [-61.11459380360128, 45.94850547554859], [-61.11463282918211, 45.94854291398798], [-61.114735008791534, 45.94864099648183], [-61.11485017421415, 45.94882110844657], [-61.11487252405215, 45.94884463574531], [-61.114927424746554, 45.94890249734164], [-61.11504155052552, 45.949037580048504], [-61.11509266213666, 45.949128429173655], [-61.11518228689123, 45.9492631074785], [-61.11521989287141, 45.9493717438775], [-61.115296760826226, 45.949578243257136], [-61.1153091168647, 45.94963243257665], [-61.11530881187247, 45.949641428124295], [-61.11532055734278, 45.949713626528606], [-61.11531961583913, 45.949893622576745], [-61.115308078769246, 45.95000593947942], [-61.11530601379179, 45.95002840685919], [-61.11530570879484, 45.95003740240619], [-61.11526689460855, 45.95015466063993], [-61.11517419465845, 45.95041505708002], [-61.115174320781044, 45.95048706378597], [-61.11522371670681, 45.95066699024472], [-61.1152236202972, 45.950783996164766], [-61.11522368983171, 45.950819999622496], [-61.11519678609534, 45.95092846274285], [-61.11515701630939, 45.951035822523885], [-61.115116775504994, 45.951233171288514], [-61.115024417449895, 45.95152145699301], [-61.11497273546446, 45.95163761172487], [-61.11489367422834, 45.95180011764314], [-61.11476296016661, 45.952077878556295], [-61.114619622940204, 45.95234733046519], [-61.11456656295055, 45.95242836001375], [-61.11448934758778, 45.95253600158987], [-61.11444947629018, 45.95260823918015], [-61.11433236365821, 45.95275120643541], [-61.11424123554533, 45.95285052667742], [-61.11412535562791, 45.95295751176514], [-61.114033866352216, 45.95302980615197], [-61.1139694215578, 45.953065644594695], [-61.11386538397274, 45.95312783105051], [-61.11367136960473, 45.95321733360621], [-61.113348450392394, 45.953378520799184], [-61.11324469110683, 45.953431710709374], [-61.11306297380112, 45.953539407468575], [-61.11299852779656, 45.95357524534164], [-61.11271428360475, 45.953700158197414], [-61.11251926833298, 45.95378064168215], [-61.112351006039155, 45.95383366510651], [-61.111977367744096, 45.953930997336265], [-61.11169264050364, 45.95399290464731], [-61.111575604491165, 45.954019762920595], [-61.1114601634058, 45.95403765586681], [-61.11133020428435, 45.954064309254505], [-61.11120093621226, 45.95410897506699], [-61.110907806489294, 45.954258965120445], [-61.1108516124561, 45.954287719774065], [-61.11082008229195, 45.95430344440688], [-61.11061927124537, 45.95440357605782], [-61.110515183977164, 45.95446665868958], [-61.110203646986974, 45.954672119034626], [-61.11002229118661, 45.954806836643], [-61.10993179533792, 45.954887235680005], [-61.109749870685306, 45.95503901752727], [-61.10967223958867, 45.95512055627627], [-61.10956824628694, 45.95521874182716], [-61.109450472632275, 45.95538060329816], [-61.109333646947846, 45.95551457855993], [-61.10924250564468, 45.95561388556378], [-61.10916493030206, 45.955694497825924], [-61.10899587198582, 45.95584650041076], [-61.108892138087455, 45.95593660711791], [-61.10876300743804, 45.9560532680084], [-61.1086464061138, 45.95614226141547], [-61.108541473174526, 45.956268323232486], [-61.10848765676442, 45.956328357064216], [-61.10847708647647, 45.956340152809325], [-61.10845105070871, 45.956384724580616], [-61.10842440254128, 45.95644728734741], [-61.10841062104909, 45.95651096320924], [-61.10837188395002, 45.95666329549918], [-61.1083710941154, 45.956762324698076], [-61.10838253846724, 45.95684351932764], [-61.108404581669205, 45.95688971522155], [-61.10842107232097, 45.95692426244141], [-61.108438526827825, 45.956951724167986], [-61.108472516651645, 45.957005219303916], [-61.10852301200355, 45.957114062196574], [-61.10854750203661, 45.957266577299464], [-61.10854636167461, 45.957527574932826], [-61.10858365383054, 45.957645199757394], [-61.10860896695459, 45.95769353787522], [-61.108621217791644, 45.9577169261658], [-61.10864707820485, 45.95775335658222], [-61.10867085172079, 45.95777527052757], [-61.10868586692093, 45.957789100969286], [-61.10869198799289, 45.95779125443547], [-61.108736875868736, 45.95780704651099], [-61.10890407263899, 45.957862017618005], [-61.10894902385716, 45.957877468636745], [-61.10895635859664, 45.95787998420024], [-61.108961745175215, 45.95788248551658], [-61.10899447003627, 45.957897716133175], [-61.10912823133992, 45.95797997221797], [-61.109200509125515, 45.9580244342333], [-61.10925943452046, 45.95806611905514], [-61.10931644423197, 45.95810645805898], [-61.10932312542918, 45.95811604622998], [-61.1093791928537, 45.95819660214728], [-61.10939419575193, 45.95821042329047], [-61.10941796945127, 45.95823234608177], [-61.10944414955257, 45.958259781036325], [-61.10948902543414, 45.95827556361529], [-61.10949515918335, 45.95827772624852], [-61.10950102251278, 45.958278354309876], [-61.10958515529579, 45.9582873160048], [-61.109701003395536, 45.9582964333954], [-61.10992049443669, 45.95829750882563], [-61.109933268135684, 45.95829757615094], [-61.1099498902211, 45.95829718511076], [-61.11026905645796, 45.95828963023436], [-61.11029356550901, 45.95828918059418], [-61.11029489551006, 45.95828915759127], [-61.110298183782575, 45.9582888519607], [-61.11038547745965, 45.95828076427175], [-61.11044451591089, 45.95828917524971], [-61.11044971718464, 45.9582899183199], [-61.11060461816399, 45.95832668242143], [-61.11061957248194, 45.95833093499594], [-61.11066852604477, 45.9583448404264], [-61.110798243345435, 45.958363186638834], [-61.11093895717907, 45.95839971567413], [-61.11109687787043, 45.95843688006136], [-61.11113227708949, 45.958445214843785], [-61.11124841866673, 45.95844533494816], [-61.11125747280468, 45.95844662771116], [-61.111312632943125, 45.95845448808942], [-61.11133812256558, 45.95846391905803], [-61.111389019468874, 45.95849241922456], [-61.11140270920217, 45.95850008900731], [-61.111422541094996, 45.95851803096814], [-61.11149285288254, 45.95858168423683], [-61.111587068828634, 45.958663076691245], [-61.111659595577706, 45.958725740403935], [-61.11168708028269, 45.958749002140586], [-61.11172357108359, 45.95877991020261], [-61.11177553551868, 45.95880777079849], [-61.111818327768745, 45.95882603817918], [-61.111839138699864, 45.95883492367653], [-61.111868118487884, 45.958841154005235], [-61.112006970659216, 45.95887099953197], [-61.11216724354915, 45.95892065809102], [-61.11221257988735, 45.95893470109544], [-61.112329095599584, 45.95896182798156], [-61.11236131942926, 45.95896677970362], [-61.112689860713665, 45.959017291606955], [-61.11284407357117, 45.95903604016128], [-61.11303999293385, 45.959052984232905], [-61.11306282019026, 45.95905494537285], [-61.11309437633774, 45.959060560902174], [-61.11326934732722, 45.95909166749221], [-61.113406601080314, 45.959107435031974], [-61.113424893848205, 45.959109537230425], [-61.11346588653336, 45.959113931403365], [-61.11377207109463, 45.959146771911755], [-61.11391401024577, 45.95914731523829], [-61.114108487836006, 45.959120823942115], [-61.11435326744778, 45.95909516259607], [-61.11445612548872, 45.95906805848259], [-61.114676716642535, 45.95903299664882], [-61.11475572468726, 45.95902075462909], [-61.11479218012333, 45.95901510082396], [-61.11479948221344, 45.95901516731841], [-61.11492119048768, 45.959016329605454], [-61.115024130265056, 45.95902522859338], [-61.115070982901685, 45.9590334001095], [-61.115075447297095, 45.959034184814065], [-61.11508106052923, 45.95903496147178], [-61.11514095274917, 45.95904335710336], [-61.11519254472356, 45.959044208297605], [-61.1153080080782, 45.959026311949145], [-61.11537373028735, 45.958999413412215], [-61.11556754559047, 45.95894598801249], [-61.11573521055883, 45.95891095115719], [-61.11588967236625, 45.95888469687273], [-61.11607087534601, 45.9588309816071], [-61.11630275495712, 45.9588051033519], [-61.1164063044295, 45.958796010014765], [-61.116467701820596, 45.958796167247804], [-61.11647082464798, 45.958796173731585], [-61.116479099612526, 45.95879761524404], [-61.116522154926336, 45.95880512052008], [-61.11657441384748, 45.958823983218025], [-61.11659808133734, 45.958853319224225], [-61.116625191803976, 45.95888692425055], [-61.116728577230056, 45.95895883301001], [-61.116761078193434, 45.958976181837485], [-61.11683125233043, 45.95901362889079], [-61.11688647496625, 45.95903720259183], [-61.116894858304256, 45.959040778994506], [-61.11699847866228, 45.95906768855145], [-61.117019150491835, 45.959076516807094], [-61.11706208478184, 45.95909483856402], [-61.117122389972, 45.95913028666178], [-61.11713926919927, 45.95914021346087], [-61.11730601054249, 45.95928517038631], [-61.1173615470442, 45.959343680222226], [-61.117383253294385, 45.959366548338544], [-61.11764016797601, 45.95959219568493], [-61.117767219433134, 45.959727497386055], [-61.11784796779067, 45.95983305428718], [-61.11794642572769, 45.95996176431507], [-61.11799896945161, 45.96002179962834], [-61.118049525122515, 45.96007957002708], [-61.118125536480825, 45.96016002712315], [-61.118183194932854, 45.96020508865898], [-61.118253778444654, 45.9602602456803], [-61.118278661160716, 45.9602865141532], [-61.11830485131113, 45.96031419024217], [-61.11847229738051, 45.96047625810886], [-61.11854896009484, 45.96057562682728], [-61.11866372669796, 45.96069272406013], [-61.118818479219385, 45.960810470611655], [-61.118858444138176, 45.96085327832502], [-61.11889444901779, 45.96089183555685], [-61.11895641119021, 45.960972591787126], [-61.11898467943228, 45.961009428503424], [-61.11901810919062, 45.96103866371552], [-61.11903607109352, 45.96105437741686], [-61.11917694121871, 45.96116290334267], [-61.11922952977295, 45.961185082448814], [-61.11949885935654, 45.96129871090942], [-61.11961507936366, 45.961334826035106], [-61.11968234332156, 45.96135887558326], [-61.11969158793359, 45.96136218693697], [-61.11994982609968, 45.961434832229024], [-61.11996142303783, 45.961437660239575], [-61.12006503044636, 45.96146283867592], [-61.12029648651791, 45.96152605090156], [-61.120372594773414, 45.96155686997519], [-61.12038687987706, 45.9615626403514], [-61.12051531835393, 45.961580954462306], [-61.12051668153327, 45.96158071587259], [-61.12056724753799, 45.96157190815477], [-61.12061975479903, 45.96154577026648], [-61.12067161107663, 45.96150072046574], [-61.12068413256611, 45.961473924762494], [-61.12068466789018, 45.961419939199104], [-61.120672609495735, 45.961356727902555], [-61.12059588198865, 45.961221357313505], [-61.12053174908504, 45.96109519443317], [-61.12051469795266, 45.96105521243445], [-61.12049348617687, 45.9610054593764], [-61.12048445907103, 45.960978930214914], [-61.120468833271076, 45.96093305828852], [-61.12046906511422, 45.96088805028984], [-61.12048303547882, 45.96078026437908], [-61.12050909427973, 45.960734790225054], [-61.120521628256874, 45.96070800374251], [-61.12063843864393, 45.96057401690593], [-61.12070378792546, 45.96051118792611], [-61.120795104675196, 45.960367789988965], [-61.120821394558284, 45.9602773077453], [-61.12083498654548, 45.96014252286817], [-61.120835448981445, 45.96005252483902], [-61.120798343026046, 45.95989080438955], [-61.12079925508233, 45.95971080811224], [-61.12078186358646, 45.95965265740724], [-61.12077490681526, 45.95962940252183], [-61.12077429056721, 45.95962587316426], [-61.12075007808272, 45.95948588512722], [-61.120736948225904, 45.95937766237042], [-61.120750698930735, 45.95931488461312], [-61.12077706099899, 45.9592604148123], [-61.12085524648175, 45.95916179462261], [-61.12093374876341, 45.95905417902386], [-61.121036530562805, 45.95899106547052], [-61.121178931484245, 45.95890160170838], [-61.12129527445367, 45.958857621133866], [-61.12134811360529, 45.95882157873798], [-61.12138608302076, 45.958767299668864], [-61.12141332608651, 45.95868674256476], [-61.121439656782876, 45.95863317214721], [-61.12149250561708, 45.95844412922663], [-61.12150464843736, 45.958390325497554], [-61.12159649439714, 45.9581929231821], [-61.12165002390347, 45.958021892501066], [-61.12170149834098, 45.957949834234405], [-61.12187136772457, 45.95773481328033], [-61.121962477173525, 45.957635504723974], [-61.12202773010634, 45.957537571167414], [-61.12206600193015, 45.957474296266874], [-61.12209202741294, 45.95742972123989], [-61.12213181893758, 45.957321468460925], [-61.12214456879571, 45.95724967349872], [-61.1221454068006, 45.95718668330148], [-61.12215846056821, 45.95710589276419], [-61.122173798133076, 45.95688113067914], [-61.122212603271755, 45.95676386108174], [-61.12222573078057, 45.95671907401622], [-61.12230428794898, 45.956647460615144], [-61.12234322780979, 45.95660219773027], [-61.12238178472229, 45.95653083589033], [-61.12239491233828, 45.95648603980512], [-61.12240837393554, 45.956431357582375], [-61.122474188681345, 45.9562785295191], [-61.122526541668364, 45.95618038365259], [-61.12260501055965, 45.95607276631319], [-61.122669392127136, 45.95600091969963], [-61.122773090698594, 45.95591081791829], [-61.12281201216022, 45.95586645462378], [-61.12289087117652, 45.95578584520205], [-61.12294226741823, 45.95567778279187], [-61.122995027656, 45.955605745045816], [-61.12303428260341, 45.955551495527004], [-61.123047409439394, 45.95550669934784], [-61.12304817181726, 45.95540770560608], [-61.123022501826725, 45.955327178783065], [-61.12299724058093, 45.955272760322025], [-61.12299754438908, 45.95526376474358], [-61.12303578309062, 45.955201389010924], [-61.12308846818959, 45.95509334770142], [-61.12314024173152, 45.95501229310133], [-61.1231672510779, 45.954976734548225]]}, "properties": {"OBJECTID": 17734, "FEAT_CODE": "WACOIS10", "FEAT_DESC": "Coastal Island - Water to the right line", "RIVNAME_1": " ", "RIVNAME_2": " ", "ZVALUE": 0.2, "FID": null, "SHAPE_Length": 4900.568417018619}}, {"type": "Feature", "id": 22170, "geometry": {"type": "LineString", "coordinates": [[-61.123726261690685, 45.954204667380694], [-61.12371465824346, 45.954051467092604], [-61.1236922177712, 45.95402777805126], [-61.12366357271522, 45.95399752468939], [-61.12358009067868, 45.9539529777858], [-61.12356089979471, 45.95394273494344], [-61.12355526315497, 45.95394075224054], [-61.12350987646081, 45.95392479577932], [-61.123428238748026, 45.95391620934107], [-61.1234185949531, 45.95391519587429], [-61.123328863634576, 45.95389752084676], [-61.12332338095034, 45.9538974757844], [-61.123212761523355, 45.95389651361349], [-61.12312181521187, 45.953914820750725], [-61.123097007395444, 45.953923413752264], [-61.12303226344087, 45.953968252957885], [-61.123005254519725, 45.95400381149126], [-61.12299308355702, 45.95405852400987], [-61.12296554175356, 45.95414806820747], [-61.12295309759597, 45.95421086774578], [-61.12293913437231, 45.95431864518006], [-61.12293951264527, 45.954345653109414], [-61.122951423716195, 45.954336848243365], [-61.123016471968114, 45.954283013513844], [-61.1230950245914, 45.95421139947117], [-61.12313333732095, 45.95418501819831], [-61.12319777738632, 45.95414918351646], [-61.12330162097474, 45.954131088188795], [-61.12330304965892, 45.95413081463952], [-61.12339253721453, 45.954113680471835], [-61.12354806842441, 45.95411372405966], [-61.12356027528096, 45.95411373554786], [-61.12364938217234, 45.954150301336824], [-61.123677930785334, 45.95416315501281], [-61.123688785628026, 45.95416804959306], [-61.123726261690685, 45.954204667380694]]}, "properties": {"OBJECTID": 22170, "FEAT_CODE": "WACOIS10", "FEAT_DESC": "Coastal Island - Water to the right line", "RIVNAME_1": " ", "RIVNAME_2": " ", "ZVALUE": 0.2, "FID": null, "SHAPE_Length": 196.5128432217156}}, {"type": "Feature", "id": 116467, "geometry": {"type": "LineString", "coordinates": [[-61.12216191933572, 45.954864807896534], [-61.12217451247464, 45.95487401546493], [-61.12221297376251, 45.95491965051088], [-61.12222288958376, 45.954938588686616], [-61.12225054083072, 45.95499137250021], [-61.122289002260004, 45.955037007521874], [-61.122288749078145, 45.9550567236104], [-61.12228816452746, 45.95509999774572]]}, "properties": {"OBJECTID": 116467, "FEAT_CODE": "WALK20", "FEAT_DESC": "Lake - Water to the right line", "RIVNAME_1": " ", "RIVNAME_2": " ", "ZVALUE": 0.8, "FID": null, "SHAPE_Length": 28.66707542870667}}, {"type": "Feature", "id": 116468, "geometry": {"type": "LineString", "coordinates": [[-61.12228816452746, 45.95509999774572], [-61.12224948603111, 45.95509936200853], [-61.12219384506811, 45.95507561299848], [-61.122185881797144, 45.95507221489798], [-61.12218086341764, 45.95506988226727], [-61.12214776791787, 45.95505448732315], [-61.122134188977164, 45.955036262977366], [-61.12212368030361, 45.954990187329436], [-61.12212182583348, 45.95498205633264], [-61.12212296769443, 45.95491007053717], [-61.12214868792457, 45.95487449103369], [-61.12216191933572, 45.954864807896534]]}, "properties": {"OBJECTID": 116468, "FEAT_CODE": "WALK20", "FEAT_DESC": "Lake - Water to the right line", "RIVNAME_1": " ", "RIVNAME_2": " ", "ZVALUE": 0.8, "FID": null, "SHAPE_Length": 34.62828687318659}}, {"type": "Feature", "id": 116469, "geometry": {"type": "LineString", "coordinates": [[-61.1154668115149, 45.95095631893556], [-61.11549354948631, 45.950928849214755], [-61.115519271684846, 45.95089328021321], [-61.115520421843925, 45.950821294565785], [-61.115559070855696, 45.950785029731925], [-61.11558516797715, 45.95077645963161], [-61.11559013471422, 45.950778773701515], [-61.11562327680278, 45.95079418933111], [-61.115635562982646, 45.95081239314309], [-61.11566203487164, 45.950830830939516], [-61.115680994456596, 45.950837165051524], [-61.11568755260678, 45.95083935235648], [-61.11581657454119, 45.95083968028036], [-61.11585558064041, 45.95083132302614], [-61.115873895225555, 45.950812147832245], [-61.11588098536441, 45.95080473128318], [-61.11588403486627, 45.95080041629694], [-61.115906737748546, 45.95076826263403], [-61.11593313971414, 45.9507506969042], [-61.1159721633278, 45.9507414398412], [-61.11601054665892, 45.95075107341867], [-61.11602422865567, 45.95075588934718], [-61.11606155168826, 45.950769015647026], [-61.11609746412952, 45.95077693434052], [-61.116101268046755, 45.950777771119], [-61.116139320764205, 45.95079639977855], [-61.11616992613884, 45.95083945919442], [-61.11617751283391, 45.95085013297522], [-61.116185292587986, 45.95087186264805], [-61.11619047909392, 45.9508863490963], [-61.11620246031487, 45.95091355739599], [-61.11623920720677, 45.95096462957123], [-61.11625421596583, 45.95098550637799], [-61.11627909398657, 45.95101290932547], [-61.11627885904522, 45.95105791733775]]}, "properties": {"OBJECTID": 116469, "FEAT_CODE": "WALK20", "FEAT_DESC": "Lake - Water to the right line", "RIVNAME_1": " ", "RIVNAME_2": " ", "ZVALUE": 2.5, "FID": null, "SHAPE_Length": 107.46800643918552}}, {"type": "Feature", "id": 116470, "geometry": {"type": "LineString", "coordinates": [[-61.11627885904522, 45.95105791733775], [-61.11625320713846, 45.95112949897683], [-61.11620166215168, 45.95116555139375], [-61.1161359441944, 45.95120137007225], [-61.1161290540356, 45.95120288555599], [-61.116098240387316, 45.951209748897575], [-61.1160953372217, 45.95120974602553], [-61.11603371608773, 45.95120958489361], [-61.11596918121216, 45.95117927774655], [-61.115956238502164, 45.95117320492271], [-61.11595350799181, 45.95117229583618], [-61.11593072057226, 45.95116468356321], [-61.115762024685964, 45.95115470083545], [-61.11568948026099, 45.951154368354096], [-61.11568590680286, 45.951154345415134], [-61.11568026520706, 45.951153667323894], [-61.11560751464905, 45.95114495185317], [-61.11558846150437, 45.951131478728435], [-61.115569710557516, 45.95111822659917], [-61.115544223211586, 45.9511088055999], [-61.1155422746722, 45.951108809460166], [-61.11549260809217, 45.951108854231855], [-61.11548809631354, 45.95109959021667], [-61.11547933726219, 45.951081633585375], [-61.11547764063751, 45.951074207123355], [-61.11546698138985, 45.95102742629871], [-61.1154668115149, 45.95095631893556]]}, "properties": {"OBJECTID": 116470, "FEAT_CODE": "WALK20", "FEAT_DESC": "Lake - Water to the right line", "RIVNAME_1": " ", "RIVNAME_2": " ", "ZVALUE": 2.5, "FID": null, "SHAPE_Length": 90.62580340300187}}, {"type": "Feature", "id": 116471, "geometry": {"type": "LineString", "coordinates": [[-61.115423041747825, 45.951828652842224], [-61.11544872556849, 45.95175617186492], [-61.11552667414572, 45.95170255418325], [-61.115539570439054, 45.95170276691437], [-61.11556566799883, 45.95169419682654], [-61.115568300062215, 45.95169420424071], [-61.11563017995494, 45.95169436089085], [-61.11567967840291, 45.951708426189185], [-61.11569408200887, 45.95171251601146], [-61.115797078022666, 45.95175742655945], [-61.11581654583716, 45.951767810288736], [-61.11589973940286, 45.951812214127706], [-61.11592522713039, 45.95182163505247], [-61.115925906626444, 45.95183965641147]]}, "properties": {"OBJECTID": 116471, "FEAT_CODE": "WALK20", "FEAT_DESC": "Lake - Water to the right line", "RIVNAME_1": " ", "RIVNAME_2": " ", "ZVALUE": 1.9, "FID": null, "SHAPE_Length": 54.04582664273363}}, {"type": "Feature", "id": 116472, "geometry": {"type": "LineString", "coordinates": [[-61.115925906626444, 45.95183965641147], [-61.11583475726315, 45.95190204822162], [-61.11568006659558, 45.9519733105459], [-61.11560206121993, 45.951990916089365], [-61.115588859887296, 45.951999698909646], [-61.11549515393213, 45.95190303510183], [-61.115423041747825, 45.951828652842224]]}, "properties": {"OBJECTID": 116472, "FEAT_CODE": "WALK20", "FEAT_DESC": "Lake - Water to the right line", "RIVNAME_1": " ", "RIVNAME_2": " ", "ZVALUE": 1.9, "FID": null, "SHAPE_Length": 54.9877481498279}}, {"type": "Feature", "id": 286709, "geometry": {"type": "LineString", "coordinates": [[-61.14301987358291, 45.95711837289161], [-61.142992845650646, 45.957154835871876], [-61.14283737247019, 45.957289117141634], [-61.1427343345585, 45.95736034665406], [-61.142630263990775, 45.95742346777721], [-61.142579043638946, 45.95745052776995], [-61.14255294732062, 45.95745910404388], [-61.14239781256863, 45.95746738232228], [-61.142379841555794, 45.95746876421562], [-61.14216621971137, 45.957485217722024], [-61.14203657975788, 45.95750291066971], [-61.14203024541763, 45.95750285265544], [-61.14192046918037, 45.957501922332476], [-61.14180431563402, 45.957501833234645], [-61.14172058932289, 45.95749294690091], [-61.14171431443355, 45.957492268797246], [-61.14171164706276, 45.95749137935659], [-61.14168878950184, 45.957483753096746], [-61.14145349525166, 45.957466010618035], [-61.14143004175236, 45.95746424297903], [-61.141159393881864, 45.957454439269576], [-61.14115821867611, 45.95745446515069], [-61.14113355526192, 45.95745491890472], [-61.14097963695455, 45.9574272127933], [-61.14078900805277, 45.95740171722142], [-61.140772781932014, 45.95739954503399], [-61.140618249116145, 45.95738982956231], [-61.140528205332785, 45.95738116355267], [-61.14033489356807, 45.95733481424994], [-61.14020585554029, 45.957334513789164], [-61.14008972789583, 45.95733443236877], [-61.13996097836733, 45.95732512676321], [-61.13983125281156, 45.95730681355639], [-61.13957468266916, 45.95726123305171], [-61.13955953724027, 45.9572599333442], [-61.13935464300502, 45.957242348575186], [-61.13914403081292, 45.95720052178614], [-61.13912260911303, 45.95719627561044], [-61.138878636881586, 45.95715989030762], [-61.13861986169325, 45.95714127342681], [-61.13859698700965, 45.95713571639788], [-61.138504668894704, 45.95711329487375], [-61.138388444749864, 45.95707719888982], [-61.13822141397325, 45.9569910507293], [-61.1381956242315, 45.95697775063077], [-61.13814977974254, 45.9569475266478], [-61.1379898225792, 45.956842088207715], [-61.13783512377498, 45.95676036173724], [-61.137785155254996, 45.95673653279041], [-61.13775891358917, 45.95672401727567], [-61.13766788308595, 45.95670633235776], [-61.1375268534274, 45.956678831688116], [-61.13751901737015, 45.956676993830996], [-61.137448750831, 45.95666045729854], [-61.13729474008412, 45.956596742441455], [-61.137168122017144, 45.95654893701362], [-61.137127788768964, 45.956533725421224], [-61.13705000096062, 45.956506355325146], [-61.136921786512104, 45.95644305161783], [-61.136819550864466, 45.95641049436328], [-61.13680559499296, 45.956406054491666], [-61.13666448323218, 45.95634254915033], [-61.136646576281045, 45.95633625370304], [-61.1365866701316, 45.95631517832471], [-61.13648464910501, 45.956279312061405], [-61.13635614647377, 45.956225021582206], [-61.13621472142256, 45.956170502137425], [-61.13609850079126, 45.956134403870706], [-61.135916379337566, 45.95607322569687], [-61.135853494446096, 45.956052101328524], [-61.135738261994256, 45.95602502838588], [-61.135582444947296, 45.95601526713314], [-61.135454617077606, 45.95597898778134], [-61.13533839736109, 45.95594288875375], [-61.13511888567812, 45.95587001031808], [-61.135089205790116, 45.95586230736863], [-61.13487453776878, 45.9558066176085], [-61.134746107640694, 45.95578831076238], [-61.134707415492855, 45.95578767902372], [-61.134670655065506, 45.955787933866596], [-61.134668693153785, 45.95578794683573], [-61.13466696391338, 45.95578833262707], [-61.13455168069311, 45.95581393797644], [-61.13443624252997, 45.95583185419469], [-61.13421597741573, 45.95585795895753], [-61.13402282244162, 45.955884506101484], [-61.13393527625613, 45.955892643737705], [-61.13393219549899, 45.95589292643683], [-61.133854448625186, 45.955902457152966], [-61.133803463147956, 45.95588362316175], [-61.13367495153889, 45.955829320510446], [-61.13365700701682, 45.95582300597831], [-61.13359715358312, 45.955801947890194], [-61.133553413499925, 45.95577871387116], [-61.133546440183885, 45.9557750177179], [-61.133444025920596, 45.95571214060383], [-61.13342108399101, 45.95570285520174], [-61.133353633034034, 45.955675561465554], [-61.133186430357206, 45.955620626068516], [-61.133024745091994, 45.955580082495146], [-61.13300599828748, 45.95557537485144], [-61.13299981341223, 45.955574715740426], [-61.13291597613499, 45.955565803127946], [-61.13266570753552, 45.95553394591759], [-61.13263201622764, 45.95552965998004], [-61.132451393483336, 45.95552850755214], [-61.13237367712855, 45.95553713770225], [-61.13228303290956, 45.955546465503545], [-61.132116214751406, 45.95551852752689], [-61.13203849836574, 45.955527157448365], [-61.13192177034045, 45.955545050034786], [-61.13191380344526, 45.95554365968121], [-61.131870440359556, 45.95553611016995], [-61.13184525051209, 45.95551769711796], [-61.13183265559463, 45.95550849058996], [-61.131788275230264, 45.95547093451872], [-61.131768676390394, 45.955454340988624], [-61.13175314928117, 45.955445221509436], [-61.131691471842586, 45.95540897563401], [-61.13167758724818, 45.955399747997426], [-61.13152411908363, 45.95533861736933], [-61.13147257212569, 45.955318099045165], [-61.13135635679496, 45.95528198702722], [-61.13122823133157, 45.95525468963498], [-61.131223727693445, 45.95525392292074], [-61.131175624912956, 45.955245728577005], [-61.13099552855317, 45.95519057904289], [-61.13087216622702, 45.95515480863465], [-61.13084089417188, 45.955145746445105], [-61.13081376934571, 45.9551346189675], [-61.13075179369304, 45.95510918638633], [-61.1306094026153, 45.95504565260499], [-61.130553630011455, 45.95502571275934], [-61.13053289703777, 45.95501829903822], [-61.130287650508166, 45.95498188349632], [-61.12999089472829, 45.95498062657069], [-61.12998513309397, 45.954981198301574], [-61.129810901897955, 45.95499839047028], [-61.12971973979438, 45.955015835272796], [-61.12965520621303, 45.95502463438674], [-61.129486639713456, 45.95508668763297], [-61.12935837042726, 45.955140381907476], [-61.129280732761366, 45.95518501351758], [-61.129240799685604, 45.95522126193869], [-61.12915004025068, 45.95531068142983], [-61.129137494318705, 45.95533836873797], [-61.129071953363635, 45.95544531122903], [-61.12875195662514, 45.955524855599805], [-61.128749223966416, 45.95552553088528], [-61.128722823642136, 45.95554309959091], [-61.12865808219804, 45.955587942014], [-61.128541089528426, 45.95565082965292], [-61.12849017969415, 45.95566889685633], [-61.128438257233576, 45.95567794687922], [-61.12834764251683, 45.95568637198306], [-61.128336837554826, 45.9556853399088], [-61.12824473699458, 45.95567657650371], [-61.12820752496801, 45.95567683086701], [-61.12820601507395, 45.95567683312997], [-61.12815409226074, 45.95568589201847], [-61.12800981442763, 45.955727072702395], [-61.127999038960475, 45.95573014533873], [-61.12781374079316, 45.9557942170867], [-61.12779274581459, 45.95580147850229], [-61.12770182806447, 45.955818889695465], [-61.12758538834142, 45.95582778200583], [-61.12745635433701, 45.95582746719686], [-61.127353828839745, 45.95584468784989], [-61.12725066671646, 45.955880799168575], [-61.12719873097537, 45.95588984841015], [-61.127160051820795, 45.955889214326575], [-61.12713728637318, 45.95588161366043], [-61.127134529950986, 45.95588069541707], [-61.12712449405153, 45.95587790272398], [-61.12706932977575, 45.955862516438316], [-61.12703184074219, 45.95584111950981], [-61.12700602510288, 45.9558263853629], [-61.126954358726536, 45.95578953600968], [-61.12685134570416, 45.95574464429462], [-61.1268293686817, 45.955734329321736], [-61.12677384167836, 45.95570827127125], [-61.12672669483539, 45.95570005472552], [-61.12672253824344, 45.95569932952667], [-61.126670949032, 45.955698483584804], [-61.12659411103438, 45.955681022555034], [-61.126590085561276, 45.95568100154589], [-61.12651669692494, 45.95568065310654], [-61.12646418508471, 45.9557067936474], [-61.1264129583949, 45.95573385529757], [-61.12630851906074, 45.9557699448195], [-61.12624377544149, 45.95581478583846], [-61.12619224978402, 45.95584994299762], [-61.1261281125941, 45.95587679276005], [-61.12607588627084, 45.95589483729332], [-61.126050774676486, 45.9559124265202], [-61.125972432519625, 45.955939952243185], [-61.125921513564, 45.955957109094385], [-61.12589508182231, 45.95597557668751], [-61.12579134215542, 45.95602877829374], [-61.125739115583265, 45.9560468226687], [-61.125558916966185, 45.95610957033205], [-61.12540355678596, 45.95616282466142], [-61.12526101779129, 45.95618028690498], [-61.12518398237197, 45.95620692447298], [-61.12505471959744, 45.95625161503841]]}, "properties": {"OBJECTID": 286709, "FEAT_CODE": "WARV55", "FEAT_DESC": "River - Single Line Indefinite", "RIVNAME_1": " ", "RIVNAME_2": " ", "ZVALUE": 9999, "FID": null, "SHAPE_Length": 1542.6709657602473}}]}