{"type": "FeatureCollection", "features": [{"type": "Feature", "id": 11186, "geometry": {"type": "LineString", "coordinates": [[-61.10419872984399, 45.9412223312876], [-61.104199084938266, 45.94117256390106], [-61.1041984861927, 45.941169313751345], [-61.10418603504745, 45.94110125165209], [-61.10419951058745, 45.941046562660844], [-61.104225848849055, 45.94099299618251], [-61.10433006801872, 45.94084981607784], [-61.10443401095909, 45.94071472282561], [-61.10449961094993, 45.94060690412228], [-61.10469493892781, 45.94036443770337], [-61.104837497387614, 45.94019399135098], [-61.1049282698598, 45.94010459117797], [-61.10516196834655, 45.939871752048006], [-61.10540926529799, 45.93965623908765], [-61.1056285977784, 45.93950416609358], [-61.10575838502231, 45.93940551155603], [-61.10588757188614, 45.93932484810619], [-61.10603060887475, 45.93925341472738], [-61.10618526238064, 45.93918217374436], [-61.10650976418459, 45.93904805253749], [-61.1067286075703, 45.93898596627147], [-61.10675439412953, 45.938986393627076], [-61.106819809910455, 45.938959575877206], [-61.107000036660956, 45.93893286950892], [-61.10708870271947, 45.93892678721923], [-61.107116413219316, 45.93892488821624], [-61.10734861453689, 45.93892513520664], [-61.107375104820996, 45.938943926295586], [-61.10751488716449, 45.93904309652864], [-61.10757944935908, 45.939079260271335], [-61.1076698279948, 45.939114977663166]]}, "properties": {"OBJECTID": 11186, "FEAT_CODE": "WACO20", "FEAT_DESC": "Coast - Water to the right line", "RIVNAME_1": " ", "RIVNAME_2": " ", "ZVALUE": 0.2, "FID": null, "SHAPE_Length": 411.14787802907153}}, {"type": "Feature", "id": 11244, "geometry": {"type": "LineString", "coordinates": [[-61.091535486445196, 45.932148319527094], [-61.09158140672662, 45.93216448670917], [-61.091586466352766, 45.93216627234878], [-61.091614695746614, 45.932180370857495], [-61.09180459095272, 45.93227522317617], [-61.091894443831556, 45.93232264512466], [-61.09190848149563, 45.93233006207981], [-61.09217764271715, 45.932492968220515], [-61.092420713597335, 45.932664438664155], [-61.09245944386742, 45.93270108781846], [-61.092474152315, 45.93272129676597], [-61.09248531331341, 45.93273662215164], [-61.09252317337026, 45.932836261000475], [-61.092625664610466, 45.93300718370433], [-61.09264028133067, 45.93303872286128], [-61.09265088649389, 45.9330616084594], [-61.092713382967744, 45.933232763364224], [-61.09273087136754, 45.93326030918122], [-61.09276478369192, 45.93331371792286], [-61.09281380724246, 45.93343127423689], [-61.09286609780268, 45.933556634590005], [-61.092871641850074, 45.933566492801916], [-61.09289162860122, 45.9336020638383], [-61.092907760352674, 45.933624789655426], [-61.09292977347474, 45.933655813205], [-61.092955921550626, 45.933683242531394], [-61.092980190446134, 45.93371280962755], [-61.093045073349835, 45.93379183797189], [-61.09317324073536, 45.93389118392078], [-61.09328820817022, 45.93399931001228], [-61.0933530915301, 45.93407834718543], [-61.09337736111353, 45.934107905205806], [-61.09345432564559, 45.934233398060826], [-61.09353102003042, 45.934404789435085], [-61.093568870427845, 45.934504418746236], [-61.09357999955564, 45.9345534327494], [-61.09358120140946, 45.93455863715413], [-61.09358125724494, 45.93459464050229], [-61.09358064055405, 45.93461263141894], [-61.093566879167355, 45.93467540599352], [-61.093540589710045, 45.934764973302954], [-61.09348859641959, 45.934927016526785], [-61.093475143206796, 45.93498079562698], [-61.093487474495745, 45.93503500504546], [-61.09352531984804, 45.935184839641785], [-61.09353744743017, 45.9352329522451], [-61.093562726960954, 45.935323380152134], [-61.09358959442769, 45.935392323110854], [-61.09362556775797, 45.93548463957468], [-61.09365037666946, 45.935618910540974], [-61.09365059504932, 45.93562006626234], [-61.09366242167433, 45.93576427325929], [-61.09366075207932, 45.93592625623927], [-61.09364759421648, 45.93597103967798], [-61.09358321227592, 45.93604287915901], [-61.09357006752116, 45.93608765380622], [-61.09355504279457, 45.93637542232538], [-61.09354077567783, 45.93652819445432], [-61.09351438572413, 45.936582657710666], [-61.09348148292667, 45.93662051416575], [-61.093436493767086, 45.936672263839], [-61.093402856796416, 45.93669917228771], [-61.093358250396086, 45.93673486224486], [-61.09329382476632, 45.93677068942151], [-61.09322968169453, 45.93679752067691], [-61.09312625653788, 45.93684169740364], [-61.09307342116398, 45.936877717920936], [-61.092995836851266, 45.93695831927958], [-61.09294403683632, 45.93703937802506], [-61.09293089130783, 45.93708415257954], [-61.09293032971664, 45.93713814680821], [-61.0929328588776, 45.93714715362775], [-61.092942969359704, 45.93718336081438], [-61.09299437357979, 45.937264324274516], [-61.093096732228844, 45.93736413947231], [-61.093121815989726, 45.93738202834198], [-61.09314710019127, 45.9374000915632], [-61.09327010777094, 45.93746844315083], [-61.093455980095065, 45.937571740044866], [-61.093585529676034, 45.93763856236152], [-61.09359668482468, 45.93764431088967], [-61.09359766604463, 45.937653318863404], [-61.09366371711794, 45.93770030616021], [-61.09368707775003, 45.937716915066495], [-61.0938664933196, 45.937789213483725], [-61.09395353205257, 45.93782796422964], [-61.09396942800219, 45.937835033903305], [-61.09401963408752, 45.937857671018186], [-61.09429082784483, 45.9379799052039], [-61.09448297164465, 45.938080991879794], [-61.09460002214482, 45.938142573214634], [-61.094740730449956, 45.938215124698274], [-61.0947668148222, 45.93823169780271], [-61.09485562224908, 45.93828814552975], [-61.094870383726786, 45.93830310768386], [-61.09488180390344, 45.93831468389268], [-61.094897654244924, 45.93832271573973], [-61.09497183447139, 45.938360288203874], [-61.09519064998152, 45.93848724514246], [-61.09538272485051, 45.9386047552347], [-61.09547249192237, 45.93865845529321], [-61.09558323591888, 45.93874867838249], [-61.09572849324209, 45.93886703651051], [-61.09598523926848, 45.93909273069196], [-61.09609085016355, 45.939206701308606], [-61.09620295587187, 45.93932767451933], [-61.09643329048915, 45.93957092871375], [-61.09647619289013, 45.93963175857668], [-61.09653540894131, 45.939715748761785], [-61.09655450339097, 45.93976357206308], [-61.09656036069219, 45.939778259624006], [-61.096573677335826, 45.939841485678414], [-61.09661046370917, 45.94004821225093], [-61.09664802754282, 45.940156854265965], [-61.096724669082306, 45.940292231054336], [-61.09683909844165, 45.940454348048135], [-61.096863780281154, 45.94047123932298], [-61.09687817559666, 45.940481100774306], [-61.09691510046369, 45.940511183854916], [-61.096967287411175, 45.94055369897139], [-61.09705241837621, 45.94061370195807], [-61.09707058271171, 45.94062652435939], [-61.09714775630567, 45.94067100370666], [-61.09745594867596, 45.94082554666566], [-61.09755923050834, 45.94086146894525], [-61.097593212991036, 45.9408685962908], [-61.09777825262742, 45.940907418949024], [-61.09783622063715, 45.9409239012009], [-61.09784214913698, 45.940925584019475], [-61.09798379183444, 45.94097114523795], [-61.09809897339576, 45.940998264557145], [-61.09829879378288, 45.94103194109006], [-61.09831831676405, 45.941035227277496], [-61.098473469405796, 45.94106300259119], [-61.09870543048938, 45.94110826612445], [-61.098743509357114, 45.94112690105872]]}, "properties": {"OBJECTID": 11244, "FEAT_CODE": "WACO20", "FEAT_DESC": "Coast - Water to the right line", "RIVNAME_1": " ", "RIVNAME_2": " ", "ZVALUE": 0.2, "FID": null, "SHAPE_Length": 1293.1289006163142}}, {"type": "Feature", "id": 11319, "geometry": {"type": "LineString", "coordinates": [[-61.098743509357114, 45.94112690105872], [-61.098799380346705, 45.94115077341007], [-61.098807073091265, 45.941154060643505], [-61.098949083922506, 45.94122662856941], [-61.09909017254741, 45.94132618275324], [-61.099346930605684, 45.94155186946185], [-61.09958987451182, 45.94180432755865], [-61.09973102541521, 45.94193988434571], [-61.09987242464845, 45.94203044212248], [-61.09994828201617, 45.942075806729655], [-61.100000193982844, 45.942104580967765], [-61.10001558531594, 45.94211326150671], [-61.10007740273568, 45.942148158845306], [-61.100164223965834, 45.94218680219425], [-61.10018033777806, 45.9421939736258], [-61.100282629015055, 45.942220876363336], [-61.10029038008427, 45.942222463354], [-61.10037360525439, 45.942239490324944], [-61.10043611932316, 45.94223965676679], [-61.10043809302508, 45.94223966258367], [-61.10051579498463, 45.942231053930485], [-61.10069634268409, 45.94219535325751], [-61.1008639783578, 45.94216033770654], [-61.10120077709827, 45.9420444282328], [-61.101491511098324, 45.94197327723277], [-61.10156245410489, 45.941955923973865], [-61.101600405035384, 45.941949255159926], [-61.101716904718884, 45.94192880659321], [-61.101919838700724, 45.94191187318143], [-61.10192391441154, 45.941911526871976], [-61.10193059193083, 45.9419113047965], [-61.102155114475934, 45.94190367624489], [-61.102555010301224, 45.94190491862658], [-61.10269727341779, 45.941932483103685], [-61.10281307327021, 45.94194160674241], [-61.103048953382824, 45.94194292262538], [-61.10305815013607, 45.94194297633141], [-61.103186782111266, 45.941916310299185], [-61.10338174242628, 45.94183584172358], [-61.10360055059193, 45.94173776751296], [-61.103717515089706, 45.94167490482927], [-61.103808648021094, 45.94161251332381], [-61.10400326299639, 45.94150503617509], [-61.104132751137826, 45.941415379137524], [-61.104171676755044, 45.941371022161434], [-61.104198046183754, 45.9413165471494], [-61.10419872984399, 45.9412223312876]]}, "properties": {"OBJECTID": 11319, "FEAT_CODE": "WACO20", "FEAT_DESC": "Coast - Water to the right line", "RIVNAME_1": " ", "RIVNAME_2": " ", "ZVALUE": 0.2, "FID": null, "SHAPE_Length": 520.7003673918541}}, {"type": "Feature", "id": 20139, "geometry": {"type": "LineString", "coordinates": [[-61.09736400408983, 45.94634047746538], [-61.097308520284315, 45.946320616145485], [-61.0972875274347, 45.94631310203448], [-61.09727150351141, 45.94630478862268], [-61.09723555116754, 45.94628613463138], [-61.09721571509432, 45.946250854962116], [-61.09721001129578, 45.94624070630321], [-61.09715982455743, 45.9461237628001], [-61.09712130127622, 45.94604301590008], [-61.097109522233204, 45.94593481264753], [-61.09709830113246, 45.94577261515937], [-61.097111695899514, 45.94568283239901], [-61.097151380008704, 45.9455034816514], [-61.09716542116334, 45.945394808412445], [-61.09716692296195, 45.94538975709544], [-61.097178353819665, 45.94535131696848], [-61.09718960206775, 45.94529597069355], [-61.097193045339125, 45.94527905293608], [-61.097195702341665, 45.945262113081554], [-61.097203959356214, 45.945209345153415], [-61.09720903764635, 45.94519064551018], [-61.097241106903276, 45.94515912856107], [-61.09724415093997, 45.94515613706326], [-61.0972452833125, 45.94515509385446], [-61.09726497239998, 45.94513697958545], [-61.0972869363628, 45.94511007362475], [-61.09728975344885, 45.945088078103055], [-61.0972914807561, 45.94507455198561], [-61.09728274056854, 45.94505247197874], [-61.09725075293208, 45.94503335298727], [-61.097225799577274, 45.94503111924709], [-61.097159221448365, 45.945031990429534], [-61.097146997937976, 45.945032146850096], [-61.0971311441594, 45.94503357488763], [-61.09700677342514, 45.94504476106069], [-61.096897258350374, 45.94505126225575], [-61.09688507467766, 45.945055154556265], [-61.09685430216865, 45.94506499258939], [-61.096802959599444, 45.94510209272996], [-61.096800565316876, 45.9451038169572], [-61.09676765363062, 45.94512413201636], [-61.09671817898807, 45.94513907678721], [-61.096701039062296, 45.94513774715824], [-61.09666916527394, 45.94513528098983], [-61.09661304618338, 45.94512685749113], [-61.096580519641115, 45.94512197726496], [-61.096460461624055, 45.945104414814814], [-61.09635305457259, 45.945100590935624], [-61.09631451214882, 45.94510636609035], [-61.096224731363826, 45.94511981092399], [-61.096169685956085, 45.94514408623792], [-61.096140447083826, 45.945156982835556], [-61.09610961103245, 45.94517582919836], [-61.096100966704874, 45.94518110348774], [-61.09608473069862, 45.94524040779579], [-61.096082850199615, 45.94524860299336], [-61.096073354000666, 45.94529005445011], [-61.0960850206086, 45.94536192057322], [-61.09608627540415, 45.9453697359953], [-61.09609211178093, 45.94538580030821], [-61.09611499200952, 45.94544895173043], [-61.09616237301187, 45.9455219080779], [-61.0962156946831, 45.94557812330496], [-61.09624580402831, 45.94559632922627], [-61.096317070391486, 45.9456394235682], [-61.09642249315782, 45.94568653424569], [-61.09648546071815, 45.94571012093269], [-61.09651156239067, 45.94571989845927], [-61.09656841035323, 45.94574511124659], [-61.096600165694205, 45.945773281147915], [-61.09664914035389, 45.945817803983005], [-61.09668496225851, 45.94586927213041], [-61.09670861530318, 45.945904975510885], [-61.09673415748085, 45.945943536544334], [-61.09677071438045, 45.946002559401194], [-61.09678054506733, 45.94601841120398], [-61.0967837626861, 45.946023919165185], [-61.09680636952388, 45.94606267429503], [-61.09681648766419, 45.94610480359786], [-61.09680777122348, 45.94612085044171], [-61.09677935347044, 45.94613462493737], [-61.09676279652791, 45.94614263863967], [-61.09674615186584, 45.946146807627365], [-61.0966789354933, 45.946163643940075], [-61.0966045408173, 45.94617571630943], [-61.096596389759604, 45.94617524747894], [-61.0964500179852, 45.94616684121877], [-61.096375868720415, 45.94616646971617], [-61.09637261798195, 45.94616645154992], [-61.09630749678991, 45.94618426761867], [-61.09625659072232, 45.94620142048037], [-61.09622984604527, 45.94622887661109], [-61.09620411358838, 45.94626445013252], [-61.09613793177203, 45.94642625782255], [-61.096124786033286, 45.94647104167579], [-61.096097596707935, 45.94662449857939], [-61.096072228949296, 45.94668708890772], [-61.096071921184866, 45.94669607536453], [-61.096046188402156, 45.946731648842665], [-61.095993653356636, 45.94675867508235], [-61.09585150858107, 45.94680310894636], [-61.095567852558936, 45.94690999687783], [-61.0953605720728, 45.946972236496364], [-61.095257611174425, 45.94699933972894], [-61.09516681522312, 45.94701670906072], [-61.095089765979104, 45.94704332613085], [-61.094960194008124, 45.94709696011731], [-61.094817109529416, 45.94716838778152], [-61.09476555470489, 45.9472044303886], [-61.094713691823685, 45.947249459419986], [-61.09453085685915, 45.94746422413287], [-61.09449256093204, 45.94752749852548], [-61.094453931571785, 45.947562856526844], [-61.09437596906184, 45.94761645963744], [-61.094258673212586, 45.947688307773234], [-61.09422032113579, 45.94771556979362], [-61.094181382772625, 45.94775993213319], [-61.09406338467174, 45.948002779471295], [-61.09401073773703, 45.94814590147454], [-61.093946033527345, 45.94822672724488], [-61.09385489069631, 45.948326013067174], [-61.09378956912438, 45.948424829615185], [-61.09364577696703, 45.94866724609553], [-61.0935804542981, 45.94876607150168], [-61.09356668920149, 45.948828836878384], [-61.09352816936518, 45.94893620106008], [-61.09350091596976, 45.9490536538907], [-61.09350020367291, 45.949135745327716], [-61.09349871241723, 45.949305633455914], [-61.09355480165367, 45.94946477274444], [-61.09356222211895, 45.94948580493224], [-61.09357960319428, 45.94952227733088], [-61.09360074241641, 45.949566552942876], [-61.09371579775993, 45.94971068210264], [-61.09379175869626, 45.94982805712993], [-61.09382453134429, 45.94985518269047], [-61.09386831984466, 45.94989143862425], [-61.093892613420415, 45.949908081019096], [-61.09390738913016, 45.94991819219116], [-61.09393287211354, 45.94992761795435], [-61.09397189887594, 45.94991835945929], [-61.094036012591786, 45.94989244539632], [-61.09410175601248, 45.94985663084369], [-61.0942309152946, 45.9497399778839], [-61.09426957719168, 45.94970372045284], [-61.09432242426739, 45.949667699637644], [-61.09437364249238, 45.94964155226813], [-61.09447712167411, 45.94959647531906], [-61.0946063919664, 45.949551828445955], [-61.094671517652905, 45.9495340134273], [-61.09476097581336, 45.94951664918259], [-61.09477824724504, 45.94951342699881], [-61.095045532282036, 45.94946374579444], [-61.09516227102847, 45.949445891075726], [-61.095200285115794, 45.94942851475061], [-61.09525251455823, 45.949410493372426], [-61.09540775657321, 45.94928528237458], [-61.095473146332985, 45.94922245938483], [-61.095577240222134, 45.949159390518865], [-61.09562845739875, 45.94913324256793], [-61.09568068673625, 45.949115211991135], [-61.09595211822539, 45.949026139225694], [-61.09599114403575, 45.94901688002415], [-61.09605106216114, 45.94901018315106], [-61.0961452785792, 45.94899964756119], [-61.09614711097566, 45.94899964209648], [-61.0961968914758, 45.948999607641596], [-61.09631391905816, 45.94897365603375], [-61.09636484558488, 45.9489556034339], [-61.09654666269524, 45.948883928155226], [-61.096636583554606, 45.948857524563735], [-61.096766216052025, 45.94883988302857], [-61.09685452384732, 45.94883157056633], [-61.09685554659449, 45.948831470596915], [-61.09691528766357, 45.948826921460174], [-61.09697196263905, 45.94882260923536], [-61.09699550487353, 45.94882616060847], [-61.09715295763554, 45.94884992571411], [-61.09723704811988, 45.94885889583469], [-61.09724294898675, 45.94885952515293], [-61.09724764448743, 45.94885955835726], [-61.09734614376166, 45.94886034383992], [-61.09743678170562, 45.94885105266982], [-61.097510715357004, 45.94885141988877], [-61.09751418547735, 45.9488514416759], [-61.097590902506454, 45.94883381802663], [-61.097668626991336, 45.94882521168543], [-61.0978366814597, 45.94881630925917], [-61.097911027731584, 45.94881668308927], [-61.09791407229907, 45.9488166977788], [-61.097924425161374, 45.948817689205804], [-61.098016959243076, 45.94882651131741], [-61.09822049261587, 45.948852419227315], [-61.09823664133005, 45.948854470173195], [-61.09846765267439, 45.94889071770759], [-61.098506339217224, 45.94889136164145], [-61.0985582468442, 45.948882324976985], [-61.09866141364359, 45.94884623961848], [-61.09886834426341, 45.94875697744885], [-61.0989337445906, 45.94873106404433], [-61.09902493824915, 45.948667777361415], [-61.09908938721967, 45.948631947395086], [-61.0991415558495, 45.94857791189126], [-61.09929649252008, 45.948461682102725], [-61.09943884069231, 45.94833624208989], [-61.09959568033122, 45.94820205138393], [-61.099660069197895, 45.94813020875742], [-61.09972532052827, 45.947995385351945], [-61.09973932669719, 45.9478876113198], [-61.09972760182797, 45.947815411613206], [-61.09968968899953, 45.947716665590946], [-61.099638513451545, 45.947590715178876], [-61.09962554584197, 45.9475544971248], [-61.09960120103659, 45.9475287645016], [-61.099574503012136, 45.947500535566675], [-61.099522862477535, 45.947463683154474], [-61.09945713892451, 45.947432302799115], [-61.09944669071971, 45.94742731366474], [-61.0993427933423, 45.94740938407255], [-61.099097354684076, 45.94741789215624], [-61.09895544591287, 45.947417339881866], [-61.09894643869409, 45.94741624493244], [-61.09887835172288, 45.94740795641765], [-61.098608353057365, 45.94738006139163], [-61.09834965261242, 45.94736135438427], [-61.09818256949261, 45.94734237191919], [-61.098123301206755, 45.94733390574233], [-61.09811837070361, 45.9473332026182], [-61.098112608261815, 45.9473311715581], [-61.09806737484117, 45.94731525250688], [-61.09798288849879, 45.947255693112346], [-61.09796406636518, 45.94724241889122], [-61.09795178647803, 45.94722422226581], [-61.09787423714052, 45.9471527355045], [-61.09782382986366, 45.94707988251013], [-61.0977722059573, 45.94698225762295], [-61.09774748490764, 45.94693550196781], [-61.097744805820554, 45.94692820288484], [-61.0977345010986, 45.94690017448205], [-61.097721239662896, 45.946872960900336], [-61.097708843708865, 45.94678274862493], [-61.097667070799986, 45.9466679795937], [-61.097633364673335, 45.94657537831259], [-61.09760547196996, 45.94651574397171], [-61.09758286893311, 45.946467430443874], [-61.09756793472605, 45.946453662864165], [-61.09754408225212, 45.94643168223926], [-61.09739046769945, 45.94635891938212], [-61.09736400408983, 45.94634047746538]]}, "properties": {"OBJECTID": 20139, "FEAT_CODE": "WACOIS10", "FEAT_DESC": "Coastal Island - Water to the right line", "RIVNAME_1": " ", "RIVNAME_2": " ", "ZVALUE": 0.2, "FID": null, "SHAPE_Length": 1776.6885426324363}}, {"type": "Feature", "id": 58916, "geometry": {"type": "LineString", "coordinates": [[-61.1041103643584, 45.940785866151174], [-61.10412392109568, 45.94080409232267], [-61.10408358730286, 45.94096543363061], [-61.10406964131796, 45.94110921167365]]}, "properties": {"OBJECTID": 58916, "FEAT_CODE": "WALK20", "FEAT_DESC": "Lake - Water to the right line", "RIVNAME_1": " ", "RIVNAME_2": " ", "ZVALUE": 1, "FID": null, "SHAPE_Length": 36.498783184936755}}, {"type": "Feature", "id": 58917, "geometry": {"type": "LineString", "coordinates": [[-61.10406964131796, 45.94110921167365], [-61.103825470526225, 45.94108175757118], [-61.10379962071479, 45.941045326132134], [-61.10379809857253, 45.941042672693534], [-61.103774034132236, 45.94100079852223], [-61.1037658668999, 45.940964885597324], [-61.103761704535216, 45.94094659030518], [-61.10376219346214, 45.94085659248583], [-61.1037757006811, 45.94083881550239], [-61.10380084288192, 45.94082033158208], [-61.10390450665192, 45.94080317795607], [-61.10399526034336, 45.940793856501074], [-61.1039976269412, 45.9407936887654], [-61.1041103643584, 45.940785866151174]]}, "properties": {"OBJECTID": 58917, "FEAT_CODE": "WALK20", "FEAT_DESC": "Lake - Water to the right line", "RIVNAME_1": " ", "RIVNAME_2": " ", "ZVALUE": 1, "FID": null, "SHAPE_Length": 74.53689301449657}}, {"type": "Feature", "id": 117021, "geometry": {"type": "LineString", "coordinates": [[-61.099206714915695, 45.94120031350213], [-61.09921992254299, 45.94120342245058], [-61.099284782472935, 45.94121871355129], [-61.099400639643356, 45.94126384398321], [-61.09945034907438, 45.94128757750226], [-61.099476803054145, 45.94130021340859], [-61.09950295757469, 45.94132765030341], [-61.09951554388505, 45.941336860284245], [-61.09952852795396, 45.9413721786021]]}, "properties": {"OBJECTID": 117021, "FEAT_CODE": "WALK20", "FEAT_DESC": "Lake - Water to the right line", "RIVNAME_1": " ", "RIVNAME_2": " ", "ZVALUE": 1.2, "FID": null, "SHAPE_Length": 32.96185262009219}}, {"type": "Feature", "id": 117022, "geometry": {"type": "LineString", "coordinates": [[-61.09952852795396, 45.9413721786021], [-61.09950209472911, 45.941390640103876], [-61.09946310591386, 45.94139899206611], [-61.099396747063246, 45.94140489952929], [-61.09936087603991, 45.94140809198393], [-61.09932152028469, 45.94138943601231], [-61.09926410461092, 45.941294874556334], [-61.099206714915695, 45.94120031350213]]}, "properties": {"OBJECTID": 117022, "FEAT_CODE": "WALK20", "FEAT_DESC": "Lake - Water to the right line", "RIVNAME_1": " ", "RIVNAME_2": " ", "ZVALUE": 1.2, "FID": null, "SHAPE_Length": 40.56749500482444}}, {"type": "Feature", "id": 118966, "geometry": {"type": "LineString", "coordinates": [[-61.096545377089086, 45.945491585930085], [-61.09655762408097, 45.94547378881215], [-61.09658370857812, 45.94546522283766], [-61.09663186485752, 45.94547108352121], [-61.09666079995501, 45.94547459881006], [-61.0966771342028, 45.94547459193517], [-61.096712409277494, 45.94547456760182], [-61.09677722156321, 45.945465746742975], [-61.09678979543254, 45.945474956810614], [-61.096803376625374, 45.94549318424678]]}, "properties": {"OBJECTID": 118966, "FEAT_CODE": "WALK20", "FEAT_DESC": "Lake - Water to the right line", "RIVNAME_1": " ", "RIVNAME_2": " ", "ZVALUE": 0.8, "FID": null, "SHAPE_Length": 23.31346908657136}}, {"type": "Feature", "id": 118967, "geometry": {"type": "LineString", "coordinates": [[-61.096803376625374, 45.94549318424678], [-61.096738314022375, 45.945547003890866], [-61.09671258221689, 45.94558257754091], [-61.09669968748312, 45.945582362707206], [-61.09667480976709, 45.94558281228248], [-61.096673867219685, 45.94558283258118], [-61.09662223100706, 45.945545960912796], [-61.0965929176209, 45.945525230186796], [-61.096545377089086, 45.945491585930085]]}, "properties": {"OBJECTID": 118967, "FEAT_CODE": "WALK20", "FEAT_DESC": "Lake - Water to the right line", "RIVNAME_1": " ", "RIVNAME_2": " ", "ZVALUE": 0.8, "FID": null, "SHAPE_Length": 29.470321698732654}}, {"type": "Feature", "id": 118968, "geometry": {"type": "LineString", "coordinates": [[-61.09771626520688, 45.94758392432895], [-61.09772971777466, 45.94753014482533], [-61.09776869654573, 45.94748489089188], [-61.09778219444217, 45.94746711447717], [-61.097820544634935, 45.94743985122971], [-61.09785923015393, 45.947440495367], [-61.097863801137, 45.94744114751323], [-61.097923429018856, 45.94744966481474], [-61.0979829662386, 45.947470637385535], [-61.09800119706495, 45.94747706131344], [-61.09809060163524, 45.947503751430666], [-61.098092949790775, 45.94750375452134], [-61.098155108359585, 45.94750392528816], [-61.09823275941518, 45.94745931500003], [-61.09827195931249, 45.94745095797461], [-61.09828467863298, 45.947450278652205], [-61.09838280933234, 45.947485529348675], [-61.098413412204934, 45.94749652443697], [-61.09842441605079, 45.94750148691252], [-61.098452802673165, 45.947514281219014], [-61.098481640952215, 45.94753952184474], [-61.098504165301485, 45.94755923901706], [-61.09851577098658, 45.94755943219059], [-61.09852185195776, 45.94756007344136], [-61.09860705004618, 45.947569051991465], [-61.0986575370207, 45.94756001863783], [-61.09877472112174, 45.94753314005058], [-61.098842434205295, 45.947524069276895], [-61.09909747268305, 45.947489907800616], [-61.09925261485746, 45.94748078843653], [-61.09931478631959, 45.94748095878643], [-61.099317121579844, 45.94748096163738], [-61.09936839480725, 45.94749081527754], [-61.099381577963385, 45.947496947992086], [-61.09940649606709, 45.947508550281356], [-61.09943296091325, 45.94752699174056], [-61.09944967022126, 45.947551130276686], [-61.09945755194125, 45.947562503131124], [-61.0994759938848, 45.947585779430185], [-61.09952187008925, 45.94764367834184], [-61.099560307718534, 45.947689320701976], [-61.09956531101124, 45.94769619937566], [-61.09958618842248, 45.94772485351819], [-61.09962437813759, 45.947815494654314], [-61.09964902891334, 45.94788700933311], [-61.09964816589306, 45.94794999906705]]}, "properties": {"OBJECTID": 118968, "FEAT_CODE": "WALK20", "FEAT_DESC": "Lake - Water to the right line", "RIVNAME_1": " ", "RIVNAME_2": " ", "ZVALUE": 1.3, "FID": null, "SHAPE_Length": 204.4690866706995}}, {"type": "Feature", "id": 118969, "geometry": {"type": "LineString", "coordinates": [[-61.09964816589306, 45.94794999906705], [-61.09963538957087, 45.94802179120898], [-61.09960901262041, 45.948076255992085], [-61.099517838461836, 45.94813864341174], [-61.09942735143812, 45.948219043357675], [-61.09929786546747, 45.948308695022725], [-61.09929622652328, 45.94830870375661], [-61.099259135659395, 45.94830895069518], [-61.09923228429451, 45.948295012059724], [-61.099207156879125, 45.94828197515867], [-61.09915613106454, 45.94822713164579], [-61.09915332453562, 45.94822619388995], [-61.09913061716896, 45.94821860659018], [-61.099044343760625, 45.94821802608552], [-61.09904031886952, 45.94821800411402], [-61.09903690041653, 45.948217227183946], [-61.09900190963658, 45.94820926444953], [-61.09898933478885, 45.948200054614226], [-61.0989505767769, 45.94816340731802], [-61.0989011752681, 45.94814936336572], [-61.09888668453627, 45.948145242968536], [-61.09888001251462, 45.948143772848226], [-61.098846985844865, 45.94813648179332], [-61.098835013425976, 45.94810928079804], [-61.0988353210667, 45.948100285333595], [-61.09884846505895, 45.94805550115243], [-61.09886099375777, 45.948028707898544], [-61.09884111952493, 45.9479933648839], [-61.09883545179086, 45.94798327991372], [-61.098822831772246, 45.94797124312444], [-61.09879796568918, 45.947947553789604], [-61.0987721161606, 45.9479111212559], [-61.09876554682114, 45.94790815874068], [-61.09873272530967, 45.94789336457918], [-61.09869434711723, 45.947883725268646], [-61.09864340941182, 45.94790177872286], [-61.098603769758604, 45.94792902078306], [-61.098539940117625, 45.94793770602381], [-61.098538954844635, 45.94793784263442], [-61.09851414609612, 45.947946430287686], [-61.098507037403756, 45.94794641097192], [-61.09832062436436, 45.94794590919017], [-61.09828126441119, 45.947927252813535], [-61.09826262794045, 45.94790741130732], [-61.098256365949126, 45.947900745638336], [-61.09825569219302, 45.947882724252615], [-61.09817414487681, 45.94783151247088], [-61.09802454059091, 45.94773756686854], [-61.09800388448705, 45.947723209053], [-61.097999334871204, 45.947720046105005], [-61.09797385216921, 45.947710621250636], [-61.097969850399714, 45.94770992458248], [-61.097922548229214, 45.947701666531586], [-61.09785869265797, 45.94771035996044], [-61.09785773317801, 45.947710496994624], [-61.09781837385731, 45.94769183146732], [-61.09780328549823, 45.94768821401449], [-61.09774158731773, 45.94767345177368], [-61.097729615536, 45.94764625067045], [-61.09771626520688, 45.94758392432895]]}, "properties": {"OBJECTID": 118969, "FEAT_CODE": "WALK20", "FEAT_DESC": "Lake - Water to the right line", "RIVNAME_1": " ", "RIVNAME_2": " ", "ZVALUE": 1.3, "FID": null, "SHAPE_Length": 225.24005813244634}}, {"type": "Feature", "id": 118970, "geometry": {"type": "LineString", "coordinates": [[-61.09633204270245, 45.94648515224957], [-61.09633603386178, 45.946434158428005], [-61.0963428621596, 45.94641937624179], [-61.09636156494022, 45.946409364225296], [-61.096374747736554, 45.94640230242223], [-61.096394067222136, 45.94639311973024], [-61.09642250267528, 45.946379588641605], [-61.09645366049119, 45.94635475316779], [-61.096475576759794, 45.94632851261614], [-61.09648725092366, 45.946312002047634], [-61.096491862186475, 45.94630544544992], [-61.096509579120905, 45.94630048431299], [-61.09654483083513, 45.94629701241681], [-61.096607750160054, 45.94629904182361], [-61.096634834684274, 45.946299340077125], [-61.096637375595414, 45.946299364410514], [-61.096650016653044, 45.94629606479556], [-61.09669421521108, 45.946284515380135], [-61.09674462105824, 45.94626765100916], [-61.096795848370405, 45.94625467955439], [-61.09684679777763, 45.94625397124716], [-61.09685224804379, 45.94625381002837], [-61.09687831119677, 45.946253038140135], [-61.096915729347245, 45.94623602933482], [-61.0969170339133, 45.94622053405501], [-61.09691986709005, 45.94621767406242], [-61.09693790889617, 45.946199451405484], [-61.09695176482934, 45.946186667375095], [-61.0969558949561, 45.94618285692329], [-61.09699054395012, 45.946166459006534], [-61.09702028459237, 45.946162283119655], [-61.09703505026392, 45.946164383203445], [-61.097048511101406, 45.946181987562866], [-61.09705427267035, 45.946213063557416], [-61.09705283540924, 45.946273145536786]]}, "properties": {"OBJECTID": 118970, "FEAT_CODE": "WALK20", "FEAT_DESC": "Lake - Water to the right line", "RIVNAME_1": " ", "RIVNAME_2": " ", "ZVALUE": 1.922, "FID": null, "SHAPE_Length": 85.47254694075545}}, {"type": "Feature", "id": 118971, "geometry": {"type": "LineString", "coordinates": [[-61.09705283540924, 45.946273145536786], [-61.09703085853538, 45.94634074288682], [-61.09702154885432, 45.94637939833927], [-61.09701018654299, 45.94642901831538], [-61.0970087554074, 45.9464331347456], [-61.0969982715815, 45.94646312107293], [-61.09694723380711, 45.94650711179762], [-61.09693023645872, 45.94651253501896], [-61.09690618195085, 45.94652020782846], [-61.09687079204005, 45.94652884387079], [-61.09686546361378, 45.94652921413374], [-61.09683926052581, 45.94653105475771], [-61.09683569728471, 45.94653036535518], [-61.09676921920188, 45.94651733207202], [-61.09670829475109, 45.94650564235829], [-61.096654732043454, 45.94650051968642], [-61.09660489025996, 45.946508815856255], [-61.0965982203708, 45.94650992880589], [-61.0965914985936, 45.94651104989118], [-61.09657857422423, 45.946513201704605], [-61.09652256366715, 45.946533221827266], [-61.09646570157538, 45.94654871843964], [-61.09643251700184, 45.94654833650262], [-61.09642129592634, 45.94654822153053], [-61.096365204636385, 45.94653140982964], [-61.09634060415839, 45.9465143308091], [-61.09633204270245, 45.94648515224957]]}, "properties": {"OBJECTID": 118971, "FEAT_CODE": "WALK20", "FEAT_DESC": "Lake - Water to the right line", "RIVNAME_1": " ", "RIVNAME_2": " ", "ZVALUE": 1.922, "FID": null, "SHAPE_Length": 81.287246975176}}, {"type": "Feature", "id": 118972, "geometry": {"type": "LineString", "coordinates": [[-61.097291038583386, 45.947492237296025], [-61.09729769789508, 45.94749369829721], [-61.0973307365553, 45.94750099900195], [-61.09735591117503, 45.94751941945457], [-61.09736056112919, 45.94753246674206], [-61.09736886439475, 45.94755563752854], [-61.097362847776154, 45.94757611266093], [-61.097355706451715, 45.9476004213116], [-61.097346564314485, 45.947623625568745], [-61.09734159263248, 45.9476361885877], [-61.097356682934254, 45.94766764494354], [-61.09739337841364, 45.9477441580278], [-61.097366325648046, 45.94778060987212]]}, "properties": {"OBJECTID": 118972, "FEAT_CODE": "WALK20", "FEAT_DESC": "Lake - Water to the right line", "RIVNAME_1": " ", "RIVNAME_2": " ", "ZVALUE": 1.1, "FID": null, "SHAPE_Length": 36.62318120361042}}, {"type": "Feature", "id": 118973, "geometry": {"type": "LineString", "coordinates": [[-61.097366325648046, 45.94778060987212], [-61.09734053515155, 45.94778018033503], [-61.097270254355216, 45.947722891141666], [-61.097174844099236, 45.94764511203542], [-61.097148629984396, 45.94758167130292], [-61.097162756807265, 45.947545904266846], [-61.097214002539296, 45.94751885601739], [-61.097291038583386, 45.947492237296025]]}, "properties": {"OBJECTID": 118973, "FEAT_CODE": "WALK20", "FEAT_DESC": "Lake - Water to the right line", "RIVNAME_1": " ", "RIVNAME_2": " ", "ZVALUE": 1.1, "FID": null, "SHAPE_Length": 44.86425171560023}}, {"type": "Feature", "id": 118974, "geometry": {"type": "LineString", "coordinates": [[-61.09552158852566, 45.947846168598154], [-61.09554735268802, 45.947809704708774], [-61.09558665473918, 45.947792358723625], [-61.09572918027114, 45.94777493329584], [-61.095831422378396, 45.94776583683055], [-61.09586897739575, 45.94776558974185], [-61.09587013919925, 45.947765573104284], [-61.095896602657284, 45.947784024361084], [-61.09590954208168, 45.947820242370106]]}, "properties": {"OBJECTID": 118974, "FEAT_CODE": "WALK20", "FEAT_DESC": "Lake - Water to the right line", "RIVNAME_1": " ", "RIVNAME_2": " ", "ZVALUE": 1.1, "FID": null, "SHAPE_Length": 37.38257929343586}}, {"type": "Feature", "id": 118975, "geometry": {"type": "LineString", "coordinates": [[-61.09590954208168, 45.947820242370106], [-61.095908925859575, 45.94783823326931], [-61.095869649663044, 45.94785557979615], [-61.095831901593904, 45.94786485125407], [-61.09565260752187, 45.94789119551292], [-61.095650350803965, 45.94789153591852], [-61.0956476758437, 45.94789240938718], [-61.095624265019175, 45.94790010165636], [-61.09552158852566, 45.947846168598154]]}, "properties": {"OBJECTID": 118975, "FEAT_CODE": "WALK20", "FEAT_DESC": "Lake - Water to the right line", "RIVNAME_1": " ", "RIVNAME_2": " ", "ZVALUE": 1.1, "FID": null, "SHAPE_Length": 35.289919235825}}, {"type": "Feature", "id": 118976, "geometry": {"type": "LineString", "coordinates": [[-61.09433519107697, 45.947940700547115], [-61.094347400647976, 45.9479229030476], [-61.094387042335406, 45.94789566249711], [-61.09442475981611, 45.947887291065015], [-61.09456761217619, 45.947859971894964], [-61.09467014497277, 45.947842780791255], [-61.094671306469536, 45.94784277316135], [-61.094708835741294, 45.94784252602487], [-61.09472272510059, 45.94785175825632], [-61.094765758328194, 45.94787463539293], [-61.0947734120263, 45.94787870529373], [-61.094799258890305, 45.94791513869134], [-61.09483716310226, 45.948013886199796]]}, "properties": {"OBJECTID": 118976, "FEAT_CODE": "WALK20", "FEAT_DESC": "Lake - Water to the right line", "RIVNAME_1": " ", "RIVNAME_2": " ", "ZVALUE": 0.9, "FID": null, "SHAPE_Length": 54.540287523296676}}, {"type": "Feature", "id": 118977, "geometry": {"type": "LineString", "coordinates": [[-61.09483716310226, 45.948013886199796], [-61.09483654683735, 45.94803186809173], [-61.09482398507477, 45.94805956941362], [-61.09481542261588, 45.94806808517975], [-61.09479726991491, 45.94808611663556], [-61.09475953472408, 45.948095378953084], [-61.094707644901256, 45.948103523130335], [-61.09460442081415, 45.948103601626265], [-61.094539605133896, 45.948112421194814], [-61.09445167652478, 45.94803855385031], [-61.09433519107697, 45.947940700547115]]}, "properties": {"OBJECTID": 118977, "FEAT_CODE": "WALK20", "FEAT_DESC": "Lake - Water to the right line", "RIVNAME_1": " ", "RIVNAME_2": " ", "ZVALUE": 0.9, "FID": null, "SHAPE_Length": 53.98555521491693}}]}