{"type": "FeatureCollection", "features": [{"type": "Feature", "id": 13804, "geometry": {"type": "LineString", "coordinates": [[-61.0950861521333, 45.86768280383065], [-61.09507283503368, 45.86780859152037], [-61.09507091579108, 45.86801557556144], [-61.095057540447065, 45.868105359481966], [-61.09503073152976, 45.86824892355474], [-61.09499157130846, 45.86833918652194], [-61.094874593489166, 45.86848213782452], [-61.09475696911507, 45.8686439886844], [-61.094705047256866, 45.8688060352653], [-61.09469130577871, 45.86886881093636], [-61.09465214485105, 45.86895906476682], [-61.09465164556825, 45.86904906340105], [-61.094624777270226, 45.869156623584246], [-61.09459846634078, 45.86921017988046], [-61.094572738656005, 45.86924667157911], [-61.09457069601831, 45.86957066255057], [-61.09454344947442, 45.86965120531012], [-61.09453099529203, 45.86971400242742], [-61.09451786835792, 45.86975878693005], [-61.09446552177904, 45.86985782142537], [-61.094412809838396, 45.86992984771545], [-61.09439968275332, 45.869974632200595], [-61.094385690713416, 45.870082407117984], [-61.0943723136648, 45.87017219090229], [-61.094346086131864, 45.87029866314999], [-61.09430670436062, 45.87043301656102], [-61.094241729407166, 45.87048683679188], [-61.09417674145039, 45.870540656768455], [-61.09413818004839, 45.870576007169056], [-61.09409000553576, 45.87060083736301], [-61.09408572969825, 45.870603043196084], [-61.0940513114739, 45.870617455076285], [-61.09402166390972, 45.870629885388716], [-61.094012440264656, 45.87063322375537], [-61.093995571126754, 45.87063934177414], [-61.093932855293474, 45.87064629690684], [-61.09391796853256, 45.87064794764586], [-61.09388615371225, 45.87065329421562], [-61.09381559128318, 45.87066514073626], [-61.09372424553706, 45.870736521995475], [-61.09377581233423, 45.87077338531783], [-61.09380129027519, 45.87078191110959], [-61.093865400441715, 45.870791081557705], [-61.09389213538483, 45.87080052837409], [-61.09395501518872, 45.87084568101613], [-61.09408371559223, 45.870963037343245], [-61.09422487142967, 45.8710175964737], [-61.09427555979883, 45.87108054692336], [-61.094327760242834, 45.87109851910914], [-61.09439153258192, 45.87111758438755], [-61.09449399894053, 45.87113549497147], [-61.094752287023965, 45.871118192641], [-61.09484348670118, 45.87111892168237], [-61.09485538857579, 45.8711190301792], [-61.09494492671037, 45.871136706735136], [-61.09517598033967, 45.871236165265714], [-61.095240791460576, 45.871264059069446], [-61.095298252350624, 45.871284584717735], [-61.09534388775966, 45.87130088084882], [-61.09538089786726, 45.87132223554671], [-61.095420991109485, 45.87134536977173], [-61.09549741049955, 45.87140874869341], [-61.09552322396359, 45.87144518184085], [-61.09558616420933, 45.87152633735583], [-61.09565064131034, 45.87156251499409], [-61.09567639650589, 45.87156294436463], [-61.095717015067855, 45.87153450427363], [-61.095727879159185, 45.87152689978668], [-61.095734806303746, 45.87152025574645], [-61.0957931612602, 45.871464083146456], [-61.095832439327445, 45.87144583645403], [-61.09592787914697, 45.871433350288136], [-61.09596057259271, 45.87142907087624], [-61.096102843117286, 45.87137563794668], [-61.096147827126686, 45.87136008744876], [-61.09615499857729, 45.871357605774776], [-61.096201528453086, 45.87135111771596], [-61.09621843655885, 45.871348762310895], [-61.09634727384246, 45.87134910034792], [-61.09635161293792, 45.87134956869037], [-61.09643841480689, 45.871358728821164], [-61.096450734432146, 45.87137603543611], [-61.09647592123461, 45.871430459309906], [-61.09650123890592, 45.87155689089768], [-61.096512598932165, 45.87179019812695], [-61.09647245816632, 45.87187143552007], [-61.09642174040764, 45.871906593109216], [-61.09640779075921, 45.87191626140449], [-61.096381728169085, 45.87192482776832], [-61.09624974631351, 45.87198369791887], [-61.09616191105691, 45.87202287213936], [-61.09603282391181, 45.87206752418793], [-61.096027949402625, 45.8720672629258], [-61.09586562871528, 45.87205843677586], [-61.095737404464046, 45.872040107032824], [-61.09558305979048, 45.87199432159416], [-61.09558330877048, 45.871949322285566], [-61.095632173658736, 45.87194389946689], [-61.09566091296259, 45.8719407153086], [-61.09575078017125, 45.871950314093404], [-61.09585422899165, 45.871977240522035], [-61.09598232270062, 45.87192357142391], [-61.096125162853085, 45.87181615281292], [-61.09612510443697, 45.87178014007031], [-61.0961005194823, 45.87170772476875], [-61.096049226813285, 45.87166276645033], [-61.09599762694739, 45.87162680368037], [-61.09585621903208, 45.87161724601042], [-61.095761246026726, 45.87165867712418], [-61.095752887845805, 45.87166232708144], [-61.09567534248986, 45.87170693787097], [-61.0955459483591, 45.871760584945285], [-61.09549929973022, 45.87177430731345], [-61.09545613978753, 45.87178698974513], [-61.09542708803798, 45.871801959549146], [-61.09540367632833, 45.87181401715385], [-61.095339462703976, 45.8719209547756], [-61.09526157851775, 45.871975460394395], [-61.09524845157677, 45.87202024496503], [-61.09524783676777, 45.87203823609694], [-61.09527275826721, 45.87210077443151], [-61.09531145023131, 45.872137404364864], [-61.09536243533125, 45.872191358574895], [-61.09544009785634, 45.872218764487805], [-61.0955294093822, 45.87228234932953], [-61.09563187826893, 45.872300258928504]]}, "properties": {"OBJECTID": 13804, "FEAT_CODE": "WACO20", "FEAT_DESC": "Coast - Water to the right line", "RIVNAME_1": " ", "RIVNAME_2": " ", "ZVALUE": 0.2, "FID": null, "SHAPE_Length": 970.0364189047912}}, {"type": "Feature", "id": 13827, "geometry": {"type": "LineString", "coordinates": [[-61.08533519683759, 45.881720156168996], [-61.085347767289086, 45.881729376548435], [-61.08542453710131, 45.88173874590206], [-61.085430167459805, 45.88173878626671], [-61.08548919858937, 45.88173894759028], [-61.08549524500323, 45.88173475560472], [-61.08555388654612, 45.881694119284674], [-61.08560291760318, 45.88169426596351], [-61.085618316456745, 45.881694308018], [-61.08565636914843, 45.88171203802849], [-61.085669300476404, 45.88174826645942], [-61.085668785902875, 45.88183826463218], [-61.08564309870395, 45.88191073965242], [-61.085640967585995, 45.88219782560598], [-61.08561311668431, 45.88233326910693], [-61.08559982537329, 45.8824950585741], [-61.08558606979704, 45.8825578327915], [-61.08555975607273, 45.88261139586034], [-61.08555237035737, 45.882617806571645], [-61.08550793454487, 45.88265643080491], [-61.085417815622, 45.882728716940946], [-61.08538591029354, 45.882743222312456], [-61.085301283884995, 45.8827816768595], [-61.085145539821085, 45.88288887448012], [-61.085135193437104, 45.88289743169958], [-61.08508055415171, 45.88294268923427], [-61.08491259325149, 45.88310458587054], [-61.08487250916371, 45.88322092265836], [-61.08479473208147, 45.883346528213195], [-61.084690184388904, 45.88346358424034]]}, "properties": {"OBJECTID": 13827, "FEAT_CODE": "WACO20", "FEAT_DESC": "Coast - Water to the right line", "RIVNAME_1": " ", "RIVNAME_2": " ", "ZVALUE": 0.2, "FID": null, "SHAPE_Length": 247.74790566696655}}, {"type": "Feature", "id": 14064, "geometry": {"type": "LineString", "coordinates": [[-61.09584414573369, 45.88038101290776], [-61.095795045999566, 45.88040365020309], [-61.0957668955003, 45.88041662794969], [-61.095726238158804, 45.88044487836435], [-61.09567581249762, 45.880479914442695], [-61.095649803996245, 45.88052448425311], [-61.0956369954433, 45.88056027343824], [-61.09561007914941, 45.88066873293097], [-61.09554493281355, 45.880802657018336], [-61.09548352888672, 45.88082707819169], [-61.09536464045175, 45.88087435666736], [-61.09534042791576, 45.880885599832474], [-61.09532535549025, 45.88089260306345], [-61.09531155327182, 45.880919374962566], [-61.09531136181487, 45.88100037788387], [-61.09534984048472, 45.88108112552], [-61.09541346393785, 45.881180293747306], [-61.09551628391395, 45.88122611136794], [-61.09554115195015, 45.881252627941784], [-61.09563207255528, 45.88130725674869], [-61.09570784555034, 45.881352614283166], [-61.095742997257815, 45.88136632326866], [-61.09582356382295, 45.88139774657946], [-61.0958697249508, 45.881421152765405], [-61.095913517541476, 45.881443349363614], [-61.095952861132496, 45.881461106457834], [-61.095962240149056, 45.88146119078607], [-61.09606881085455, 45.88146213903789], [-61.096158724184654, 45.88147083817335], [-61.09620578920669, 45.881470812520554], [-61.09621028736206, 45.88147079748117], [-61.096312480996176, 45.88153460529933], [-61.09645397286683, 45.88158016647723], [-61.096570012101594, 45.881616311685235], [-61.09660803761488, 45.88163493765672], [-61.096659646944566, 45.8816709002429], [-61.09671058289034, 45.881688850229565], [-61.09686556994154, 45.88171663439336], [-61.09696867101163, 45.881716551925464], [-61.09712206307712, 45.88175330984677], [-61.097211590623694, 45.8817627577824], [-61.09721322146427, 45.88176292895888], [-61.09730284118862, 45.88178062297923], [-61.09734086675796, 45.881799257707385], [-61.09745629304948, 45.88185338415759], [-61.097713520568284, 45.8819440745771], [-61.097778318030514, 45.88197125559923], [-61.09785507430947, 45.88202563775331], [-61.09786770689882, 45.88207085149498], [-61.0978419468156, 45.88207042254283], [-61.097713332552196, 45.882025077543396], [-61.09762371198923, 45.882007392833216], [-61.09760868411006, 45.88200629649662], [-61.09749386976782, 45.88199802084492], [-61.09735275532218, 45.88197946927998], [-61.09730215679498, 45.881951624456065], [-61.097301117200324, 45.88195149913175], [-61.09715971093715, 45.88193395054303], [-61.09696675666779, 45.881923535623365], [-61.09680535232153, 45.88192325875926], [-61.096786344489736, 45.88192323008963], [-61.09670934104227, 45.88191384648548], [-61.096627731489484, 45.88191329675087], [-61.09661915033925, 45.88191324377331], [-61.09658078691773, 45.881904503920836], [-61.096542247124844, 45.881787752982135], [-61.09652998176286, 45.881769547243906], [-61.09651185166637, 45.88176947915054], [-61.096310930226615, 45.88176859708762], [-61.09629805121281, 45.8817721267357], [-61.09624588561117, 45.88178639650044], [-61.09615593283979, 45.88184861311888], [-61.09614293162715, 45.88185760412429], [-61.09612326516497, 45.88186855419469], [-61.0960785466077, 45.88189343379214], [-61.0960238470098, 45.88192490651894], [-61.096000999881596, 45.88193804472204], [-61.09597661648654, 45.88194937517943], [-61.095961714360186, 45.88195629132529], [-61.09594590829372, 45.881961752293385], [-61.09590954880841, 45.8819743232203], [-61.09585522489099, 45.88200724223666], [-61.095806902085734, 45.88203651698238], [-61.0957940220674, 45.88203630227487], [-61.095703243826485, 45.88209059317894], [-61.09563408868013, 45.88212608205436], [-61.095599615805504, 45.88214377871811], [-61.095328820777794, 45.88222386118682], [-61.095134579306304, 45.88225032448634], [-61.09503267153546, 45.882271639795626], [-61.09496716051894, 45.88228533539317], [-61.094944598693516, 45.88229350976851], [-61.09494106205958, 45.88229480088855], [-61.09464199875519, 45.88230190082697], [-61.09460700682705, 45.8823027302641], [-61.094594370287034, 45.88230217745682], [-61.09437409292602, 45.88229254448678], [-61.094284209364794, 45.88228294437662], [-61.094116926714804, 45.88223785027714], [-61.09408416930297, 45.8822298691697], [-61.09400188605139, 45.88220981985036], [-61.093895551602884, 45.88219137629501], [-61.09384686810782, 45.882182940353445]]}, "properties": {"OBJECTID": 14064, "FEAT_CODE": "WACO20", "FEAT_DESC": "Coast - Water to the right line", "RIVNAME_1": " ", "RIVNAME_2": " ", "ZVALUE": 0.2, "FID": null, "SHAPE_Length": 677.0399190702914}}, {"type": "Feature", "id": 14065, "geometry": {"type": "LineString", "coordinates": [[-61.09384686810782, 45.882182940353445], [-61.093680302257525, 45.882154958861925], [-61.09340902615596, 45.88213603029468], [-61.0932685156694, 45.88209948240468], [-61.093125793807616, 45.88208989946052], [-61.09288125836812, 45.88208041670176], [-61.09276650838239, 45.88204429827167], [-61.09268883338277, 45.88201689938611], [-61.0925728264537, 45.88197985970562], [-61.09225159695897, 45.881951993638225], [-61.092109491724656, 45.881924418364], [-61.091929991076015, 45.881897118343886], [-61.09191432260192, 45.881892905323056], [-61.09182655680889, 45.881869288591716], [-61.09172398646138, 45.88177935949441], [-61.09163465162029, 45.88171577139063], [-61.091377688151674, 45.88158006827593], [-61.09131449050706, 45.8815439096678], [-61.09108182061944, 45.881488717849344], [-61.09096708594491, 45.88145259786059], [-61.09086331366272, 45.881434671331384], [-61.090684167512, 45.88139746552473], [-61.09060618622004, 45.88137906077723], [-61.09052912977917, 45.88133366939772], [-61.090426591307576, 45.88127975137616], [-61.09031081016625, 45.88119860983353], [-61.0902294073317, 45.88119807698064], [-61.09022190883158, 45.88119802362114], [-61.09007924455142, 45.8812244405455], [-61.08997583622886, 45.88123351233215], [-61.08979576621008, 45.88122329172042], [-61.089513212571745, 45.881195173618714], [-61.08939687026034, 45.88116802584079], [-61.08911426343482, 45.881103894140445], [-61.08899853854012, 45.88105875492391], [-61.08894984537296, 45.881039002873855], [-61.08890828274481, 45.88102214230811], [-61.08888234538573, 45.88101299570914], [-61.08877969135025, 45.88097678760879], [-61.08870299928542, 45.88095840312924], [-61.0886639669983, 45.880931648060745], [-61.088536033942766, 45.88090430546236], [-61.088408047459886, 45.880840959104184], [-61.08830461699903, 45.880813126216175], [-61.08820177305146, 45.880768201757114], [-61.08815087166638, 45.88074934847794], [-61.08808471955159, 45.880744172972676], [-61.08803391369466, 45.88074018946467], [-61.08798423931433, 45.88073928600456], [-61.087389961695564, 45.88072851008851], [-61.08731360121143, 45.88073803233653], [-61.0869903036789, 45.88080822424223], [-61.08656507648084, 45.8808065025694], [-61.08633283578458, 45.880815213081156], [-61.086290350530106, 45.88082111682751], [-61.08626937239627, 45.88082405962489], [-61.08612641158262, 45.88085945832366], [-61.086097880071875, 45.880869574087725], [-61.086075519119476, 45.880877507059814], [-61.086048832812686, 45.880904061969204], [-61.08599948045007, 45.880934674424495], [-61.085932970658064, 45.880975926191375], [-61.085764275924795, 45.88104689595141], [-61.08563582924376, 45.881109557301976], [-61.08546745538768, 45.8811715403203], [-61.08541581224765, 45.8812024201514], [-61.0853766687855, 45.881225822887586], [-61.085299102101, 45.88127041722399], [-61.08523031361447, 45.88133820039346], [-61.085208397257794, 45.881359812681296], [-61.08520400287713, 45.8813639333369], [-61.08516977845185, 45.881396068111506], [-61.08518222527703, 45.88152138621088], [-61.085193559451724, 45.88156657960363], [-61.085283233992634, 45.88165718949155], [-61.08533519683759, 45.881720156168996]]}, "properties": {"OBJECTID": 14065, "FEAT_CODE": "WACO20", "FEAT_DESC": "Coast - Water to the right line", "RIVNAME_1": " ", "RIVNAME_2": " ", "ZVALUE": 0.2, "FID": null, "SHAPE_Length": 780.2630065387749}}, {"type": "Feature", "id": 23470, "geometry": {"type": "LineString", "coordinates": [[-61.08132757498339, 45.881823024901976], [-61.08122386542944, 45.881845260697936], [-61.08108219362756, 45.88187561634915], [-61.08094014327719, 45.88188403080721], [-61.08078521301736, 45.88189222868921], [-61.08077235076189, 45.88192891537401], [-61.080785310235925, 45.88196423576424], [-61.080810760172845, 45.881973664035094], [-61.08086200088921, 45.88198262553798], [-61.08090033074405, 45.88199227017956], [-61.080952859483, 45.88200125328084], [-61.08100379043918, 45.88201921019609], [-61.08101229396359, 45.88201927204415], [-61.08109398074452, 45.88201982523951], [-61.081157791983394, 45.88203798945596], [-61.08123515100303, 45.88207440056641], [-61.08128608212041, 45.88209235735808], [-61.081427823222015, 45.88209293795514], [-61.08144446553025, 45.8820871870181], [-61.08147999335884, 45.88207491275094], [-61.08154524616966, 45.88206768304206], [-61.08155761357302, 45.88206631562926], [-61.081634663501696, 45.88211171295659], [-61.08169847472124, 45.88212988587058], [-61.08170034741306, 45.881850896240245], [-61.081713487765406, 45.881806113508986], [-61.08168896683688, 45.88176969899969], [-61.08168740465857, 45.881769780773475], [-61.08167605601635, 45.88177038224981], [-61.081623558337235, 45.88176049993452], [-61.081494734109306, 45.88179613924239], [-61.08146867754581, 45.88180470229586], [-61.081437361759676, 45.88181030579441], [-61.08141810538886, 45.88181375365454], [-61.08132757498339, 45.881823024901976]]}, "properties": {"OBJECTID": 23470, "FEAT_CODE": "WACOIS10", "FEAT_DESC": "Coastal Island - Water to the right line", "RIVNAME_1": " ", "RIVNAME_2": " ", "ZVALUE": 0.2, "FID": null, "SHAPE_Length": 198.16050440331898}}, {"type": "Feature", "id": 23581, "geometry": {"type": "LineString", "coordinates": [[-61.09095156683325, 45.87122215824675], [-61.090913495204084, 45.87116751780565], [-61.09088734600173, 45.87114097876317], [-61.09087508473806, 45.871122772451486], [-61.09086302090729, 45.871023563192935], [-61.0908640872857, 45.87087956991045], [-61.090812689035275, 45.87076260190945], [-61.090750064798726, 45.8706724474326], [-61.09071168560618, 45.8706268024728], [-61.09068553671601, 45.870600264286786], [-61.090608802966756, 45.8705458775694], [-61.09053170608246, 45.870464482645204], [-61.09048165172276, 45.87038353973109], [-61.090392294315265, 45.870283938364686], [-61.090290282364144, 45.87014002195759], [-61.09015039925893, 45.86986046183885], [-61.09008654418903, 45.869806290087666], [-61.09000914084207, 45.86973389037124], [-61.08989481549418, 45.86953576352893], [-61.08980576871515, 45.86942716618579], [-61.08974242169925, 45.869282995768316], [-61.08971662588918, 45.86924656159198], [-61.089614097212184, 45.86919264288042], [-61.089592722733364, 45.869185102849954], [-61.08956317525437, 45.869174680912174], [-61.0895106875444, 45.86916481136219], [-61.08948660902838, 45.869164741668115], [-61.08931744009336, 45.869164279310795], [-61.089227239453734, 45.86916457064059], [-61.08916541231468, 45.86917494928438], [-61.089124863632854, 45.86918175955063], [-61.08906307390895, 45.86921209330972], [-61.089034439932405, 45.869226141410316], [-61.08890540768802, 45.86930679812344], [-61.08885882554231, 45.86933099570596], [-61.08874930274544, 45.869387892786264], [-61.088595078897626, 45.86941411446276], [-61.08852563483399, 45.86943506713253], [-61.088479208450266, 45.869449078377876], [-61.08837489636879, 45.86948513567615], [-61.0882728153433, 45.86949332805886], [-61.088195504133274, 45.869493834290765], [-61.088174221535986, 45.86949864448841], [-61.08811759384396, 45.869511431766725], [-61.088088620242615, 45.86952898421697], [-61.08800048871987, 45.86958237731645], [-61.08795524188727, 45.86962171805071], [-61.08794869446231, 45.86962741390371], [-61.087922654326896, 45.86967288157031], [-61.08790964190795, 45.8697896728049], [-61.08790799145059, 45.86998766049011], [-61.08789516771686, 45.87002344861383], [-61.08786915850864, 45.87006800771306], [-61.08781674620862, 45.87013104428393], [-61.08780356041527, 45.870139824248774], [-61.08770115153525, 45.87015791139757], [-61.08766221128681, 45.87016626018769], [-61.08765563739503, 45.8701719735818], [-61.08761041620298, 45.87021129660429], [-61.08758344014368, 45.8702468477557], [-61.08751942525876, 45.870309680936614], [-61.08749845147067, 45.87031937455523], [-61.087402904122435, 45.87036353432291], [-61.08740017746681, 45.87036639589342], [-61.087377511361645, 45.87039011123976], [-61.08731160389195, 45.870470914004564], [-61.08726019685275, 45.87051664081105], [-61.087221229356665, 45.87055130702713], [-61.087207395129674, 45.87057897752442], [-61.08720717953669, 45.870659980170174], [-61.08724565259648, 45.87074073059288], [-61.0872714731878, 45.87077716573496], [-61.08726966126157, 45.87086714234277], [-61.08726869163164, 45.8710831427768], [-61.08718995867499, 45.871199733480196], [-61.08713860765979, 45.87130688190277], [-61.087021263576425, 45.87145972874667], [-61.08699494392938, 45.87151329213369], [-61.086955164028566, 45.87162153432126], [-61.086877074124196, 45.87175613695705], [-61.08686333590191, 45.871818911720425], [-61.0868502550138, 45.8718996988776], [-61.08683683444694, 45.87199038110574], [-61.08682370045442, 45.87203517359648], [-61.086771316868926, 45.872097283080386], [-61.08666751762263, 45.87226836679393], [-61.086641506027284, 45.87231293456043], [-61.08658939927733, 45.8723669659736], [-61.08649896806369, 45.87241135468436], [-61.08648889564286, 45.87241574930701], [-61.086395640966664, 45.87245642735633], [-61.08635540469489, 45.87247469975322], [-61.08627913223377, 45.872509379721286], [-61.08616326241792, 45.872581244126046], [-61.08611049782274, 45.87261726291229], [-61.08603294360658, 45.87266186700484], [-61.085974397425, 45.87270827466055], [-61.085942872517506, 45.87273326338502], [-61.085903333581335, 45.87279650576481], [-61.08587670326993, 45.87285906437088], [-61.085759817311796, 45.873110925174956], [-61.08573349563048, 45.8731644882251], [-61.08568076926888, 45.87323651021767], [-61.08567283751112, 45.87324535098147], [-61.08561645263574, 45.87330833794204], [-61.0854999751869, 45.87339819286645], [-61.08533147089167, 45.873577182537524], [-61.08520180536854, 45.87367581679075], [-61.085110134694006, 45.873756186382536], [-61.08503971736185, 45.87381576957526], [-61.084993333529454, 45.87385503604959], [-61.08482659096182, 45.8739080448296], [-61.08478588084979, 45.87392993600453], [-61.0847097505502, 45.8739708907839], [-61.084657964507514, 45.873988491885925], [-61.08463152379383, 45.87399748125969], [-61.08456823802915, 45.87401000212004], [-61.08445117623472, 45.87403316005161], [-61.0843871280492, 45.874059988125126], [-61.084283505051566, 45.87411315453746], [-61.084141835036164, 45.87414858142097], [-61.08407078585042, 45.87418564268918], [-61.084038180720555, 45.87420264715405], [-61.084031088017575, 45.87420543541085], [-61.08394805376532, 45.87423803824878], [-61.08391664283236, 45.87425516171767], [-61.083882395154326, 45.874273839716196], [-61.08387437014291, 45.87428238176694], [-61.08383157168954, 45.8743278913845], [-61.08375401327434, 45.87437249385038], [-61.08368836725924, 45.874408295417], [-61.0835593029716, 45.87448892750151], [-61.08333027972684, 45.87457644190705], [-61.08332688468188, 45.87457774404505], [-61.08319752267587, 45.87466738041448], [-61.08314508163537, 45.87469350249231], [-61.08313679517311, 45.87469615365218], [-61.08300306941397, 45.874738813977125], [-61.08295253456688, 45.87474697557703], [-61.08282276199358, 45.874773599800704], [-61.08279438273274, 45.874776741766844], [-61.08274515214228, 45.87478219795642], [-61.08250008179016, 45.87482669707729], [-61.0823584091934, 45.87486211270218], [-61.08234406112348, 45.87486903637905], [-61.08222869833999, 45.87492474904672], [-61.08217784141745, 45.87494188758484], [-61.082047413046304, 45.874965826711765], [-61.08198462393137, 45.87497734640111], [-61.08189960238857, 45.875002101779955], [-61.08182973147967, 45.87502244915389], [-61.081790383351894, 45.875035784472175], [-61.08170065731209, 45.87506618514016], [-61.08162208703268, 45.87510266854152], [-61.08157616784917, 45.875112986207576], [-61.08150651015103, 45.875128629603644], [-61.08148665962668, 45.87513780093709], [-61.08138997317559, 45.87518247656061], [-61.08124266691725, 45.87523027113178], [-61.081171046409246, 45.87525351393751], [-61.081143427747044, 45.87526150164018], [-61.08107993818538, 45.875279876591605], [-61.08105138193725, 45.87528665142986], [-61.081040962441016, 45.87528912259329], [-61.08089923866461, 45.87528854178956], [-61.07993421698455, 45.875284925833576], [-61.07979249327497, 45.87528434365683], [-61.07976415224169, 45.87528748551237], [-61.07971488230907, 45.875292939733924], [-61.07959767571809, 45.87532876322485], [-61.07958546496194, 45.87534656831822], [-61.0795726474472, 45.875382355587845], [-61.07958525061526, 45.875427579921535], [-61.07964941212839, 45.87547274396421], [-61.079674858625566, 45.87548218144379], [-61.079699716535764, 45.87550870133213], [-61.079725879367146, 45.87557214597789], [-61.07978880079003, 45.87565330985222], [-61.0798535816514, 45.87568050981334], [-61.07994288041643, 45.875744106613105], [-61.08000735186616, 45.875780292973836], [-61.08007120361216, 45.87583447025981], [-61.08022554570375, 45.875880267603314], [-61.08030292697055, 45.875915770693744], [-61.08037929934832, 45.8759431561572], [-61.080405724504786, 45.8759616016072], [-61.08040422377726, 45.876042582585065], [-61.080390919453556, 45.87620437139915], [-61.080386205616655, 45.87620766744146], [-61.08036452453553, 45.87622282927676], [-61.08033705660281, 45.87622268269452], [-61.08013260464943, 45.87622163179659], [-61.08006301225415, 45.87623495323078], [-61.08004180395671, 45.876239007101205], [-61.07992619302432, 45.87626586605807], [-61.07991480496305, 45.87626577364315], [-61.079823133818735, 45.87626502475746], [-61.079720304923626, 45.87622010186392], [-61.07968256814984, 45.87619336547573], [-61.0796690216736, 45.87617513636638], [-61.07966897366959, 45.87613913280541], [-61.07968276506595, 45.876075459766554], [-61.0796707854336, 45.87604915637768], [-61.07955475195106, 45.87597610021091], [-61.07946480260075, 45.8759313846173], [-61.07933595575489, 45.875931018374], [-61.07933569353371, 45.87597601740907], [-61.079361577140304, 45.87604755805878], [-61.079411620010106, 45.87612850559492], [-61.07941197785204, 45.87615551367715], [-61.0793598607951, 45.876209532593876], [-61.07935990828795, 45.87624554514685], [-61.07938510607991, 45.87629997294899], [-61.07941057133564, 45.87630850173182], [-61.07950013235784, 45.8763271088402], [-61.07952324613435, 45.87632721842225], [-61.079732039749, 45.87632830739493], [-61.07977106449487, 45.87635506541736], [-61.079821989951014, 45.87637302278866], [-61.07996376462048, 45.876409608535035], [-61.08025921516007, 45.87647397882353], [-61.080426468781376, 45.87651909281158], [-61.08063268604873, 45.87659276339121], [-61.08074804912547, 45.87661090299397], [-61.0807533324706, 45.87661090175662], [-61.08079958183329, 45.87661086875545], [-61.08085760814122, 45.876597766585014], [-61.08087750427034, 45.876593276486254], [-61.08087832315166, 45.87649428267869], [-61.08094340583527, 45.87643642158636], [-61.08096871628175, 45.876413904047745], [-61.08098125576872, 45.876407877232005], [-61.08100672790717, 45.87639563218621], [-61.08101806417615, 45.876395732622775], [-61.08110978771653, 45.87639646342739], [-61.08112243650178, 45.87644077927959], [-61.08112160517933, 45.87653977288032], [-61.081108465732825, 45.876584555594754], [-61.08105670820548, 45.876665592384434], [-61.08105608871709, 45.87668358335268], [-61.08104294918053, 45.87672836605714], [-61.080953714571095, 45.87673766777651], [-61.080876883431664, 45.8767284293813], [-61.080875433407, 45.87672825200823], [-61.08085971881343, 45.876731057225804], [-61.08082486579664, 45.876737303183276], [-61.080721544242614, 45.876781470725064], [-61.08061747501386, 45.87677251255346], [-61.08060556118815, 45.876781322053766], [-61.080488200265926, 45.87693416179622], [-61.0804238680002, 45.87696908348363], [-61.080409607843904, 45.87697492831071], [-61.08035850089718, 45.87699588712557], [-61.08033518178405, 45.87701519774512], [-61.08029350487176, 45.87704969902771], [-61.0802420555976, 45.87712173993706], [-61.0802804485095, 45.877166488536496], [-61.080293030292154, 45.87717570067069], [-61.08035714531148, 45.8771848787731], [-61.080576535960454, 45.87721286732199], [-61.080640340947134, 45.87723104974315], [-61.08076831046659, 45.877294395577266], [-61.080794736381065, 45.87731284094531], [-61.08077978638864, 45.8774476000629], [-61.08078050337446, 45.8775016162281], [-61.08075292264296, 45.87759115969101], [-61.080727602566924, 45.87769064188432], [-61.08066536017226, 45.877758775347274], [-61.08066198642006, 45.87776244494381], [-61.080640370251274, 45.87777720288816], [-61.080610519332694, 45.87779758289946], [-61.08060890323734, 45.87803157357686], [-61.080621520968435, 45.878076789020064], [-61.08072308313868, 45.87815861061331], [-61.08082560660047, 45.87821252813948], [-61.08090263781, 45.87825792567947], [-61.08100579373968, 45.878293861298516], [-61.08118599937543, 45.87841209729121], [-61.08126206585821, 45.87844847769627], [-61.081326244419984, 45.87849365905817], [-61.0814164962086, 45.878529377556454], [-61.08145482380913, 45.878539021981396], [-61.081570784794415, 45.87853916941554], [-61.08163491417863, 45.8785483560385], [-61.08171138966497, 45.878647738804], [-61.08181362341678, 45.87874756306353], [-61.08194226609857, 45.87882892923538], [-61.082031912492255, 45.87888263844756], [-61.0821085993753, 45.87890102733301], [-61.08213502648831, 45.8789194724051], [-61.082171181483275, 45.878992255913445], [-61.08219769539032, 45.87904562508204], [-61.08220568499826, 45.879067720888656], [-61.08222358368131, 45.87911717412289], [-61.08223594296688, 45.87920738845862], [-61.0822336647006, 45.879423366617004], [-61.08225916335791, 45.87946879812133], [-61.08229788192186, 45.87950455080652], [-61.08234952954348, 45.879576523261434], [-61.08246465835968, 45.8796765633984], [-61.08247721530591, 45.8796857748704], [-61.08258036203174, 45.879721708900455], [-61.08263098195273, 45.87974866055964], [-61.0827331694248, 45.8798124804667], [-61.082772817034076, 45.879821246533254], [-61.08287562377367, 45.87986707534004], [-61.08293943287328, 45.87988524753321], [-61.082959747967415, 45.87988771263119], [-61.08301643121715, 45.87989463134799], [-61.08309407881511, 45.87988514257371], [-61.08309480658486, 45.87971414181272], [-61.08314718938957, 45.87965201606462], [-61.083182719441865, 45.87963325180954], [-61.08319839105724, 45.87962497313626], [-61.08349530863595, 45.8795723507345], [-61.08349602751956, 45.87957205677246], [-61.08356066447176, 45.87954554511656], [-61.08357526374769, 45.87953996660707], [-61.08358547554247, 45.87953606062009], [-61.08363832654031, 45.87952887366976], [-61.08365021258086, 45.879527245935606], [-61.08380544559768, 45.879510039563655], [-61.08387438715903, 45.87948650716025], [-61.083908460304094, 45.879474873783536], [-61.08393521894435, 45.87947021024309], [-61.08396031789036, 45.879465842881935], [-61.08410169236095, 45.87943941196626], [-61.08411441671976, 45.87944001241239], [-61.084307545192054, 45.87944916489579], [-61.0843840526852, 45.87944207730776], [-61.08439804069371, 45.87944078176802], [-61.08441598033931, 45.87943587121463], [-61.08446308673148, 45.87942297112133], [-61.084552943578196, 45.87939567572642], [-61.08460476976604, 45.8793875530746], [-61.084734243500904, 45.879369913506586], [-61.08494092096807, 45.87928067160541], [-61.085147906891734, 45.879182433816766], [-61.085199403401546, 45.879146394249275], [-61.08525620856431, 45.87910137095456], [-61.08528948605753, 45.8790749987103], [-61.08535417069977, 45.879030179447184], [-61.08546966790834, 45.87897896624612], [-61.085536066356994, 45.878949521769165], [-61.08565168037942, 45.87892265719078], [-61.08585835474851, 45.87883341357334], [-61.08592911208154, 45.878797111382596], [-61.08596198521421, 45.87878024588869], [-61.08613004228336, 45.87872725750149], [-61.086224327638185, 45.878698909902084], [-61.08633707635545, 45.87866502109451], [-61.08640114188193, 45.8786381922325], [-61.08645263708495, 45.87860215207595], [-61.08645351142708, 45.87853916193446], [-61.08644027105949, 45.8785119380818], [-61.08636414871443, 45.87843955745846], [-61.08626120626812, 45.87832262410355], [-61.08623633554313, 45.878259202638915], [-61.08622426566523, 45.87816000189372], [-61.086212382966046, 45.87798068018514], [-61.086228068843766, 45.87767401962106], [-61.086230761623035, 45.87733293875201], [-61.08628297339469, 45.877125897637356], [-61.08631078877055, 45.876991353340294], [-61.08632354157674, 45.87688265868311], [-61.08637618750595, 45.876775532407166], [-61.08641655081087, 45.87661329615665], [-61.08642939002106, 45.87657750849281], [-61.08646824818037, 45.87649625318813], [-61.086481639781624, 45.87640647064904], [-61.08656069076576, 45.8762808851606], [-61.0865646188425, 45.87627681964381], [-61.086612801325906, 45.87622685385387], [-61.08661182230815, 45.87621783676759], [-61.086626192616, 45.87613707128913], [-61.08654847646162, 45.87607366474971], [-61.08661521343885, 45.875893868818665], [-61.08662798695594, 45.87582207727694], [-61.08665461795328, 45.8757595185355], [-61.086720375153625, 45.87557070543531], [-61.08674633570145, 45.87549013406391], [-61.086798083581655, 45.875409103527645], [-61.08689088474642, 45.87522073427028], [-61.08699556234136, 45.87498666931577], [-61.08706049674198, 45.874896849800294], [-61.08712506933591, 45.87478002212029], [-61.08712771102071, 45.87477701512415], [-61.08716396003031, 45.87473566992928], [-61.08725501200839, 45.87467328972053], [-61.08731938116972, 45.874637464726156], [-61.08741051672091, 45.87461018848107], [-61.08745624779158, 45.87459967630454], [-61.08748714657486, 45.87459257005667], [-61.087590471727545, 45.87454839644516], [-61.08761717215739, 45.8745209413201], [-61.087618555632915, 45.87436796175823], [-61.08754151151069, 45.874322559506034], [-61.0875420225975, 45.874232561163744], [-61.087568034425004, 45.874187993209105], [-61.087568342783015, 45.87417900668232], [-61.087603173528294, 45.87413503640063], [-61.08764646237046, 45.87408039787996], [-61.08775059292816, 45.87393723001145], [-61.08774961375423, 45.873928212929236], [-61.08778885540206, 45.87387397463683], [-61.087847616905364, 45.873809640288144], [-61.08785444518729, 45.87380215800818], [-61.08786726958644, 45.87376637892115], [-61.087918719061726, 45.873694325552265], [-61.08797468644864, 45.87366560510251], [-61.088022325027985, 45.87364115555539], [-61.08804997667626, 45.87362576817235], [-61.08808670537432, 45.873605330311335], [-61.08808793968037, 45.873569348207425], [-61.08764988954932, 45.873567415895586], [-61.08746939875816, 45.87349508876615], [-61.08745713812991, 45.87347688210409], [-61.08747058035857, 45.87342310302109], [-61.08757417680228, 45.87333303043542], [-61.087613368272805, 45.87330428131616], [-61.087781699744845, 45.8731807926478], [-61.08784855794904, 45.87314146274335], [-61.08787242696643, 45.87312740718948], [-61.08790791430437, 45.8731134741063], [-61.08796256258832, 45.87309201313922], [-61.08806564745363, 45.87309193845661], [-61.08812945065288, 45.873110107674854], [-61.08817138273217, 45.87312879287403], [-61.0882322371815, 45.87315592237396], [-61.08829463424447, 45.873193302443426], [-61.08832189341733, 45.873209635862224], [-61.08839888328845, 45.87321902492292], [-61.08843818782721, 45.873237684053514], [-61.08850199131998, 45.87325585306774], [-61.08850784129608, 45.87325585195307], [-61.08855353391135, 45.87325581549702], [-61.08858797210958, 45.873243916804626], [-61.08860569348193, 45.87323778684456], [-61.08860600197098, 45.873228791315306], [-61.08859337870292, 45.873183576632975], [-61.08857949063545, 45.873175243619144], [-61.08852828746925, 45.87316538612091], [-61.08849417217326, 45.87316561630222], [-61.08848962287597, 45.8731656391818], [-61.08842612800691, 45.87313847463362], [-61.0884006270067, 45.87309304442482], [-61.088387973080955, 45.87304872927474], [-61.08840082780246, 45.8730120505623], [-61.088465449360164, 45.87293121667986], [-61.08850500844639, 45.87290487658983], [-61.088512211485856, 45.87290487111493], [-61.08855655071318, 45.872904839012634], [-61.088605468540244, 45.87289942008718], [-61.088634157171505, 45.87289623684976], [-61.08869796034437, 45.87291440575038], [-61.088765402767535, 45.872914751131624], [-61.08877525833913, 45.872914799021956], [-61.088800651632724, 45.87288822181311], [-61.08882669264552, 45.872842753983], [-61.08883982493841, 45.872797970241066], [-61.0888400665097, 45.8727529708237], [-61.08887956065794, 45.87265373291297], [-61.088919065917, 45.87259137100855], [-61.08895798384522, 45.87254613658178], [-61.08898776297518, 45.872525798178884], [-61.08900944114158, 45.872510985678794], [-61.08904964129039, 45.87249449388003], [-61.08907478603506, 45.87248417670158], [-61.08915233763143, 45.87243957049981], [-61.0893197329098, 45.87236764685942], [-61.089410043845035, 45.87233271363175], [-61.08941114068337, 45.87233229094353], [-61.08942366302688, 45.87232783803268], [-61.08946201134263, 45.87231424033994], [-61.089616605714504, 45.87231502577057], [-61.08974580752944, 45.872342388430575], [-61.08990029261245, 45.87227116611073], [-61.08994649076431, 45.872245449575246], [-61.089964657296825, 45.872235339540616], [-61.0899784597777, 45.87220856825565], [-61.09004333125532, 45.872082743189566], [-61.090102131911735, 45.87202615791764], [-61.090108620330156, 45.87201992991573], [-61.09019877071904, 45.87198363427423], [-61.09031520689624, 45.87189467392461], [-61.090781261414726, 45.87168014739037], [-61.09080628977719, 45.87162656155289], [-61.090833505374604, 45.871509116344576], [-61.09086012977314, 45.871446547475294], [-61.09092505370666, 45.87135672554668], [-61.09093787584019, 45.871320937064844], [-61.09095156683325, 45.87122215824675]]}, "properties": {"OBJECTID": 23581, "FEAT_CODE": "WACOIS10", "FEAT_DESC": "Coastal Island - Water to the right line", "RIVNAME_1": " ", "RIVNAME_2": " ", "ZVALUE": 0.2, "FID": null, "SHAPE_Length": 3863.2777743978236}}, {"type": "Feature", "id": 59120, "geometry": {"type": "LineString", "coordinates": [[-61.09380831077638, 45.882218299654745], [-61.094000782050045, 45.88231781856215], [-61.09396247590873, 45.88234508149623], [-61.09379472264325, 45.88238908578039], [-61.09376397284157, 45.88240491787303], [-61.09374224825339, 45.88241611220861], [-61.09370424968449, 45.88243437951105], [-61.093638028683955, 45.88252418122646], [-61.09358723784526, 45.8825773286429], [-61.093547963674794, 45.88259558360494], [-61.09354800830466, 45.88259427925157], [-61.09354857925882, 45.882577592524186]]}, "properties": {"OBJECTID": 59120, "FEAT_CODE": "WALK20", "FEAT_DESC": "Lake - Water to the right line", "RIVNAME_1": " ", "RIVNAME_2": " ", "ZVALUE": 1.2, "FID": null, "SHAPE_Length": 69.37123399349571}}, {"type": "Feature", "id": 59121, "geometry": {"type": "LineString", "coordinates": [[-61.09354857925882, 45.882577592524186], [-61.09354821992633, 45.88255231262519], [-61.09354820174162, 45.88255058419165], [-61.09360087037234, 45.88244255499791], [-61.09363939684553, 45.882371192542465], [-61.09365277832742, 45.882281418086116], [-61.093678820669574, 45.88223593123625], [-61.09380831077638, 45.882218299654745]]}, "properties": {"OBJECTID": 59121, "FEAT_CODE": "WALK20", "FEAT_DESC": "Lake - Water to the right line", "RIVNAME_1": " ", "RIVNAME_2": " ", "ZVALUE": 1.2, "FID": null, "SHAPE_Length": 49.87536838735856}}, {"type": "Feature", "id": 117213, "geometry": {"type": "LineString", "coordinates": [[-61.086379281731546, 45.874696425306844], [-61.08637959028663, 45.8746874387871], [-61.08645678614196, 45.87461581739808], [-61.08653403396045, 45.87458020858603], [-61.08666287799325, 45.87458056666023], [-61.08670213029697, 45.87456322275088], [-61.086758921824575, 45.874510538866446], [-61.08677932525874, 45.87449161012863], [-61.086782337019, 45.87448870834633], [-61.0868446211712, 45.87442878985297], [-61.08694796450525, 45.874383717057235], [-61.08706387678981, 45.87434786434505], [-61.08711533664509, 45.87431272334663], [-61.08738600775397, 45.87438566094186], [-61.08747626989173, 45.874421374847806], [-61.087500791564366, 45.874457788167625], [-61.087501462023994, 45.8744758007722]]}, "properties": {"OBJECTID": 117213, "FEAT_CODE": "WALK20", "FEAT_DESC": "Lake - Water to the right line", "RIVNAME_1": " ", "RIVNAME_2": " ", "ZVALUE": 2.6, "FID": null, "SHAPE_Length": 112.27834535428379}}, {"type": "Feature", "id": 117214, "geometry": {"type": "LineString", "coordinates": [[-61.087501462023994, 45.8744758007722], [-61.087449354004875, 45.87452983253954], [-61.08741010194926, 45.87454717670983], [-61.08730706738126, 45.874583254403326], [-61.08716826935199, 45.87459584437583], [-61.08711447161833, 45.87460073093192], [-61.08694699281741, 45.87459972633731], [-61.0868793280648, 45.874619312687436], [-61.08685588794723, 45.874626102657444], [-61.086806580253125, 45.8746315683076], [-61.08677826595747, 45.87463470335141], [-61.08675288724608, 45.87464691524857], [-61.086740283447675, 45.87465296862392], [-61.08673324184748, 45.87466027625043], [-61.086688187408754, 45.87470700024382], [-61.08665152309969, 45.87472740272826], [-61.08662380489311, 45.87474282465866], [-61.086565924688216, 45.87475589620555], [-61.086545886749974, 45.87476042092336], [-61.086429868172445, 45.874724274813225], [-61.086379281731546, 45.874696425306844]]}, "properties": {"OBJECTID": 117214, "FEAT_CODE": "WALK20", "FEAT_DESC": "Lake - Water to the right line", "RIVNAME_1": " ", "RIVNAME_2": " ", "ZVALUE": 2.6, "FID": null, "SHAPE_Length": 100.05506217943234}}, {"type": "Feature", "id": 117215, "geometry": {"type": "LineString", "coordinates": [[-61.086493574380015, 45.87489468097409], [-61.08650616103505, 45.87490376649818], [-61.08664671423864, 45.874976326246966], [-61.08668607195262, 45.87503098962182], [-61.08668521124389, 45.87509397102697], [-61.086659185083285, 45.87513854753581], [-61.08662026281807, 45.87518379909278], [-61.08660743695829, 45.8752195870091], [-61.086592758066864, 45.87530934801621], [-61.08656798027631, 45.87531793365891], [-61.086521951156186, 45.87531796368491], [-61.08651643580515, 45.875317970303406]]}, "properties": {"OBJECTID": 117215, "FEAT_CODE": "WALK20", "FEAT_DESC": "Lake - Water to the right line", "RIVNAME_1": " ", "RIVNAME_2": " ", "ZVALUE": 2.6, "FID": null, "SHAPE_Length": 60.27784802099319}}, {"type": "Feature", "id": 117216, "geometry": {"type": "LineString", "coordinates": [[-61.08651643580515, 45.875317970303406], [-61.08640067259363, 45.875236825002034], [-61.08640087671358, 45.875155822222396], [-61.08637537650916, 45.87511039158809], [-61.08633794577123, 45.87507467083646], [-61.086493574380015, 45.87489468097409]]}, "properties": {"OBJECTID": 117216, "FEAT_CODE": "WALK20", "FEAT_DESC": "Lake - Water to the right line", "RIVNAME_1": " ", "RIVNAME_2": " ", "ZVALUE": 2.6, "FID": null, "SHAPE_Length": 55.44422682304393}}, {"type": "Feature", "id": 117266, "geometry": {"type": "LineString", "coordinates": [[-61.0859037773125, 45.8761978738952], [-61.085929822301765, 45.876152406812345], [-61.08595659578679, 45.876148760123755], [-61.085994555063664, 45.87614359072613], [-61.08605111954066, 45.87614373743616], [-61.086058978875, 45.87614377011418], [-61.086109387793044, 45.87612053787917], [-61.086136229088844, 45.8761081616177], [-61.08619408169909, 45.876108320838384], [-61.086200652862274, 45.87610834092519], [-61.08622154945045, 45.87610434369333], [-61.086291451578724, 45.87609096068998], [-61.08631310787409, 45.87609110748452], [-61.086381632792516, 45.8760915624123], [-61.08638802708106, 45.87610611563559], [-61.08639358442745, 45.876118773694046], [-61.086393676247326, 45.8761907807318], [-61.086419529263935, 45.87622632550883], [-61.08641927306255, 45.87627131565277]]}, "properties": {"OBJECTID": 117266, "FEAT_CODE": "WALK20", "FEAT_DESC": "Lake - Water to the right line", "RIVNAME_1": " ", "RIVNAME_2": " ", "ZVALUE": 2.6, "FID": null, "SHAPE_Length": 62.65414931306994}}, {"type": "Feature", "id": 117267, "geometry": {"type": "LineString", "coordinates": [[-61.08641927306255, 45.87627131565277], [-61.08640577669314, 45.87628909093377], [-61.08631494679539, 45.87630737080598], [-61.0862816024005, 45.87628772172385], [-61.086237901133416, 45.87626196766344], [-61.08619377704462, 45.87625565698752], [-61.08617378578668, 45.87625280185797], [-61.0859037773125, 45.8761978738952]]}, "properties": {"OBJECTID": 117267, "FEAT_CODE": "WALK20", "FEAT_DESC": "Lake - Water to the right line", "RIVNAME_1": " ", "RIVNAME_2": " ", "ZVALUE": 2.6, "FID": null, "SHAPE_Length": 44.30925043433764}}, {"type": "Feature", "id": 198671, "geometry": {"type": "LineString", "coordinates": [[-61.09380831077638, 45.882218299654745], [-61.093833407443896, 45.88220158115622], [-61.0938346734711, 45.882200738217385], [-61.09384686810782, 45.882182940353445]]}, "properties": {"OBJECTID": 198671, "FEAT_CODE": "WARV50", "FEAT_DESC": "River - Single Line", "RIVNAME_1": " ", "RIVNAME_2": " ", "ZVALUE": 9999, "FID": null, "SHAPE_Length": 5.0204811556967215}}]}