{"type": "FeatureCollection", "features": [{"type": "Feature", "id": 13648, "geometry": {"type": "LineString", "coordinates": [[-61.00168287717257, 45.82850436494765], [-61.001683187659744, 45.82845936654386], [-61.00172341266061, 45.82837906338718], [-61.001748860591455, 45.82827960008128], [-61.0017630154624, 45.82824384464869], [-61.001772243412525, 45.828230990979506], [-61.00184025268516, 45.82813628658378], [-61.00186727552846, 45.82806475317976], [-61.00190655457833, 45.82797453256117], [-61.00193325411801, 45.82794799732375], [-61.00200698483148, 45.82788802786705], [-61.002010167518115, 45.82788543731487], [-61.002049445109144, 45.827831219691625], [-61.00206295686823, 45.827777451433974], [-61.0020674733717, 45.82732750101734], [-61.00209313210951, 45.82728363005528], [-61.00209353003145, 45.82728294395649], [-61.00218366307287, 45.82721071421556], [-61.00221809691935, 45.8271831800934], [-61.00226186181769, 45.82714817651327], [-61.00252029277032, 45.82694207829523], [-61.00258527015081, 45.82688920999732], [-61.002768075786705, 45.82667368798838], [-61.00288458463811, 45.826511911196796], [-61.002986934452785, 45.82643353088033], [-61.00298915812388, 45.826431832610616], [-61.00301460236443, 45.82636837201078], [-61.00314716226981, 45.82604576179086], [-61.00319994819683, 45.82586576913297], [-61.00321344574458, 45.825775997393094], [-61.003239866855765, 45.82572156358647], [-61.00331451671467, 45.82560121416422], [-61.00331774136145, 45.82559600508402], [-61.00335698404065, 45.82550668337701], [-61.00347445347131, 45.82538992660595], [-61.00350082942181, 45.825336383023036], [-61.00351433910332, 45.8252826145384], [-61.00350147288658, 45.82528238964265], [-61.00350560135154, 45.82527602625503], [-61.00356551464626, 45.82518360048713], [-61.00359992693936, 45.82513609285253], [-61.00360478875453, 45.82512938224836], [-61.00362795915166, 45.82510571017071], [-61.00368362624323, 45.82504885317721], [-61.003696492377934, 45.82501307496435], [-61.003748632247664, 45.82488707536625], [-61.00376149830016, 45.824851297143816], [-61.00376278467955, 45.82474331036245], [-61.003712574653875, 45.82467132671431], [-61.003660743635635, 45.82460831548336], [-61.0036363109813, 45.82453588226263], [-61.00362377946533, 45.82445465627867], [-61.0036238351119, 45.824446619561456], [-61.003624409908845, 45.82436465957243], [-61.003625696509076, 45.824220669696956], [-61.0036655809699, 45.82414936062946], [-61.003685039105285, 45.82413552450359], [-61.003703889315524, 45.82412212778778], [-61.003724136769065, 45.82411429996556], [-61.003795269619644, 45.824086821714374], [-61.00401439510625, 45.823970940892394], [-61.00406610595353, 45.823950161672734], [-61.00410453340329, 45.823934712789395], [-61.00414345269906, 45.82392639209918], [-61.004151897531216, 45.82392352440498], [-61.00422165782726, 45.82389985623307], [-61.00423128819999, 45.823892994903495], [-61.004259952866654, 45.8238726229716], [-61.004416335495904, 45.82371154126335], [-61.004441145758165, 45.823694189208034], [-61.00446783053939, 45.8236755377829], [-61.004515867828324, 45.823620293221204], [-61.004545699588995, 45.82358599040793], [-61.004571752120526, 45.82354144168769], [-61.004598157596774, 45.823450995181304], [-61.0046007255537, 45.8231630152777], [-61.00456306002237, 45.823100251911974], [-61.00453764945262, 45.82305480410621], [-61.00452571545589, 45.82299249026885], [-61.004512848555905, 45.82292025927914], [-61.00451349153851, 45.822902268963546], [-61.0045009467599, 45.82285704592294], [-61.004462960038566, 45.82280327768409], [-61.00443658461574, 45.822748812221626], [-61.004438512503945, 45.82262283505713], [-61.00443818988148, 45.82255982399576], [-61.00437640077286, 45.82241563210903], [-61.00433809244366, 45.82233485587949], [-61.00431268238611, 45.82228940802671], [-61.00427408532367, 45.82225273052891], [-61.00422355566401, 45.82222574536906], [-61.00410770062477, 45.82211751178327], [-61.00400537450378, 45.82206261907697], [-61.003928760224504, 45.822009075697146], [-61.00392940337481, 45.82199108538509], [-61.00392909417204, 45.821928074550115], [-61.00396734101402, 45.821901794619635], [-61.00396868737523, 45.821900864065825], [-61.00399441082361, 45.82185686776327], [-61.00399473953087, 45.821856315459435], [-61.00399750588793, 45.821852394460244], [-61.00402050224144, 45.82181986248724], [-61.004068334926515, 45.82178723347412], [-61.00407196359294, 45.8217847586651], [-61.00422773070073, 45.82171277409731], [-61.00434355061702, 45.821677903615104], [-61.004472589731215, 45.821633354116294], [-61.004576219682335, 45.82157935079232], [-61.00461545871901, 45.821562034749334], [-61.00467186583688, 45.82150955555171], [-61.00473129614208, 45.82145424888923], [-61.00489957238416, 45.82135637967069], [-61.004977129794604, 45.82131183041284], [-61.00505156589205, 45.82125303236009], [-61.00506853580902, 45.821239620574275], [-61.00515926671399, 45.82118630050234], [-61.005248712034245, 45.821168961013385], [-61.005287340018164, 45.821168735543054], [-61.005481058308206, 45.821151416696814], [-61.00555763820355, 45.82113385230458], [-61.005610272373644, 45.82110226956816], [-61.00586942011917, 45.820946679488145], [-61.00589421744036, 45.82093721156587], [-61.00594571050349, 45.820937210480075], [-61.00601005115585, 45.82097433684703], [-61.00602229320407, 45.82099165204077], [-61.00602101281937, 45.82113565111852], [-61.006007796110275, 45.82118131534597], [-61.00598207997991, 45.8212168695044], [-61.0059302541017, 45.82126186867946], [-61.005813471881126, 45.82132373530146], [-61.00567189046512, 45.821359066543984], [-61.005661857307075, 45.82136388678882], [-61.00563390629265, 45.82137730493913], [-61.0056068847961, 45.82139965908256], [-61.00556890620282, 45.82143107469009], [-61.00544156593815, 45.82151207223608], [-61.00538710996879, 45.82154671034503], [-61.00533498769148, 45.82160070484834], [-61.00523232391016, 45.8216637175095], [-61.005101999769835, 45.82174424852699], [-61.00498587316611, 45.82186013040568], [-61.00494658992521, 45.82191434898416], [-61.00490638823724, 45.82203065685825], [-61.00490414439572, 45.82234564480478], [-61.00494242141561, 45.822427320374025], [-61.004993595352666, 45.82247231801768], [-61.005005497641, 45.8225355313344], [-61.00500517716066, 45.82258052961131], [-61.004965937513745, 45.822597845775455], [-61.00491412151046, 45.822606841554595], [-61.00475999166456, 45.82259693959968], [-61.00475967066288, 45.822641946867314], [-61.00477220196901, 45.82265116654632], [-61.00490029504942, 45.82277761476313], [-61.00497720148999, 45.822859064986645], [-61.00507890650332, 45.82293104743579], [-61.00515581341238, 45.823012497544745], [-61.005219212058215, 45.82311171323322], [-61.00521857035064, 45.823165706670494], [-61.005217609357246, 45.82330070149626], [-61.005267788035546, 45.823373584026776], [-61.005421955801395, 45.82349059516101], [-61.005523952048286, 45.823554472593784], [-61.005638833323914, 45.823617683843125], [-61.0056900204119, 45.82362667830111], [-61.00594775665107, 45.82365548029317], [-61.00600577473466, 45.82367435070432], [-61.006114468686064, 45.82370968607128], [-61.006161429385855, 45.82372311592584], [-61.006178187399804, 45.82372790884467], [-61.00630691044507, 45.82372835563117], [-61.006358695172075, 45.82372025875188], [-61.00641083319893, 45.823702267165224], [-61.00645212956658, 45.82367387044973], [-61.006488688210304, 45.823648721315635], [-61.006617422009036, 45.823613164847075], [-61.006747102138206, 45.82347861624159], [-61.006837511982816, 45.82339828692878], [-61.00687742630614, 45.82336207127134], [-61.00704601915411, 45.82314719438165], [-61.00705952675331, 45.82312943752267], [-61.00708560918054, 45.823083988671776], [-61.00716475286915, 45.822886452457986], [-61.007191110857875, 45.822832916693336], [-61.007255156387714, 45.82273411650385], [-61.00742474844329, 45.82259936336337], [-61.00761907058862, 45.82242093755712], [-61.00769329877098, 45.822376589410204], [-61.00770983318101, 45.822366715943005], [-61.00781310811551, 45.82232261334831], [-61.0078349142993, 45.82231472197523], [-61.007839192297034, 45.82231316745046], [-61.00787392474283, 45.822283593638716], [-61.007890959524275, 45.82226907547174], [-61.008018011466596, 45.82212718893346], [-61.00812428080519, 45.82200851285206], [-61.00822850151369, 45.82190142094642], [-61.008243464991544, 45.821882168201476], [-61.008318903586, 45.82178508630744], [-61.008449540950465, 45.821659554104855], [-61.008592895944325, 45.82148928370901], [-61.00863100705105, 45.821443999211745], [-61.00873524472203, 45.82126490092284], [-61.00883950435231, 45.82112090594503], [-61.008944048613, 45.82093281202586], [-61.00901000715341, 45.82085205472931], [-61.00903920368894, 45.82081847772161], [-61.009087864930116, 45.82076250403024], [-61.009128153612046, 45.82071172184168], [-61.00916604317089, 45.820663958085866], [-61.009308254639066, 45.820538625719635], [-61.00942473518213, 45.820412844743686], [-61.00951674330039, 45.82032354035572], [-61.00963289863626, 45.82017074216329], [-61.00969852629328, 45.8200269822521], [-61.0097258470918, 45.81987445410278], [-61.00973935366354, 45.81985667889973], [-61.00976465835588, 45.81983294374307], [-61.00977797670755, 45.81982044871234], [-61.00982238779041, 45.81976845999367], [-61.0099082813945, 45.81966790577785], [-61.00996072670539, 45.81956891091244], [-61.00998611896544, 45.81954235098714], [-61.01012866769692, 45.81948002890663], [-61.01014216941356, 45.81942625945735], [-61.010168884277455, 45.81932681622625], [-61.01016887994905, 45.81929081303621], [-61.010104839714245, 45.819245593537886], [-61.010027906899545, 45.81923705257549], [-61.00992495167111, 45.81920015574968], [-61.00979719692387, 45.81913671545279], [-61.009681315386516, 45.81906449013197], [-61.00961760929981, 45.819010275401624], [-61.00960507733123, 45.81900107423945], [-61.009579344061564, 45.8189646136845], [-61.00955389907576, 45.81892006644677], [-61.009542633525875, 45.8188388631107], [-61.0095300854567, 45.818793640540086], [-61.00942709158932, 45.818685636429485], [-61.009364367362004, 45.818603536248446], [-61.00929968343574, 45.81854030351399], [-61.00926169891721, 45.818522530995295], [-61.00921116976684, 45.81849555703687], [-61.008889737758466, 45.818412547407654], [-61.008838888147025, 45.818394568477366], [-61.00874783798343, 45.81838487146257], [-61.00873590694463, 45.81839456431706], [-61.00854254864414, 45.81836599098311], [-61.00847884771859, 45.81834777882056], [-61.008375526223034, 45.81828477194022], [-61.00828640413744, 45.81825711561685], [-61.00817087297214, 45.81817589407824], [-61.00805566600161, 45.81812168041718], [-61.00772325845589, 45.81787736210387], [-61.00759518801077, 45.8178229235992], [-61.007441388463654, 45.81776804510355], [-61.00732525000342, 45.81770390459003], [-61.00710770677057, 45.817631703129294], [-61.00695390856619, 45.81757681499681], [-61.00679948140821, 45.81753991724381], [-61.005718340527686, 45.81753544652986], [-61.00549987115068, 45.81756133435146], [-61.00537115076754, 45.81759688981456], [-61.005125955946454, 45.817650212624244], [-61.00501014461114, 45.81768509306453], [-61.004791044451494, 45.81772897007529], [-61.00467391416322, 45.817764727212385], [-61.00461020316486, 45.81778251583768], [-61.00445447981386, 45.81785360164677], [-61.004316222680636, 45.817932292058615], [-61.004235045306565, 45.817978478781626], [-61.00423397884096, 45.81797878417504], [-61.00408025330893, 45.81802347808684], [-61.00395186539226, 45.818050036976935], [-61.003899442568795, 45.81807612317777], [-61.00378327614225, 45.81815690015107], [-61.003666466070506, 45.81821966419333], [-61.003537125594264, 45.81827320831088], [-61.003533813607, 45.81827547262068], [-61.00340779129509, 45.818361855435576], [-61.003247387214884, 45.81844243460324], [-61.00317577732112, 45.81847840992838], [-61.003110148115645, 45.818514165741924], [-61.00301852159509, 45.818592958756795], [-61.003006541932216, 45.81860326221594], [-61.002890360257226, 45.818684038009444], [-61.00276068338411, 45.81874657614354], [-61.00252935595906, 45.818808227561576], [-61.0024724733834, 45.81884091369092], [-61.0024518127402, 45.81885278442079], [-61.0023224560704, 45.81894232999728], [-61.002232035523505, 45.81898664347896], [-61.00196014825588, 45.81910250706975], [-61.00193374277948, 45.81912094678775], [-61.00188324824613, 45.81912906423217], [-61.00181760459425, 45.819164819047636], [-61.00171463360815, 45.81920082085313], [-61.001676347098865, 45.819227153349594], [-61.00145558237796, 45.81935290192971], [-61.00134008727038, 45.81937878339548], [-61.001184675905385, 45.81947687253236], [-61.001135992027024, 45.81949984561688], [-61.00110742082103, 45.819513323815244], [-61.00104336698535, 45.81954132033258], [-61.00096487517926, 45.819575634691354], [-61.000810428766194, 45.81964673786657], [-61.00079805027389, 45.819650904581074], [-61.00070618911339, 45.819681816477164], [-61.00060288152958, 45.81972681216594], [-61.000564929096, 45.81974414935679], [-61.00045200846242, 45.81979768038134], [-61.000358023397304, 45.819842235999566]]}, "properties": {"OBJECTID": 13648, "FEAT_CODE": "WACO20", "FEAT_DESC": "Coast - Water to the right line", "RIVNAME_1": " ", "RIVNAME_2": " ", "ZVALUE": 0.2, "FID": null, "SHAPE_Length": 2976.2493843932657}}, {"type": "Feature", "id": 13649, "geometry": {"type": "LineString", "coordinates": [[-61.000316482881864, 45.82017543763857], [-61.00032838149351, 45.820202648291065], [-61.000317644528764, 45.82021057901555], [-61.000316480837284, 45.820211440718424], [-61.000147560289555, 45.82025528724699], [-61.000122440174174, 45.82027374904924], [-61.000096720778174, 45.82030930183251], [-61.000082859078546, 45.820408067685555], [-61.00009477048631, 45.82043527858557], [-61.000132751417084, 45.82048904820208], [-61.00013274707643, 45.820561054353924], [-61.00011952508162, 45.82060673581694], [-61.00013177871414, 45.82062403384657], [-61.00017037159562, 45.82066072168569], [-61.00023504949026, 45.82068795636249], [-61.00044034204929, 45.82074285494191], [-61.00050373365922, 45.82077006694749], [-61.000720600052446, 45.82093317696692], [-61.0007846343974, 45.82097840162137], [-61.0008618544079, 45.82105085935958], [-61.00089919237871, 45.821122619016315], [-61.001027258674114, 45.82128507426193], [-61.00109095877731, 45.82133929366896], [-61.001142463465996, 45.8213752980621], [-61.00119360265119, 45.821385193781865], [-61.001256982495946, 45.82141240515946], [-61.00143622479719, 45.82151184995697], [-61.001564310208884, 45.821566295601464], [-61.001603226945804, 45.82159397883806], [-61.00165407546193, 45.82164797307118], [-61.00180820232248, 45.82165787017205], [-61.00193756346797, 45.82167632560697], [-61.00198841306246, 45.82169432560353], [-61.00209107859941, 45.82170332210069], [-61.00214318294449, 45.82172223505315], [-61.00234814657252, 45.8217861252096], [-61.00248877781848, 45.82181378690715], [-61.002554101794985, 45.82182303000898], [-61.00282408243759, 45.82183315157171], [-61.00312014791648, 45.82183382768655], [-61.00336307896991, 45.821916381348785], [-61.00344062536444, 45.82194383915295], [-61.00353041331103, 45.821988612354446], [-61.003542648360096, 45.82200682776721], [-61.00358156640061, 45.822034510348914], [-61.00360668628325, 45.82208805399324], [-61.003683267952624, 45.822178509199865], [-61.00381070141109, 45.822250933469554], [-61.00383675422633, 45.82227839111713], [-61.00388728448438, 45.822377373660885], [-61.00395003637114, 45.8224945983159], [-61.00403883059633, 45.82274726264676], [-61.004190114130104, 45.82301722922433], [-61.00421552480518, 45.82309868020708], [-61.00422742631924, 45.82316189358601], [-61.004222929174354, 45.82368385988813], [-61.00421038525937, 45.82371064302392], [-61.004197197848136, 45.82371941336727], [-61.00411998371906, 45.82375496730748], [-61.00402981452452, 45.82379098786567], [-61.0039645515726, 45.82381705671397], [-61.003796555391226, 45.823834822537776], [-61.00351434220787, 45.82384249101627], [-61.00342392717134, 45.82385081141906], [-61.00329423888212, 45.82387734682738], [-61.00298529625516, 45.82391244912261], [-61.00280478601138, 45.82402810311694], [-61.00271369423625, 45.824091315840256], [-61.002622956245425, 45.824144633826805], [-61.0025328610285, 45.82421596452785], [-61.00251269635865, 45.82424018399412], [-61.00248041129893, 45.82427896175733], [-61.00240122438538, 45.82444048185032], [-61.00239648343379, 45.82444705050546], [-61.00236196217358, 45.824494708890185], [-61.002323041710476, 45.824539023041964], [-61.00229893486344, 45.824568708995976], [-61.00227186517044, 45.824602042440986], [-61.00224548874339, 45.824655576737634], [-61.00218015870151, 45.82475434262855], [-61.00212705007827, 45.82490731788634], [-61.00208780658395, 45.82496064507875], [-61.00203566500058, 45.82501463771512], [-61.00198384556009, 45.82505962618986], [-61.0019732652534, 45.82507503044588], [-61.001971621850615, 45.825077422905444], [-61.001958419807025, 45.82512219582027], [-61.001893101554884, 45.825220961746986], [-61.00186604805021, 45.825293394727986], [-61.001853179512295, 45.825365175778124], [-61.00183839210111, 45.82549092788507], [-61.00177304377963, 45.82569770246538], [-61.00173251055353, 45.825823004133014], [-61.0017325092987, 45.82585900719444], [-61.00171931972448, 45.8259037802947], [-61.00165301601876, 45.82617354347243], [-61.00161244994327, 45.82629974459107], [-61.00149366664754, 45.826632494924134], [-61.001440272514024, 45.826901583753084], [-61.0014135380874, 45.82700102450035], [-61.0013472522993, 45.827233884618195], [-61.0012683841987, 45.82742332082109], [-61.001203079937525, 45.82755718056296], [-61.00105889580359, 45.827808487961235], [-61.00103283016068, 45.82788993877462], [-61.00100610449515, 45.827916473344764], [-61.00094141251942, 45.82799724811371], [-61.00093953807848, 45.82799853842013], [-61.0009018134508, 45.82802445742497], [-61.000708062215196, 45.82818578021288], [-61.00052656875913, 45.828292412567336]]}, "properties": {"OBJECTID": 13649, "FEAT_CODE": "WACO20", "FEAT_DESC": "Coast - Water to the right line", "RIVNAME_1": " ", "RIVNAME_2": " ", "ZVALUE": 0.2, "FID": null, "SHAPE_Length": 1226.3869486793315}}, {"type": "Feature", "id": 24159, "geometry": {"type": "LineString", "coordinates": [[-61.02639409597081, 45.81658856622754], [-61.02638120189385, 45.816516337187025], [-61.02638149010435, 45.81643533514553], [-61.02634348622904, 45.816381573855026], [-61.02627980033432, 45.816362471807324], [-61.026203184696406, 45.81630894332195], [-61.026138199637785, 45.8162898187442], [-61.02604903964639, 45.81626307571096], [-61.02598435372425, 45.81623585551261], [-61.02593318266291, 45.816226870419996], [-61.025882361391986, 45.81620799049137], [-61.02577968691903, 45.81616301210495], [-61.02571533211351, 45.81612679669593], [-61.025663847736745, 45.81608990364607], [-61.025639359444334, 45.81605437730332], [-61.025588795964715, 45.81595539474881], [-61.02555111435722, 45.815819731651736], [-61.025551403734454, 45.81573872962265], [-61.02552594582491, 45.815658182584976], [-61.025423913743936, 45.815558301210075], [-61.025398775187305, 45.81550477100828], [-61.02538747315574, 45.81538755645529], [-61.02534980658105, 45.81528789666693], [-61.02532403209964, 45.815252357016256], [-61.02531148607979, 45.815243139330484], [-61.02528606182733, 45.81519769586484], [-61.02518432981054, 45.81508972775199], [-61.02510676758253, 45.81502628129046], [-61.02491432019478, 45.81493564602632], [-61.02477367930509, 45.814836005498314], [-61.02471028205578, 45.814808806855304], [-61.02460732474893, 45.81477192321441], [-61.02411827158416, 45.81476976459762], [-61.02377043553912, 45.81477814804621], [-61.02294804696928, 45.81477471687873], [-61.02276690721717, 45.81476438068425], [-61.02257482085756, 45.81473675319947], [-61.02236919569793, 45.81469088940795], [-61.02225400662384, 45.81467269349927], [-61.02211147197917, 45.81466302472433], [-61.02167519412648, 45.814660869444424], [-61.02141716276641, 45.8147140049147], [-61.02133994736503, 45.81471356737716], [-61.021172321069514, 45.81472146431787], [-61.02091460925466, 45.8147296002713], [-61.020811964192134, 45.81475662417653], [-61.02072092877059, 45.81478294009361], [-61.02054012234407, 45.81487252383674], [-61.0201788482963, 45.81500577433887], [-61.02010164335507, 45.81504133927781], [-61.0200495177119, 45.81505933734594], [-61.01966347018007, 45.815165154419724], [-61.01964210218437, 45.815171705537395], [-61.019430524751236, 45.81523672190615], [-61.01936237090148, 45.815264945639974], [-61.019301192935096, 45.81529028404311], [-61.01928997598793, 45.81529406787141], [-61.01925038511868, 45.81530740452063], [-61.01910756635361, 45.815342730983346], [-61.018837607089814, 45.81540465453705], [-61.01855416078796, 45.81544834191553], [-61.01854251276512, 45.81545193817644], [-61.01843833008071, 45.81548413572389], [-61.01829580384141, 45.81551046546302], [-61.01820605214993, 45.815536810647], [-61.01794737518347, 45.81560792863565], [-61.017818041129274, 45.8156614890521], [-61.01775369793763, 45.815697275607974], [-61.01771443507846, 45.815715495840905], [-61.01750916990822, 45.815768647156396], [-61.01729007347188, 45.81581254822364], [-61.017147874815784, 45.815865866561374], [-61.01708400172792, 45.815890931967694], [-61.017057802323784, 45.81590121505592], [-61.016928777415195, 45.815909775919025], [-61.01685156049771, 45.81590933532011], [-61.016736349406806, 45.81585513033459], [-61.01670997359141, 45.81583667078142], [-61.01667198812215, 45.81581890970635], [-61.01660827408688, 45.81580071084693], [-61.01645318500316, 45.815745804087015], [-61.016403294051386, 45.815700833818994], [-61.01626201944717, 45.815583170230404], [-61.016224377456204, 45.81551951097762], [-61.01616032815056, 45.815438291561236], [-61.01612201533932, 45.81539352226644], [-61.01599456477638, 45.81524909610169], [-61.01591893039439, 45.81513167217418], [-61.015893186221554, 45.81505921869981], [-61.01585518536563, 45.81496945081235], [-61.01584390315061, 45.81485224463096], [-61.01584451804559, 45.81472624433533], [-61.0158583325494, 45.814663478825835], [-61.015910434707415, 45.81453747284957], [-61.015945733655165, 45.81450654727659], [-61.016002103083174, 45.81445715805364], [-61.016033700528205, 45.81442969646448], [-61.01605390163317, 45.814412153796404], [-61.016078981942805, 45.81439458786531], [-61.01626044076762, 45.8143230330788], [-61.01631224738335, 45.81431403198264], [-61.016349871546836, 45.81430569363298], [-61.01654356379253, 45.8142883375629], [-61.01676297384933, 45.81423545158502], [-61.01683954089121, 45.814217879392906], [-61.016926002669926, 45.8141714064094], [-61.016956328085186, 45.814155101453686], [-61.017034500712185, 45.81412855622194], [-61.01706111079053, 45.814109945539926], [-61.01708597876388, 45.81409254671568], [-61.01722752617801, 45.81402118856703], [-61.017270361299616, 45.81399186953603], [-61.01731855284463, 45.81395887214095], [-61.01735342567811, 45.81393882968401], [-61.017396090474925, 45.81391430506744], [-61.01749999004633, 45.81381531772576], [-61.017540704925075, 45.813790966227785], [-61.017603880382985, 45.81375320634543], [-61.01762412093952, 45.81373561907906], [-61.017655676994366, 45.813708201324474], [-61.017694258677984, 45.81367286779308], [-61.01773351075623, 45.813618644233884], [-61.017746684316556, 45.81357386893464], [-61.017747933316386, 45.81342987804132], [-61.01773506038365, 45.81339365148776], [-61.017697705105064, 45.81332190596895], [-61.01760728144809, 45.813222219021895], [-61.01755674394703, 45.813159236445415], [-61.017506247680636, 45.81313135762769], [-61.01740326647544, 45.813095367135], [-61.01736496330124, 45.81308660155302], [-61.01726201420578, 45.81304971141118], [-61.01718543991355, 45.81303128061714], [-61.01692804214735, 45.813030412229644], [-61.016670005561664, 45.81304753374171], [-61.01656674616689, 45.81305564151603], [-61.016297451710564, 45.81306356590188], [-61.01598760932131, 45.81308968697558], [-61.01573058384057, 45.8131149246352], [-61.01565300641334, 45.813124377823684], [-61.015228305633194, 45.81312240802084], [-61.0147901357855, 45.81317418925106], [-61.01477695253929, 45.81318296089968], [-61.01423642904912, 45.81318076538384], [-61.01417207950014, 45.81318054667694], [-61.01403083674548, 45.81317089026445], [-61.01367049857803, 45.81316912467785], [-61.013619332477596, 45.81316013414183], [-61.01347840983163, 45.81314148182583], [-61.013362894315385, 45.8131322720427], [-61.01325995435768, 45.81313138159499], [-61.013207821996524, 45.81311337328002], [-61.013053709808375, 45.813067488648365], [-61.01291338942724, 45.812995741467866], [-61.012797592985365, 45.81295862378466], [-61.0126823851829, 45.812940417878615], [-61.01251509039771, 45.81290330393469], [-61.012245803480695, 45.81287521574259], [-61.012090681715016, 45.81282121152892], [-61.01194975487673, 45.812766554100314], [-61.0118094687231, 45.81269390607419], [-61.01173289683766, 45.812675471660576], [-61.011719067338724, 45.812666230131875], [-61.011539851623844, 45.812602822954105], [-61.01142499264944, 45.81253869982996], [-61.01139890840042, 45.81251214340397], [-61.01125829782597, 45.81241249568444], [-61.01110481224109, 45.81231260559312], [-61.01088859608299, 45.812095521678025], [-61.01076085067798, 45.81199609738538], [-61.01068458634379, 45.811860648365574], [-61.01054553472067, 45.81160890456879], [-61.010506936276926, 45.81153621603268], [-61.010468946026094, 45.81144645547814], [-61.01044321518043, 45.811410004115665], [-61.01030324529693, 45.81125636251978], [-61.01015105025189, 45.81104848412401], [-61.01010084361416, 45.81097650318912], [-61.009946703542816, 45.810895510770735], [-61.00983153732445, 45.81080439629782], [-61.00969029308711, 45.81072272815291], [-61.00943514249515, 45.81058687015257], [-61.0093572840304, 45.81053240854941], [-61.00930644167191, 45.81051442092462], [-61.008753069697185, 45.81051196647597], [-61.008636931711266, 45.81052075163093], [-61.008521778799896, 45.81053764555465], [-61.00837990246684, 45.810545972672934], [-61.008315235347176, 45.81055474591444], [-61.00809676552926, 45.8106175419443], [-61.00805785612014, 45.81062586416296], [-61.00803213036599, 45.810625415503615], [-61.00792820078283, 45.81065240543516], [-61.00781205317742, 45.81069717474567], [-61.00765699519532, 45.8107502840045], [-61.00748971886924, 45.81082117248577], [-61.007127130865065, 45.81106326840622], [-61.00699847399523, 45.8111339299168], [-61.006842098332044, 45.811223909314194], [-61.006765213817815, 45.81128647321799], [-61.00671312200197, 45.81133956887872], [-61.006583149942166, 45.8114831133669], [-61.006557235256594, 45.811507422251594], [-61.00654453081111, 45.811519342584646], [-61.00649681724274, 45.811546763299376], [-61.00646700134341, 45.81156389344892], [-61.00636274854443, 45.811599868101105], [-61.00622023261918, 45.81173420143121], [-61.00600050532766, 45.81186807773132], [-61.005767594291385, 45.812046727366265], [-61.00572528490611, 45.81207200991818], [-61.005663694713775, 45.81210881883569], [-61.00563756665416, 45.81213043254813], [-61.00559870574286, 45.81216258886467], [-61.005495096323244, 45.81225258769296], [-61.00540470317181, 45.81233291635722], [-61.005377980849055, 45.81236035214326], [-61.00534003629355, 45.812413694229285], [-61.00532621065221, 45.81247645830342], [-61.00532461118425, 45.8127014500889], [-61.00534745210533, 45.81292686868824], [-61.00535967436997, 45.81298108686261], [-61.0054111628824, 45.81305309225041], [-61.00547391025608, 45.81320630131441], [-61.005511880659974, 45.813296063166995], [-61.00560004691017, 45.81345872581103], [-61.00567597932723, 45.81360318219698], [-61.0057531984877, 45.81371161284322], [-61.00581626670344, 45.81381983236996], [-61.00585360625419, 45.81389159951294], [-61.00598229898258, 45.81400005559917], [-61.00605793505168, 45.81408147403573], [-61.00609587269954, 45.81413614104228], [-61.00615958276288, 45.81419035785708], [-61.00621075069545, 45.81423534591281], [-61.00628828962986, 45.814298813838874], [-61.006428572332716, 45.814371468576255], [-61.00654441428882, 45.814443696574365], [-61.00662100143699, 45.81449814687416], [-61.0067995797719, 45.814651558491114], [-61.00686264873963, 45.814723774292126], [-61.00696431439372, 45.81486866083788], [-61.00699007655973, 45.81490421343381], [-61.007092703386256, 45.814986111136626], [-61.00725779094447, 45.81515730620124], [-61.0074373157229, 45.81528465804049], [-61.007488485677264, 45.81532964554912], [-61.007539308745145, 45.81538363676851], [-61.00764228388334, 45.8154565392612], [-61.00792416564464, 45.81545695553121], [-61.00811751080149, 45.81544951756814], [-61.008143270218866, 45.81544908471603], [-61.00815645534913, 45.81544030486736], [-61.0081856029969, 45.81542354966554], [-61.00823397580951, 45.8153957617221], [-61.0082894059547, 45.81536318239471], [-61.008324707276365, 45.81534243010623], [-61.00835031690594, 45.81531840353941], [-61.00836334086461, 45.81530620055822], [-61.00838440083032, 45.815285946985895], [-61.00842863889854, 45.81524343358459], [-61.00849330446243, 45.81516266297678], [-61.0085205672385, 45.81513486686447], [-61.0085453857591, 45.815109557348975], [-61.008566471311156, 45.8150893041887], [-61.008610709082284, 45.81504679071061], [-61.00863633131495, 45.81502276429849], [-61.0086493294133, 45.81501056083336], [-61.008713917126066, 45.81497888802272], [-61.00873972594991, 45.81496623283162], [-61.008828490914105, 45.81491242549048], [-61.00884365937537, 45.814903248099895], [-61.008908007496586, 45.814867457643544], [-61.00894627475438, 45.81484112237374], [-61.008972355215086, 45.81483167614457], [-61.00906307559039, 45.81481435588641], [-61.009642205424896, 45.81481724864957], [-61.0098085659056, 45.81480844560704], [-61.009963637280734, 45.814791346724014], [-61.010311117030575, 45.81475689686955], [-61.01040183722465, 45.81473956654358], [-61.0107370882673, 45.81465090666631], [-61.010776032171805, 45.81464168405945], [-61.01099576442748, 45.81454380185035], [-61.01108551269428, 45.81448145913033], [-61.01113795581429, 45.81441846675423], [-61.01116463418349, 45.814319922659955], [-61.011190388624094, 45.81428346789042], [-61.01122962048249, 45.81426614943559], [-61.01130233762468, 45.814240710240675], [-61.011332589278716, 45.81423013899396], [-61.01155168376283, 45.81418624932007], [-61.01165497785353, 45.81417724660741], [-61.01173220540078, 45.81417768190881], [-61.01178396733533, 45.81416959116895], [-61.011873746148254, 45.81410634828002], [-61.01193901513331, 45.814079320905634], [-61.01200308202511, 45.81405279461662], [-61.012042307505226, 45.81399948162901], [-61.012047995193385, 45.81399554827102], [-61.012146556272675, 45.81392748058627], [-61.01221154827554, 45.81383770375633], [-61.01225044103428, 45.81379336768965], [-61.01229292212971, 45.81375561962655], [-61.01234082663538, 45.81371304249786], [-61.01235371641071, 45.813676363586765], [-61.01236753452457, 45.813613598549026], [-61.012355273300315, 45.81356028053755], [-61.012304453389795, 45.81350539142662], [-61.012227554300196, 45.813459949294746], [-61.012059893244334, 45.81343272917856], [-61.011751052751976, 45.81343095375244], [-61.011622668039884, 45.813385515040004], [-61.011610765225086, 45.81335830546694], [-61.01161108007883, 45.813313307014376], [-61.01163712195776, 45.81326875643484], [-61.01172232727358, 45.813227647981385], [-61.011766789163815, 45.81320620801494], [-61.01178116707618, 45.81319209304053], [-61.011830794553795, 45.81314341657865], [-61.01187098043848, 45.81306310899846], [-61.01190991746573, 45.813017882735394], [-61.011922775327875, 45.812982103392144], [-61.01200030822181, 45.81297355204221], [-61.01205147386719, 45.81298254329683], [-61.01212836643691, 45.81299198228947], [-61.01230791027065, 45.81301041731466], [-61.01238607673063, 45.81301986930186], [-61.01255337863212, 45.813020980409725], [-61.01262995127689, 45.8130394142844], [-61.01279599868265, 45.813111600424506], [-61.012950436726356, 45.81318450243399], [-61.01302668972163, 45.813211931267425], [-61.013052448745455, 45.81321147929973], [-61.013194324910216, 45.813239149514494], [-61.013270910941294, 45.81325758319088], [-61.01334780412193, 45.813267021371615], [-61.01342534378599, 45.81329447231785], [-61.01352799611288, 45.813303458321485], [-61.013656350269855, 45.81334979443717], [-61.01372070000203, 45.81335001343785], [-61.01378537641637, 45.813377240442335], [-61.01379760019218, 45.8133954545826], [-61.01379699240099, 45.81341254550736], [-61.013732029799705, 45.8135743300438], [-61.013680230533694, 45.81361932424084], [-61.01365099360169, 45.8136350442051], [-61.013563440590296, 45.81368210778825], [-61.013437562327056, 45.81373115995986], [-61.01326714865291, 45.81379756492312], [-61.013189295103146, 45.81381510334074], [-61.013124304521085, 45.81383288346551], [-61.01303391321334, 45.81387721503386], [-61.01294413606083, 45.81394045886502], [-61.01287500405972, 45.813967185586236], [-61.012852778117654, 45.81397577268716], [-61.01282731764812, 45.81399965884942], [-61.0128141612044, 45.81401200404888], [-61.01250405386229, 45.81422622747539], [-61.012348349948994, 45.81429733341478], [-61.012258571666834, 45.81436056768344], [-61.01209127863687, 45.814359456301766], [-61.012065225262475, 45.81433200049547], [-61.012000868818866, 45.8142957773043], [-61.01197510929403, 45.81429622902633], [-61.011961925345744, 45.814305000336695], [-61.0119493873734, 45.81433178445992], [-61.01194972601932, 45.81435879271022], [-61.01196129613687, 45.814394997237784], [-61.01197352512039, 45.81444921480224], [-61.012012480256935, 45.81451198924908], [-61.01204979657421, 45.81458464502267], [-61.01211417160462, 45.81465688064803], [-61.012190130877194, 45.81472840876596], [-61.012267677730684, 45.81479186375487], [-61.01230562904738, 45.814810525784715], [-61.01233106866758, 45.81481906920536], [-61.01254985657327, 45.814856179343636], [-61.01269141653469, 45.8148928454552], [-61.01297392307896, 45.814912161773684], [-61.01350159916893, 45.81491413980904], [-61.013591038635084, 45.81493279681228], [-61.01384844486444, 45.81493367286457], [-61.01398969202863, 45.8149433295727], [-61.01419561770005, 45.814980212905716], [-61.01429824128136, 45.81499009778987], [-61.014465248532794, 45.81499930167234], [-61.01460746293088, 45.8150179662129], [-61.01469688977712, 45.81503663113012], [-61.01473552645098, 45.81503640261682], [-61.014850694136456, 45.815055514821715], [-61.015108108971354, 45.81509238231644], [-61.0151460934392, 45.81511014389755], [-61.01535201279512, 45.81511102189729], [-61.015391571440226, 45.81512071004406], [-61.01541733134392, 45.81512025755725], [-61.0154684675824, 45.81513014684207], [-61.01549390785419, 45.81513868956805], [-61.01560911624195, 45.8151928957693], [-61.01572398129269, 45.81529299988447], [-61.01583919829497, 45.815383209134524], [-61.015954104243804, 45.815518416778936], [-61.01606803300213, 45.81568150975761], [-61.01615783009396, 45.815762267357144], [-61.016208695761016, 45.81585226757523], [-61.016234112837964, 45.81589771294031], [-61.016271763735844, 45.815997366469325], [-61.016296573524535, 45.81605991175915], [-61.01632072106977, 45.81617734131165], [-61.01633236397538, 45.816320664953224], [-61.016332381028235, 45.81639266250335], [-61.01631917364649, 45.81643833711225], [-61.01626741364604, 45.81651844519527], [-61.01623494053208, 45.81656074292204], [-61.01613649462925, 45.816688986333915], [-61.01603289322813, 45.81677899479695], [-61.01600770277233, 45.81682209401563], [-61.01600685309133, 45.81682354638383], [-61.01599400500058, 45.81689532945871], [-61.01600623838038, 45.816949546642306], [-61.01610854638718, 45.816968425191426], [-61.016250150660255, 45.816968184437485], [-61.01645636450346, 45.816960964849855], [-61.016559015630605, 45.816933944970735], [-61.016830245400996, 45.816872048871986], [-61.016933511841934, 45.81686394097989], [-61.01698403461207, 45.81685490828923], [-61.01713847075361, 45.81685579829381], [-61.01721637753357, 45.81690935528083], [-61.017356637594176, 45.816909989897255], [-61.017421336587965, 45.81690121208917], [-61.01748693590491, 45.81686634760682], [-61.01756799326772, 45.816805055069125], [-61.01764169606487, 45.816749323322405], [-61.01767580968463, 45.816725694287165], [-61.017706359858764, 45.816704541617305], [-61.017715467306715, 45.81670145039756], [-61.01778454862083, 45.81667799615934], [-61.0178228005164, 45.81665164865599], [-61.017838128376575, 45.81663577625843], [-61.01787493153622, 45.81659765757633], [-61.01793925344629, 45.81652586746155], [-61.01809461488885, 45.81642775463391], [-61.01810781127425, 45.81641898283423], [-61.01823778525677, 45.816347431634384], [-61.01832757048851, 45.81632017793055], [-61.01853377168632, 45.81627696024614], [-61.01866342566469, 45.81621440379105], [-61.01879148377128, 45.816196823415275], [-61.01890731575797, 45.816161029273474], [-61.01904920525544, 45.81615268929218], [-61.01921682318579, 45.81614479532216], [-61.01984748982192, 45.8161467298745], [-61.0200147994865, 45.81618383329621], [-61.02015541333318, 45.81621147295221], [-61.02024550592037, 45.8162481376168], [-61.0205274149618, 45.81632052947842], [-61.02068187419754, 45.81635740921395], [-61.02080994171666, 45.816411832986354], [-61.02091321816608, 45.816439724791834], [-61.02114490337408, 45.816440138704486], [-61.021209588751795, 45.81643134951264], [-61.02135017907504, 45.81642299316383], [-61.02146694585598, 45.81639711347952], [-61.021569274991776, 45.816379084298305], [-61.02164679849806, 45.816370526234046], [-61.02178868921293, 45.816326179744046], [-61.02187877115504, 45.816326839809044], [-61.02214935532542, 45.816282921453094], [-61.02242058845191, 45.81625701525392], [-61.022536418680176, 45.81622120840005], [-61.02255007102455, 45.816218078470136], [-61.02261298646031, 45.816203641352814], [-61.02284527589945, 45.81618696079123], [-61.02293570795216, 45.81617772522353], [-61.023347542877886, 45.81617945266941], [-61.02357857152663, 45.81619875192047], [-61.023887473466374, 45.81619959631065], [-61.02447948524, 45.816202636642295], [-61.024737216474996, 45.81619449297114], [-61.0248903790419, 45.81623134458534], [-61.02504454194783, 45.816276313993065], [-61.02512177365831, 45.816312752426576], [-61.02539082201696, 45.816457816223355], [-61.0255703935076, 45.81658513127847], [-61.02568496453964, 45.81662131470705], [-61.025723921947595, 45.8166480903571], [-61.025826550972035, 45.81665796496207], [-61.02614863803419, 45.81665003034295], [-61.026277650727586, 45.81664145884643], [-61.02632815267746, 45.816633330739656], [-61.02633400848433, 45.81662935457316], [-61.02639409597081, 45.81658856622754]]}, "properties": {"OBJECTID": 24159, "FEAT_CODE": "WACOIS10", "FEAT_DESC": "Coastal Island - Water to the right line", "RIVNAME_1": " ", "RIVNAME_2": " ", "ZVALUE": 0.2, "FID": null, "SHAPE_Length": 5241.431485898223}}, {"type": "Feature", "id": 118145, "geometry": {"type": "LineString", "coordinates": [[-61.016339824551764, 45.81397248110072], [-61.01634142198539, 45.813927504917906], [-61.01638009741467, 45.813880499440664], [-61.01639254071905, 45.813865378204575], [-61.01642633700119, 45.81383796369238], [-61.01647073630737, 45.81380193953747], [-61.0165614357323, 45.813712606672546], [-61.01658636959206, 45.81369516409633], [-61.01661291368943, 45.81367659737579], [-61.016661714649274, 45.81364855227006], [-61.016690438284215, 45.81363203955401], [-61.016700418322316, 45.813628648538575], [-61.016768610290875, 45.813605494491995], [-61.01685028390688, 45.81357059443989], [-61.01687184904402, 45.81356138303391], [-61.01688494358829, 45.81355510282158], [-61.01690983713196, 45.8135431409529], [-61.01707840054737, 45.81343625790009], [-61.01715626286175, 45.81338180475954], [-61.01728491253752, 45.813311131704985], [-61.017389149003655, 45.81327514680537], [-61.017453511917985, 45.81327535492945], [-61.01747891974325, 45.81328479673131], [-61.01751690378144, 45.813302557521325], [-61.017530095841195, 45.813329788853345], [-61.01754012266135, 45.81355498253068]]}, "properties": {"OBJECTID": 118145, "FEAT_CODE": "WALK20", "FEAT_DESC": "Lake - Water to the right line", "RIVNAME_1": " ", "RIVNAME_2": " ", "ZVALUE": 0.8, "FID": null, "SHAPE_Length": 154.6572824587389}}, {"type": "Feature", "id": 118146, "geometry": {"type": "LineString", "coordinates": [[-61.01754012266135, 45.81355498253068], [-61.01752726823293, 45.81359076256001], [-61.01738541240592, 45.813707110656566], [-61.01734253769846, 45.813736465047754], [-61.01729438591265, 45.81376943614175], [-61.017036363739145, 45.81385856501552], [-61.017009780141514, 45.81387715815053], [-61.01698488619636, 45.81389456550857], [-61.01685524431107, 45.813993132427115], [-61.01682052540194, 45.81401354643667], [-61.01676453618292, 45.814046462230635], [-61.01666095551055, 45.814063565297104], [-61.01642928050188, 45.814063142449804], [-61.01635269669484, 45.8140087077954], [-61.0163530161802, 45.81399971255886], [-61.016339824551764, 45.81397248110072]]}, "properties": {"OBJECTID": 118146, "FEAT_CODE": "WALK20", "FEAT_DESC": "Lake - Water to the right line", "RIVNAME_1": " ", "RIVNAME_2": " ", "ZVALUE": 0.8, "FID": null, "SHAPE_Length": 122.06559140751645}}, {"type": "Feature", "id": 118147, "geometry": {"type": "LineString", "coordinates": [[-61.00738997938578, 45.814879687987755], [-61.00740190988181, 45.81486999525972], [-61.00742795883327, 45.81486143991129], [-61.00782693037552, 45.81486300796574], [-61.00811038428252, 45.81485535049325], [-61.008200142518874, 45.8148650164971], [-61.00822526070097, 45.8148825560131], [-61.008238769342285, 45.81490079315191]]}, "properties": {"OBJECTID": 118147, "FEAT_CODE": "WALK20", "FEAT_DESC": "Lake - Water to the right line", "RIVNAME_1": " ", "RIVNAME_2": " ", "ZVALUE": 0.8, "FID": null, "SHAPE_Length": 68.80685471315454}}, {"type": "Feature", "id": 118148, "geometry": {"type": "LineString", "coordinates": [[-61.008238769342285, 45.81490079315191], [-61.00823780661566, 45.81492778771955], [-61.00818568090319, 45.814981774510976], [-61.00810879254745, 45.81504433921997], [-61.00805634512464, 45.81510733912752], [-61.007914142501484, 45.81519665804348], [-61.00791086981641, 45.815199274197134], [-61.0078359542855, 45.81525919989608], [-61.00781056303538, 45.81528575937734], [-61.00777616504895, 45.81530391703589], [-61.007759386036916, 45.8153127691664], [-61.00772046692501, 45.81532199117629], [-61.007681862194545, 45.815321317793696], [-61.00759145600268, 45.81525763537272], [-61.007528064258814, 45.815194424136756], [-61.00749040047716, 45.81513166168837], [-61.00741413980311, 45.814996219610094], [-61.00740095234983, 45.81496898719196], [-61.00738905129558, 45.81494177721437], [-61.00738997938578, 45.814879687987755]]}, "properties": {"OBJECTID": 118148, "FEAT_CODE": "WALK20", "FEAT_DESC": "Lake - Water to the right line", "RIVNAME_1": " ", "RIVNAME_2": " ", "ZVALUE": 0.8, "FID": null, "SHAPE_Length": 121.87663909226005}}]}