{"type": "FeatureCollection", "features": [{"type": "Feature", "id": 23385, "geometry": {"type": "LineString", "coordinates": [[-61.028427919648, 45.80269496936183], [-61.028403466907335, 45.80265854406838], [-61.02831305655259, 45.802594877867904], [-61.0282490363212, 45.80258567197214], [-61.02821073847499, 45.80257691010275], [-61.02810843595886, 45.80252203923702], [-61.028082348168326, 45.80249548652467], [-61.02799289089528, 45.80240483412438], [-61.0279809822094, 45.80237762611611], [-61.02794297005427, 45.802287852891084], [-61.02795675098655, 45.80218909103324], [-61.0279830754678, 45.80202662206214], [-61.028049585763725, 45.801855864096126], [-61.02805144186569, 45.80169388173366], [-61.02807743252233, 45.801577320049944], [-61.0280780186737, 45.80145131895844], [-61.0280667288027, 45.801370116832814], [-61.02805385165604, 45.801333891306264], [-61.02804062563346, 45.80130755163509], [-61.02798980018493, 45.801252687314324], [-61.02796466909331, 45.80123514288758], [-61.02790032970482, 45.801198928878556], [-61.0277342969222, 45.80105384932603], [-61.02754190842459, 45.800999222479525], [-61.02749106883099, 45.800981233973445], [-61.02731030276146, 45.80096191958026], [-61.0271819488164, 45.80095250200652], [-61.02704073412273, 45.800942862134775], [-61.02689920215853, 45.80094220840836], [-61.026809417542175, 45.80093346569741], [-61.026771165688984, 45.80092380405588], [-61.02675830489895, 45.800923581869746], [-61.026578778631034, 45.80086917560834], [-61.026526653084005, 45.80085117345416], [-61.02639891980958, 45.80078776091128], [-61.02630948340522, 45.80073310173103], [-61.026257993243604, 45.80069711782961], [-61.026118020429884, 45.80057948864777], [-61.02609166134596, 45.800561031504444], [-61.02604079449237, 45.80050704767009], [-61.025926558821844, 45.80042586626153], [-61.02583645785444, 45.80031719940477], [-61.02574797589647, 45.800235562868444], [-61.02555618396289, 45.800054931731395], [-61.025543927299026, 45.80003761832552], [-61.0255179369062, 45.80000837545814], [-61.025479594872124, 45.79996450876998], [-61.02539044676895, 45.799901753121475], [-61.02531356960378, 45.799892323296675], [-61.02496617606708, 45.79989081709066], [-61.02464418566167, 45.79989874997677], [-61.024412614524316, 45.799933448210794], [-61.024309666567646, 45.799933467647534], [-61.02427076688419, 45.79994179556656], [-61.02401312435315, 45.79998594288514], [-61.024012252517004, 45.79998621582775], [-61.023941564232935, 45.80000810693526], [-61.02389956713719, 45.80002105255643], [-61.02389732935348, 45.80002174290478], [-61.023806637361574, 45.800039075459075], [-61.02372880588256, 45.80005663046568], [-61.02353614683505, 45.80011900261568], [-61.023329990355805, 45.8001991424564], [-61.02316146633805, 45.80023402016915], [-61.02295497734506, 45.8002871601679], [-61.02290447084523, 45.80029618679114], [-61.02286525242913, 45.800313509517025], [-61.022735016724305, 45.80043006560963], [-61.02261797222893, 45.80057385233548], [-61.02259291301906, 45.800627423310324], [-61.02258980609112, 45.80093339681004], [-61.02261335025805, 45.80114082287577], [-61.02263850563445, 45.801266360525766], [-61.022662966129424, 45.80133880840951], [-61.022713537934884, 45.80150979005785], [-61.02271323241021, 45.8015547887765], [-61.02271292688383, 45.80159978749481], [-61.02273802488488, 45.80165422679049], [-61.022763441250035, 45.80169967079013], [-61.0228133384603, 45.80181663589929], [-61.022903161863475, 45.801933410037606], [-61.02297909947005, 45.80200583082404], [-61.02303058832978, 45.80204182517656], [-61.02323551292382, 45.80217858387027], [-61.023338185346596, 45.802223573633746], [-61.02365859971057, 45.8023326185561], [-61.0237219696103, 45.80235981737611], [-61.02381270462916, 45.80237848883734], [-61.02387637994236, 45.802396692055396], [-61.023940412016586, 45.80240590061], [-61.02397899534479, 45.80240656813218], [-61.024107047530464, 45.8024609880836], [-61.02424797487129, 45.802551633808996], [-61.024376663791095, 45.80258806287089], [-61.02441496131852, 45.80259681702105], [-61.02447963055542, 45.80262404689381], [-61.02465816151913, 45.80270634170462], [-61.02472252617047, 45.80274255797015], [-61.024800057247, 45.802770001092895], [-61.0248769842223, 45.80281453523518], [-61.02495356154596, 45.80286896415833], [-61.02499150927504, 45.802887621945715], [-61.02508064902893, 45.802950368727714], [-61.025235710666095, 45.80296925122557], [-61.02544126813697, 45.80297910560662], [-61.025660004814185, 45.80298018663321], [-61.02573687156145, 45.80295361283971], [-61.025944624119, 45.80282849226885], [-61.02603468641308, 45.802756242260884], [-61.026086766825486, 45.80273914073545], [-61.02612935687762, 45.802691605487865], [-61.02615107464049, 45.802667345619206], [-61.026202853915336, 45.80262233635804], [-61.02629321660668, 45.80257799381432], [-61.02642346335985, 45.80246142489247], [-61.026443076345195, 45.80244209704014], [-61.0265141277912, 45.80237209238876], [-61.02654050437725, 45.802353646451536], [-61.02661705214989, 45.802336067352364], [-61.02677144906276, 45.802336934682145], [-61.02696414345501, 45.80234656409788], [-61.02706771502411, 45.80236545471426], [-61.027221206670646, 45.80242841131623], [-61.02741360233993, 45.8025190510098], [-61.02756769847686, 45.80256490706377], [-61.027656501156834, 45.802601543695836], [-61.02773372856444, 45.802637989381346], [-61.02788784419253, 45.80268294525832], [-61.0279907688874, 45.8027198254643], [-61.028183477738395, 45.80272945306904], [-61.028338192946975, 45.80272133197493], [-61.028389987293714, 45.80271231617924], [-61.028427919648, 45.80269496936183]]}, "properties": {"OBJECTID": 23385, "FEAT_CODE": "WACOIS10", "FEAT_DESC": "Coastal Island - Water to the right line", "RIVNAME_1": " ", "RIVNAME_2": " ", "ZVALUE": 0.2, "FID": null, "SHAPE_Length": 1350.9501506552574}}, {"type": "Feature", "id": 23428, "geometry": {"type": "LineString", "coordinates": [[-61.05188532662499, 45.79893820303162], [-61.05188654936904, 45.79886621747888], [-61.05187368885908, 45.79886599812723], [-61.051874880277666, 45.79875799983395], [-61.05186161095075, 45.79865877369471], [-61.05184903245569, 45.79861355514346], [-61.0518244397502, 45.79847002293128], [-61.05180028695576, 45.79842460695318], [-61.05173585885221, 45.798316398448556], [-61.051659888193484, 45.79824399621934], [-61.0515189258937, 45.79815338371501], [-61.05141625017211, 45.798108419231966], [-61.05138094700721, 45.79808350577731], [-61.0513521991818, 45.79806323155508], [-61.05124680305271, 45.79800809460354], [-61.05116012321035, 45.79796274574716], [-61.051096417476124, 45.79794456622374], [-61.051058119264596, 45.79793580300803], [-61.050646401798964, 45.79793417743204], [-61.050465008392045, 45.797969784889524], [-61.05010419660628, 45.79805813418164], [-61.05004052223732, 45.79807593981258], [-61.04999647117922, 45.79809117317409], [-61.04998842148699, 45.798093961004334], [-61.0497948564187, 45.798146461116154], [-61.04971734911652, 45.7981550385739], [-61.04939696995415, 45.79815406799341], [-61.049344839214356, 45.79813607616875], [-61.04924280734981, 45.79803622483001], [-61.04915357480585, 45.79790148888203], [-61.04905249869343, 45.79777465128424], [-61.04901381406276, 45.79770288416091], [-61.04896347881134, 45.797522908371285], [-61.04892675317542, 45.79743226399042], [-61.04890152307502, 45.79727072762023], [-61.048902931680544, 45.79704573158556], [-61.04889369149429, 45.7967575480056], [-61.04889508313379, 45.796496548444125], [-61.04890854139434, 45.796442773513895], [-61.04893454709822, 45.79636131042327], [-61.049012590503125, 45.79622673138313], [-61.04906637625525, 45.796141233375046], [-61.04909160548978, 45.796101169687795], [-61.049100800220394, 45.796087321486766], [-61.049169020126705, 45.795984581407104], [-61.049214670604044, 45.79594486648532], [-61.049220775145706, 45.79593955226352], [-61.04924740642339, 45.79587701047301], [-61.049299444894494, 45.79578699110659], [-61.049299758876, 45.79577799566331], [-61.04933830813875, 45.79574265081208], [-61.0494681641465, 45.795635058658654], [-61.049559138232404, 45.795572706501915], [-61.04959770572141, 45.79553646179286], [-61.04973947872918, 45.79545607524404], [-61.049821051921015, 45.79542342703128], [-61.049894769229354, 45.79539392092503], [-61.04991314345722, 45.795385080819266], [-61.049932721800644, 45.79537565821482], [-61.050062636603336, 45.79534008183576], [-61.05017806069465, 45.795314149822005], [-61.0503198636648, 45.79526974828598], [-61.05040991271698, 45.795233499998716], [-61.0505777168672, 45.79514455592713], [-61.05061758222541, 45.79510833302351], [-61.05069467852014, 45.79500073906741], [-61.05071663483916, 45.79497699162483], [-61.05078560632657, 45.79490238191223], [-61.05080846680039, 45.7948803780368], [-61.05085084574559, 45.79483958953345], [-61.05091573987822, 45.79474979780466], [-61.050955542532904, 45.794678461562974], [-61.05096871599252, 45.794632782243205], [-61.0509946552391, 45.79451621438133], [-61.050982391966926, 45.794462000275615], [-61.05093211518903, 45.79435403272481], [-61.05086803802248, 45.794272832067705], [-61.050765696802614, 45.7941819685543], [-61.05068935645654, 45.794083465975156], [-61.05061398931521, 45.79395706844735], [-61.0506136136907, 45.793894056379315], [-61.05060285779073, 45.79372285744535], [-61.05060461653053, 45.793524869673846], [-61.05059200914261, 45.79344364721766], [-61.05054046609584, 45.79337166109944], [-61.05041333108476, 45.793254280725236], [-61.050361832086686, 45.793218298512585], [-61.0501704200643, 45.793135814898214], [-61.05016292850509, 45.79313516496035], [-61.050067797387946, 45.79312687130254], [-61.05004207903633, 45.79312643223071], [-61.049745188744765, 45.79311687180238], [-61.049462174617275, 45.79311563029971], [-61.04927015201627, 45.793124051922646], [-61.04903827911594, 45.79313178353681], [-61.048947919211145, 45.793140149934544], [-61.04888359195886, 45.79313995115826], [-61.0487424220805, 45.79316634211578], [-61.0486979864911, 45.793184583686546], [-61.04867715264337, 45.79319312955549], [-61.04866439526387, 45.79320252446726], [-61.048652060680055, 45.79321160257177], [-61.04859721436635, 45.79324388751849], [-61.048561416469006, 45.79326495885254], [-61.048393899531895, 45.7933089008445], [-61.04832894387638, 45.79332669263701], [-61.048109673172114, 45.793415662988906], [-61.04796784281585, 45.79346093439952], [-61.04782634467392, 45.79349631942266], [-61.04768455785962, 45.793540700145186], [-61.04763889012281, 45.793561413466016], [-61.047606114004, 45.79357626258862], [-61.0475418879871, 45.79360298620699], [-61.04741287433733, 45.79365666675588], [-61.04737463962927, 45.79368301553664], [-61.047128689237304, 45.793835424629954], [-61.04698692962941, 45.79391580818475], [-61.04690882770681, 45.7939783784204], [-61.04688345189496, 45.79400494692038], [-61.046855858019065, 45.79401508701263], [-61.04668923817195, 45.79407633239434], [-61.04667546846596, 45.79408927409057], [-61.04665065700875, 45.79411257589573], [-61.04660308393614, 45.79414507427718], [-61.0465992478505, 45.79414769991203], [-61.046565485777656, 45.79419442173672], [-61.04653434727991, 45.79423749809114], [-61.04648616363452, 45.79427052602918], [-61.046443384981195, 45.794299848052454], [-61.046370800013875, 45.79433228756489], [-61.046263000605, 45.79438047014284], [-61.04623633835781, 45.79440701649257], [-61.046108023562944, 45.794433624085464], [-61.045914408511045, 45.794451013631445], [-61.045862624745595, 45.79446002856236], [-61.04581190584572, 45.79448127578566], [-61.04579837869116, 45.79448690386848], [-61.045733667407966, 45.79450463535806], [-61.04563017205165, 45.79455776041784], [-61.045620118430655, 45.79456708424172], [-61.04555303909641, 45.79462934710956], [-61.04554939744251, 45.794634505263076], [-61.0455273163103, 45.79466581025748], [-61.04548779407772, 45.79469213637134], [-61.04547453972085, 45.79469768807659], [-61.04542380728631, 45.79471894389615], [-61.04538456810777, 45.794737174091], [-61.045229384437036, 45.79494333703252], [-61.04520337812221, 45.79498789598019], [-61.04520180527566, 45.79503286409751], [-61.04545911850173, 45.79507057966073], [-61.045549226184576, 45.79510632466483], [-61.04562612835675, 45.795151744525526], [-61.04567762628979, 45.79518771984632], [-61.04583014491541, 45.795278546343994], [-61.04585589203566, 45.7953149900838], [-61.045932822636566, 45.795396413449474], [-61.0460854019975, 45.795522334786185], [-61.04617550741143, 45.7955949825601], [-61.04631648264183, 45.79572160515979], [-61.04640561714609, 45.795785235335636], [-61.04654659653981, 45.79587495441315], [-61.046622529016645, 45.79591135620471], [-61.046687830984716, 45.79592057372778], [-61.046878647130264, 45.79605704878735], [-61.04707108311242, 45.79618365033476], [-61.047199157446855, 45.79623804480118], [-61.047302169324766, 45.79631002126014], [-61.04742990448407, 45.79637340147182], [-61.04754474827619, 45.79643747025345], [-61.047583058052616, 45.79644622584845], [-61.04771237761658, 45.796464637801584], [-61.04799542201002, 45.79646586614321], [-61.04817522222742, 45.796476148485894], [-61.04831647812687, 45.796520866064476], [-61.04835411553169, 45.79654851160135], [-61.04840498793667, 45.7966024856028], [-61.04853252876732, 45.79681888393292], [-61.04860822176613, 45.796936287542735], [-61.04869744974405, 45.79710792715825], [-61.04873489402499, 45.797251679636865], [-61.04874661644432, 45.797431895972636], [-61.048739837073256, 45.79817884680432], [-61.04872580923656, 45.798322619993456], [-61.04872461208319, 45.79843060916781], [-61.04870940366906, 45.798718375009734], [-61.04870884721623, 45.798808382520676], [-61.04861677121501, 45.7990867253799], [-61.04859107778268, 45.799159192899204], [-61.048577019720526, 45.79926696232852], [-61.04853789816771, 45.799392305136635], [-61.0484586508716, 45.7996348818284], [-61.04845732170612, 45.799637199326156], [-61.048432600837266, 45.79968033181129], [-61.04826299511938, 45.7999312563001], [-61.04821029324451, 45.80000326220446], [-61.048207451173425, 45.800011314358095], [-61.04819714754924, 45.800048041565276], [-61.048171484513425, 45.80011960941961], [-61.048162538642245, 45.80013183264583], [-61.048118782336296, 45.80019161527469], [-61.0481056365187, 45.80023639462167], [-61.04810329784301, 45.80052438023887], [-61.04811587367174, 45.80056959914626], [-61.04816707645353, 45.80061457806366], [-61.04820503037017, 45.800633237240184], [-61.048346295240144, 45.80071484017116], [-61.04839748516503, 45.800759827765006], [-61.04887355914244, 45.80076166074443], [-61.04902826712534, 45.800753502483985], [-61.04915659525238, 45.800726891850104], [-61.04932419574395, 45.800718044311836], [-61.049569244927554, 45.800665533108365], [-61.04980080629737, 45.80059388040462], [-61.04987016527614, 45.80056703615883], [-61.049892119690696, 45.80055853621413], [-61.04994171974544, 45.80053627800406], [-61.05011044358091, 45.800460554552195], [-61.05025323137814, 45.80042518873618], [-61.05036901121685, 45.80038936173425], [-61.050458724311824, 45.80036298157212], [-61.05053654810978, 45.80034541721479], [-61.050678694878975, 45.8003280415237], [-61.05069988871702, 45.80031994247972], [-61.05070348851644, 45.80031856378788], [-61.05073333190041, 45.800297867223165], [-61.05076810696344, 45.80027376250428], [-61.05084655842268, 45.80023819804779], [-61.0509102353505, 45.80022038301406], [-61.05114273420032, 45.80015864446303], [-61.051284516997335, 45.80007825621136], [-61.05134880814588, 45.80004244981327], [-61.05137485625416, 45.80003389341369], [-61.05137568718678, 45.80003331353715], [-61.05140123655256, 45.80001544179599], [-61.05140139339736, 45.80001094407206], [-61.05140057785491, 45.79999742895929], [-61.05146607368563, 45.79985363345129], [-61.05147953039711, 45.79979985822103], [-61.051519649502985, 45.79971953543553], [-61.05153188314713, 45.79970083345236], [-61.05157074715624, 45.79965650143767], [-61.0515970329373, 45.79956694184094], [-61.05164931353567, 45.79950282088765], [-61.05166290436346, 45.79948615822028], [-61.05166548682753, 45.7994814768521], [-61.05172745767788, 45.799369357876415], [-61.05179263857933, 45.799234548596225], [-61.05184527188779, 45.79909053345876], [-61.051872529385975, 45.79900999116629], [-61.05188532662499, 45.79893820303162]]}, "properties": {"OBJECTID": 23428, "FEAT_CODE": "WACOIS10", "FEAT_DESC": "Coastal Island - Water to the right line", "RIVNAME_1": " ", "RIVNAME_2": " ", "ZVALUE": 0.2, "FID": null, "SHAPE_Length": 2584.48240979757}}, {"type": "Feature", "id": 23629, "geometry": {"type": "LineString", "coordinates": [[-61.04240054026701, 45.80109554116668], [-61.04240077924138, 45.800978525869674], [-61.0423502237222, 45.80091556285962], [-61.0422481935404, 45.80085260861188], [-61.04213265319191, 45.80073451780834], [-61.04204348443552, 45.80067178383989], [-61.04196686779504, 45.80058136250293], [-61.04177536171738, 45.80042776598112], [-61.041634410461896, 45.800337141479325], [-61.041583257671704, 45.80029126040144], [-61.041519212688925, 45.80024605831891], [-61.04144233196898, 45.800236639300735], [-61.04128756832527, 45.80020968320148], [-61.0411855969006, 45.80018183212536], [-61.0410186281684, 45.80017266794589], [-61.040387853331886, 45.800178949077136], [-61.04018198712046, 45.80017811710814], [-61.03994978127945, 45.80019483436553], [-61.03974487268639, 45.80020301884247], [-61.03931964820825, 45.80021912220851], [-61.03892046100453, 45.80022666124498], [-61.0387789295944, 45.800226040260014], [-61.03861135281308, 45.8002708669241], [-61.038456984179525, 45.800306010295095], [-61.038161106153034, 45.80037654428921], [-61.03803117208894, 45.800412115780205], [-61.03783853982804, 45.80047451251696], [-61.03776068610731, 45.80049207670595], [-61.03773466152292, 45.800500630403995], [-61.03772176915593, 45.80050130899081], [-61.037528478397576, 45.80050878900597], [-61.03738723070088, 45.80050007044982], [-61.0372974899662, 45.800490418662264], [-61.036692749089596, 45.80048813493828], [-61.03658951559203, 45.800496252264495], [-61.036397175980504, 45.80051364759529], [-61.03633251153899, 45.80052243675676], [-61.03610031195787, 45.80057514949513], [-61.036010244640764, 45.80061140416563], [-61.03593306962424, 45.800646980380485], [-61.03576552104602, 45.80069090327124], [-61.03570773793514, 45.80071259155656], [-61.03562337760478, 45.80074426365298], [-61.035481879276965, 45.800779633351915], [-61.03535289960381, 45.80082421901006], [-61.035287606613466, 45.80084940522755], [-61.03523679343215, 45.80086902597313], [-61.03522075751056, 45.800874195606326], [-61.03501681962081, 45.80093994841488], [-61.03471771845385, 45.801043360961344], [-61.0346820243585, 45.801055698935265], [-61.03443664377521, 45.801117182283875], [-61.034152668479365, 45.80121490411978], [-61.03412628172097, 45.801233360642485], [-61.034036897162565, 45.801286718025274], [-61.03395843389289, 45.801322270729045], [-61.03388062325452, 45.80137584521421], [-61.03381784111628, 45.80144703189665], [-61.033777415610054, 45.80149287912435], [-61.03376388144088, 45.80150557128452], [-61.033738821251184, 45.80152910900336], [-61.033699625070206, 45.801582439029126], [-61.03371157617248, 45.80168165357028], [-61.03372416041873, 45.801762877409104], [-61.03376184545525, 45.80182563167722], [-61.03378758748763, 45.80186207801926], [-61.03394110566979, 45.80196102923728], [-61.034211315061896, 45.801962079804376], [-61.03424819717594, 45.801949645414986], [-61.034262106238685, 45.801944952360145], [-61.03428160997213, 45.80193596319998], [-61.03433928410231, 45.80190937732878], [-61.03441809606274, 45.80186392948726], [-61.03471398611556, 45.80179341440935], [-61.03501055457762, 45.80174091183455], [-61.03521574695951, 45.80172373993605], [-61.03522860799901, 45.801723961173224], [-61.035345053204175, 45.80170616245302], [-61.03556345660345, 45.801716219570395], [-61.03566642104044, 45.80171619026295], [-61.03580860941489, 45.80173483700153], [-61.035897719754274, 45.80176247171379], [-61.03598780010017, 45.801799123835224], [-61.036038643607405, 45.80181709961748], [-61.03620500536231, 45.80188026543523], [-61.03636007702837, 45.801935136190124], [-61.03639771194397, 45.80196278560587], [-61.036474309564156, 45.80198030387053], [-61.036539572253766, 45.801990426591175], [-61.03656533863094, 45.80198997844796], [-61.036693390061146, 45.802044375257225], [-61.0368208131538, 45.802080768525556], [-61.03692470390593, 45.802090654882505], [-61.037064962686586, 45.80212726848652], [-61.037168253168986, 45.80215424582272], [-61.03736130036687, 45.80219086614201], [-61.037540472026116, 45.8022191470099], [-61.03761735471799, 45.80222856868553], [-61.03826072943889, 45.80223061997536], [-61.0383642820849, 45.802213496819135], [-61.03881494724562, 45.80220593455753], [-61.03891722643614, 45.80218878903369], [-61.03897414168873, 45.80216396995147], [-61.03902047139297, 45.80214375752452], [-61.03929097435588, 45.802099797113094], [-61.039295136644014, 45.80209853644662], [-61.039406732797175, 45.802064880944144], [-61.03945852459663, 45.8020558690837], [-61.039639306581876, 45.80203827022628], [-61.039678205302955, 45.802029946056855], [-61.03972957368792, 45.802008424697334], [-61.03974220354979, 45.80200313296956], [-61.03975018904658, 45.80200037176337], [-61.03979431082178, 45.801985125572614], [-61.03999952864067, 45.80196794551124], [-61.04014201078021, 45.801941587897495], [-61.0402574844338, 45.801914766697536], [-61.04031286785673, 45.80189397102364], [-61.040399626655805, 45.801861400534364], [-61.04048347265546, 45.80182785292481], [-61.04055494516508, 45.80179925944055], [-61.04086435108718, 45.80171005861624], [-61.041045075433665, 45.801657353429015], [-61.041114195500285, 45.80163344466656], [-61.0411219333652, 45.80163076912532], [-61.041302384999405, 45.80158615957224], [-61.0413544785377, 45.801568151227094], [-61.04141784581957, 45.80155933697787], [-61.04166324618743, 45.8015338421637], [-61.041715050022724, 45.801524829485636], [-61.04180475564322, 45.80149846499793], [-61.0418822686374, 45.80148989301045], [-61.041908337468385, 45.80148043904679], [-61.0419600716305, 45.801436321947484], [-61.04197262374284, 45.80140863465215], [-61.04199989663765, 45.80132809499672], [-61.042000741348, 45.80115709429335], [-61.04201423273478, 45.80113932397328], [-61.04202869688746, 45.801128680958676], [-61.04203933049173, 45.801120852533266], [-61.042078228554196, 45.80111251853346], [-61.0421300190749, 45.80110350543865], [-61.04223230784279, 45.80112236030525], [-61.04233525883554, 45.8011223157512], [-61.04240054026701, 45.80109554116668]]}, "properties": {"OBJECTID": 23629, "FEAT_CODE": "WACOIS10", "FEAT_DESC": "Coastal Island - Water to the right line", "RIVNAME_1": " ", "RIVNAME_2": " ", "ZVALUE": 0.2, "FID": null, "SHAPE_Length": 1545.7169988678127}}, {"type": "Feature", "id": 23682, "geometry": {"type": "LineString", "coordinates": [[-61.04443647276477, 45.792708364232354], [-61.04443733599992, 45.79257336684971], [-61.044335606147015, 45.79246541546173], [-61.044207843696974, 45.79236602802514], [-61.04402387037971, 45.79225037645697], [-61.043939448062915, 45.79213101104666], [-61.04388794179724, 45.792095016776635], [-61.043709087199346, 45.792021747174594], [-61.043606782960644, 45.79200379340665], [-61.04307934871866, 45.792001067422355], [-61.04292463322734, 45.792010108560895], [-61.04283428787594, 45.79201845236676], [-61.04273833432877, 45.79206275724924], [-61.04256355986692, 45.79214343364961], [-61.0425476780758, 45.792147967900284], [-61.04240890079806, 45.79218758722299], [-61.0422667597318, 45.7922049527179], [-61.04209949946073, 45.792204785901845], [-61.04193227071155, 45.79220371929988], [-61.04170137152404, 45.79222046251221], [-61.041598122084295, 45.79222949317357], [-61.041576464836254, 45.79223838366236], [-61.04153285046733, 45.7922562764962], [-61.041494323928845, 45.79232762236898], [-61.04149190269093, 45.79254360032828], [-61.04147938399986, 45.792570388099264], [-61.04137586900158, 45.79266041230695], [-61.04115627506208, 45.79275836458478], [-61.04111598837673, 45.792781885831126], [-61.04091064046762, 45.79290176491668], [-61.040827874934834, 45.7929489316331], [-61.04069138499467, 45.7930267155352], [-61.04066503615193, 45.79304426515621], [-61.0406386560735, 45.793062705315535], [-61.040549289948224, 45.79311609516773], [-61.04053611580097, 45.793124860966415], [-61.04048464785563, 45.79312487806619], [-61.04048525416748, 45.7930708836036], [-61.040498404186444, 45.793026105152606], [-61.040511561271025, 45.792944423496124], [-61.04051274228804, 45.79283733410609], [-61.04052529303907, 45.792809646910655], [-61.040545537012875, 45.792781623654044], [-61.04055099948038, 45.79277408467815], [-61.04057670466528, 45.792774525663056], [-61.04062914316337, 45.7927835169822], [-61.040717926239076, 45.79282015217781], [-61.04073178738148, 45.79282849068286], [-61.040833405614734, 45.79282932471608], [-61.040847210262996, 45.79280256807555], [-61.04084781621074, 45.79274857360239], [-61.04077123659141, 45.792694155220346], [-61.0406811425819, 45.79262151233312], [-61.04061710724547, 45.79257630084667], [-61.040488454411815, 45.79257589389434], [-61.040450185735274, 45.79260313986041], [-61.04030692319017, 45.79279959981973], [-61.04029405552885, 45.79287228560946], [-61.040279341239014, 45.79296204125345], [-61.04026653075612, 45.79303382793829], [-61.040200699476905, 45.79318661224512], [-61.04017439885785, 45.793276169064974], [-61.040134261478656, 45.79339338196169], [-61.04013396992895, 45.79343839001158], [-61.04015945280991, 45.79351893448705], [-61.040172360435314, 45.7935911624498], [-61.04023423712999, 45.79377134928852], [-61.04028606996367, 45.79383433522972], [-61.04037429699316, 45.79399696347854], [-61.04041163769221, 45.79406961060712], [-61.04046254891426, 45.794195595318676], [-61.0405008675326, 45.794240356684746], [-61.04060257430417, 45.794349211149694], [-61.040718723431546, 45.79441240914309], [-61.04088409175509, 45.79450344469299], [-61.04096133574264, 45.79453898167954], [-61.041013415633515, 45.79455788555845], [-61.04115336927045, 45.79460348076957], [-61.041411024570536, 45.794631301442635], [-61.04153907681693, 45.794685701903035], [-61.04166744451367, 45.794731106819434], [-61.041679988798286, 45.79474032270856], [-61.041757177215594, 45.79474074604861], [-61.04183502124193, 45.79475918219294], [-61.04193796018356, 45.794759146801916], [-61.04210488113599, 45.79476921792111], [-61.04215601034449, 45.79474218285746], [-61.042259213290436, 45.79466114442773], [-61.042414811829225, 45.794554001510924], [-61.04245897634816, 45.79453587475219], [-61.04248007290127, 45.79452721751074], [-61.04254056306735, 45.79449631034584], [-61.042672666564314, 45.79442880900957], [-61.042720496525064, 45.79439602864192], [-61.042763633185366, 45.79436646212492], [-61.04278999488173, 45.7943489122433], [-61.04286680305632, 45.794286322656546], [-61.042970660100764, 45.79422329640527], [-61.04317708188658, 45.794134133795076], [-61.04346069115921, 45.79404537498214], [-61.043525334224476, 45.794036581414694], [-61.04366778089652, 45.79397421554268], [-61.04374429923472, 45.793956624444334], [-61.043912792663576, 45.79392170680894], [-61.04407908703677, 45.7939128536132], [-61.04413055576052, 45.793912834905186], [-61.04420838552802, 45.79389526595291], [-61.04420864668378, 45.79381426314227], [-61.044170942044836, 45.79375151191554], [-61.04409404297721, 45.79370609111484], [-61.044067982925625, 45.79367864241733], [-61.044017720262815, 45.79357067203672], [-61.04399288838667, 45.79350813219566], [-61.0439414245573, 45.793471256606026], [-61.043941739375484, 45.7934622611878], [-61.04393040098324, 45.793345056479396], [-61.04393031621331, 45.793273948628844], [-61.04394286538876, 45.7932462610339], [-61.04398126151776, 45.79317746834373], [-61.04398267510006, 45.79317494532279], [-61.043991943571214, 45.79316415906466], [-61.04402157241274, 45.79312969832016], [-61.0441511302975, 45.79303110787389], [-61.04425459759434, 45.792941971421044], [-61.04437158490215, 45.79283415566249], [-61.04443647276477, 45.792708364232354]]}, "properties": {"OBJECTID": 23682, "FEAT_CODE": "WACOIS10", "FEAT_DESC": "Coastal Island - Water to the right line", "RIVNAME_1": " ", "RIVNAME_2": " ", "ZVALUE": 0.2, "FID": null, "SHAPE_Length": 1205.973538942476}}, {"type": "Feature", "id": 23797, "geometry": {"type": "LineString", "coordinates": [[-61.043515799935825, 45.801586292272276], [-61.043657718197466, 45.80151237839369], [-61.04372159257185, 45.801479107380786], [-61.04375183439546, 45.80145814944282], [-61.043786217860024, 45.80143431016915], [-61.04379587650816, 45.8014230805822], [-61.04382512098688, 45.80138907238664], [-61.04386123919281, 45.80136420070641], [-61.04390292201722, 45.801335499966605], [-61.04396664425033, 45.80129737477982], [-61.0440067598026, 45.80127337258094], [-61.044329018568256, 45.80118438247063], [-61.044367947842986, 45.80117514814536], [-61.04442716261462, 45.801146666386984], [-61.044496220664804, 45.80111343868752], [-61.04454801083263, 45.80110442448979], [-61.04461267481257, 45.80109563066705], [-61.044715612649576, 45.80109559274146], [-61.04472813184666, 45.80106880465934], [-61.04471590043873, 45.80105059367309], [-61.04463927437604, 45.800997077255], [-61.04457558063277, 45.80097888530606], [-61.04453601366328, 45.800969207106384], [-61.04439511004885, 45.800950593236706], [-61.04431791297452, 45.800950171540585], [-61.04416317248341, 45.80095922294018], [-61.04403455822947, 45.8009939237806], [-61.043931949125366, 45.80102096911921], [-61.04381487795754, 45.80105676747612], [-61.043673370820144, 45.80109214717417], [-61.043595884879586, 45.801136724037676], [-61.043532204700554, 45.80115453493538], [-61.04333762063109, 45.80119890591193], [-61.04314532493183, 45.80125141648178], [-61.0430678124351, 45.80125998933545], [-61.04295137036382, 45.80127779598687], [-61.04284876024166, 45.80130484033394], [-61.04271948851918, 45.801321526828204], [-61.04265201913672, 45.80134757103783], [-61.04260338696047, 45.801366341356555], [-61.042597666606724, 45.80136836751267], [-61.04255256723699, 45.80138437210228], [-61.042526448391335, 45.80141509424364], [-61.04246128622084, 45.80149171736673], [-61.042447492599806, 45.8015184833574], [-61.04238139225537, 45.801752271298874], [-61.04231681634273, 45.80186907494677], [-61.04230300937756, 45.80189584969064], [-61.04230271993327, 45.80194083971959], [-61.04231466097937, 45.80200404997607], [-61.042340723903926, 45.80203149908495], [-61.04244367626012, 45.80203146345575], [-61.04247002857496, 45.80201392250562], [-61.04258668537759, 45.801843097456846], [-61.042612382008535, 45.80180753463927], [-61.04269085352105, 45.80177197613435], [-61.04276706780835, 45.80176338129054], [-61.04288319587001, 45.80175457024533], [-61.04307649643014, 45.80171016905375], [-61.043231837675734, 45.80168402790172], [-61.04338586623984, 45.80162186985849], [-61.043515799935825, 45.801586292272276]]}, "properties": {"OBJECTID": 23797, "FEAT_CODE": "WACOIS10", "FEAT_DESC": "Coastal Island - Water to the right line", "RIVNAME_1": " ", "RIVNAME_2": " ", "ZVALUE": 0.2, "FID": null, "SHAPE_Length": 485.78480129382945}}, {"type": "Feature", "id": 119891, "geometry": {"type": "LineString", "coordinates": [[-61.03667694613087, 45.800937894328776], [-61.03668899292256, 45.80092539227502], [-61.03672903181104, 45.800883875754785], [-61.036741554441676, 45.80085709760424], [-61.03676756131804, 45.80077653742432], [-61.03693668630036, 45.800650732871404], [-61.03709107886488, 45.80065159517102], [-61.03714223801878, 45.80066056608864], [-61.03724389219814, 45.80069741612521], [-61.03725680680288, 45.800732741176816], [-61.037256513016395, 45.80077774013094]]}, "properties": {"OBJECTID": 119891, "FEAT_CODE": "WALK20", "FEAT_DESC": "Lake - Water to the right line", "RIVNAME_1": " ", "RIVNAME_2": " ", "ZVALUE": 0.8, "FID": null, "SHAPE_Length": 72.7964226214169}}, {"type": "Feature", "id": 119892, "geometry": {"type": "LineString", "coordinates": [[-61.037256513016395, 45.80077774013094], [-61.03724395873614, 45.800805426875044], [-61.03721839934137, 45.80083150400681], [-61.03719190553624, 45.80085853716152], [-61.037101522435385, 45.80090378806503], [-61.03699830991609, 45.800947918323736], [-61.03699124078084, 45.80095280127426], [-61.036894117527275, 45.801019934128185], [-61.03672751671666, 45.801036872318114], [-61.03668856454725, 45.8010101004441], [-61.03667633580092, 45.800991888639494], [-61.03667694613087, 45.800937894328776]]}, "properties": {"OBJECTID": 119892, "FEAT_CODE": "WALK20", "FEAT_DESC": "Lake - Water to the right line", "RIVNAME_1": " ", "RIVNAME_2": " ", "ZVALUE": 0.8, "FID": null, "SHAPE_Length": 65.3818789125919}}, {"type": "Feature", "id": 120229, "geometry": {"type": "LineString", "coordinates": [[-61.04172183681615, 45.80066987890418], [-61.041760419357985, 45.8006705404027], [-61.04177330562046, 45.8007067555341], [-61.04177178600744, 45.800786836599706], [-61.041745427308726, 45.800841289562086], [-61.0417367143751, 45.800856369531864], [-61.041693371802815, 45.80093130513657], [-61.04168058599694, 45.80103909551244], [-61.04167842919541, 45.80117407052382], [-61.04169039443224, 45.80127328446543], [-61.041690419465844, 45.801309288091176], [-61.041664722494595, 45.80134485069841], [-61.04161298195935, 45.801425861830346], [-61.04159025251966, 45.80144100748513], [-61.04158662903492, 45.80144342057533], [-61.04152231730906, 45.801479221120736], [-61.04148341891281, 45.801487554925174], [-61.041316129607175, 45.8014873864883]]}, "properties": {"OBJECTID": 120229, "FEAT_CODE": "WALK20", "FEAT_DESC": "Lake - Water to the right line", "RIVNAME_1": " ", "RIVNAME_2": " ", "ZVALUE": 0.8, "FID": null, "SHAPE_Length": 114.9895508484465}}, {"type": "Feature", "id": 120230, "geometry": {"type": "LineString", "coordinates": [[-61.041316129607175, 45.8014873864883], [-61.04120063260283, 45.80147820516374], [-61.04118808692308, 45.80146898920892], [-61.041188377565234, 45.80142399019843], [-61.04125329535885, 45.80133419543977], [-61.04127868530214, 45.80127072518213], [-61.04134449238218, 45.80111884010443], [-61.04135799067351, 45.80106416670218], [-61.0413846584827, 45.80103762161001], [-61.041513861714854, 45.800876022578535], [-61.04159195447487, 45.80077745273132], [-61.041616173264465, 45.800735960267716], [-61.04161796649084, 45.8007328947394], [-61.04165212607865, 45.80070921428134], [-61.04168259254322, 45.800688098726084], [-61.041695768653064, 45.800679323836796], [-61.04170083898854, 45.80067748459848], [-61.04172183681615, 45.80066987890418]]}, "properties": {"OBJECTID": 120230, "FEAT_CODE": "WALK20", "FEAT_DESC": "Lake - Water to the right line", "RIVNAME_1": " ", "RIVNAME_2": " ", "ZVALUE": 0.8, "FID": null, "SHAPE_Length": 110.58549710009032}}]}