{"type": "FeatureCollection", "features": [{"type": "Feature", "id": 23428, "geometry": {"type": "LineString", "coordinates": [[-61.05188532662499, 45.79893820303162], [-61.05188654936904, 45.79886621747888], [-61.05187368885908, 45.79886599812723], [-61.051874880277666, 45.79875799983395], [-61.05186161095075, 45.79865877369471], [-61.05184903245569, 45.79861355514346], [-61.0518244397502, 45.79847002293128], [-61.05180028695576, 45.79842460695318], [-61.05173585885221, 45.798316398448556], [-61.051659888193484, 45.79824399621934], [-61.0515189258937, 45.79815338371501], [-61.05141625017211, 45.798108419231966], [-61.05138094700721, 45.79808350577731], [-61.0513521991818, 45.79806323155508], [-61.05124680305271, 45.79800809460354], [-61.05116012321035, 45.79796274574716], [-61.051096417476124, 45.79794456622374], [-61.051058119264596, 45.79793580300803], [-61.050646401798964, 45.79793417743204], [-61.050465008392045, 45.797969784889524], [-61.05010419660628, 45.79805813418164], [-61.05004052223732, 45.79807593981258], [-61.04999647117922, 45.79809117317409], [-61.04998842148699, 45.798093961004334], [-61.0497948564187, 45.798146461116154], [-61.04971734911652, 45.7981550385739], [-61.04939696995415, 45.79815406799341], [-61.049344839214356, 45.79813607616875], [-61.04924280734981, 45.79803622483001], [-61.04915357480585, 45.79790148888203], [-61.04905249869343, 45.79777465128424], [-61.04901381406276, 45.79770288416091], [-61.04896347881134, 45.797522908371285], [-61.04892675317542, 45.79743226399042], [-61.04890152307502, 45.79727072762023], [-61.048902931680544, 45.79704573158556], [-61.04889369149429, 45.7967575480056], [-61.04889508313379, 45.796496548444125], [-61.04890854139434, 45.796442773513895], [-61.04893454709822, 45.79636131042327], [-61.049012590503125, 45.79622673138313], [-61.04906637625525, 45.796141233375046], [-61.04909160548978, 45.796101169687795], [-61.049100800220394, 45.796087321486766], [-61.049169020126705, 45.795984581407104], [-61.049214670604044, 45.79594486648532], [-61.049220775145706, 45.79593955226352], [-61.04924740642339, 45.79587701047301], [-61.049299444894494, 45.79578699110659], [-61.049299758876, 45.79577799566331], [-61.04933830813875, 45.79574265081208], [-61.0494681641465, 45.795635058658654], [-61.049559138232404, 45.795572706501915], [-61.04959770572141, 45.79553646179286], [-61.04973947872918, 45.79545607524404], [-61.049821051921015, 45.79542342703128], [-61.049894769229354, 45.79539392092503], [-61.04991314345722, 45.795385080819266], [-61.049932721800644, 45.79537565821482], [-61.050062636603336, 45.79534008183576], [-61.05017806069465, 45.795314149822005], [-61.0503198636648, 45.79526974828598], [-61.05040991271698, 45.795233499998716], [-61.0505777168672, 45.79514455592713], [-61.05061758222541, 45.79510833302351], [-61.05069467852014, 45.79500073906741], [-61.05071663483916, 45.79497699162483], [-61.05078560632657, 45.79490238191223], [-61.05080846680039, 45.7948803780368], [-61.05085084574559, 45.79483958953345], [-61.05091573987822, 45.79474979780466], [-61.050955542532904, 45.794678461562974], [-61.05096871599252, 45.794632782243205], [-61.0509946552391, 45.79451621438133], [-61.050982391966926, 45.794462000275615], [-61.05093211518903, 45.79435403272481], [-61.05086803802248, 45.794272832067705], [-61.050765696802614, 45.7941819685543], [-61.05068935645654, 45.794083465975156], [-61.05061398931521, 45.79395706844735], [-61.0506136136907, 45.793894056379315], [-61.05060285779073, 45.79372285744535], [-61.05060461653053, 45.793524869673846], [-61.05059200914261, 45.79344364721766], [-61.05054046609584, 45.79337166109944], [-61.05041333108476, 45.793254280725236], [-61.050361832086686, 45.793218298512585], [-61.0501704200643, 45.793135814898214], [-61.05016292850509, 45.79313516496035], [-61.050067797387946, 45.79312687130254], [-61.05004207903633, 45.79312643223071], [-61.049745188744765, 45.79311687180238], [-61.049462174617275, 45.79311563029971], [-61.04927015201627, 45.793124051922646], [-61.04903827911594, 45.79313178353681], [-61.048947919211145, 45.793140149934544], [-61.04888359195886, 45.79313995115826], [-61.0487424220805, 45.79316634211578], [-61.0486979864911, 45.793184583686546], [-61.04867715264337, 45.79319312955549], [-61.04866439526387, 45.79320252446726], [-61.048652060680055, 45.79321160257177], [-61.04859721436635, 45.79324388751849], [-61.048561416469006, 45.79326495885254], [-61.048393899531895, 45.7933089008445], [-61.04832894387638, 45.79332669263701], [-61.048109673172114, 45.793415662988906], [-61.04796784281585, 45.79346093439952], [-61.04782634467392, 45.79349631942266], [-61.04768455785962, 45.793540700145186], [-61.04763889012281, 45.793561413466016], [-61.047606114004, 45.79357626258862], [-61.0475418879871, 45.79360298620699], [-61.04741287433733, 45.79365666675588], [-61.04737463962927, 45.79368301553664], [-61.047128689237304, 45.793835424629954], [-61.04698692962941, 45.79391580818475], [-61.04690882770681, 45.7939783784204], [-61.04688345189496, 45.79400494692038], [-61.046855858019065, 45.79401508701263], [-61.04668923817195, 45.79407633239434], [-61.04667546846596, 45.79408927409057], [-61.04665065700875, 45.79411257589573], [-61.04660308393614, 45.79414507427718], [-61.0465992478505, 45.79414769991203], [-61.046565485777656, 45.79419442173672], [-61.04653434727991, 45.79423749809114], [-61.04648616363452, 45.79427052602918], [-61.046443384981195, 45.794299848052454], [-61.046370800013875, 45.79433228756489], [-61.046263000605, 45.79438047014284], [-61.04623633835781, 45.79440701649257], [-61.046108023562944, 45.794433624085464], [-61.045914408511045, 45.794451013631445], [-61.045862624745595, 45.79446002856236], [-61.04581190584572, 45.79448127578566], [-61.04579837869116, 45.79448690386848], [-61.045733667407966, 45.79450463535806], [-61.04563017205165, 45.79455776041784], [-61.045620118430655, 45.79456708424172], [-61.04555303909641, 45.79462934710956], [-61.04554939744251, 45.794634505263076], [-61.0455273163103, 45.79466581025748], [-61.04548779407772, 45.79469213637134], [-61.04547453972085, 45.79469768807659], [-61.04542380728631, 45.79471894389615], [-61.04538456810777, 45.794737174091], [-61.045229384437036, 45.79494333703252], [-61.04520337812221, 45.79498789598019], [-61.04520180527566, 45.79503286409751], [-61.04545911850173, 45.79507057966073], [-61.045549226184576, 45.79510632466483], [-61.04562612835675, 45.795151744525526], [-61.04567762628979, 45.79518771984632], [-61.04583014491541, 45.795278546343994], [-61.04585589203566, 45.7953149900838], [-61.045932822636566, 45.795396413449474], [-61.0460854019975, 45.795522334786185], [-61.04617550741143, 45.7955949825601], [-61.04631648264183, 45.79572160515979], [-61.04640561714609, 45.795785235335636], [-61.04654659653981, 45.79587495441315], [-61.046622529016645, 45.79591135620471], [-61.046687830984716, 45.79592057372778], [-61.046878647130264, 45.79605704878735], [-61.04707108311242, 45.79618365033476], [-61.047199157446855, 45.79623804480118], [-61.047302169324766, 45.79631002126014], [-61.04742990448407, 45.79637340147182], [-61.04754474827619, 45.79643747025345], [-61.047583058052616, 45.79644622584845], [-61.04771237761658, 45.796464637801584], [-61.04799542201002, 45.79646586614321], [-61.04817522222742, 45.796476148485894], [-61.04831647812687, 45.796520866064476], [-61.04835411553169, 45.79654851160135], [-61.04840498793667, 45.7966024856028], [-61.04853252876732, 45.79681888393292], [-61.04860822176613, 45.796936287542735], [-61.04869744974405, 45.79710792715825], [-61.04873489402499, 45.797251679636865], [-61.04874661644432, 45.797431895972636], [-61.048739837073256, 45.79817884680432], [-61.04872580923656, 45.798322619993456], [-61.04872461208319, 45.79843060916781], [-61.04870940366906, 45.798718375009734], [-61.04870884721623, 45.798808382520676], [-61.04861677121501, 45.7990867253799], [-61.04859107778268, 45.799159192899204], [-61.048577019720526, 45.79926696232852], [-61.04853789816771, 45.799392305136635], [-61.0484586508716, 45.7996348818284], [-61.04845732170612, 45.799637199326156], [-61.048432600837266, 45.79968033181129], [-61.04826299511938, 45.7999312563001], [-61.04821029324451, 45.80000326220446], [-61.048207451173425, 45.800011314358095], [-61.04819714754924, 45.800048041565276], [-61.048171484513425, 45.80011960941961], [-61.048162538642245, 45.80013183264583], [-61.048118782336296, 45.80019161527469], [-61.0481056365187, 45.80023639462167], [-61.04810329784301, 45.80052438023887], [-61.04811587367174, 45.80056959914626], [-61.04816707645353, 45.80061457806366], [-61.04820503037017, 45.800633237240184], [-61.048346295240144, 45.80071484017116], [-61.04839748516503, 45.800759827765006], [-61.04887355914244, 45.80076166074443], [-61.04902826712534, 45.800753502483985], [-61.04915659525238, 45.800726891850104], [-61.04932419574395, 45.800718044311836], [-61.049569244927554, 45.800665533108365], [-61.04980080629737, 45.80059388040462], [-61.04987016527614, 45.80056703615883], [-61.049892119690696, 45.80055853621413], [-61.04994171974544, 45.80053627800406], [-61.05011044358091, 45.800460554552195], [-61.05025323137814, 45.80042518873618], [-61.05036901121685, 45.80038936173425], [-61.050458724311824, 45.80036298157212], [-61.05053654810978, 45.80034541721479], [-61.050678694878975, 45.8003280415237], [-61.05069988871702, 45.80031994247972], [-61.05070348851644, 45.80031856378788], [-61.05073333190041, 45.800297867223165], [-61.05076810696344, 45.80027376250428], [-61.05084655842268, 45.80023819804779], [-61.0509102353505, 45.80022038301406], [-61.05114273420032, 45.80015864446303], [-61.051284516997335, 45.80007825621136], [-61.05134880814588, 45.80004244981327], [-61.05137485625416, 45.80003389341369], [-61.05137568718678, 45.80003331353715], [-61.05140123655256, 45.80001544179599], [-61.05140139339736, 45.80001094407206], [-61.05140057785491, 45.79999742895929], [-61.05146607368563, 45.79985363345129], [-61.05147953039711, 45.79979985822103], [-61.051519649502985, 45.79971953543553], [-61.05153188314713, 45.79970083345236], [-61.05157074715624, 45.79965650143767], [-61.0515970329373, 45.79956694184094], [-61.05164931353567, 45.79950282088765], [-61.05166290436346, 45.79948615822028], [-61.05166548682753, 45.7994814768521], [-61.05172745767788, 45.799369357876415], [-61.05179263857933, 45.799234548596225], [-61.05184527188779, 45.79909053345876], [-61.051872529385975, 45.79900999116629], [-61.05188532662499, 45.79893820303162]]}, "properties": {"OBJECTID": 23428, "FEAT_CODE": "WACOIS10", "FEAT_DESC": "Coastal Island - Water to the right line", "RIVNAME_1": " ", "RIVNAME_2": " ", "ZVALUE": 0.2, "FID": null, "SHAPE_Length": 2584.48240979757}}, {"type": "Feature", "id": 23629, "geometry": {"type": "LineString", "coordinates": [[-61.04240054026701, 45.80109554116668], [-61.04240077924138, 45.800978525869674], [-61.0423502237222, 45.80091556285962], [-61.0422481935404, 45.80085260861188], [-61.04213265319191, 45.80073451780834], [-61.04204348443552, 45.80067178383989], [-61.04196686779504, 45.80058136250293], [-61.04177536171738, 45.80042776598112], [-61.041634410461896, 45.800337141479325], [-61.041583257671704, 45.80029126040144], [-61.041519212688925, 45.80024605831891], [-61.04144233196898, 45.800236639300735], [-61.04128756832527, 45.80020968320148], [-61.0411855969006, 45.80018183212536], [-61.0410186281684, 45.80017266794589], [-61.040387853331886, 45.800178949077136], [-61.04018198712046, 45.80017811710814], [-61.03994978127945, 45.80019483436553], [-61.03974487268639, 45.80020301884247], [-61.03931964820825, 45.80021912220851], [-61.03892046100453, 45.80022666124498], [-61.0387789295944, 45.800226040260014], [-61.03861135281308, 45.8002708669241], [-61.038456984179525, 45.800306010295095], [-61.038161106153034, 45.80037654428921], [-61.03803117208894, 45.800412115780205], [-61.03783853982804, 45.80047451251696], [-61.03776068610731, 45.80049207670595], [-61.03773466152292, 45.800500630403995], [-61.03772176915593, 45.80050130899081], [-61.037528478397576, 45.80050878900597], [-61.03738723070088, 45.80050007044982], [-61.0372974899662, 45.800490418662264], [-61.036692749089596, 45.80048813493828], [-61.03658951559203, 45.800496252264495], [-61.036397175980504, 45.80051364759529], [-61.03633251153899, 45.80052243675676], [-61.03610031195787, 45.80057514949513], [-61.036010244640764, 45.80061140416563], [-61.03593306962424, 45.800646980380485], [-61.03576552104602, 45.80069090327124], [-61.03570773793514, 45.80071259155656], [-61.03562337760478, 45.80074426365298], [-61.035481879276965, 45.800779633351915], [-61.03535289960381, 45.80082421901006], [-61.035287606613466, 45.80084940522755], [-61.03523679343215, 45.80086902597313], [-61.03522075751056, 45.800874195606326], [-61.03501681962081, 45.80093994841488], [-61.03471771845385, 45.801043360961344], [-61.0346820243585, 45.801055698935265], [-61.03443664377521, 45.801117182283875], [-61.034152668479365, 45.80121490411978], [-61.03412628172097, 45.801233360642485], [-61.034036897162565, 45.801286718025274], [-61.03395843389289, 45.801322270729045], [-61.03388062325452, 45.80137584521421], [-61.03381784111628, 45.80144703189665], [-61.033777415610054, 45.80149287912435], [-61.03376388144088, 45.80150557128452], [-61.033738821251184, 45.80152910900336], [-61.033699625070206, 45.801582439029126], [-61.03371157617248, 45.80168165357028], [-61.03372416041873, 45.801762877409104], [-61.03376184545525, 45.80182563167722], [-61.03378758748763, 45.80186207801926], [-61.03394110566979, 45.80196102923728], [-61.034211315061896, 45.801962079804376], [-61.03424819717594, 45.801949645414986], [-61.034262106238685, 45.801944952360145], [-61.03428160997213, 45.80193596319998], [-61.03433928410231, 45.80190937732878], [-61.03441809606274, 45.80186392948726], [-61.03471398611556, 45.80179341440935], [-61.03501055457762, 45.80174091183455], [-61.03521574695951, 45.80172373993605], [-61.03522860799901, 45.801723961173224], [-61.035345053204175, 45.80170616245302], [-61.03556345660345, 45.801716219570395], [-61.03566642104044, 45.80171619026295], [-61.03580860941489, 45.80173483700153], [-61.035897719754274, 45.80176247171379], [-61.03598780010017, 45.801799123835224], [-61.036038643607405, 45.80181709961748], [-61.03620500536231, 45.80188026543523], [-61.03636007702837, 45.801935136190124], [-61.03639771194397, 45.80196278560587], [-61.036474309564156, 45.80198030387053], [-61.036539572253766, 45.801990426591175], [-61.03656533863094, 45.80198997844796], [-61.036693390061146, 45.802044375257225], [-61.0368208131538, 45.802080768525556], [-61.03692470390593, 45.802090654882505], [-61.037064962686586, 45.80212726848652], [-61.037168253168986, 45.80215424582272], [-61.03736130036687, 45.80219086614201], [-61.037540472026116, 45.8022191470099], [-61.03761735471799, 45.80222856868553], [-61.03826072943889, 45.80223061997536], [-61.0383642820849, 45.802213496819135], [-61.03881494724562, 45.80220593455753], [-61.03891722643614, 45.80218878903369], [-61.03897414168873, 45.80216396995147], [-61.03902047139297, 45.80214375752452], [-61.03929097435588, 45.802099797113094], [-61.039295136644014, 45.80209853644662], [-61.039406732797175, 45.802064880944144], [-61.03945852459663, 45.8020558690837], [-61.039639306581876, 45.80203827022628], [-61.039678205302955, 45.802029946056855], [-61.03972957368792, 45.802008424697334], [-61.03974220354979, 45.80200313296956], [-61.03975018904658, 45.80200037176337], [-61.03979431082178, 45.801985125572614], [-61.03999952864067, 45.80196794551124], [-61.04014201078021, 45.801941587897495], [-61.0402574844338, 45.801914766697536], [-61.04031286785673, 45.80189397102364], [-61.040399626655805, 45.801861400534364], [-61.04048347265546, 45.80182785292481], [-61.04055494516508, 45.80179925944055], [-61.04086435108718, 45.80171005861624], [-61.041045075433665, 45.801657353429015], [-61.041114195500285, 45.80163344466656], [-61.0411219333652, 45.80163076912532], [-61.041302384999405, 45.80158615957224], [-61.0413544785377, 45.801568151227094], [-61.04141784581957, 45.80155933697787], [-61.04166324618743, 45.8015338421637], [-61.041715050022724, 45.801524829485636], [-61.04180475564322, 45.80149846499793], [-61.0418822686374, 45.80148989301045], [-61.041908337468385, 45.80148043904679], [-61.0419600716305, 45.801436321947484], [-61.04197262374284, 45.80140863465215], [-61.04199989663765, 45.80132809499672], [-61.042000741348, 45.80115709429335], [-61.04201423273478, 45.80113932397328], [-61.04202869688746, 45.801128680958676], [-61.04203933049173, 45.801120852533266], [-61.042078228554196, 45.80111251853346], [-61.0421300190749, 45.80110350543865], [-61.04223230784279, 45.80112236030525], [-61.04233525883554, 45.8011223157512], [-61.04240054026701, 45.80109554116668]]}, "properties": {"OBJECTID": 23629, "FEAT_CODE": "WACOIS10", "FEAT_DESC": "Coastal Island - Water to the right line", "RIVNAME_1": " ", "RIVNAME_2": " ", "ZVALUE": 0.2, "FID": null, "SHAPE_Length": 1545.7169988678127}}, {"type": "Feature", "id": 23682, "geometry": {"type": "LineString", "coordinates": [[-61.04443647276477, 45.792708364232354], [-61.04443733599992, 45.79257336684971], [-61.044335606147015, 45.79246541546173], [-61.044207843696974, 45.79236602802514], [-61.04402387037971, 45.79225037645697], [-61.043939448062915, 45.79213101104666], [-61.04388794179724, 45.792095016776635], [-61.043709087199346, 45.792021747174594], [-61.043606782960644, 45.79200379340665], [-61.04307934871866, 45.792001067422355], [-61.04292463322734, 45.792010108560895], [-61.04283428787594, 45.79201845236676], [-61.04273833432877, 45.79206275724924], [-61.04256355986692, 45.79214343364961], [-61.0425476780758, 45.792147967900284], [-61.04240890079806, 45.79218758722299], [-61.0422667597318, 45.7922049527179], [-61.04209949946073, 45.792204785901845], [-61.04193227071155, 45.79220371929988], [-61.04170137152404, 45.79222046251221], [-61.041598122084295, 45.79222949317357], [-61.041576464836254, 45.79223838366236], [-61.04153285046733, 45.7922562764962], [-61.041494323928845, 45.79232762236898], [-61.04149190269093, 45.79254360032828], [-61.04147938399986, 45.792570388099264], [-61.04137586900158, 45.79266041230695], [-61.04115627506208, 45.79275836458478], [-61.04111598837673, 45.792781885831126], [-61.04091064046762, 45.79290176491668], [-61.040827874934834, 45.7929489316331], [-61.04069138499467, 45.7930267155352], [-61.04066503615193, 45.79304426515621], [-61.0406386560735, 45.793062705315535], [-61.040549289948224, 45.79311609516773], [-61.04053611580097, 45.793124860966415], [-61.04048464785563, 45.79312487806619], [-61.04048525416748, 45.7930708836036], [-61.040498404186444, 45.793026105152606], [-61.040511561271025, 45.792944423496124], [-61.04051274228804, 45.79283733410609], [-61.04052529303907, 45.792809646910655], [-61.040545537012875, 45.792781623654044], [-61.04055099948038, 45.79277408467815], [-61.04057670466528, 45.792774525663056], [-61.04062914316337, 45.7927835169822], [-61.040717926239076, 45.79282015217781], [-61.04073178738148, 45.79282849068286], [-61.040833405614734, 45.79282932471608], [-61.040847210262996, 45.79280256807555], [-61.04084781621074, 45.79274857360239], [-61.04077123659141, 45.792694155220346], [-61.0406811425819, 45.79262151233312], [-61.04061710724547, 45.79257630084667], [-61.040488454411815, 45.79257589389434], [-61.040450185735274, 45.79260313986041], [-61.04030692319017, 45.79279959981973], [-61.04029405552885, 45.79287228560946], [-61.040279341239014, 45.79296204125345], [-61.04026653075612, 45.79303382793829], [-61.040200699476905, 45.79318661224512], [-61.04017439885785, 45.793276169064974], [-61.040134261478656, 45.79339338196169], [-61.04013396992895, 45.79343839001158], [-61.04015945280991, 45.79351893448705], [-61.040172360435314, 45.7935911624498], [-61.04023423712999, 45.79377134928852], [-61.04028606996367, 45.79383433522972], [-61.04037429699316, 45.79399696347854], [-61.04041163769221, 45.79406961060712], [-61.04046254891426, 45.794195595318676], [-61.0405008675326, 45.794240356684746], [-61.04060257430417, 45.794349211149694], [-61.040718723431546, 45.79441240914309], [-61.04088409175509, 45.79450344469299], [-61.04096133574264, 45.79453898167954], [-61.041013415633515, 45.79455788555845], [-61.04115336927045, 45.79460348076957], [-61.041411024570536, 45.794631301442635], [-61.04153907681693, 45.794685701903035], [-61.04166744451367, 45.794731106819434], [-61.041679988798286, 45.79474032270856], [-61.041757177215594, 45.79474074604861], [-61.04183502124193, 45.79475918219294], [-61.04193796018356, 45.794759146801916], [-61.04210488113599, 45.79476921792111], [-61.04215601034449, 45.79474218285746], [-61.042259213290436, 45.79466114442773], [-61.042414811829225, 45.794554001510924], [-61.04245897634816, 45.79453587475219], [-61.04248007290127, 45.79452721751074], [-61.04254056306735, 45.79449631034584], [-61.042672666564314, 45.79442880900957], [-61.042720496525064, 45.79439602864192], [-61.042763633185366, 45.79436646212492], [-61.04278999488173, 45.7943489122433], [-61.04286680305632, 45.794286322656546], [-61.042970660100764, 45.79422329640527], [-61.04317708188658, 45.794134133795076], [-61.04346069115921, 45.79404537498214], [-61.043525334224476, 45.794036581414694], [-61.04366778089652, 45.79397421554268], [-61.04374429923472, 45.793956624444334], [-61.043912792663576, 45.79392170680894], [-61.04407908703677, 45.7939128536132], [-61.04413055576052, 45.793912834905186], [-61.04420838552802, 45.79389526595291], [-61.04420864668378, 45.79381426314227], [-61.044170942044836, 45.79375151191554], [-61.04409404297721, 45.79370609111484], [-61.044067982925625, 45.79367864241733], [-61.044017720262815, 45.79357067203672], [-61.04399288838667, 45.79350813219566], [-61.0439414245573, 45.793471256606026], [-61.043941739375484, 45.7934622611878], [-61.04393040098324, 45.793345056479396], [-61.04393031621331, 45.793273948628844], [-61.04394286538876, 45.7932462610339], [-61.04398126151776, 45.79317746834373], [-61.04398267510006, 45.79317494532279], [-61.043991943571214, 45.79316415906466], [-61.04402157241274, 45.79312969832016], [-61.0441511302975, 45.79303110787389], [-61.04425459759434, 45.792941971421044], [-61.04437158490215, 45.79283415566249], [-61.04443647276477, 45.792708364232354]]}, "properties": {"OBJECTID": 23682, "FEAT_CODE": "WACOIS10", "FEAT_DESC": "Coastal Island - Water to the right line", "RIVNAME_1": " ", "RIVNAME_2": " ", "ZVALUE": 0.2, "FID": null, "SHAPE_Length": 1205.973538942476}}, {"type": "Feature", "id": 23742, "geometry": {"type": "LineString", "coordinates": [[-61.064833713238464, 45.79145633021885], [-61.06483569250925, 45.79121334188959], [-61.06482341638008, 45.79115912903654], [-61.06481079769453, 45.791114811268834], [-61.064785363903844, 45.79106938528994], [-61.06469678563143, 45.79095176499565], [-61.06460630747731, 45.790889026381564], [-61.064464811553485, 45.79088842882764], [-61.06384828457806, 45.790895080976135], [-61.06330765544665, 45.790902116680336], [-61.0631790366314, 45.79090083579791], [-61.06315359963305, 45.790892303721115], [-61.06308958636408, 45.79088311746305], [-61.06290942355558, 45.79080985576972], [-61.06285791852734, 45.79077387908472], [-61.06264129276383, 45.790601889701904], [-61.0625256979414, 45.79048471853126], [-61.06237250173768, 45.79037591017228], [-61.06232130928091, 45.790330937733096], [-61.06222013349034, 45.79016900680464], [-61.06209230559154, 45.790033626017326], [-61.061990226542335, 45.78989778190639], [-61.061951893337806, 45.78985302748999], [-61.06191421515631, 45.78978938246919], [-61.06188936435364, 45.78972685518096], [-61.06186450683161, 45.78962741544034], [-61.061851571524855, 45.78955519844137], [-61.061878109224715, 45.78942063656538], [-61.06189221518308, 45.78938487267397], [-61.061943838543286, 45.789231834739255], [-61.062009020428015, 45.78913303171463], [-61.06204599172004, 45.789066755979256], [-61.06204880450146, 45.78906170024343], [-61.06206408598694, 45.789040267567756], [-61.06210019245233, 45.788989656557355], [-61.06219253369524, 45.78873830939862], [-61.062193742510175, 45.78866632339676], [-61.06218228941841, 45.78847711198824], [-61.06218196480274, 45.788450104038255], [-61.06213219225897, 45.78825214174532], [-61.06206845559661, 45.7881979555284], [-61.06195231262443, 45.788133879233946], [-61.0619020964468, 45.78809792396932], [-61.0617473484036, 45.78803409246574], [-61.06161964083299, 45.78800672292026], [-61.061079351720565, 45.788004753003825], [-61.0607580933346, 45.78803080178167], [-61.060680913616544, 45.78803039143134], [-61.060499558431644, 45.78806601550684], [-61.060320144296035, 45.788082770546595], [-61.06016582195663, 45.788117953091465], [-61.05973976230005, 45.788198015081576], [-61.05961182348523, 45.78821476135606], [-61.05949571316171, 45.78822358071428], [-61.05943107906554, 45.7882323834794], [-61.05927640686011, 45.78824055643275], [-61.059109157582064, 45.78824041472072], [-61.05851743422479, 45.78823755864099], [-61.05838910301999, 45.78822817651003], [-61.058337951769516, 45.788219206225406], [-61.05818355602684, 45.78818237832221], [-61.05809379931092, 45.78817365166441], [-61.05803012095114, 45.78815456735873], [-61.05792717079632, 45.788118613801494], [-61.05783775800567, 45.788099991893226], [-61.05769653355771, 45.788054386481356], [-61.057607054131, 45.7880006600786], [-61.057555273812675, 45.78797277703196], [-61.057363176307, 45.78787320120013], [-61.0572219175115, 45.78779159135116], [-61.05714593177669, 45.78775609573744], [-61.05697867070587, 45.78768304409236], [-61.05691109920714, 45.787666800194444], [-61.05690210406179, 45.78766463998364], [-61.056869883917315, 45.78765552305954], [-61.05677343963229, 45.78762824791656], [-61.056658280848715, 45.78761008712981], [-61.056529291124704, 45.78758269006839], [-61.05633691533867, 45.78749120850002], [-61.05624778561132, 45.7874644894252], [-61.05608088288907, 45.78745444827312], [-61.055888198654294, 45.78740886486034], [-61.05567011216513, 45.787353837978756], [-61.055503144047115, 45.787308701583754], [-61.05545202542896, 45.78729883047718], [-61.05520875026046, 45.78715427568223], [-61.055119272015254, 45.787063643988176], [-61.055068414263324, 45.787009673147004], [-61.05501687104412, 45.78693768897526], [-61.05492861149821, 45.7867750713412], [-61.054851911537874, 45.78661265049934], [-61.054827429635196, 45.7865771303705], [-61.05476338904407, 45.78653193569393], [-61.05471129851378, 45.78651304688288], [-61.05457133548908, 45.78646835015201], [-61.054429457633205, 45.78640474591594], [-61.05436632355483, 45.78629655172789], [-61.05432830979938, 45.78620589598621], [-61.0543163913915, 45.78617869050012], [-61.05429194996906, 45.78615606911608], [-61.05423910307439, 45.786107176475596], [-61.05420631932813, 45.78607880544458], [-61.05417542106637, 45.7860520776723], [-61.05411075571366, 45.78602486461785], [-61.05407246447606, 45.78601612051104], [-61.05386664940867, 45.786015314049415], [-61.05369884513467, 45.78606825977725], [-61.05348052009935, 45.786131145255304], [-61.053428450445494, 45.78614825948735], [-61.05333808425601, 45.78615752033337], [-61.053274737465024, 45.78616634155406], [-61.05323616466579, 45.78616568410381], [-61.053030564416325, 45.78604786915249], [-61.05294146996238, 45.786020248005656], [-61.052774130168025, 45.78591208563335], [-61.052685036061625, 45.78588446429136], [-61.052491407219655, 45.78586586147818], [-61.052081077053124, 45.785864264650975], [-61.052003273707314, 45.785881839432406], [-61.051771085629156, 45.785899490107845], [-61.051668853149145, 45.7859166389601], [-61.05138432601051, 45.785996392754605], [-61.05126892199127, 45.78605922970919], [-61.0512212258792, 45.78608667848912], [-61.05119146317811, 45.78610381227262], [-61.05115254553443, 45.786113049135125], [-61.050985052130166, 45.786156995359995], [-61.05084292908779, 45.78617436284301], [-61.050727806266686, 45.78619220895448], [-61.050660213815966, 45.78625821047472], [-61.05057197735213, 45.7863443634713], [-61.050545665806325, 45.786397919297606], [-61.05054368705129, 45.78671292317172], [-61.05055481821665, 45.78694712542935], [-61.05055042330336, 45.787442095384066], [-61.050558886153546, 45.78793728475756], [-61.050556090772446, 45.78838637777605], [-61.05056681502369, 45.78852157305456], [-61.050604855128995, 45.78864823373241], [-61.05065481281479, 45.788765196897664], [-61.05068123184917, 45.78878274934115], [-61.050910037088286, 45.789008965243305], [-61.05101239506888, 45.78909982899456], [-61.051076767216756, 45.78917204286048], [-61.05117851736346, 45.789279988635116], [-61.05128117763171, 45.78936183848236], [-61.051370658751104, 45.78945157312288], [-61.051510639587626, 45.78953317739591], [-61.05166409373751, 45.78959700069925], [-61.051819147904226, 45.78965184127195], [-61.05204954689642, 45.789760189378526], [-61.05210005897123, 45.789787144204865], [-61.052202382043305, 45.78987799727876], [-61.05226612367897, 45.78993218908269], [-61.05233047944015, 45.789968389695915], [-61.05252254253024, 45.79003197012742], [-61.05263833254357, 45.79006904754726], [-61.05271557854575, 45.79010456763538], [-61.0528175378347, 45.790132408257946], [-61.05298485785301, 45.79020455789444], [-61.05302311979755, 45.79021421994166], [-61.05309998899439, 45.790223630987626], [-61.05348593295463, 45.79022480852777], [-61.05361489418105, 45.790216205276174], [-61.05364029833968, 45.790225630002205], [-61.05384556839075, 45.790316444700224], [-61.054037354527324, 45.79042502192051], [-61.05415283128433, 45.79043418994409], [-61.05455194850741, 45.7904265874906], [-61.05480980659228, 45.79037427416766], [-61.055015603932105, 45.790339075361835], [-61.055183485232845, 45.79032123220366], [-61.055800318239726, 45.790305631261916], [-61.05599329067448, 45.7903062156369], [-61.05601869497921, 45.79031564883632], [-61.05608305367418, 45.790351847378815], [-61.05613455354763, 45.790387836040765], [-61.05625003431554, 45.79043389634], [-61.056455274744174, 45.79048870258443], [-61.0565321452839, 45.79049810233962], [-61.056608768935114, 45.79055161082209], [-61.05673717836454, 45.79066991510303], [-61.05682634871894, 45.79073262871509], [-61.05685241380702, 45.79076007459337], [-61.05691587051584, 45.79085926299871], [-61.05696643362326, 45.79092222877868], [-61.05711966857234, 45.79106704829682], [-61.05733657853387, 45.7912300521835], [-61.05756701791917, 45.79137438403945], [-61.05803981323431, 45.79172715470548], [-61.058143425364946, 45.791782021090775], [-61.058270934915875, 45.79192640166671], [-61.058448662476486, 45.79210673891024], [-61.058500201855836, 45.79217872140092], [-61.058549006582176, 45.79244056545823], [-61.05857420296681, 45.79253011075147], [-61.058584430489, 45.7927913080502], [-61.0585819431938, 45.79319630214692], [-61.05856818262707, 45.79325907390549], [-61.05858142652727, 45.79332230467622], [-61.058605601198224, 45.79336681954349], [-61.058619134372066, 45.7933850511869], [-61.05868287306452, 45.79343924831933], [-61.05888753903697, 45.793548027232255], [-61.05910627797153, 45.793585047460105], [-61.059311294211525, 45.79372083398326], [-61.059386968893385, 45.79380224494697], [-61.05950190267234, 45.7939013973903], [-61.0595279576619, 45.79392884246999], [-61.05961776059106, 45.79397357199621], [-61.059771260360286, 45.794073388337935], [-61.059873279994406, 45.7941372358828], [-61.05991192690603, 45.79417298648766], [-61.05992416188865, 45.79419119592251], [-61.059975980308664, 45.79421817842784], [-61.06001427070464, 45.794263832829735], [-61.06005195662336, 45.79429057525832], [-61.06012981933322, 45.79430899923847], [-61.06016479107052, 45.794290493482805], [-61.06018092648633, 45.79428196473237], [-61.0602194807835, 45.794246616290216], [-61.060246117639046, 45.79418316294174], [-61.06028520902757, 45.79405781553304], [-61.06035126184964, 45.793860019438014], [-61.060365644949414, 45.793779256429886], [-61.06037908545899, 45.79368857652423], [-61.06040496738887, 45.793536002321794], [-61.060432246915795, 45.793491461532426], [-61.0604965001986, 45.79341964608394], [-61.060612846025975, 45.79332981343579], [-61.06065258092347, 45.79330602392461], [-61.060716650560934, 45.79326767023523], [-61.06079414331618, 45.793222181750444], [-61.060819525107426, 45.793195610262046], [-61.06087160473663, 45.79317759276161], [-61.06094941572508, 45.79316001207791], [-61.06118125043968, 45.79311624338625], [-61.0613095177224, 45.79305361481286], [-61.06131774842172, 45.79305113528292], [-61.06151625723332, 45.79299141786348], [-61.06159278184936, 45.792973814908876], [-61.061876433542345, 45.79295702653378], [-61.06199219068422, 45.79292118733452], [-61.06237994843994, 45.792796354246406], [-61.06246933172431, 45.79277896884198], [-61.06270178734321, 45.792717205978064], [-61.06293271486643, 45.7926995206848], [-61.06303623006783, 45.79268237450566], [-61.06317774331893, 45.792682974120325], [-61.0634475726271, 45.79265694664166], [-61.063589709131534, 45.79263955469663], [-61.06383559756316, 45.79248710909615], [-61.06400333300521, 45.79236214087522], [-61.06408246504326, 45.792284068011554], [-61.06409392172595, 45.792272768162626], [-61.064129880563186, 45.79221825668305], [-61.064159103573196, 45.79217396395647], [-61.06426382837752, 45.792047918378], [-61.064341868666155, 45.79194933198658], [-61.064471335573884, 45.79181472271217], [-61.06450742002591, 45.79178480344975], [-61.06453624466658, 45.79176091770874], [-61.06460504327358, 45.79173709726536], [-61.06461307817382, 45.791734317153086], [-61.064648169281384, 45.791716361091034], [-61.06466416254086, 45.79170818032741], [-61.06470339348796, 45.79168994336352], [-61.06473947695671, 45.79163997920828], [-61.064768262108295, 45.791600134304154], [-61.06480772025216, 45.79153779718735], [-61.064833713238464, 45.79145633021885]]}, "properties": {"OBJECTID": 23742, "FEAT_CODE": "WACOIS10", "FEAT_DESC": "Coastal Island - Water to the right line", "RIVNAME_1": " ", "RIVNAME_2": " ", "ZVALUE": 0.2, "FID": null, "SHAPE_Length": 3445.2818535470574}}, {"type": "Feature", "id": 23797, "geometry": {"type": "LineString", "coordinates": [[-61.043515799935825, 45.801586292272276], [-61.043657718197466, 45.80151237839369], [-61.04372159257185, 45.801479107380786], [-61.04375183439546, 45.80145814944282], [-61.043786217860024, 45.80143431016915], [-61.04379587650816, 45.8014230805822], [-61.04382512098688, 45.80138907238664], [-61.04386123919281, 45.80136420070641], [-61.04390292201722, 45.801335499966605], [-61.04396664425033, 45.80129737477982], [-61.0440067598026, 45.80127337258094], [-61.044329018568256, 45.80118438247063], [-61.044367947842986, 45.80117514814536], [-61.04442716261462, 45.801146666386984], [-61.044496220664804, 45.80111343868752], [-61.04454801083263, 45.80110442448979], [-61.04461267481257, 45.80109563066705], [-61.044715612649576, 45.80109559274146], [-61.04472813184666, 45.80106880465934], [-61.04471590043873, 45.80105059367309], [-61.04463927437604, 45.800997077255], [-61.04457558063277, 45.80097888530606], [-61.04453601366328, 45.800969207106384], [-61.04439511004885, 45.800950593236706], [-61.04431791297452, 45.800950171540585], [-61.04416317248341, 45.80095922294018], [-61.04403455822947, 45.8009939237806], [-61.043931949125366, 45.80102096911921], [-61.04381487795754, 45.80105676747612], [-61.043673370820144, 45.80109214717417], [-61.043595884879586, 45.801136724037676], [-61.043532204700554, 45.80115453493538], [-61.04333762063109, 45.80119890591193], [-61.04314532493183, 45.80125141648178], [-61.0430678124351, 45.80125998933545], [-61.04295137036382, 45.80127779598687], [-61.04284876024166, 45.80130484033394], [-61.04271948851918, 45.801321526828204], [-61.04265201913672, 45.80134757103783], [-61.04260338696047, 45.801366341356555], [-61.042597666606724, 45.80136836751267], [-61.04255256723699, 45.80138437210228], [-61.042526448391335, 45.80141509424364], [-61.04246128622084, 45.80149171736673], [-61.042447492599806, 45.8015184833574], [-61.04238139225537, 45.801752271298874], [-61.04231681634273, 45.80186907494677], [-61.04230300937756, 45.80189584969064], [-61.04230271993327, 45.80194083971959], [-61.04231466097937, 45.80200404997607], [-61.042340723903926, 45.80203149908495], [-61.04244367626012, 45.80203146345575], [-61.04247002857496, 45.80201392250562], [-61.04258668537759, 45.801843097456846], [-61.042612382008535, 45.80180753463927], [-61.04269085352105, 45.80177197613435], [-61.04276706780835, 45.80176338129054], [-61.04288319587001, 45.80175457024533], [-61.04307649643014, 45.80171016905375], [-61.043231837675734, 45.80168402790172], [-61.04338586623984, 45.80162186985849], [-61.043515799935825, 45.801586292272276]]}, "properties": {"OBJECTID": 23797, "FEAT_CODE": "WACOIS10", "FEAT_DESC": "Coastal Island - Water to the right line", "RIVNAME_1": " ", "RIVNAME_2": " ", "ZVALUE": 0.2, "FID": null, "SHAPE_Length": 485.78480129382945}}, {"type": "Feature", "id": 23949, "geometry": {"type": "LineString", "coordinates": [[-61.040905824893976, 45.791974598720174], [-61.040906115459975, 45.791929599642586], [-61.0408552298199, 45.7918396187724], [-61.04076579261327, 45.791784979831654], [-61.040611666038195, 45.79166711647846], [-61.04049679565467, 45.79160394028224], [-61.04039415321837, 45.79155898439172], [-61.040252911077644, 45.79147734485848], [-61.04009975625949, 45.791368516295144], [-61.03995885428007, 45.79131389367267], [-61.03988261730702, 45.79128647399922], [-61.039676419885, 45.791222647711216], [-61.03962526950756, 45.791213660058055], [-61.039522684219456, 45.79120379853279], [-61.03947153357068, 45.79119481980685], [-61.03940655394916, 45.7911766028618], [-61.039214502624155, 45.79111300056184], [-61.0391122016172, 45.79109504281523], [-61.038944976390624, 45.79109397189343], [-61.03852013684756, 45.791101078037094], [-61.03836579336802, 45.791136230744996], [-61.03826222979225, 45.791154253807306], [-61.03822333818514, 45.791162586624615], [-61.03821843101383, 45.791166030657834], [-61.03817189505965, 45.791198606361206], [-61.03808081799615, 45.79129306262277], [-61.03806774565333, 45.791306627321326], [-61.03804645323765, 45.79133041075426], [-61.03800346648754, 45.79137842974533], [-61.03799384511068, 45.791392647769435], [-61.03791254526737, 45.7915127801524], [-61.03780779477092, 45.79163789209008], [-61.0377303403273, 45.79171846882284], [-61.03766576578689, 45.79183527004304], [-61.03757478882365, 45.79193451604531], [-61.03754808751452, 45.791956631307045], [-61.037509855046125, 45.79198831431352], [-61.03745627666874, 45.79215840014258], [-61.03740390701578, 45.79225740929545], [-61.037391093041485, 45.79232919560854], [-61.03740307173605, 45.79246441362413], [-61.03742790943537, 45.792599852592126], [-61.037464983623856, 45.79271660010297], [-61.03754158251849, 45.79280702428376], [-61.03764327672759, 45.79287898687557], [-61.03781022428262, 45.792961053231075], [-61.03782246459121, 45.79297926513677], [-61.0378488685855, 45.79299682028264], [-61.03786172763782, 45.792997041191036], [-61.037887129955806, 45.79300647838989], [-61.03809267542592, 45.793052313069516], [-61.03829824683545, 45.793134151068045], [-61.03850284734914, 45.79320697121013], [-61.03869461223652, 45.793315582817144], [-61.03877213788053, 45.793343007399955], [-61.03881043121998, 45.79335176566467], [-61.038951944907026, 45.793352395323325], [-61.03901685644364, 45.79326260162195], [-61.0390042766007, 45.79321738158365], [-61.03899200622964, 45.793164075128054], [-61.03899229869023, 45.793119067093976], [-61.03902982132969, 45.79306030597084], [-61.03904403520901, 45.793038047979316], [-61.039083227800596, 45.79294782167079], [-61.039097628726715, 45.792867052609644], [-61.03909885686421, 45.79275906395838], [-61.039086545572026, 45.79263284123211], [-61.039086219303435, 45.79260583319569], [-61.039112229277976, 45.792561275684875], [-61.03911254486308, 45.79255228029119], [-61.039164304247784, 45.792507264755265], [-61.03924178142863, 45.79246269069786], [-61.039281685876055, 45.79244274587276], [-61.03938453131387, 45.79239133454925], [-61.039655826334496, 45.79214036816759], [-61.03977218181027, 45.79208746021528], [-61.03988858147231, 45.79203365282117], [-61.04003038315151, 45.79198928202634], [-61.04008337876717, 45.79187228078486], [-61.04009558253568, 45.79185448857225], [-61.04008426377673, 45.79177328703271], [-61.03993109789002, 45.79162843680542], [-61.039866408686514, 45.791565230043865], [-61.039893072509514, 45.79153868519606], [-61.039903228918966, 45.79152387313996], [-61.03990527626156, 45.79152089300261], [-61.039931340705294, 45.791511439404445], [-61.04003455749125, 45.79150330977185], [-61.040098554389, 45.79151250868175], [-61.04013685988048, 45.79152125771256], [-61.04029064532111, 45.79161211341916], [-61.04041934444552, 45.79168453689393], [-61.04049592267885, 45.79173894649756], [-61.04061113320637, 45.791829130965894], [-61.040699624359696, 45.79191075623589], [-61.040763974647774, 45.79194696327079], [-61.04082864032232, 45.79197417486672], [-61.040905824893976, 45.791974598720174]]}, "properties": {"OBJECTID": 23949, "FEAT_CODE": "WACOIS10", "FEAT_DESC": "Coastal Island - Water to the right line", "RIVNAME_1": " ", "RIVNAME_2": " ", "ZVALUE": 0.2, "FID": null, "SHAPE_Length": 925.2937380106657}}, {"type": "Feature", "id": 116436, "geometry": {"type": "LineString", "coordinates": [[-61.049149283007424, 45.798540472544694], [-61.04916730909023, 45.79852099666884], [-61.04917469129293, 45.79851300403323], [-61.0493167865941, 45.798423622742135], [-61.049406810336286, 45.798388265906155], [-61.04954866447571, 45.79837987842509], [-61.049806552026574, 45.798290673648445], [-61.04988374590493, 45.798291082580185], [-61.04988346205153, 45.79833609074517]]}, "properties": {"OBJECTID": 116436, "FEAT_CODE": "WALK20", "FEAT_DESC": "Lake - Water to the right line", "RIVNAME_1": " ", "RIVNAME_2": " ", "ZVALUE": 0.8, "FID": null, "SHAPE_Length": 70.95040993774265}}, {"type": "Feature", "id": 116437, "geometry": {"type": "LineString", "coordinates": [[-61.04988346205153, 45.79833609074517], [-61.04987399547662, 45.798350348400035], [-61.049806045468934, 45.798452679436174], [-61.049776993756524, 45.79848647644728], [-61.04976714924085, 45.79849791938961], [-61.04961156609615, 45.79860507252448], [-61.04954639175895, 45.79863707353203], [-61.049521227833175, 45.798649433952455], [-61.049456580552324, 45.79865822184074], [-61.049276138681364, 45.798666850253035], [-61.04921242025325, 45.798648660462575], [-61.04917446700131, 45.79863001062654], [-61.04914899886856, 45.798585471700925], [-61.049149283007424, 45.798540472544694]]}, "properties": {"OBJECTID": 116437, "FEAT_CODE": "WALK20", "FEAT_DESC": "Lake - Water to the right line", "RIVNAME_1": " ", "RIVNAME_2": " ", "ZVALUE": 0.8, "FID": null, "SHAPE_Length": 84.17238138439235}}, {"type": "Feature", "id": 117094, "geometry": {"type": "LineString", "coordinates": [[-61.0547848937524, 45.790202834441246], [-61.054786145903414, 45.79016685251533], [-61.05482227186997, 45.79015434458277], [-61.05499190868295, 45.79009564901158], [-61.0551590980289, 45.79006069346141], [-61.055249462008895, 45.79001542788451], [-61.05535294026678, 45.78996228478796], [-61.05554744185046, 45.78988188863554], [-61.055585370088686, 45.789864532702794], [-61.05581690044994, 45.78982887044404], [-61.05597154293547, 45.789784698418195], [-61.05610140675903, 45.789713102027704], [-61.056103199614185, 45.78971186342636], [-61.05616602129381, 45.789668297562166], [-61.056230813970885, 45.7896350171326], [-61.05626949805396, 45.7896151536076], [-61.05637208042731, 45.78958809669809], [-61.05643702928851, 45.78957030020815], [-61.05662965158885, 45.789543875111185], [-61.05665568112332, 45.789535317181425], [-61.05690182037716, 45.789338786721515], [-61.05692046139027, 45.789325512619556], [-61.05694007892705, 45.789311535062104], [-61.057005027293734, 45.7892937382402], [-61.05712102192945, 45.789176900680594], [-61.05715750855432, 45.789151761000205], [-61.0571987931233, 45.7891233186142], [-61.05730294135293, 45.78908818676947], [-61.05731579965549, 45.789088405474104], [-61.05733988343864, 45.78907918423613], [-61.05734057461963, 45.7890789169669], [-61.05748207814153, 45.78907953248736], [-61.05749462385353, 45.78908874666947], [-61.05754643641445, 45.78911573020487], [-61.05755901765597, 45.789160948239555], [-61.057559365746734, 45.7891879566009]]}, "properties": {"OBJECTID": 117094, "FEAT_CODE": "WALK20", "FEAT_DESC": "Lake - Water to the right line", "RIVNAME_1": " ", "RIVNAME_2": " ", "ZVALUE": 0.8, "FID": null, "SHAPE_Length": 268.6402651829096}}, {"type": "Feature", "id": 117095, "geometry": {"type": "LineString", "coordinates": [[-61.057559365746734, 45.7891879566009], [-61.05755874058509, 45.78920594759658], [-61.05754560517079, 45.789250728275334], [-61.05740236687892, 45.7894481102291], [-61.05737331107402, 45.789481927145], [-61.057363483222915, 45.789493353037614], [-61.0572828101502, 45.78952787613748], [-61.05726032033235, 45.789537502509255], [-61.057220521003984, 45.789645735386465], [-61.05716856772982, 45.78977086305435], [-61.05708954885978, 45.7898973304564], [-61.056999891134396, 45.789959711048375], [-61.056955494126036, 45.789982546909386], [-61.05684401096647, 45.790039866660486], [-61.056741449764594, 45.79010293660446], [-61.05670290942244, 45.79013827513057], [-61.05652067638887, 45.79027288688191], [-61.05646955807796, 45.79029992857515], [-61.056405265205974, 45.790298834539065], [-61.05623797559109, 45.79026267568801], [-61.056083888241524, 45.790216858396406], [-61.05596837739961, 45.790171679494776], [-61.05591753766034, 45.790153712618725], [-61.055802405294095, 45.79013465134823], [-61.055686615936594, 45.790134480484284], [-61.05546761412957, 45.79014245325733], [-61.05531326203736, 45.790141625479684], [-61.055261470805036, 45.7901506445491], [-61.05513250992236, 45.79015924966679], [-61.05505630029153, 45.79016785284693], [-61.055043644672914, 45.790172155747435], [-61.054978178803246, 45.79019442414422], [-61.054900683249876, 45.7902030053222], [-61.0547848937524, 45.790202834441246]]}, "properties": {"OBJECTID": 117095, "FEAT_CODE": "WALK20", "FEAT_DESC": "Lake - Water to the right line", "RIVNAME_1": " ", "RIVNAME_2": " ", "ZVALUE": 0.8, "FID": null, "SHAPE_Length": 290.8810754609569}}, {"type": "Feature", "id": 118620, "geometry": {"type": "LineString", "coordinates": [[-61.04339788497186, 45.79392818865251], [-61.04346426095262, 45.79386658105454], [-61.043475019642095, 45.79385660343727], [-61.043540607146426, 45.79382082361142], [-61.0436267372922, 45.79379550352574], [-61.04363031232353, 45.79379445766151], [-61.04362997069617, 45.793767458382646], [-61.04369458724673, 45.79372265202667], [-61.04375891505426, 45.79372285373652], [-61.043797604294376, 45.79383061700916]]}, "properties": {"OBJECTID": 118620, "FEAT_CODE": "WALK20", "FEAT_DESC": "Lake - Water to the right line", "RIVNAME_1": " ", "RIVNAME_2": " ", "ZVALUE": 0.8, "FID": null, "SHAPE_Length": 51.41588056156556}}, {"type": "Feature", "id": 118621, "geometry": {"type": "LineString", "coordinates": [[-61.043797604294376, 45.79383061700916], [-61.04379728913412, 45.793839621421434], [-61.043783800146976, 45.793857392011454], [-61.0437496627947, 45.79387543900245], [-61.04373267284044, 45.79388441883838], [-61.043654855808654, 45.79390198768454], [-61.043539085470755, 45.793937808066076], [-61.04339791125954, 45.79396419233947], [-61.04339788497186, 45.79392818865251]]}, "properties": {"OBJECTID": 118621, "FEAT_CODE": "WALK20", "FEAT_DESC": "Lake - Water to the right line", "RIVNAME_1": " ", "RIVNAME_2": " ", "ZVALUE": 0.8, "FID": null, "SHAPE_Length": 39.77842866686811}}, {"type": "Feature", "id": 120229, "geometry": {"type": "LineString", "coordinates": [[-61.04172183681615, 45.80066987890418], [-61.041760419357985, 45.8006705404027], [-61.04177330562046, 45.8007067555341], [-61.04177178600744, 45.800786836599706], [-61.041745427308726, 45.800841289562086], [-61.0417367143751, 45.800856369531864], [-61.041693371802815, 45.80093130513657], [-61.04168058599694, 45.80103909551244], [-61.04167842919541, 45.80117407052382], [-61.04169039443224, 45.80127328446543], [-61.041690419465844, 45.801309288091176], [-61.041664722494595, 45.80134485069841], [-61.04161298195935, 45.801425861830346], [-61.04159025251966, 45.80144100748513], [-61.04158662903492, 45.80144342057533], [-61.04152231730906, 45.801479221120736], [-61.04148341891281, 45.801487554925174], [-61.041316129607175, 45.8014873864883]]}, "properties": {"OBJECTID": 120229, "FEAT_CODE": "WALK20", "FEAT_DESC": "Lake - Water to the right line", "RIVNAME_1": " ", "RIVNAME_2": " ", "ZVALUE": 0.8, "FID": null, "SHAPE_Length": 114.9895508484465}}, {"type": "Feature", "id": 120230, "geometry": {"type": "LineString", "coordinates": [[-61.041316129607175, 45.8014873864883], [-61.04120063260283, 45.80147820516374], [-61.04118808692308, 45.80146898920892], [-61.041188377565234, 45.80142399019843], [-61.04125329535885, 45.80133419543977], [-61.04127868530214, 45.80127072518213], [-61.04134449238218, 45.80111884010443], [-61.04135799067351, 45.80106416670218], [-61.0413846584827, 45.80103762161001], [-61.041513861714854, 45.800876022578535], [-61.04159195447487, 45.80077745273132], [-61.041616173264465, 45.800735960267716], [-61.04161796649084, 45.8007328947394], [-61.04165212607865, 45.80070921428134], [-61.04168259254322, 45.800688098726084], [-61.041695768653064, 45.800679323836796], [-61.04170083898854, 45.80067748459848], [-61.04172183681615, 45.80066987890418]]}, "properties": {"OBJECTID": 120230, "FEAT_CODE": "WALK20", "FEAT_DESC": "Lake - Water to the right line", "RIVNAME_1": " ", "RIVNAME_2": " ", "ZVALUE": 0.8, "FID": null, "SHAPE_Length": 110.58549710009032}}]}