{"type": "FeatureCollection", "features": [{"type": "Feature", "id": 23428, "geometry": {"type": "LineString", "coordinates": [[-61.05188532662499, 45.79893820303162], [-61.05188654936904, 45.79886621747888], [-61.05187368885908, 45.79886599812723], [-61.051874880277666, 45.79875799983395], [-61.05186161095075, 45.79865877369471], [-61.05184903245569, 45.79861355514346], [-61.0518244397502, 45.79847002293128], [-61.05180028695576, 45.79842460695318], [-61.05173585885221, 45.798316398448556], [-61.051659888193484, 45.79824399621934], [-61.0515189258937, 45.79815338371501], [-61.05141625017211, 45.798108419231966], [-61.05138094700721, 45.79808350577731], [-61.0513521991818, 45.79806323155508], [-61.05124680305271, 45.79800809460354], [-61.05116012321035, 45.79796274574716], [-61.051096417476124, 45.79794456622374], [-61.051058119264596, 45.79793580300803], [-61.050646401798964, 45.79793417743204], [-61.050465008392045, 45.797969784889524], [-61.05010419660628, 45.79805813418164], [-61.05004052223732, 45.79807593981258], [-61.04999647117922, 45.79809117317409], [-61.04998842148699, 45.798093961004334], [-61.0497948564187, 45.798146461116154], [-61.04971734911652, 45.7981550385739], [-61.04939696995415, 45.79815406799341], [-61.049344839214356, 45.79813607616875], [-61.04924280734981, 45.79803622483001], [-61.04915357480585, 45.79790148888203], [-61.04905249869343, 45.79777465128424], [-61.04901381406276, 45.79770288416091], [-61.04896347881134, 45.797522908371285], [-61.04892675317542, 45.79743226399042], [-61.04890152307502, 45.79727072762023], [-61.048902931680544, 45.79704573158556], [-61.04889369149429, 45.7967575480056], [-61.04889508313379, 45.796496548444125], [-61.04890854139434, 45.796442773513895], [-61.04893454709822, 45.79636131042327], [-61.049012590503125, 45.79622673138313], [-61.04906637625525, 45.796141233375046], [-61.04909160548978, 45.796101169687795], [-61.049100800220394, 45.796087321486766], [-61.049169020126705, 45.795984581407104], [-61.049214670604044, 45.79594486648532], [-61.049220775145706, 45.79593955226352], [-61.04924740642339, 45.79587701047301], [-61.049299444894494, 45.79578699110659], [-61.049299758876, 45.79577799566331], [-61.04933830813875, 45.79574265081208], [-61.0494681641465, 45.795635058658654], [-61.049559138232404, 45.795572706501915], [-61.04959770572141, 45.79553646179286], [-61.04973947872918, 45.79545607524404], [-61.049821051921015, 45.79542342703128], [-61.049894769229354, 45.79539392092503], [-61.04991314345722, 45.795385080819266], [-61.049932721800644, 45.79537565821482], [-61.050062636603336, 45.79534008183576], [-61.05017806069465, 45.795314149822005], [-61.0503198636648, 45.79526974828598], [-61.05040991271698, 45.795233499998716], [-61.0505777168672, 45.79514455592713], [-61.05061758222541, 45.79510833302351], [-61.05069467852014, 45.79500073906741], [-61.05071663483916, 45.79497699162483], [-61.05078560632657, 45.79490238191223], [-61.05080846680039, 45.7948803780368], [-61.05085084574559, 45.79483958953345], [-61.05091573987822, 45.79474979780466], [-61.050955542532904, 45.794678461562974], [-61.05096871599252, 45.794632782243205], [-61.0509946552391, 45.79451621438133], [-61.050982391966926, 45.794462000275615], [-61.05093211518903, 45.79435403272481], [-61.05086803802248, 45.794272832067705], [-61.050765696802614, 45.7941819685543], [-61.05068935645654, 45.794083465975156], [-61.05061398931521, 45.79395706844735], [-61.0506136136907, 45.793894056379315], [-61.05060285779073, 45.79372285744535], [-61.05060461653053, 45.793524869673846], [-61.05059200914261, 45.79344364721766], [-61.05054046609584, 45.79337166109944], [-61.05041333108476, 45.793254280725236], [-61.050361832086686, 45.793218298512585], [-61.0501704200643, 45.793135814898214], [-61.05016292850509, 45.79313516496035], [-61.050067797387946, 45.79312687130254], [-61.05004207903633, 45.79312643223071], [-61.049745188744765, 45.79311687180238], [-61.049462174617275, 45.79311563029971], [-61.04927015201627, 45.793124051922646], [-61.04903827911594, 45.79313178353681], [-61.048947919211145, 45.793140149934544], [-61.04888359195886, 45.79313995115826], [-61.0487424220805, 45.79316634211578], [-61.0486979864911, 45.793184583686546], [-61.04867715264337, 45.79319312955549], [-61.04866439526387, 45.79320252446726], [-61.048652060680055, 45.79321160257177], [-61.04859721436635, 45.79324388751849], [-61.048561416469006, 45.79326495885254], [-61.048393899531895, 45.7933089008445], [-61.04832894387638, 45.79332669263701], [-61.048109673172114, 45.793415662988906], [-61.04796784281585, 45.79346093439952], [-61.04782634467392, 45.79349631942266], [-61.04768455785962, 45.793540700145186], [-61.04763889012281, 45.793561413466016], [-61.047606114004, 45.79357626258862], [-61.0475418879871, 45.79360298620699], [-61.04741287433733, 45.79365666675588], [-61.04737463962927, 45.79368301553664], [-61.047128689237304, 45.793835424629954], [-61.04698692962941, 45.79391580818475], [-61.04690882770681, 45.7939783784204], [-61.04688345189496, 45.79400494692038], [-61.046855858019065, 45.79401508701263], [-61.04668923817195, 45.79407633239434], [-61.04667546846596, 45.79408927409057], [-61.04665065700875, 45.79411257589573], [-61.04660308393614, 45.79414507427718], [-61.0465992478505, 45.79414769991203], [-61.046565485777656, 45.79419442173672], [-61.04653434727991, 45.79423749809114], [-61.04648616363452, 45.79427052602918], [-61.046443384981195, 45.794299848052454], [-61.046370800013875, 45.79433228756489], [-61.046263000605, 45.79438047014284], [-61.04623633835781, 45.79440701649257], [-61.046108023562944, 45.794433624085464], [-61.045914408511045, 45.794451013631445], [-61.045862624745595, 45.79446002856236], [-61.04581190584572, 45.79448127578566], [-61.04579837869116, 45.79448690386848], [-61.045733667407966, 45.79450463535806], [-61.04563017205165, 45.79455776041784], [-61.045620118430655, 45.79456708424172], [-61.04555303909641, 45.79462934710956], [-61.04554939744251, 45.794634505263076], [-61.0455273163103, 45.79466581025748], [-61.04548779407772, 45.79469213637134], [-61.04547453972085, 45.79469768807659], [-61.04542380728631, 45.79471894389615], [-61.04538456810777, 45.794737174091], [-61.045229384437036, 45.79494333703252], [-61.04520337812221, 45.79498789598019], [-61.04520180527566, 45.79503286409751], [-61.04545911850173, 45.79507057966073], [-61.045549226184576, 45.79510632466483], [-61.04562612835675, 45.795151744525526], [-61.04567762628979, 45.79518771984632], [-61.04583014491541, 45.795278546343994], [-61.04585589203566, 45.7953149900838], [-61.045932822636566, 45.795396413449474], [-61.0460854019975, 45.795522334786185], [-61.04617550741143, 45.7955949825601], [-61.04631648264183, 45.79572160515979], [-61.04640561714609, 45.795785235335636], [-61.04654659653981, 45.79587495441315], [-61.046622529016645, 45.79591135620471], [-61.046687830984716, 45.79592057372778], [-61.046878647130264, 45.79605704878735], [-61.04707108311242, 45.79618365033476], [-61.047199157446855, 45.79623804480118], [-61.047302169324766, 45.79631002126014], [-61.04742990448407, 45.79637340147182], [-61.04754474827619, 45.79643747025345], [-61.047583058052616, 45.79644622584845], [-61.04771237761658, 45.796464637801584], [-61.04799542201002, 45.79646586614321], [-61.04817522222742, 45.796476148485894], [-61.04831647812687, 45.796520866064476], [-61.04835411553169, 45.79654851160135], [-61.04840498793667, 45.7966024856028], [-61.04853252876732, 45.79681888393292], [-61.04860822176613, 45.796936287542735], [-61.04869744974405, 45.79710792715825], [-61.04873489402499, 45.797251679636865], [-61.04874661644432, 45.797431895972636], [-61.048739837073256, 45.79817884680432], [-61.04872580923656, 45.798322619993456], [-61.04872461208319, 45.79843060916781], [-61.04870940366906, 45.798718375009734], [-61.04870884721623, 45.798808382520676], [-61.04861677121501, 45.7990867253799], [-61.04859107778268, 45.799159192899204], [-61.048577019720526, 45.79926696232852], [-61.04853789816771, 45.799392305136635], [-61.0484586508716, 45.7996348818284], [-61.04845732170612, 45.799637199326156], [-61.048432600837266, 45.79968033181129], [-61.04826299511938, 45.7999312563001], [-61.04821029324451, 45.80000326220446], [-61.048207451173425, 45.800011314358095], [-61.04819714754924, 45.800048041565276], [-61.048171484513425, 45.80011960941961], [-61.048162538642245, 45.80013183264583], [-61.048118782336296, 45.80019161527469], [-61.0481056365187, 45.80023639462167], [-61.04810329784301, 45.80052438023887], [-61.04811587367174, 45.80056959914626], [-61.04816707645353, 45.80061457806366], [-61.04820503037017, 45.800633237240184], [-61.048346295240144, 45.80071484017116], [-61.04839748516503, 45.800759827765006], [-61.04887355914244, 45.80076166074443], [-61.04902826712534, 45.800753502483985], [-61.04915659525238, 45.800726891850104], [-61.04932419574395, 45.800718044311836], [-61.049569244927554, 45.800665533108365], [-61.04980080629737, 45.80059388040462], [-61.04987016527614, 45.80056703615883], [-61.049892119690696, 45.80055853621413], [-61.04994171974544, 45.80053627800406], [-61.05011044358091, 45.800460554552195], [-61.05025323137814, 45.80042518873618], [-61.05036901121685, 45.80038936173425], [-61.050458724311824, 45.80036298157212], [-61.05053654810978, 45.80034541721479], [-61.050678694878975, 45.8003280415237], [-61.05069988871702, 45.80031994247972], [-61.05070348851644, 45.80031856378788], [-61.05073333190041, 45.800297867223165], [-61.05076810696344, 45.80027376250428], [-61.05084655842268, 45.80023819804779], [-61.0509102353505, 45.80022038301406], [-61.05114273420032, 45.80015864446303], [-61.051284516997335, 45.80007825621136], [-61.05134880814588, 45.80004244981327], [-61.05137485625416, 45.80003389341369], [-61.05137568718678, 45.80003331353715], [-61.05140123655256, 45.80001544179599], [-61.05140139339736, 45.80001094407206], [-61.05140057785491, 45.79999742895929], [-61.05146607368563, 45.79985363345129], [-61.05147953039711, 45.79979985822103], [-61.051519649502985, 45.79971953543553], [-61.05153188314713, 45.79970083345236], [-61.05157074715624, 45.79965650143767], [-61.0515970329373, 45.79956694184094], [-61.05164931353567, 45.79950282088765], [-61.05166290436346, 45.79948615822028], [-61.05166548682753, 45.7994814768521], [-61.05172745767788, 45.799369357876415], [-61.05179263857933, 45.799234548596225], [-61.05184527188779, 45.79909053345876], [-61.051872529385975, 45.79900999116629], [-61.05188532662499, 45.79893820303162]]}, "properties": {"OBJECTID": 23428, "FEAT_CODE": "WACOIS10", "FEAT_DESC": "Coastal Island - Water to the right line", "RIVNAME_1": " ", "RIVNAME_2": " ", "ZVALUE": 0.2, "FID": null, "SHAPE_Length": 2584.48240979757}}, {"type": "Feature", "id": 23740, "geometry": {"type": "LineString", "coordinates": [[-61.06465173883518, 45.79667461444913], [-61.064714904390144, 45.796782794277554], [-61.064740352808236, 45.796828238478916], [-61.06477899120948, 45.79686400527375], [-61.06480379018054, 45.79689141885103], [-61.06484275364167, 45.796918172327835], [-61.06492002594243, 45.79699058783598], [-61.06500823682163, 45.79708119020761], [-61.06504659013642, 45.79712594388127], [-61.06512319986339, 45.79718034642137], [-61.06525159294765, 45.797225734203266], [-61.06536774944562, 45.79725289497235], [-61.065496071616835, 45.79726316915123], [-61.065611888962316, 45.79726333052415], [-61.065676479257306, 45.79721852031562], [-61.06574200350171, 45.797146723482136], [-61.06576433073299, 45.797115445768064], [-61.06579341993222, 45.797074687704686], [-61.06582060282085, 45.79695813760423], [-61.06583342262749, 45.79692234248762], [-61.06587230457631, 45.79687710581927], [-61.065876927887345, 45.79687327776073], [-61.065937218386715, 45.796823300137454], [-61.06596316095577, 45.79677046367557], [-61.065963520535476, 45.79676974069932], [-61.06599174610774, 45.79675615938272], [-61.066001468667906, 45.796751481579165], [-61.0660314819181, 45.796736067356576], [-61.06610496256473, 45.796698329052944], [-61.0661827641026, 45.796680744648135], [-61.066285367911654, 45.796653679214145], [-61.066413990211686, 45.7966180533535], [-61.066594716332816, 45.79660131094264], [-61.06664437619942, 45.79657963153386], [-61.06669792932866, 45.7965562538453], [-61.06673646833165, 45.79652090295762], [-61.06675053185919, 45.796449134579106], [-61.06676369293113, 45.796403453250235], [-61.06677620051105, 45.796376662543814], [-61.06681602534207, 45.796341333392014], [-61.066854271212485, 45.79631407822442], [-61.066930824021874, 45.79612238765077], [-61.06693317668729, 45.79611649593917], [-61.06693363334438, 45.795954489216015], [-61.06690849433957, 45.79590005893316], [-61.06687112802021, 45.79586432338515], [-61.06684443331939, 45.79585487077314], [-61.06681868234082, 45.79585533501125], [-61.066815822959434, 45.79585950799175], [-61.06680648607176, 45.79587313019035], [-61.0667801438618, 45.795890685938765], [-61.066779521521276, 45.79590867701139], [-61.06679184176647, 45.795998893569916], [-61.06683020604084, 45.79608055012836], [-61.06683026594993, 45.796115645272444], [-61.06679072103619, 45.796142887446436], [-61.06674042376257, 45.79617184678138], [-61.06671326001898, 45.79618748043818], [-61.06669809409859, 45.79619217417574], [-61.066597498912884, 45.79622332434361], [-61.06628873411527, 45.79622169768862], [-61.0662112316577, 45.79623028642726], [-61.066121501477454, 45.7962575697661], [-61.066018008425985, 45.796310722324556], [-61.06594020735899, 45.79632830662561], [-61.06578555070017, 45.79640939517271], [-61.06567533652719, 45.79645001249377], [-61.06561741424424, 45.79647135353283], [-61.06548941457538, 45.79648898743739], [-61.065437320384575, 45.796507006790435], [-61.06534934961288, 45.7965328791933], [-61.06534762053833, 45.79653338995396], [-61.06521834750368, 45.79655100198595], [-61.06509002323075, 45.79657763074645], [-61.06503795997935, 45.79659475036104], [-61.0649578911723, 45.79661909118036], [-61.064948228665344, 45.79662203275773], [-61.06485755389213, 45.7966393982167], [-61.06472924211628, 45.79666602678327], [-61.06465173883518, 45.79667461444913]]}, "properties": {"OBJECTID": 23740, "FEAT_CODE": "WACOIS10", "FEAT_DESC": "Coastal Island - Water to the right line", "RIVNAME_1": " ", "RIVNAME_2": " ", "ZVALUE": 0.2, "FID": null, "SHAPE_Length": 535.0777366194627}}, {"type": "Feature", "id": 23742, "geometry": {"type": "LineString", "coordinates": [[-61.064833713238464, 45.79145633021885], [-61.06483569250925, 45.79121334188959], [-61.06482341638008, 45.79115912903654], [-61.06481079769453, 45.791114811268834], [-61.064785363903844, 45.79106938528994], [-61.06469678563143, 45.79095176499565], [-61.06460630747731, 45.790889026381564], [-61.064464811553485, 45.79088842882764], [-61.06384828457806, 45.790895080976135], [-61.06330765544665, 45.790902116680336], [-61.0631790366314, 45.79090083579791], [-61.06315359963305, 45.790892303721115], [-61.06308958636408, 45.79088311746305], [-61.06290942355558, 45.79080985576972], [-61.06285791852734, 45.79077387908472], [-61.06264129276383, 45.790601889701904], [-61.0625256979414, 45.79048471853126], [-61.06237250173768, 45.79037591017228], [-61.06232130928091, 45.790330937733096], [-61.06222013349034, 45.79016900680464], [-61.06209230559154, 45.790033626017326], [-61.061990226542335, 45.78989778190639], [-61.061951893337806, 45.78985302748999], [-61.06191421515631, 45.78978938246919], [-61.06188936435364, 45.78972685518096], [-61.06186450683161, 45.78962741544034], [-61.061851571524855, 45.78955519844137], [-61.061878109224715, 45.78942063656538], [-61.06189221518308, 45.78938487267397], [-61.061943838543286, 45.789231834739255], [-61.062009020428015, 45.78913303171463], [-61.06204599172004, 45.789066755979256], [-61.06204880450146, 45.78906170024343], [-61.06206408598694, 45.789040267567756], [-61.06210019245233, 45.788989656557355], [-61.06219253369524, 45.78873830939862], [-61.062193742510175, 45.78866632339676], [-61.06218228941841, 45.78847711198824], [-61.06218196480274, 45.788450104038255], [-61.06213219225897, 45.78825214174532], [-61.06206845559661, 45.7881979555284], [-61.06195231262443, 45.788133879233946], [-61.0619020964468, 45.78809792396932], [-61.0617473484036, 45.78803409246574], [-61.06161964083299, 45.78800672292026], [-61.061079351720565, 45.788004753003825], [-61.0607580933346, 45.78803080178167], [-61.060680913616544, 45.78803039143134], [-61.060499558431644, 45.78806601550684], [-61.060320144296035, 45.788082770546595], [-61.06016582195663, 45.788117953091465], [-61.05973976230005, 45.788198015081576], [-61.05961182348523, 45.78821476135606], [-61.05949571316171, 45.78822358071428], [-61.05943107906554, 45.7882323834794], [-61.05927640686011, 45.78824055643275], [-61.059109157582064, 45.78824041472072], [-61.05851743422479, 45.78823755864099], [-61.05838910301999, 45.78822817651003], [-61.058337951769516, 45.788219206225406], [-61.05818355602684, 45.78818237832221], [-61.05809379931092, 45.78817365166441], [-61.05803012095114, 45.78815456735873], [-61.05792717079632, 45.788118613801494], [-61.05783775800567, 45.788099991893226], [-61.05769653355771, 45.788054386481356], [-61.057607054131, 45.7880006600786], [-61.057555273812675, 45.78797277703196], [-61.057363176307, 45.78787320120013], [-61.0572219175115, 45.78779159135116], [-61.05714593177669, 45.78775609573744], [-61.05697867070587, 45.78768304409236], [-61.05691109920714, 45.787666800194444], [-61.05690210406179, 45.78766463998364], [-61.056869883917315, 45.78765552305954], [-61.05677343963229, 45.78762824791656], [-61.056658280848715, 45.78761008712981], [-61.056529291124704, 45.78758269006839], [-61.05633691533867, 45.78749120850002], [-61.05624778561132, 45.7874644894252], [-61.05608088288907, 45.78745444827312], [-61.055888198654294, 45.78740886486034], [-61.05567011216513, 45.787353837978756], [-61.055503144047115, 45.787308701583754], [-61.05545202542896, 45.78729883047718], [-61.05520875026046, 45.78715427568223], [-61.055119272015254, 45.787063643988176], [-61.055068414263324, 45.787009673147004], [-61.05501687104412, 45.78693768897526], [-61.05492861149821, 45.7867750713412], [-61.054851911537874, 45.78661265049934], [-61.054827429635196, 45.7865771303705], [-61.05476338904407, 45.78653193569393], [-61.05471129851378, 45.78651304688288], [-61.05457133548908, 45.78646835015201], [-61.054429457633205, 45.78640474591594], [-61.05436632355483, 45.78629655172789], [-61.05432830979938, 45.78620589598621], [-61.0543163913915, 45.78617869050012], [-61.05429194996906, 45.78615606911608], [-61.05423910307439, 45.786107176475596], [-61.05420631932813, 45.78607880544458], [-61.05417542106637, 45.7860520776723], [-61.05411075571366, 45.78602486461785], [-61.05407246447606, 45.78601612051104], [-61.05386664940867, 45.786015314049415], [-61.05369884513467, 45.78606825977725], [-61.05348052009935, 45.786131145255304], [-61.053428450445494, 45.78614825948735], [-61.05333808425601, 45.78615752033337], [-61.053274737465024, 45.78616634155406], [-61.05323616466579, 45.78616568410381], [-61.053030564416325, 45.78604786915249], [-61.05294146996238, 45.786020248005656], [-61.052774130168025, 45.78591208563335], [-61.052685036061625, 45.78588446429136], [-61.052491407219655, 45.78586586147818], [-61.052081077053124, 45.785864264650975], [-61.052003273707314, 45.785881839432406], [-61.051771085629156, 45.785899490107845], [-61.051668853149145, 45.7859166389601], [-61.05138432601051, 45.785996392754605], [-61.05126892199127, 45.78605922970919], [-61.0512212258792, 45.78608667848912], [-61.05119146317811, 45.78610381227262], [-61.05115254553443, 45.786113049135125], [-61.050985052130166, 45.786156995359995], [-61.05084292908779, 45.78617436284301], [-61.050727806266686, 45.78619220895448], [-61.050660213815966, 45.78625821047472], [-61.05057197735213, 45.7863443634713], [-61.050545665806325, 45.786397919297606], [-61.05054368705129, 45.78671292317172], [-61.05055481821665, 45.78694712542935], [-61.05055042330336, 45.787442095384066], [-61.050558886153546, 45.78793728475756], [-61.050556090772446, 45.78838637777605], [-61.05056681502369, 45.78852157305456], [-61.050604855128995, 45.78864823373241], [-61.05065481281479, 45.788765196897664], [-61.05068123184917, 45.78878274934115], [-61.050910037088286, 45.789008965243305], [-61.05101239506888, 45.78909982899456], [-61.051076767216756, 45.78917204286048], [-61.05117851736346, 45.789279988635116], [-61.05128117763171, 45.78936183848236], [-61.051370658751104, 45.78945157312288], [-61.051510639587626, 45.78953317739591], [-61.05166409373751, 45.78959700069925], [-61.051819147904226, 45.78965184127195], [-61.05204954689642, 45.789760189378526], [-61.05210005897123, 45.789787144204865], [-61.052202382043305, 45.78987799727876], [-61.05226612367897, 45.78993218908269], [-61.05233047944015, 45.789968389695915], [-61.05252254253024, 45.79003197012742], [-61.05263833254357, 45.79006904754726], [-61.05271557854575, 45.79010456763538], [-61.0528175378347, 45.790132408257946], [-61.05298485785301, 45.79020455789444], [-61.05302311979755, 45.79021421994166], [-61.05309998899439, 45.790223630987626], [-61.05348593295463, 45.79022480852777], [-61.05361489418105, 45.790216205276174], [-61.05364029833968, 45.790225630002205], [-61.05384556839075, 45.790316444700224], [-61.054037354527324, 45.79042502192051], [-61.05415283128433, 45.79043418994409], [-61.05455194850741, 45.7904265874906], [-61.05480980659228, 45.79037427416766], [-61.055015603932105, 45.790339075361835], [-61.055183485232845, 45.79032123220366], [-61.055800318239726, 45.790305631261916], [-61.05599329067448, 45.7903062156369], [-61.05601869497921, 45.79031564883632], [-61.05608305367418, 45.790351847378815], [-61.05613455354763, 45.790387836040765], [-61.05625003431554, 45.79043389634], [-61.056455274744174, 45.79048870258443], [-61.0565321452839, 45.79049810233962], [-61.056608768935114, 45.79055161082209], [-61.05673717836454, 45.79066991510303], [-61.05682634871894, 45.79073262871509], [-61.05685241380702, 45.79076007459337], [-61.05691587051584, 45.79085926299871], [-61.05696643362326, 45.79092222877868], [-61.05711966857234, 45.79106704829682], [-61.05733657853387, 45.7912300521835], [-61.05756701791917, 45.79137438403945], [-61.05803981323431, 45.79172715470548], [-61.058143425364946, 45.791782021090775], [-61.058270934915875, 45.79192640166671], [-61.058448662476486, 45.79210673891024], [-61.058500201855836, 45.79217872140092], [-61.058549006582176, 45.79244056545823], [-61.05857420296681, 45.79253011075147], [-61.058584430489, 45.7927913080502], [-61.0585819431938, 45.79319630214692], [-61.05856818262707, 45.79325907390549], [-61.05858142652727, 45.79332230467622], [-61.058605601198224, 45.79336681954349], [-61.058619134372066, 45.7933850511869], [-61.05868287306452, 45.79343924831933], [-61.05888753903697, 45.793548027232255], [-61.05910627797153, 45.793585047460105], [-61.059311294211525, 45.79372083398326], [-61.059386968893385, 45.79380224494697], [-61.05950190267234, 45.7939013973903], [-61.0595279576619, 45.79392884246999], [-61.05961776059106, 45.79397357199621], [-61.059771260360286, 45.794073388337935], [-61.059873279994406, 45.7941372358828], [-61.05991192690603, 45.79417298648766], [-61.05992416188865, 45.79419119592251], [-61.059975980308664, 45.79421817842784], [-61.06001427070464, 45.794263832829735], [-61.06005195662336, 45.79429057525832], [-61.06012981933322, 45.79430899923847], [-61.06016479107052, 45.794290493482805], [-61.06018092648633, 45.79428196473237], [-61.0602194807835, 45.794246616290216], [-61.060246117639046, 45.79418316294174], [-61.06028520902757, 45.79405781553304], [-61.06035126184964, 45.793860019438014], [-61.060365644949414, 45.793779256429886], [-61.06037908545899, 45.79368857652423], [-61.06040496738887, 45.793536002321794], [-61.060432246915795, 45.793491461532426], [-61.0604965001986, 45.79341964608394], [-61.060612846025975, 45.79332981343579], [-61.06065258092347, 45.79330602392461], [-61.060716650560934, 45.79326767023523], [-61.06079414331618, 45.793222181750444], [-61.060819525107426, 45.793195610262046], [-61.06087160473663, 45.79317759276161], [-61.06094941572508, 45.79316001207791], [-61.06118125043968, 45.79311624338625], [-61.0613095177224, 45.79305361481286], [-61.06131774842172, 45.79305113528292], [-61.06151625723332, 45.79299141786348], [-61.06159278184936, 45.792973814908876], [-61.061876433542345, 45.79295702653378], [-61.06199219068422, 45.79292118733452], [-61.06237994843994, 45.792796354246406], [-61.06246933172431, 45.79277896884198], [-61.06270178734321, 45.792717205978064], [-61.06293271486643, 45.7926995206848], [-61.06303623006783, 45.79268237450566], [-61.06317774331893, 45.792682974120325], [-61.0634475726271, 45.79265694664166], [-61.063589709131534, 45.79263955469663], [-61.06383559756316, 45.79248710909615], [-61.06400333300521, 45.79236214087522], [-61.06408246504326, 45.792284068011554], [-61.06409392172595, 45.792272768162626], [-61.064129880563186, 45.79221825668305], [-61.064159103573196, 45.79217396395647], [-61.06426382837752, 45.792047918378], [-61.064341868666155, 45.79194933198658], [-61.064471335573884, 45.79181472271217], [-61.06450742002591, 45.79178480344975], [-61.06453624466658, 45.79176091770874], [-61.06460504327358, 45.79173709726536], [-61.06461307817382, 45.791734317153086], [-61.064648169281384, 45.791716361091034], [-61.06466416254086, 45.79170818032741], [-61.06470339348796, 45.79168994336352], [-61.06473947695671, 45.79163997920828], [-61.064768262108295, 45.791600134304154], [-61.06480772025216, 45.79153779718735], [-61.064833713238464, 45.79145633021885]]}, "properties": {"OBJECTID": 23742, "FEAT_CODE": "WACOIS10", "FEAT_DESC": "Coastal Island - Water to the right line", "RIVNAME_1": " ", "RIVNAME_2": " ", "ZVALUE": 0.2, "FID": null, "SHAPE_Length": 3445.2818535470574}}, {"type": "Feature", "id": 117090, "geometry": {"type": "LineString", "coordinates": [[-61.06169466767537, 45.78988736605322], [-61.06175896027574, 45.78988845710548], [-61.061796682391105, 45.78995120284096], [-61.06184852327713, 45.7900141881461], [-61.061899129567635, 45.79011315572534], [-61.061924885017255, 45.79014959600361], [-61.06198800025441, 45.79022176436085], [-61.06202633341956, 45.790266527762455], [-61.06210265750674, 45.7903659316102], [-61.06214064812919, 45.79042058105213], [-61.0621667469118, 45.79044712620644], [-61.06232025472619, 45.7905469393158], [-61.0623839942413, 45.790601125418114], [-61.062498965389125, 45.7907362877725], [-61.06255014003125, 45.7907821599076], [-61.06263864175075, 45.79082686500889], [-61.062755102791016, 45.790881945156556], [-61.062767668103646, 45.790890259006744], [-61.06276028931809, 45.79090046678581], [-61.062754167500465, 45.790908931725056], [-61.06275385573666, 45.790917927247854], [-61.062738242199394, 45.790925916167545], [-61.06270277123881, 45.79094406321964], [-61.06252269359896, 45.79097971216997], [-61.062239090590204, 45.79103250621567], [-61.06203298292259, 45.79107671358601], [-61.06196930488887, 45.79110313059359], [-61.061903759915054, 45.79113032595933], [-61.06174945533345, 45.79120151417829], [-61.06173764608629, 45.79120553515619], [-61.06167133538459, 45.79122809097729], [-61.06163307774686, 45.79125534422915], [-61.06149102024694, 45.791344741561744], [-61.06140644078397, 45.791376519025185], [-61.061348924388035, 45.791398134825045], [-61.06118116116596, 45.79148709545461], [-61.06114191670698, 45.79150532197907], [-61.061051872981274, 45.79150470251502]]}, "properties": {"OBJECTID": 117090, "FEAT_CODE": "WALK20", "FEAT_DESC": "Lake - Water to the right line", "RIVNAME_1": " ", "RIVNAME_2": " ", "ZVALUE": 0.8, "FID": null, "SHAPE_Length": 297.5609065661222}}, {"type": "Feature", "id": 117091, "geometry": {"type": "LineString", "coordinates": [[-61.061051872981274, 45.79150470251502], [-61.061013577166925, 45.79149595167015], [-61.06082118689023, 45.791441380810085], [-61.06071887141584, 45.79138653887039], [-61.06067991405716, 45.791359775060364], [-61.06068214850178, 45.79103578381983], [-61.06070910813735, 45.79096333500307], [-61.06072563966357, 45.79094447096596], [-61.060747958975675, 45.7909189905905], [-61.06078590471942, 45.790900733149236], [-61.060851128582165, 45.79083792576418], [-61.06093083980858, 45.79078327600815], [-61.06094206942128, 45.79077556394131], [-61.06104516892759, 45.79065941258603], [-61.06113727705192, 45.79052591900831], [-61.061163030274, 45.790488597769006], [-61.06122734460804, 45.790423794547905], [-61.06127901891822, 45.790371755909064], [-61.061395949760815, 45.790264830814415], [-61.06142835889431, 45.79021996279372], [-61.06143514272331, 45.79021059107787], [-61.061527515824125, 45.79012320383359], [-61.06153890240634, 45.79011244309623], [-61.06156737452229, 45.79007647302579], [-61.06161694462569, 45.7900138585692], [-61.06164261666701, 45.78994138767005], [-61.0616682955888, 45.789905820211324], [-61.061693771149486, 45.7898879898965], [-61.06169466767537, 45.78988736605322]]}, "properties": {"OBJECTID": 117091, "FEAT_CODE": "WALK20", "FEAT_DESC": "Lake - Water to the right line", "RIVNAME_1": " ", "RIVNAME_2": " ", "ZVALUE": 0.8, "FID": null, "SHAPE_Length": 221.26851995194886}}, {"type": "Feature", "id": 117092, "geometry": {"type": "LineString", "coordinates": [[-61.05852887487528, 45.788426770223765], [-61.0585555284313, 45.78840022083764], [-61.058594446539665, 45.788390981461646], [-61.058723090544305, 45.78839136786288], [-61.05876069188002, 45.78838299713041], [-61.05882501356363, 45.788383199250845], [-61.05886396798535, 45.7884099636591], [-61.05886430385595, 45.788436971811386], [-61.05887623779664, 45.78846417707459]]}, "properties": {"OBJECTID": 117092, "FEAT_CODE": "WALK20", "FEAT_DESC": "Lake - Water to the right line", "RIVNAME_1": " ", "RIVNAME_2": " ", "ZVALUE": 0.8, "FID": null, "SHAPE_Length": 35.280962748782194}}, {"type": "Feature", "id": 117093, "geometry": {"type": "LineString", "coordinates": [[-61.05887623779664, 45.78846417707459], [-61.058849883866266, 45.78848173081288], [-61.05881641383242, 45.788497840482854], [-61.05881195203782, 45.788499987852944], [-61.058670449601685, 45.78849938299922], [-61.058632156542664, 45.78849062239508], [-61.05856717311926, 45.78847242529026], [-61.058529535858504, 45.788444783088714], [-61.05852887487528, 45.788426770223765]]}, "properties": {"OBJECTID": 117093, "FEAT_CODE": "WALK20", "FEAT_DESC": "Lake - Water to the right line", "RIVNAME_1": " ", "RIVNAME_2": " ", "ZVALUE": 0.8, "FID": null, "SHAPE_Length": 32.23024069059256}}, {"type": "Feature", "id": 117094, "geometry": {"type": "LineString", "coordinates": [[-61.0547848937524, 45.790202834441246], [-61.054786145903414, 45.79016685251533], [-61.05482227186997, 45.79015434458277], [-61.05499190868295, 45.79009564901158], [-61.0551590980289, 45.79006069346141], [-61.055249462008895, 45.79001542788451], [-61.05535294026678, 45.78996228478796], [-61.05554744185046, 45.78988188863554], [-61.055585370088686, 45.789864532702794], [-61.05581690044994, 45.78982887044404], [-61.05597154293547, 45.789784698418195], [-61.05610140675903, 45.789713102027704], [-61.056103199614185, 45.78971186342636], [-61.05616602129381, 45.789668297562166], [-61.056230813970885, 45.7896350171326], [-61.05626949805396, 45.7896151536076], [-61.05637208042731, 45.78958809669809], [-61.05643702928851, 45.78957030020815], [-61.05662965158885, 45.789543875111185], [-61.05665568112332, 45.789535317181425], [-61.05690182037716, 45.789338786721515], [-61.05692046139027, 45.789325512619556], [-61.05694007892705, 45.789311535062104], [-61.057005027293734, 45.7892937382402], [-61.05712102192945, 45.789176900680594], [-61.05715750855432, 45.789151761000205], [-61.0571987931233, 45.7891233186142], [-61.05730294135293, 45.78908818676947], [-61.05731579965549, 45.789088405474104], [-61.05733988343864, 45.78907918423613], [-61.05734057461963, 45.7890789169669], [-61.05748207814153, 45.78907953248736], [-61.05749462385353, 45.78908874666947], [-61.05754643641445, 45.78911573020487], [-61.05755901765597, 45.789160948239555], [-61.057559365746734, 45.7891879566009]]}, "properties": {"OBJECTID": 117094, "FEAT_CODE": "WALK20", "FEAT_DESC": "Lake - Water to the right line", "RIVNAME_1": " ", "RIVNAME_2": " ", "ZVALUE": 0.8, "FID": null, "SHAPE_Length": 268.6402651829096}}, {"type": "Feature", "id": 117095, "geometry": {"type": "LineString", "coordinates": [[-61.057559365746734, 45.7891879566009], [-61.05755874058509, 45.78920594759658], [-61.05754560517079, 45.789250728275334], [-61.05740236687892, 45.7894481102291], [-61.05737331107402, 45.789481927145], [-61.057363483222915, 45.789493353037614], [-61.0572828101502, 45.78952787613748], [-61.05726032033235, 45.789537502509255], [-61.057220521003984, 45.789645735386465], [-61.05716856772982, 45.78977086305435], [-61.05708954885978, 45.7898973304564], [-61.056999891134396, 45.789959711048375], [-61.056955494126036, 45.789982546909386], [-61.05684401096647, 45.790039866660486], [-61.056741449764594, 45.79010293660446], [-61.05670290942244, 45.79013827513057], [-61.05652067638887, 45.79027288688191], [-61.05646955807796, 45.79029992857515], [-61.056405265205974, 45.790298834539065], [-61.05623797559109, 45.79026267568801], [-61.056083888241524, 45.790216858396406], [-61.05596837739961, 45.790171679494776], [-61.05591753766034, 45.790153712618725], [-61.055802405294095, 45.79013465134823], [-61.055686615936594, 45.790134480484284], [-61.05546761412957, 45.79014245325733], [-61.05531326203736, 45.790141625479684], [-61.055261470805036, 45.7901506445491], [-61.05513250992236, 45.79015924966679], [-61.05505630029153, 45.79016785284693], [-61.055043644672914, 45.790172155747435], [-61.054978178803246, 45.79019442414422], [-61.054900683249876, 45.7902030053222], [-61.0547848937524, 45.790202834441246]]}, "properties": {"OBJECTID": 117095, "FEAT_CODE": "WALK20", "FEAT_DESC": "Lake - Water to the right line", "RIVNAME_1": " ", "RIVNAME_2": " ", "ZVALUE": 0.8, "FID": null, "SHAPE_Length": 290.8810754609569}}]}