{"type": "FeatureCollection", "features": [{"type": "Feature", "id": 23535, "geometry": {"type": "LineString", "coordinates": [[-61.072347889111974, 45.76249271581694], [-61.072271628534196, 45.762429322840866], [-61.072207336089356, 45.762429137766574], [-61.071989374127966, 45.76241015718488], [-61.071668176939774, 45.76236423088361], [-61.071347290379464, 45.76230930807339], [-61.071218350860036, 45.762281928309235], [-61.071026390756934, 45.76221748065542], [-61.07084725230556, 45.762154149329994], [-61.07071826886788, 45.76209076485805], [-61.07043743482585, 45.76191860490089], [-61.070296530965926, 45.761828016010305], [-61.07012989230584, 45.76173789219152], [-61.07002793109009, 45.761674063439614], [-61.06982529601852, 45.761561296821604], [-61.06978440334387, 45.76153853565579], [-61.06971667960048, 45.76150253080778], [-61.06957984379048, 45.761429768456274], [-61.069426711280684, 45.76132097009325], [-61.06927326897277, 45.76122116713686], [-61.06906772396043, 45.76110338150196], [-61.068926806191044, 45.76101369075524], [-61.06873506390305, 45.76086824424526], [-61.068377293574066, 45.760615561715575], [-61.06823701745111, 45.7605069791698], [-61.06807099541823, 45.760361957547914], [-61.06798119547255, 45.760281240037955], [-61.0677640477178, 45.760127243348684], [-61.067560373849105, 45.75995548150824], [-61.067457431474025, 45.75988263298269], [-61.06731752490352, 45.759801058105346], [-61.06729081606662, 45.75979250537604], [-61.06724031052152, 45.75976554823959], [-61.06712457241484, 45.759728486291834], [-61.06704774228969, 45.75971908527421], [-61.06698314232754, 45.759727892903655], [-61.06696955493582, 45.75973259540967], [-61.066931083224205, 45.759745913605684], [-61.06667285098682, 45.75992516013603], [-61.06655688593784, 45.759969101454224], [-61.066234320091006, 45.76011215458189], [-61.066080120861876, 45.760183341704476], [-61.06601556146467, 45.760228161886964], [-61.06592402431207, 45.760309410694575], [-61.0658795366145, 45.76035241048433], [-61.06579497768017, 45.76043414639283], [-61.06569094004884, 45.760542194874695], [-61.065638297852516, 45.76060048392679], [-61.06556123959611, 45.760685812021755], [-61.065444691277584, 45.7607837474433], [-61.06531530064799, 45.760918368701894], [-61.06523765921916, 45.761043965510204], [-61.06514589015538, 45.761206226426125], [-61.06510683498857, 45.761331576725574], [-61.06498948359121, 45.761601414334265], [-61.06488800121067, 45.761859684561166], [-61.06488372871834, 45.76187055720756], [-61.06484659341035, 45.761986471038746], [-61.064831830269156, 45.76203258428486], [-61.06481951353577, 45.76212731657108], [-61.064817815130304, 45.762140357029395], [-61.06481639427803, 45.762293356416386], [-61.06485446949934, 45.762419104358614], [-61.064866740265394, 45.76247331736564], [-61.0649044044583, 45.76253696145852], [-61.06496846742077, 45.76261815440949], [-61.06501963772259, 45.7626631164993], [-61.06527480721364, 45.7628708674362], [-61.06551738072657, 45.76307029468693], [-61.06578600290527, 45.763260261618136], [-61.06591339987578, 45.76333262563895], [-61.06601601221234, 45.76337756729454], [-61.06609351053573, 45.76340498200897], [-61.06627358001935, 45.7634413340017], [-61.06651693779606, 45.763469756261735], [-61.0666966550314, 45.7634790990774], [-61.06695354223411, 45.76352575111524], [-61.067146749964095, 45.76355333224251], [-61.06739046368802, 45.76357184872835], [-61.06760904968763, 45.763572846948406], [-61.06786587101688, 45.7635465889455], [-61.06806030499301, 45.76350217348245], [-61.06827818374151, 45.763449153367745], [-61.068330245916385, 45.76343113211107], [-61.068497955257754, 45.76337817215002], [-61.068808840485666, 45.763253870972164], [-61.06898826926478, 45.76318213465887], [-61.06903378858216, 45.76316625267307], [-61.069167899082856, 45.76311946531643], [-61.06930960465344, 45.763075056402656], [-61.069631913650916, 45.76301389802552], [-61.06969652990906, 45.76300508917388], [-61.07005712867101, 45.76291577399917], [-61.07030168309151, 45.76287220162094], [-61.07050673654909, 45.762854963956464], [-61.0709319815256, 45.76282974405332], [-61.07133054627385, 45.762795071185955], [-61.07140800155576, 45.76278647817025], [-61.0714559683635, 45.762766343141045], [-61.071471926476185, 45.762759654941966], [-61.071613907175205, 45.76267024356749], [-61.07166417415104, 45.762647915075924], [-61.07179543776385, 45.762589600482684], [-61.0719371399994, 45.762545188249476], [-61.07205282744292, 45.762509337559536], [-61.07216883915143, 45.76250139485819], [-61.072347889111974, 45.76249271581694]]}, "properties": {"OBJECTID": 23535, "FEAT_CODE": "WACOIS10", "FEAT_DESC": "Coastal Island - Water to the right line", "RIVNAME_1": " ", "RIVNAME_2": " ", "ZVALUE": 0.2, "FID": null, "SHAPE_Length": 1557.5531107366833}}, {"type": "Feature", "id": 116529, "geometry": {"type": "LineString", "coordinates": [[-61.06986499201419, 45.76274421131128], [-61.06989910430811, 45.762690296638475], [-61.0699044359739, 45.76268187193471], [-61.06992849041627, 45.76264812920463], [-61.0699557882579, 45.76260983284307], [-61.070021233856046, 45.76250202847828], [-61.07003859477028, 45.76247480624337], [-61.07007289609684, 45.762420993720205], [-61.07010582555966, 45.76237936315789], [-61.07015088322215, 45.762322402047474], [-61.07015750966715, 45.7623111099363], [-61.070256081518735, 45.76214326243055], [-61.07027450338243, 45.76212330376832], [-61.07028146246602, 45.76211578862597], [-61.07030305096155, 45.76209499237717], [-61.0703466409028, 45.76205298380405], [-61.07048719080468, 45.762116564099465], [-61.07056375910318, 45.7621709626215], [-61.070691767495184, 45.762225329946936], [-61.070883492727965, 45.76233387836005], [-61.07097353424826, 45.762370502472585], [-61.07114103066591, 45.762398533672624], [-61.07120470286042, 45.76241671057208], [-61.07122981824496, 45.7624342363207], [-61.071243025486595, 45.76246146190327]]}, "properties": {"OBJECTID": 116529, "FEAT_CODE": "WALK20", "FEAT_DESC": "Lake - Water to the right line", "RIVNAME_1": " ", "RIVNAME_2": " ", "ZVALUE": 0.7, "FID": null, "SHAPE_Length": 170.845281313235}}, {"type": "Feature", "id": 116530, "geometry": {"type": "LineString", "coordinates": [[-61.071243025486595, 45.76246146190327], [-61.0712295530111, 45.76247923608862], [-61.07116597037125, 45.762533067510525], [-61.07108171882037, 45.7625720674625], [-61.071049662093756, 45.76258690851519], [-61.07100036893041, 45.76260597687441], [-61.07093366373667, 45.76263175378642], [-61.07091696706194, 45.762636737276374], [-61.070816721140034, 45.76266668205643], [-61.07061103521045, 45.76270191129179], [-61.07050784423641, 45.762710969084644], [-61.07031595389509, 45.762719428297935], [-61.07022563336678, 45.76272780320054], [-61.070122441983585, 45.76273686963891], [-61.06995534379384, 45.762771840618775], [-61.06989074069464, 45.76278064983936], [-61.06986502313601, 45.76278021523386], [-61.0698650044315, 45.76275727175327], [-61.06986499201419, 45.76274421131128]]}, "properties": {"OBJECTID": 116530, "FEAT_CODE": "WALK20", "FEAT_DESC": "Lake - Water to the right line", "RIVNAME_1": " ", "RIVNAME_2": " ", "ZVALUE": 0.7, "FID": null, "SHAPE_Length": 120.42329169406429}}]}