{"type": "FeatureCollection", "features": [{"type": "Feature", "id": 23429, "geometry": {"type": "LineString", "coordinates": [[-61.09819878188095, 45.75000086074278], [-61.09826598999253, 45.749908370842675], [-61.09829184513667, 45.749872797891086], [-61.09833028751894, 45.749825859402364], [-61.09839512650139, 45.74974670526119], [-61.09848620109364, 45.749639311123076], [-61.09862900955076, 45.749522877210936], [-61.09877088798005, 45.749433430229196], [-61.098990672781184, 45.749316116995494], [-61.0991061104488, 45.749254492217275], [-61.099170325235775, 45.74921865740228], [-61.09926152379161, 45.749183271616744], [-61.099467385504305, 45.74910298933268], [-61.0997763449302, 45.74897761750996], [-61.09986625778064, 45.74894220984964], [-61.09995713727751, 45.74891581906402], [-61.09999998059115, 45.74890393058083], [-61.10008564146635, 45.748880153137804], [-61.10018870864602, 45.74883596317651], [-61.10022691823935, 45.74880869606141], [-61.10026604363661, 45.74875444157177], [-61.10027980883232, 45.74872766793509], [-61.10027974500711, 45.748691663413986], [-61.10024134411641, 45.748610916985946], [-61.10011473572402, 45.748439594726], [-61.10005063669514, 45.74835842075202], [-61.09999984766664, 45.74830177049692], [-61.09996144999704, 45.74825882765827], [-61.099948918926216, 45.74824961832722], [-61.09979595973309, 45.748096759147245], [-61.09976987960679, 45.7480693226443], [-61.0995792520397, 45.74785283939231], [-61.09936132517123, 45.747644884390986], [-61.09910703601758, 45.74741023026866], [-61.098991836117634, 45.74731920431746], [-61.098837367424785, 45.74721132303771], [-61.098505702540045, 45.7470212839809], [-61.09833939656325, 45.746921305726694], [-61.098211332302014, 45.74683096487243], [-61.09789086781833, 45.74661410790922], [-61.09759748101533, 45.746432804448496], [-61.097264540107695, 45.7462427405004], [-61.09716127221575, 45.74617981415463], [-61.09694414440383, 45.74606188547536], [-61.096777525425225, 45.74597090057955], [-61.09666300060142, 45.74589878532663], [-61.09658544909036, 45.745835386923275], [-61.096406882597094, 45.74571809984895], [-61.096265657167905, 45.74563652930035], [-61.09612543618597, 45.74556399419084], [-61.096061101426514, 45.74552781835255], [-61.0959208684429, 45.745455273789105], [-61.09581731531326, 45.74540044224498], [-61.09565074331759, 45.745346360043015], [-61.09557453321874, 45.745330507907035], [-61.095561372052465, 45.745327768209094], [-61.0954077532666, 45.745309005032524], [-61.09521456674929, 45.7452814809827], [-61.09493269503967, 45.74525337746287], [-61.09398202864019, 45.74519612143504], [-61.09371239428345, 45.74518621186041], [-61.09287687474114, 45.74518306449136], [-61.09258059337772, 45.74520061898935], [-61.09233638015402, 45.74519924049262], [-61.09215708114466, 45.74521694757791], [-61.09207965299534, 45.74522555512912], [-61.091796615723304, 45.74526942235783], [-61.09162887938364, 45.74528733979703], [-61.091448997556654, 45.745322128685515], [-61.09137467589635, 45.7453546219752], [-61.0913458996253, 45.74536721035219], [-61.09126852925452, 45.74541182180166], [-61.0912425835816, 45.74545639254669], [-61.09122793099718, 45.745474401433356], [-61.09117683473058, 45.7455372016372], [-61.091137512271274, 45.74567245758374], [-61.0911113756204, 45.74579803293755], [-61.09111026470822, 45.74590602481158], [-61.09112186968837, 45.74613124051655], [-61.09111951504873, 45.74646423333305], [-61.09110499950551, 45.74662601537407], [-61.09109103998963, 45.74673378348774], [-61.09109060037916, 45.74685978830307], [-61.09107786771045, 45.74693157344205], [-61.091063484833356, 45.74697634639378], [-61.09099932551148, 45.74704818106316], [-61.09092201034222, 45.74712879666416], [-61.09085631678413, 45.747245609947875], [-61.09081699221982, 45.747380865714284], [-61.09081469322864, 45.747749862861134], [-61.090825714262316, 45.74799217041826], [-61.090824980011966, 45.74812717115003], [-61.09086270980874, 45.74822681136633], [-61.090888202689285, 45.748271341738246], [-61.09091266078528, 45.74830776302847], [-61.09100275182823, 45.74838036672058], [-61.09118141813819, 45.74856967080223], [-61.09133340386493, 45.74875042795078], [-61.09134723137591, 45.74875965989332], [-61.091461800519426, 45.74886777565192], [-61.091538703723906, 45.74891318294532], [-61.09162846228623, 45.74895787789607], [-61.091679553002194, 45.748967732416595], [-61.091743523751454, 45.74897690202574], [-61.091820201559926, 45.74895953332589], [-61.09182126379219, 45.748959299048536], [-61.09189363260671, 45.748927654942264], [-61.09192436806492, 45.74891421707862], [-61.092092521478854, 45.74877121214116], [-61.09216983733335, 45.74869059577891], [-61.092203806768154, 45.74866676185487], [-61.092221206497136, 45.748654550292244], [-61.092311429965164, 45.748610152900696], [-61.09236316424702, 45.74860111604658], [-61.09244059704533, 45.74859250838145], [-61.09252999017529, 45.74861020292478], [-61.092633486916824, 45.74862903301623], [-61.092852086842626, 45.74847696845014], [-61.09286802762788, 45.74846040301042], [-61.09290406829523, 45.74842293114704], [-61.09293032056359, 45.74836936429798], [-61.0929309334722, 45.74835137279933], [-61.09291801200499, 45.748315162578656], [-61.0929006521435, 45.748298662149836], [-61.092879418469636, 45.74827850568821], [-61.09286684508941, 45.74827019495884], [-61.09286649240976, 45.748243186470354], [-61.0929442488914, 45.74822468291521], [-61.09309911326737, 45.74820746672356], [-61.09320095886733, 45.74819926613515], [-61.093290964422586, 45.74819896857532], [-61.09348468253869, 45.748173399622694], [-61.093600692760255, 45.74816453503425], [-61.09376782396681, 45.7481646243337], [-61.093818901521686, 45.74817447767839], [-61.09383294160739, 45.74818427092191], [-61.093844030751946, 45.74819199872009], [-61.09387009513566, 45.74821943631621], [-61.09388269805273, 45.748264641979176], [-61.09388103908832, 45.74842663888547], [-61.09385478769415, 45.74848020596661], [-61.09384199782472, 45.748516004976395], [-61.0938153500396, 45.748543453920135], [-61.09377747453004, 45.74856082351561], [-61.09371258489156, 45.74857864230681], [-61.09368687349719, 45.748578213165835], [-61.09366146350723, 45.74856968827048], [-61.093636377653254, 45.748551267827125], [-61.09355894506984, 45.74855987630699], [-61.09349436173297, 45.748568699220975], [-61.09348069406974, 45.748581567332764], [-61.093455842727884, 45.748604959786654], [-61.093429224737484, 45.74863152705257], [-61.09340524496013, 45.74867349382972], [-61.09340324886185, 45.74867698884769], [-61.09336487911292, 45.74878435871297], [-61.093324086740246, 45.74900059859244], [-61.093220025472526, 45.74922478306599], [-61.09319316020756, 45.74929634147056], [-61.09317959783463, 45.74946803156311], [-61.09317885627721, 45.74960303215227], [-61.09320378516464, 45.749701557766045], [-61.093241533041834, 45.749801197468926], [-61.093317278231595, 45.74991767304729], [-61.09338253148489, 45.750002470403146], [-61.09339360588616, 45.75001705665484], [-61.09340712765564, 45.750035284105515], [-61.0934699809872, 45.75015242645492], [-61.09358354766984, 45.75040456413869], [-61.09363420619538, 45.750540413651365], [-61.09364695844763, 45.75065674663611], [-61.09365734855083, 45.75091794507976], [-61.093657161226524, 45.75099894971632], [-61.093616614973186, 45.75117018942256], [-61.09359078727868, 45.75128676952853], [-61.09353830982295, 45.75143080746242], [-61.09343271252823, 45.75169997071616], [-61.09331551849291, 45.75196984035243], [-61.0931854728737, 45.75223950430056], [-61.09292406529709, 45.75274187921264], [-61.092780493942854, 45.75299330610371], [-61.092625662521435, 45.75323554390302], [-61.092550713259705, 45.753343130616365], [-61.092468842162845, 45.753460646633734], [-61.09244006066484, 45.75350420714297], [-61.09232649326701, 45.75367608990976], [-61.092248250649234, 45.753783693417134], [-61.09218316483943, 45.75388251578126], [-61.09206642857753, 45.75402547959498], [-61.09204044865253, 45.75407094997776], [-61.09194942588461, 45.7542143342118], [-61.09191097773326, 45.754285707759394], [-61.09187599326353, 45.754338831414366], [-61.09184587787086, 45.754384529689624], [-61.091818513102986, 45.75440724971698], [-61.09178105193553, 45.75443835186854], [-61.09168545736757, 45.75448989575661], [-61.09166447317068, 45.75450121025748], [-61.09164927852374, 45.75451204543474], [-61.0916262555218, 45.75452847435373], [-61.09159932734035, 45.75456402784529], [-61.09157374229555, 45.75463560720389], [-61.09156039405412, 45.75472540174145], [-61.091560452457365, 45.75476139714657], [-61.091584926852505, 45.75479780952458], [-61.09166156449641, 45.75488819853401], [-61.09178932956165, 45.75498753347477], [-61.091866215893255, 45.75503293121416], [-61.09200744545843, 45.75511449814076], [-61.09218695179447, 45.755204805037536], [-61.09234072644434, 45.755295581955735], [-61.09239093386173, 45.75533152387407], [-61.092531917066324, 45.75545809031398], [-61.09276135457295, 45.75563024688712], [-61.09295346744778, 45.75576575836075], [-61.09299180332309, 45.75581050264626], [-61.09308068253085, 45.75591909679073], [-61.09311877117949, 45.75600884118248], [-61.09314422571489, 45.75605427043727], [-61.09314336529583, 45.75611726206018], [-61.09313033880033, 45.75619805227433], [-61.0930906933496, 45.75634230413314], [-61.093083680290235, 45.756353402109035], [-61.09305127966337, 45.75640465206481], [-61.092948004981096, 45.75656302592526], [-61.09292238932986, 45.756602318986275], [-61.092912435584616, 45.756615942093966], [-61.09286978693519, 45.75667434757572], [-61.09286867851958, 45.756782339322264], [-61.09288173703964, 45.7568896675379], [-61.09286835988826, 45.75698035279732], [-61.09286349471461, 45.756991054582706], [-61.09281552715119, 45.757096481696614], [-61.09276903433857, 45.75717711806094], [-61.092763608653115, 45.75718653236068], [-61.092633371866405, 45.75734816403423], [-61.09247842274176, 45.75751839268606], [-61.09237534853412, 45.75759947902432], [-61.09234903288201, 45.757617032199484], [-61.092283883759876, 45.757679859095646], [-61.09212867150011, 45.75789508713553], [-61.09211587849229, 45.75793087684858], [-61.0921179712375, 45.75793738341992], [-61.09212749030522, 45.75796707422821], [-61.09214386185269, 45.75797831974206], [-61.09216645317399, 45.75799382754262], [-61.0922044066373, 45.758012472216144], [-61.092255523800446, 45.75802141781364], [-61.09230727969235, 45.75801238135196], [-61.09271974656929, 45.757869855771894], [-61.092887417142016, 45.75781685931184], [-61.09296420378885, 45.75779022979734], [-61.09306830228106, 45.757754164297225], [-61.093081924842934, 45.757747596095534], [-61.09319642229066, 45.75769238826755], [-61.09338283241751, 45.75763621160229], [-61.09340299592326, 45.757630139588734], [-61.09343489364488, 45.75761819687471], [-61.09357101540824, 45.75756723800851], [-61.09373802516907, 45.75749621856016], [-61.09388031063417, 45.757433787100354], [-61.09397021186886, 45.75736148042438], [-61.09399408637607, 45.757337054489696], [-61.09402217015184, 45.75730834237995], [-61.094035230801765, 45.75729259281736], [-61.09407446533733, 45.75724530899447], [-61.094093429492276, 45.757231782139705], [-61.094112683411986, 45.75721805309741], [-61.09412614769045, 45.75720026706574], [-61.09425490828016, 45.75711960774162], [-61.09430717239105, 45.757057473814896], [-61.09433255216416, 45.75702999463211], [-61.094351658122164, 45.75700927841777], [-61.09442334044843, 45.75693159991936], [-61.09446372633982, 45.75690373201054], [-61.094501018040134, 45.75687799067204], [-61.09458848144451, 45.75681227646208], [-61.09466860767959, 45.7567520743205], [-61.094685452179334, 45.75673281446557], [-61.09470740732332, 45.756707717300415], [-61.09474721639238, 45.75667147787444], [-61.09477316478893, 45.75662690645434], [-61.094824725679956, 45.756509855343296], [-61.094889749873445, 45.756375027067904], [-61.094916676898116, 45.756339472791794], [-61.095058897794814, 45.756241035358215], [-61.09507610655177, 45.75621635400409], [-61.09509674847179, 45.75618676143476], [-61.09509821907376, 45.756105778266196], [-61.09506043336196, 45.75600703873635], [-61.09502228127822, 45.7558812905153], [-61.09500992213158, 45.755791075821406], [-61.09501072013547, 45.75569207971909], [-61.095050407618054, 45.755583831307796], [-61.095128280983545, 45.755449217185564], [-61.09515416808496, 45.75536864122417], [-61.09520762434555, 45.755233619816686], [-61.09525887649739, 45.75512557319422], [-61.09530179082859, 45.755044894119195], [-61.095311077376536, 45.75502742530908], [-61.09536355396808, 45.7548833866277], [-61.09542955380545, 45.75475757513992], [-61.095481478216875, 45.75466753233377], [-61.09560145399031, 45.75449452019608], [-61.0956369747644, 45.75444329452547], [-61.09569110519922, 45.75437644760879], [-61.09581815774632, 45.75421950274821], [-61.096000326782914, 45.75396781545395], [-61.09611615274643, 45.753850934938285], [-61.09619409497368, 45.75375232463766], [-61.09624406692211, 45.75369088965849], [-61.09625983385866, 45.75367151259256], [-61.09636334118105, 45.75350132142591], [-61.09641593601615, 45.75342929107074], [-61.0965191364664, 45.75326809550147], [-61.096659168291936, 45.75303483168637], [-61.096675866181826, 45.75300697326414], [-61.096740295219796, 45.75289014466935], [-61.09680587866434, 45.7527382229192], [-61.09692403718113, 45.752477357673556], [-61.097028639894305, 45.752199182804155], [-61.09714581666343, 45.75192930909145], [-61.09719889700718, 45.751767277839505], [-61.097238859764666, 45.75170140024569], [-61.09726427726489, 45.75165945663588], [-61.09739430163652, 45.75138979667988], [-61.0973984697504, 45.75138178333977], [-61.0975249676403, 45.751139049063], [-61.09766814502322, 45.750860607003666], [-61.09781139130649, 45.75064744015619], [-61.09783741894462, 45.75060870188036], [-61.09787027930559, 45.75055087855166], [-61.0981232174134, 45.750105812661644], [-61.098174491150445, 45.75003465954979], [-61.09819878188095, 45.75000086074278]]}, "properties": {"OBJECTID": 23429, "FEAT_CODE": "WACOIS10", "FEAT_DESC": "Coastal Island - Water to the right line", "RIVNAME_1": " ", "RIVNAME_2": " ", "ZVALUE": 0.2, "FID": null, "SHAPE_Length": 4036.4835183054506}}, {"type": "Feature", "id": 23466, "geometry": {"type": "LineString", "coordinates": [[-61.09089105860648, 45.75124077471806], [-61.09089130798994, 45.75119576557284], [-61.09086582639333, 45.75115124441253], [-61.09082850415577, 45.75111461709654], [-61.0906875931044, 45.751024053112126], [-61.090622948944116, 45.750996869932194], [-61.09035384361732, 45.750932965121294], [-61.09008443198494, 45.75087805541576], [-61.0899558157275, 45.75084170129957], [-61.089545553483326, 45.750732229716505], [-61.0891221360873, 45.75063153742411], [-61.089032740913574, 45.75061384018478], [-61.088916392141265, 45.75059479178917], [-61.088659889644724, 45.75057609817305], [-61.08848020898915, 45.75056679050397], [-61.08823627997308, 45.750556407146995], [-61.08792706351682, 45.75053772960349], [-61.08784993440934, 45.75053734742785], [-61.08745238795651, 45.750545083428065], [-61.08725924321206, 45.75055355010219], [-61.08705386358551, 45.750543809801414], [-61.08686039979305, 45.75052436777832], [-61.08662927747045, 45.750515094691515], [-61.08635901683179, 45.75052316891012], [-61.08615428166066, 45.75053143951646], [-61.086012579106715, 45.750539865988074], [-61.08567801355153, 45.75054776013975], [-61.084739601162305, 45.750543728726534], [-61.084482792765115, 45.75053402145584], [-61.08429026350436, 45.750524491699615], [-61.0842005930598, 45.75051488683458], [-61.08411030685982, 45.750523273298874], [-61.084007140195844, 45.750532343701586], [-61.08386578540868, 45.75056778493621], [-61.08376212731168, 45.750622004209426], [-61.08371101861024, 45.75065698815171], [-61.08360734181193, 45.750756058276494], [-61.08359745608778, 45.75076953771274], [-61.08356822978798, 45.750809407190744], [-61.08354162862044, 45.75087286697024], [-61.08350297055832, 45.7510252329814], [-61.08344723000838, 45.75126682591298], [-61.083436557395736, 45.751313046272045], [-61.08343502113365, 45.75132411855726], [-61.083422876538556, 45.751411826195564], [-61.08341058347781, 45.75157558863334], [-61.08340871112173, 45.75160060661553], [-61.08336798375622, 45.751888850866855], [-61.08335339135914, 45.752014618064095], [-61.08335161803953, 45.75232961848353], [-61.08336271277778, 45.752455816733956], [-61.08342582421255, 45.75275300414907], [-61.083462663189124, 45.75287873429698], [-61.08351369020081, 45.7530407149495], [-61.083538880859194, 45.75313113725093], [-61.08357582628814, 45.75332887602567], [-61.08363794980983, 45.75361704584455], [-61.08367513255481, 45.753770693340776], [-61.083699430576225, 45.753887203112306], [-61.08371126125731, 45.754067418802386], [-61.08370891371062, 45.754436414644516], [-61.0837197677315, 45.754607604071985], [-61.08371956552897, 45.754688617408576], [-61.083679619911706, 45.75484096178788], [-61.083640232002935, 45.75494021044366], [-61.08361340455769, 45.75504777060891], [-61.08354866308367, 45.75517359639493], [-61.083444519856876, 45.75539867049137], [-61.08339260634432, 45.755487807924695], [-61.08336341051055, 45.75552182727686], [-61.08335376792674, 45.755533060548515], [-61.08332695526168, 45.75555531075863], [-61.08328893261386, 45.75558687774478], [-61.083244201669956, 45.75561758506736], [-61.08319806174909, 45.75564925882033], [-61.083081471061114, 45.7557121082403], [-61.083004387842195, 45.75574771799466], [-61.08279909474027, 45.755809987371464], [-61.0826185574584, 45.75586275302918], [-61.08248942302429, 45.75591639040524], [-61.08236111760936, 45.755961211713405], [-61.082334555754514, 45.755970495665494], [-61.082321396938795, 45.75597926658244], [-61.08227683032873, 45.75599201957421], [-61.08216686812202, 45.7560234853558], [-61.082086352898315, 45.75605115210961], [-61.08201203108395, 45.756076690599954], [-61.08193882905835, 45.75610819741357], [-61.08184498046258, 45.75614859231366], [-61.081535356428724, 45.7562910059847], [-61.08123858181608, 45.7564336346816], [-61.0809154558867, 45.75659472163639], [-61.08078698628514, 45.756666369966275], [-61.080284033495204, 45.756934243676376], [-61.080069288486435, 45.75704129954271], [-61.0799609019679, 45.75709532782666], [-61.07986138835882, 45.75714221448415], [-61.079638077279995, 45.7572474153631], [-61.079341601574015, 45.757381043284525], [-61.07903263201841, 45.75754146286599], [-61.078760929031766, 45.757702517492376], [-61.078592325479626, 45.75781938358595], [-61.07858067716984, 45.75783019567252], [-61.07851528619576, 45.75789099446003], [-61.078385575001555, 45.75799862260822], [-61.07831885037834, 45.75807091093672], [-61.078294757138195, 45.758097004074216], [-61.07820426072925, 45.758186390021116], [-61.07811443363498, 45.75829222271787], [-61.078113120443454, 45.75829376676934], [-61.07810091826687, 45.758312463235555], [-61.07807763062501, 45.75833905592848], [-61.07806209163675, 45.7583568141568], [-61.078042219201066, 45.758389548889255], [-61.07799666649188, 45.75846462352927], [-61.07797075323211, 45.758545195141515], [-61.07795673354664, 45.75865386954503], [-61.07795564545025, 45.75879786489385], [-61.0779788449915, 45.759058379968884], [-61.07799034880686, 45.75924759147327], [-61.078002681033695, 45.75933780753058], [-61.07806572115749, 45.759598992997574], [-61.0781032192931, 45.75974273754382], [-61.078153519684996, 45.75985070308739], [-61.078293344656466, 45.76008526877581], [-61.07844535495228, 45.760302046589686], [-61.07852202761547, 45.760428457350926], [-61.07861122549821, 45.76052715812633], [-61.07870073822009, 45.76065377576524], [-61.07876421451632, 45.76075295281406], [-61.07885214673591, 45.76088854459356], [-61.07892846271394, 45.76098793751703], [-61.079081484798564, 45.761212841233096], [-61.079169777585925, 45.761375432369896], [-61.0791952729992, 45.76145686879147], [-61.07925791159176, 45.76165504980918], [-61.07927022741086, 45.761708352934356], [-61.079282712280275, 45.76190658157347], [-61.079282144746756, 45.76196057712369], [-61.07925535518169, 45.76210414018881], [-61.07922848457551, 45.76221259857195], [-61.07918879242169, 45.762319941235226], [-61.07914942769418, 45.76245520102042], [-61.07904497474452, 45.76268835742589], [-61.07903269995942, 45.76270315539107], [-61.07899265756282, 45.762751383519635], [-61.078875837905485, 45.76289523236914], [-61.078708015937856, 45.76310122908985], [-61.07860337990325, 45.76322728090896], [-61.07857679767066, 45.76328983965161], [-61.07853837553651, 45.76339721243863], [-61.078524986452095, 45.76348788674376], [-61.07852323161376, 45.76361387807861], [-61.07854814033733, 45.7637123973539], [-61.078560054547225, 45.7639646214895], [-61.078558250503896, 45.764054599602254], [-61.078609272691764, 45.76421657308614], [-61.07869766749326, 45.76445118199124], [-61.07878591397171, 45.76457777817978], [-61.07883776451157, 45.76464075618348], [-61.07918303366544, 45.76488508570197], [-61.07929789513155, 45.764948223083856], [-61.07942622740139, 45.7649935851786], [-61.07956647332425, 45.765066158982926], [-61.079669113326034, 45.765111079803596], [-61.07982349921807, 45.765147887651764], [-61.08014500274182, 45.76518479526758], [-61.080285804564305, 45.765203354461455], [-61.08033722937093, 45.76520421879474], [-61.080388980841995, 45.76519518766636], [-61.080554445017235, 45.765146015634656], [-61.08056959454008, 45.7651415177844], [-61.08065984111486, 45.76509713007669], [-61.080775169050526, 45.76503426198522], [-61.080827815174196, 45.764999143242136], [-61.08089205942386, 45.76496332827062], [-61.08114965419413, 45.76480203170663], [-61.081187114890554, 45.76477619857054], [-61.08122736823762, 45.764748432151926], [-61.081396296557756, 45.76462255788896], [-61.08164192965145, 45.76443496582213], [-61.08170743194537, 45.76438567925261], [-61.08179637845139, 45.76431875769325], [-61.0819126290071, 45.76422889240512], [-61.08217237560781, 45.76400463273774], [-61.08241764303108, 45.76379003030965], [-61.082663555954326, 45.76355653550767], [-61.082819271905954, 45.76340096045011], [-61.0828965833499, 45.76332372576981], [-61.08301427186319, 45.76321054428949], [-61.0831293003255, 45.76309991928719], [-61.083349246721795, 45.76291099232275], [-61.08344007707875, 45.76281259811842], [-61.08345048259146, 45.76280015353814], [-61.08354465788917, 45.76268744102476], [-61.08366130666799, 45.762435574363], [-61.08371418162677, 45.7623185504018], [-61.08375381222295, 45.76217520174683], [-61.083819943261204, 45.7618963848659], [-61.08391177767218, 45.76161800814445], [-61.084003950572914, 45.7613297180802], [-61.08408323930761, 45.76104212088736], [-61.084148870455365, 45.76085330388325], [-61.0841879231808, 45.760763950453665], [-61.084319625831725, 45.760485333008056], [-61.08446258556598, 45.760215914048935], [-61.08451447966726, 45.7600898633774], [-61.08455423105845, 45.76003904517249], [-61.08461937358407, 45.75995570965196], [-61.08476151433794, 45.759785276928724], [-61.08481684685738, 45.75972141664791], [-61.08483916420319, 45.75969567039951], [-61.08508504860619, 45.75946217067607], [-61.085247939737, 45.759302301201785], [-61.08533120795481, 45.75922057425837], [-61.085580613045494, 45.75903175869938], [-61.0856150275018, 45.759005711016194], [-61.085770769413955, 45.758888601017176], [-61.085900130020796, 45.75879086856397], [-61.08602597822284, 45.75868716354285], [-61.08644395561293, 45.75834273783975], [-61.08655355746941, 45.75825831889137], [-61.086572059697595, 45.75824407448057], [-61.086632524522834, 45.75821014611802], [-61.08677918996646, 45.75812783299236], [-61.087050215007665, 45.75794875524464], [-61.08708969161394, 45.75792241386246], [-61.087319359104406, 45.75779870010677], [-61.08743813512044, 45.75773473086335], [-61.087631513600094, 45.757645269104856], [-61.087798561898836, 45.75757334990114], [-61.08798540363659, 45.757496784336034], [-61.08814677511596, 45.75743066514767], [-61.08822245319886, 45.757404542313395], [-61.0884824729747, 45.757314772433574], [-61.08849532421324, 45.75731498751445], [-61.08882969212023, 45.75716306810204], [-61.08892023753934, 45.757120650011295], [-61.0891524614581, 45.75701185374542], [-61.089240160932555, 45.756972934123226], [-61.08947495267738, 45.75686873459094], [-61.089604026102165, 45.75677908488276], [-61.0898891020047, 45.75656423196819], [-61.08996503223096, 45.756489219547696], [-61.089979590190644, 45.75647483661375], [-61.09006940698092, 45.75636742824835], [-61.090109104488256, 45.75625918172611], [-61.09013653412615, 45.75613362842242], [-61.0901617882921, 45.75603414121467], [-61.090188353948164, 45.75597157943934], [-61.09020145466702, 45.75592679422], [-61.0901888535189, 45.75588157923241], [-61.090151497979015, 45.755845851253106], [-61.090073633576, 45.755791444153104], [-61.089997418488444, 45.755764067149876], [-61.08993344033431, 45.75575489645408], [-61.089907738552, 45.75575446662567], [-61.08988910730078, 45.75576123871286], [-61.08988169904474, 45.75576393208529], [-61.08988108499785, 45.755781923528545], [-61.089906567485976, 45.75582645389116], [-61.08995811590498, 45.75589842272879], [-61.08996980868668, 45.75597062511915], [-61.08996898889477, 45.75606962082489], [-61.08994306330619, 45.75615109504971], [-61.08982570239867, 45.756312047794346], [-61.08978717556376, 45.75634830695333], [-61.08976827894989, 45.7563745254309], [-61.08976153041804, 45.75638388146141], [-61.0897218130913, 45.75640604334907], [-61.08969730140673, 45.7564197107163], [-61.089671292258615, 45.75642827654945], [-61.08965841020108, 45.756428970171726], [-61.0896455591572, 45.75642875522487], [-61.08963203745712, 45.75641051834733], [-61.08964569603551, 45.75631173739208], [-61.08969874568037, 45.75611370578133], [-61.0897006675702, 45.755906718238386], [-61.08972717647073, 45.75580816119538], [-61.089728304025925, 45.75570016077716], [-61.08970216860461, 45.75563671765436], [-61.08965154192297, 45.75553776154483], [-61.089613515998245, 45.755484020460706], [-61.089549442511604, 45.755401941014185], [-61.08946122408352, 45.75531225695776], [-61.08942230792372, 45.755284603401655], [-61.08929454679227, 45.7551852568778], [-61.08912814667927, 45.755050160416964], [-61.0890772708682, 45.75499620416188], [-61.08903896941741, 45.754950559042996], [-61.089001208027156, 45.754851817886774], [-61.08900175303744, 45.75479782185926], [-61.088988789182686, 45.754725607088695], [-61.089002197993196, 45.75467181729389], [-61.08902878210495, 45.754608355997576], [-61.089081299831115, 45.75450123339007], [-61.08931444302315, 45.75415049106188], [-61.089457725874645, 45.753908064594114], [-61.089505519115114, 45.75383195171802], [-61.08953658809316, 45.75378247164315], [-61.08957496888302, 45.753675103324674], [-61.08958887693278, 45.753531322209994], [-61.08957714105547, 45.75342311559292], [-61.08956484796084, 45.75336890481087], [-61.08953999876169, 45.7533054831412], [-61.089437911058376, 45.7531705717425], [-61.089246975098945, 45.752963049087334], [-61.089119175738325, 45.75282769824484], [-61.089067648972986, 45.752754829266756], [-61.08904216847788, 45.75271029872711], [-61.08902987603752, 45.75265608789178], [-61.08900621261162, 45.75252067905035], [-61.08900548535852, 45.75246666171596], [-61.08901938161798, 45.752322880445284], [-61.08900707141013, 45.75226956939297], [-61.088995700162485, 45.75218838037982], [-61.08900893875592, 45.75202657737603], [-61.08903715094169, 45.75176512433105], [-61.08906390967322, 45.75162155824704], [-61.089065970648036, 45.7512975616806], [-61.089105665863286, 45.751189324385415], [-61.08910616718988, 45.75109931514306], [-61.089093173498995, 45.75102799092828], [-61.08906833833369, 45.75096457836707], [-61.08900486728521, 45.7508653979903], [-61.089030886767155, 45.75085683247651], [-61.08922365579227, 45.75082135392825], [-61.08931331486649, 45.75083095465499], [-61.089333995538816, 45.75083453193183], [-61.08941685776086, 45.75084889734099], [-61.089545699991994, 45.750865435943766], [-61.089634475105655, 45.75087683080549], [-61.08973739166524, 45.750912755449626], [-61.08977532702445, 45.75093139165253], [-61.08978854082608, 45.7509586152424], [-61.08978761986491, 45.75098560242861], [-61.0897780797075, 45.75099954722213], [-61.089775441070344, 45.75100340046454], [-61.08973505711799, 45.75103503813256], [-61.0896843035719, 45.75107478314045], [-61.0896583410277, 45.751119353206875], [-61.08967124780567, 45.75115557253707], [-61.08969700444189, 45.751192006789445], [-61.08981154383036, 45.75126412021384], [-61.08986333771276, 45.75129109794247], [-61.089964939495346, 45.75132790047593], [-61.090029583701096, 45.75135508402784], [-61.09010640675104, 45.75136446947491], [-61.09023466007224, 45.75137381476141], [-61.09064602752016, 45.75137530098074], [-61.09077521463107, 45.75135764968225], [-61.09078449442467, 45.75135434847422], [-61.090825973528176, 45.7513395963593], [-61.09086575014703, 45.7513042668025], [-61.09089105860648, 45.75124077471806]]}, "properties": {"OBJECTID": 23466, "FEAT_CODE": "WACOIS10", "FEAT_DESC": "Coastal Island - Water to the right line", "RIVNAME_1": " ", "RIVNAME_2": " ", "ZVALUE": 0.2, "FID": null, "SHAPE_Length": 4853.556377300473}}, {"type": "Feature", "id": 116440, "geometry": {"type": "LineString", "coordinates": [[-61.09974236114931, 45.748311888175515], [-61.099819258263814, 45.74835727178544], [-61.09984471500709, 45.74840269963537], [-61.099845071053245, 45.74842970815488], [-61.09984807990869, 45.74843878608064], [-61.099856729806966, 45.74846499649302], [-61.099899377770136, 45.748515291774986], [-61.09993338519238, 45.74855538932986], [-61.09994568745968, 45.74860959918121], [-61.099933289356194, 45.748636242506535], [-61.09992005240272, 45.74864517617457], [-61.0998304148826, 45.74867248768068], [-61.099804423698956, 45.74868105612806], [-61.099624428465795, 45.74868076162871]]}, "properties": {"OBJECTID": 116440, "FEAT_CODE": "WALK20", "FEAT_DESC": "Lake - Water to the right line", "RIVNAME_1": " ", "RIVNAME_2": " ", "ZVALUE": 0.7, "FID": null, "SHAPE_Length": 66.44747750016782}}, {"type": "Feature", "id": 116441, "geometry": {"type": "LineString", "coordinates": [[-61.099624428465795, 45.74868076162871], [-61.099612189894366, 45.74866255626314], [-61.09959860300891, 45.748608325001285], [-61.099587395858386, 45.74844612295089], [-61.099588185241934, 45.74834712656607], [-61.09962734378967, 45.74832977639143], [-61.09966494224758, 45.748320510025735], [-61.09974236114931, 45.748311888175515]]}, "properties": {"OBJECTID": 116441, "FEAT_CODE": "WALK20", "FEAT_DESC": "Lake - Water to the right line", "RIVNAME_1": " ", "RIVNAME_2": " ", "ZVALUE": 0.7, "FID": null, "SHAPE_Length": 50.20959889126689}}, {"type": "Feature", "id": 116442, "geometry": {"type": "LineString", "coordinates": [[-61.09242879759151, 45.7484482974509], [-61.092454417363875, 45.748435944115016], [-61.092466704080785, 45.74843002873319], [-61.09251931362095, 45.74839492191573], [-61.092554576616216, 45.748388580171834], [-61.09256977590598, 45.74838585472331], [-61.09258262512597, 45.74838606931222], [-61.09264665460507, 45.74843123386151], [-61.09265986926326, 45.74845845714325]]}, "properties": {"OBJECTID": 116442, "FEAT_CODE": "WALK20", "FEAT_DESC": "Lake - Water to the right line", "RIVNAME_1": " ", "RIVNAME_2": " ", "ZVALUE": 0.7, "FID": null, "SHAPE_Length": 24.555728185058747}}, {"type": "Feature", "id": 116503, "geometry": {"type": "LineString", "coordinates": [[-61.09265986926326, 45.74845845714325], [-61.09264640702398, 45.7484762340581], [-61.09263642867674, 45.74848081087653], [-61.09260853121039, 45.748493603261025], [-61.092569965674144, 45.74849385928685], [-61.09245458550746, 45.748483831531736], [-61.09242879759151, 45.7484482974509]]}, "properties": {"OBJECTID": 116503, "FEAT_CODE": "WALK20", "FEAT_DESC": "Lake - Water to the right line", "RIVNAME_1": " ", "RIVNAME_2": " ", "ZVALUE": 0.7, "FID": null, "SHAPE_Length": 22.23484774783993}}, {"type": "Feature", "id": 116504, "geometry": {"type": "LineString", "coordinates": [[-61.089928866991166, 45.751066272197185], [-61.08994202346279, 45.75105750035913], [-61.08996970099117, 45.75104480396139], [-61.089979902143114, 45.75104012309306], [-61.09005800973423, 45.75104953005521], [-61.09014709901924, 45.75107622223732], [-61.090211436109605, 45.75111240141479], [-61.090313095175446, 45.75118520804815], [-61.09031345913806, 45.75121222572262]]}, "properties": {"OBJECTID": 116504, "FEAT_CODE": "WALK20", "FEAT_DESC": "Lake - Water to the right line", "RIVNAME_1": " ", "RIVNAME_2": " ", "ZVALUE": 0.7, "FID": null, "SHAPE_Length": 39.379662557131304}}, {"type": "Feature", "id": 116505, "geometry": {"type": "LineString", "coordinates": [[-61.09031345913806, 45.75121222572262], [-61.090306323702876, 45.7512216383292], [-61.09029999577861, 45.751229993334604], [-61.09027398915603, 45.75123855935222], [-61.09015858599034, 45.751229428986306], [-61.090107462818686, 45.75122047333343], [-61.09006983409671, 45.751192841507034], [-61.09000519005552, 45.75116565797984], [-61.08996624574188, 45.75113890420458], [-61.089928924110566, 45.75110227660399], [-61.089928866991166, 45.751066272197185]]}, "properties": {"OBJECTID": 116505, "FEAT_CODE": "WALK20", "FEAT_DESC": "Lake - Water to the right line", "RIVNAME_1": " ", "RIVNAME_2": " ", "ZVALUE": 0.7, "FID": null, "SHAPE_Length": 40.96247081574711}}, {"type": "Feature", "id": 116508, "geometry": {"type": "LineString", "coordinates": [[-61.085900903735286, 45.75696370819542], [-61.085913392781165, 45.75693691493165], [-61.085924511970724, 45.75692949555244], [-61.08592655127739, 45.756928143596795], [-61.086055070224674, 45.756892475735796], [-61.08606853633652, 45.75687470868416], [-61.08604308724549, 45.75682927794392], [-61.08605656650399, 45.75681150211299], [-61.08628760357095, 45.75678567066472], [-61.086467611267985, 45.756785986384365], [-61.086595568682945, 45.756804331640254], [-61.08666052498242, 45.756822521446466], [-61.08672388867122, 45.75684968539196], [-61.08682653086616, 45.75693151238484], [-61.086915388202875, 45.75700320744823], [-61.086979464582974, 45.757084388317615], [-61.087004299242224, 45.75714781926566], [-61.087042939008576, 45.757183560777214], [-61.08708185525634, 45.75721121513776], [-61.08711385505345, 45.757228294653615], [-61.08713235552927, 45.75723816341028], [-61.08722302779458, 45.757256783584864], [-61.08728700716443, 45.757265955817154], [-61.08741558084196, 45.75726630876257], [-61.08751871591125, 45.75725813483502], [-61.08762098518846, 45.75727604879569], [-61.08764638023632, 45.75728547485705], [-61.08768563468289, 45.75730324273464], [-61.0877226812, 45.75734795819296]]}, "properties": {"OBJECTID": 116508, "FEAT_CODE": "WALK20", "FEAT_DESC": "Lake - Water to the right line", "RIVNAME_1": " ", "RIVNAME_2": " ", "ZVALUE": 0.7, "FID": null, "SHAPE_Length": 183.6090688367033}}, {"type": "Feature", "id": 116509, "geometry": {"type": "LineString", "coordinates": [[-61.0877226812, 45.75734795819296], [-61.08768415357539, 45.75738421662466], [-61.087633387856094, 45.75740227742523], [-61.08760768535197, 45.7574018470675], [-61.08760737825308, 45.7574108337789], [-61.08758077794661, 45.75747430344845], [-61.08755573697172, 45.75749101278133], [-61.08755446088643, 45.75749185549608], [-61.087516854033744, 45.75750112672594], [-61.0874657563689, 45.757491270244586], [-61.0874268640681, 45.75750052892062], [-61.08740523686298, 45.757515549219995], [-61.087297785840654, 45.757590167079506], [-61.08710414284178, 45.757687733612784], [-61.087077794168636, 45.75770620310777], [-61.08703924021588, 45.75770555737822], [-61.08701442965269, 45.757679030348626], [-61.08694941717445, 45.75762483638999], [-61.08689918733889, 45.757551979211165], [-61.0868347898733, 45.757479802779756], [-61.08675879600309, 45.757408323140716], [-61.086695045047506, 45.757317246663085], [-61.08661874400937, 45.75725476263764], [-61.08655470994781, 45.757209585695584], [-61.08637554502444, 45.75710937474646], [-61.08624691712126, 45.757073016300794], [-61.08609289472134, 45.75702723131704], [-61.0859395115867, 45.757000358633746], [-61.08591313952616, 45.75698191496319], [-61.085900903735286, 45.75696370819542]]}, "properties": {"OBJECTID": 116509, "FEAT_CODE": "WALK20", "FEAT_DESC": "Lake - Water to the right line", "RIVNAME_1": " ", "RIVNAME_2": " ", "ZVALUE": 0.7, "FID": null, "SHAPE_Length": 197.9559902636037}}]}