{"type": "FeatureCollection", "features": [{"type": "Feature", "id": 11264, "geometry": {"type": "LineString", "coordinates": [[-60.40892232326865, 46.54890683363558], [-60.40880296591409, 46.54915743224421], [-60.40873356219456, 46.5493547672721], [-60.40869232351016, 46.549453732091216], [-60.40865155605868, 46.5495427986158], [-60.40851738236938, 46.54973055629904], [-60.4084418981449, 46.54988515646762], [-60.40838438203824, 46.55000294008217], [-60.40838184646636, 46.550007697579986], [-60.4083815445544, 46.550008284733075], [-60.408355445634406, 46.55003558394061], [-60.40819392286415, 46.55024972109828], [-60.408101695849965, 46.55036168660959], [-60.40798070946543, 46.5505085858126], [-60.407888611940386, 46.55061808809585], [-60.40786038787819, 46.55065164797599], [-60.407739674168546, 46.55077581919698], [-60.40756986405232, 46.55091518484275], [-60.40743558056153, 46.55102542206564], [-60.407389725288844, 46.55106787893419], [-60.40730182117661, 46.551149287960456], [-60.40722961534116, 46.55123004497027], [-60.40718193736378, 46.55128336836953], [-60.40709015202555, 46.55138926809936], [-60.406941739479315, 46.55156051900932], [-60.406755857617384, 46.5517381017194], [-60.40671065360096, 46.55178849305383], [-60.40667594806678, 46.55182717958343], [-60.4064474905284, 46.552131604393146], [-60.40642959435679, 46.552164669231985], [-60.40639455947121, 46.55222941209198], [-60.40623297978515, 46.55244443614752], [-60.406152639273614, 46.55254251282404], [-60.406126617726294, 46.552570875268806], [-60.40604668118046, 46.55265800808307], [-60.40600394077752, 46.552714431010315], [-60.40599238599979, 46.552729675750435], [-60.40579048622272, 46.553051792778824], [-60.40572524551718, 46.55314806982013], [-60.405669783898205, 46.55322995281581], [-60.4056371518168, 46.55326533809557], [-60.40556247734944, 46.553346317013826]]}, "properties": {"OBJECTID": 11264, "FEAT_CODE": "WACO20", "FEAT_DESC": "Coast - Water to the right line", "RIVNAME_1": " ", "RIVNAME_2": " ", "ZVALUE": 0.4, "FID": null, "SHAPE_Length": 560.5637337326548}}, {"type": "Feature", "id": 11301, "geometry": {"type": "LineString", "coordinates": [[-60.400596654546, 46.55840938580212], [-60.40056972946866, 46.55842677347893], [-60.40055626692354, 46.558435467314816], [-60.400551007381225, 46.55844287168275], [-60.40054367804813, 46.55845318097146], [-60.40051628034555, 46.558480457840425], [-60.400356848945876, 46.55864963156376], [-60.400313980459515, 46.55870195444573], [-60.40027648836759, 46.55874770360982], [-60.40018266478471, 46.55885446937992], [-60.40010317718435, 46.5589615611115], [-60.400026398080215, 46.55907885733704], [-60.40000042991894, 46.55911852353259], [-60.399995873735854, 46.559125403874155], [-60.39996809076172, 46.55916727877567], [-60.399956610832525, 46.55917543263577], [-60.39995458453257, 46.55917688054231], [-60.399925592069266, 46.55922795287904], [-60.39987337702084, 46.5593199328149], [-60.399867750226925, 46.55932655480171], [-60.399820842416226, 46.559381746607855], [-60.39977639315432, 46.559440639297335], [-60.39974004998136, 46.559488808403586], [-60.39971692727105, 46.55951233933622], [-60.399660504020034, 46.55956978962464], [-60.39940678223545, 46.5598277347376], [-60.399153500108476, 46.56013155305416], [-60.398988060089735, 46.56032441102571], [-60.398885434555105, 46.56044405238645], [-60.39868619079143, 46.56070229042864], [-60.398630885740445, 46.56077395857609], [-60.398616577940096, 46.56079703287457], [-60.39846970569359, 46.56103398038079], [-60.39841544744987, 46.561104754248824], [-60.3983355679429, 46.56122316675461], [-60.39829467189125, 46.561283813714745], [-60.39821388733972, 46.56144486531487], [-60.398024511120205, 46.56177625337699], [-60.397821685128655, 46.562115443922586], [-60.397781819480514, 46.562173072164974], [-60.397660484087524, 46.56234846421967], [-60.397566648943595, 46.56245522754958], [-60.397285540762944, 46.56279443501551], [-60.397215611064794, 46.562883418408596], [-60.397166035673465, 46.56294651333246], [-60.397121606998745, 46.563005396441355], [-60.397085258991886, 46.56305356457955], [-60.39701876729464, 46.56313395017656], [-60.396897970312594, 46.56328599879346], [-60.39677722813369, 46.56346414838763], [-60.396548289787304, 46.5638036329967], [-60.39624148732722, 46.564134143750536], [-60.396125344453544, 46.56427691959365], [-60.395987765409075, 46.564446062888074], [-60.395969741906626, 46.5644698442055], [-60.395933444738354, 46.564517725131466], [-60.395818516468196, 46.56462556351958], [-60.395733973646585, 46.56470488015838], [-60.39552190909581, 46.564909747825], [-60.39546042299772, 46.56497488362992], [-60.39545455288597, 46.56498111285526], [-60.39542904970398, 46.565017476604886], [-60.3953607204439, 46.565114874264566], [-60.39520038012399, 46.56527502005515], [-60.39516968124642, 46.565304614397604], [-60.39510735268777, 46.565364708843056], [-60.39500005392674, 46.565507154055766], [-60.39493443038229, 46.56556955830957], [-60.394840971752934, 46.56566822800241], [-60.39477458522101, 46.5657746065281], [-60.394746275189654, 46.56581996910647], [-60.39469238215474, 46.565882640549155], [-60.394621824455676, 46.565955957111214], [-60.3945729075644, 46.56600681697259], [-60.39446557383494, 46.566177169720724], [-60.39425049431892, 46.56647196577747], [-60.394130124212815, 46.56664201205734], [-60.39391589167445, 46.56689182703948], [-60.39388907171127, 46.566925946434715], [-60.39383187285391, 46.5669987390455]]}, "properties": {"OBJECTID": 11301, "FEAT_CODE": "WACO20", "FEAT_DESC": "Coast - Water to the right line", "RIVNAME_1": " ", "RIVNAME_2": " ", "ZVALUE": 0.4, "FID": null, "SHAPE_Length": 1089.9335828385915}}, {"type": "Feature", "id": 11302, "geometry": {"type": "LineString", "coordinates": [[-60.40556247734944, 46.553346317013826], [-60.405536430843654, 46.55337272576461], [-60.40542999816178, 46.553498109630276], [-60.405347098988535, 46.553677127303416], [-60.40530265603643, 46.553732287326326], [-60.40526805817654, 46.553775232847705], [-60.40512167079327, 46.553917709457295], [-60.404920572452575, 46.554167843429425], [-60.4048864427483, 46.55419959451141], [-60.40468166282058, 46.554390118749325], [-60.40460976117317, 46.5544782699573], [-60.404520927062094, 46.554587168588014], [-60.404483487739206, 46.554615541421555], [-60.404427531668524, 46.55465794775664], [-60.40435609533835, 46.55471390751384], [-60.404268951993714, 46.55478215552094], [-60.40420293639893, 46.554853556197806], [-60.40405570153641, 46.55504101198414], [-60.40397489531313, 46.55512106761719], [-60.403865860701465, 46.55520267812292], [-60.40385584920727, 46.555210163727466], [-60.40373594767436, 46.555344240079975], [-60.40347050733285, 46.555602810140364], [-60.4034065566817, 46.55566999127468], [-60.40321640732319, 46.55586973714497], [-60.40312298085655, 46.55596841440758], [-60.403051402645865, 46.556032200085944], [-60.40292403870362, 46.556145694150665], [-60.40283308293084, 46.556235229346875], [-60.40275154643852, 46.55631547451716], [-60.40260512997695, 46.55643094734647], [-60.40245957143962, 46.55652843956585], [-60.40231361103665, 46.556661931298635], [-60.40224842352367, 46.556715340739466], [-60.40224045634344, 46.55672672463874], [-60.40216719762158, 46.556831394379735], [-60.4019547724411, 46.55704526585409], [-60.401944328977656, 46.557057412451194], [-60.4018470208305, 46.55717061637642], [-60.401607226339024, 46.55741086503286], [-60.40146084731389, 46.55758033698182], [-60.40132744439037, 46.55769610397425], [-60.40119620231848, 46.55779393801977], [-60.40114742281199, 46.55784139286408], [-60.40104980711441, 46.55793639120067], [-60.400929018755974, 46.558061444466404], [-60.400770434503485, 46.55818563824991], [-60.400761047917705, 46.558196134776146], [-60.40065051862763, 46.558319711013176], [-60.40062360808991, 46.55836409890204], [-60.40061101595699, 46.55838133549445], [-60.40059708415581, 46.558400395614576], [-60.400596654546, 46.55840938580212]]}, "properties": {"OBJECTID": 11302, "FEAT_CODE": "WACO20", "FEAT_DESC": "Coast - Water to the right line", "RIVNAME_1": " ", "RIVNAME_2": " ", "ZVALUE": 0.4, "FID": null, "SHAPE_Length": 682.8075099611389}}, {"type": "Feature", "id": 39856, "geometry": {"type": "LineString", "coordinates": [[-60.40712350981908, 46.55292003616777], [-60.40714957317499, 46.552920627319395], [-60.407200872827005, 46.55293889077145], [-60.40723999878415, 46.552966778052905], [-60.40723830293043, 46.55302973931311], [-60.40720098509219, 46.55304822483706], [-60.40718619395809, 46.55305555732815], [-60.40717311940297, 46.55305616078087]]}, "properties": {"OBJECTID": 39856, "FEAT_CODE": "WALK20", "FEAT_DESC": "Lake - Water to the right line", "RIVNAME_1": " ", "RIVNAME_2": " ", "ZVALUE": 14, "FID": null, "SHAPE_Length": 23.668132006305107}}, {"type": "Feature", "id": 39857, "geometry": {"type": "LineString", "coordinates": [[-60.40717311940297, 46.55305616078087], [-60.40714659743138, 46.553030152344604], [-60.407108310843, 46.55299259111217], [-60.40709529217983, 46.55299229582763], [-60.40708983454921, 46.55298828405628], [-60.40708267591112, 46.55298300970814], [-60.40708353282578, 46.5529650292235], [-60.407096546709816, 46.55293832451942], [-60.40712350981908, 46.55292003616777]]}, "properties": {"OBJECTID": 39857, "FEAT_CODE": "WALK20", "FEAT_DESC": "Lake - Water to the right line", "RIVNAME_1": " ", "RIVNAME_2": " ", "ZVALUE": 14, "FID": null, "SHAPE_Length": 19.08603622043469}}, {"type": "Feature", "id": 39858, "geometry": {"type": "LineString", "coordinates": [[-60.40704398165651, 46.555574120203126], [-60.407070946556075, 46.555555822908204], [-60.407123087415336, 46.5555291146766], [-60.40722952625841, 46.555458629147665], [-60.40728125151856, 46.55544091137524], [-60.40731612897854, 46.55544109039185], [-60.40733341089294, 46.55544118533962], [-60.407354415013906, 46.55544886166634], [-60.40738599940042, 46.55546037792272], [-60.407398646090876, 46.55546876469823], [-60.407423425357074, 46.5554963265342], [-60.40742048000887, 46.55564025905126], [-60.40743142387881, 46.55576650664082], [-60.40742225697482, 46.55577817869078], [-60.40741753420033, 46.5557842005549], [-60.407405364020555, 46.55579291550679]]}, "properties": {"OBJECTID": 39858, "FEAT_CODE": "WALK20", "FEAT_DESC": "Lake - Water to the right line", "RIVNAME_1": " ", "RIVNAME_2": " ", "ZVALUE": 18, "FID": null, "SHAPE_Length": 70.78472755689369}}, {"type": "Feature", "id": 39859, "geometry": {"type": "LineString", "coordinates": [[-60.407405364020555, 46.55579291550679], [-60.40740196732325, 46.55579410746747], [-60.407378841020865, 46.55580221394519], [-60.40736536716524, 46.555810908326606], [-60.40718241282606, 46.555817558870956], [-60.40716976609116, 46.55580917207102], [-60.40715476266611, 46.55580533979542], [-60.40713109747434, 46.55579929506815], [-60.40711615233014, 46.5557942401152], [-60.4071054188154, 46.555790603679995], [-60.40709238645078, 46.55579030808602], [-60.407057558833124, 46.55578168817245], [-60.407052414197736, 46.55578041048781], [-60.40703020992731, 46.555769718898425], [-60.40697589124676, 46.55574357494084], [-60.406950194537934, 46.55570789223684], [-60.40695033558618, 46.55569507949728], [-60.406950605383464, 46.555671901727436], [-60.40696423601137, 46.55564650703024], [-60.40696492326957, 46.55564522662527], [-60.40698753991623, 46.5556237257346], [-60.407030507807114, 46.555582814545424], [-60.40704398165651, 46.555574120203126]]}, "properties": {"OBJECTID": 39859, "FEAT_CODE": "WALK20", "FEAT_DESC": "Lake - Water to the right line", "RIVNAME_1": " ", "RIVNAME_2": " ", "ZVALUE": 18, "FID": null, "SHAPE_Length": 57.43888969825887}}, {"type": "Feature", "id": 39860, "geometry": {"type": "LineString", "coordinates": [[-60.40552073170396, 46.55936454072488], [-60.405558544902554, 46.55939239875549], [-60.40560945116796, 46.559446653777115], [-60.40567511895454, 46.55946524396042], [-60.40567255015528, 46.55954618523993], [-60.4056595508105, 46.55959988995045], [-60.40563258381555, 46.55961817785993], [-60.40562314917587, 46.559619574739465], [-60.40558003498181, 46.559625985246804], [-60.40554316549388, 46.55962566149767], [-60.40551481273327, 46.55962540502669]]}, "properties": {"OBJECTID": 39860, "FEAT_CODE": "WALK20", "FEAT_DESC": "Lake - Water to the right line", "RIVNAME_1": " ", "RIVNAME_2": " ", "ZVALUE": 17.4, "FID": null, "SHAPE_Length": 43.94848806367839}}, {"type": "Feature", "id": 39861, "geometry": {"type": "LineString", "coordinates": [[-60.40551481273327, 46.55962540502669], [-60.405495912072254, 46.55961900910157], [-60.40548913213885, 46.55961672223929], [-60.40545089042868, 46.55959784541428], [-60.40541645485659, 46.55957412298675], [-60.40541173051116, 46.55957086577895], [-60.40540784607009, 46.55956504464711], [-60.405399554926916, 46.55955258953385], [-60.4053877913676, 46.55949832282716], [-60.40538777454856, 46.55947132258654], [-60.405422777194104, 46.55941805429585], [-60.40542857270421, 46.55940924887749], [-60.405454665160335, 46.55938194121436], [-60.40549462241477, 46.55936484816188], [-60.40552073170396, 46.55936454072488]]}, "properties": {"OBJECTID": 39861, "FEAT_CODE": "WALK20", "FEAT_DESC": "Lake - Water to the right line", "RIVNAME_1": " ", "RIVNAME_2": " ", "ZVALUE": 17.4, "FID": null, "SHAPE_Length": 38.20224640578559}}, {"type": "Feature", "id": 39862, "geometry": {"type": "LineString", "coordinates": [[-60.39929020295987, 46.563002948011224], [-60.399435784836434, 46.562905460398], [-60.39944317028979, 46.5629030004188], [-60.399488823500946, 46.56288776702973], [-60.399522966307856, 46.562884853720746], [-60.39958053423307, 46.56287995327035], [-60.39962375722798, 46.56288034246161], [-60.39964574714133, 46.56288053665879], [-60.39965109020279, 46.562881495190005], [-60.399697483636935, 46.56288980442669], [-60.399864086459196, 46.56300790223354], [-60.399885560874914, 46.56303853149261], [-60.39988973871441, 46.56304448548277]]}, "properties": {"OBJECTID": 39862, "FEAT_CODE": "WALK20", "FEAT_DESC": "Lake - Water to the right line", "RIVNAME_1": " ", "RIVNAME_2": " ", "ZVALUE": 16.5, "FID": null, "SHAPE_Length": 59.09900445223252}}, {"type": "Feature", "id": 39863, "geometry": {"type": "LineString", "coordinates": [[-60.39988973871441, 46.56304448548277], [-60.39987542972749, 46.563098150736806], [-60.39977065515955, 46.56313357643901], [-60.3997254783824, 46.5631756856297], [-60.399703736548865, 46.56319595397848], [-60.3996650781004, 46.56321307454901], [-60.39943029301191, 46.56321133379399], [-60.399364636079184, 46.56319274028113], [-60.39931291645076, 46.56315555490008], [-60.39931420569936, 46.56312859337754], [-60.399336925434355, 46.56311734729968], [-60.399366328113295, 46.563102779266345], [-60.3993763764941, 46.563089381930396], [-60.39938026489943, 46.56308419641591], [-60.39935415313514, 46.563057502544154], [-60.39931632770111, 46.563029642193165], [-60.39929020295987, 46.563002948011224]]}, "properties": {"OBJECTID": 39863, "FEAT_CODE": "WALK20", "FEAT_DESC": "Lake - Water to the right line", "RIVNAME_1": " ", "RIVNAME_2": " ", "ZVALUE": 16.5, "FID": null, "SHAPE_Length": 77.9878005223771}}, {"type": "Feature", "id": 160080, "geometry": {"type": "LineString", "coordinates": [[-60.40234665296155, 46.55894776200898], [-60.40210058333807, 46.55885486173716], [-60.40203536170698, 46.558854288541085], [-60.40195670413741, 46.55886240091268], [-60.40191756205751, 46.5588624113416], [-60.401708904508574, 46.55886036902393], [-60.40151285056769, 46.55886761276491], [-60.40144721292806, 46.55887602073216], [-60.40140142384453, 46.558875609892944], [-60.40131679658895, 46.55887485616846], [-60.40123855538144, 46.558873977555045], [-60.40123493206156, 46.558874444184326], [-60.40120268882337, 46.55887861617777], [-60.40120094267758, 46.55887829748395], [-60.401162304907764, 46.55887102915463], [-60.401115355330035, 46.55887114981594], [-60.40111240642666, 46.55887115477575], [-60.40111095804104, 46.55887115784822], [-60.401063487571946, 46.55887125764637], [-60.40103745380565, 46.55888855769637], [-60.400998163718185, 46.55888401946779], [-60.40098413482453, 46.55888026253947], [-60.40095892426902, 46.55887350640652], [-60.40093871735537, 46.55886251704918], [-60.40091404711225, 46.55884909522351], [-60.400846440119935, 46.55880997430583], [-60.40075094073895, 46.55875469423837], [-60.40074738557676, 46.5587526424143]]}, "properties": {"OBJECTID": 160080, "FEAT_CODE": "WARV10", "FEAT_DESC": "Double Line River - Water to the left line", "RIVNAME_1": "MacLeods Brook", "RIVNAME_2": " ", "ZVALUE": 9999, "FID": null, "SHAPE_Length": 131.50297022792603}}, {"type": "Feature", "id": 168856, "geometry": {"type": "LineString", "coordinates": [[-60.40234665296155, 46.55894776200898], [-60.402191799229165, 46.55894577315273], [-60.402164104109495, 46.55894541379387], [-60.40209845126291, 46.5589268219251], [-60.402077897843924, 46.55892663384151], [-60.40203324343742, 46.55892623104184], [-60.40191747352149, 46.55892545401449], [-60.40186368438307, 46.558925086543944], [-60.4018245852009, 46.558924197920526], [-60.40177612523736, 46.55893244748543], [-60.40177328390118, 46.558932931904735], [-60.401753043277, 46.55893275087189], [-60.401708075650426, 46.55893234982607], [-60.40168684961964, 46.558935863366], [-60.40165547102023, 46.5589410541345], [-60.40161965762703, 46.55894758408718], [-60.40156333772397, 46.558957859899024], [-60.40148466877294, 46.558992971552414], [-60.401410980234864, 46.55900712746772], [-60.40139251845854, 46.55901067678795], [-60.401358119967135, 46.559014898833006], [-60.4012625755783, 46.559026631840176], [-60.401227785686544, 46.5590333109362], [-60.40117039950514, 46.559044327311156], [-60.40111952357775, 46.55904797669749], [-60.40106566235621, 46.5590518461914], [-60.40098694882454, 46.55906084761898], [-60.400896534556715, 46.5590687009728], [-60.400766130397905, 46.559067545058056], [-60.40071308182613, 46.559058229928425], [-60.400659335140105, 46.559035947964794], [-60.40062352576274, 46.559021093802684], [-60.40061845631086, 46.559017693549144], [-60.40060961857183, 46.55901178662324], [-60.40060080003882, 46.55900848112049], [-60.40058399551827, 46.5590021950422], [-60.40056102709049, 46.55899875678785], [-60.40058486271091, 46.55896903192513], [-60.400609501909095, 46.55893832633425], [-60.40069171556934, 46.558856622111044], [-60.400699373274854, 46.55883725732444], [-60.400710995377466, 46.55880783072731], [-60.40071817930541, 46.55878964316105], [-60.40074738557676, 46.5587526424143]]}, "properties": {"OBJECTID": 168856, "FEAT_CODE": "WARV20", "FEAT_DESC": "Double Line River - Water to the right line", "RIVNAME_1": "MacLeods Brook", "RIVNAME_2": " ", "ZVALUE": 9999, "FID": null, "SHAPE_Length": 172.99254093595493}}, {"type": "Feature", "id": 185731, "geometry": {"type": "LineString", "coordinates": [[-60.42339470999954, 46.55577371766856], [-60.42319909434833, 46.55577200854623], [-60.42293827352134, 46.555769729195994], [-60.42290175622397, 46.55576918498694], [-60.42282093866248, 46.55576797507601], [-60.422711972797536, 46.55577875744557], [-60.42265053584675, 46.5557848423065], [-60.42245579752459, 46.555792151641484], [-60.42241823297587, 46.55579773963198], [-60.42240324146489, 46.555799966598336], [-60.42238409792001, 46.55580501592839], [-60.42233718471287, 46.555817368063785], [-60.42228140874824, 46.55583999628115], [-60.42227200432939, 46.555843807203], [-60.422221128194685, 46.555852235953], [-60.42211420808332, 46.555869948845036], [-60.42206463289069, 46.555888090809034], [-60.42199604570886, 46.555913183973], [-60.42189087310111, 46.55595761191932], [-60.42186463486184, 46.555973616102555], [-60.42174577547626, 46.55604613909338], [-60.4217201614092, 46.55606356131288], [-60.42161747515134, 46.55608056823283], [-60.42161496334442, 46.556080988578046], [-60.42154085113586, 46.556082808981216], [-60.421366803339055, 46.55608709115347], [-60.42120984531005, 46.55609525055231], [-60.421105968223806, 46.55608480729868], [-60.42100204856087, 46.55607526298503], [-60.4208292513107, 46.55603115281147], [-60.42078162111848, 46.55601899026472], [-60.42069032608794, 46.55599083060076], [-60.42053508643149, 46.55596302803609], [-60.42045727483403, 46.55595317232548], [-60.42033992630931, 46.555951424348216], [-60.42032656649437, 46.55595142887435], [-60.42026165884403, 46.555951458164145], [-60.42022409398986, 46.55595704542651], [-60.42020910235711, 46.555959272102285], [-60.42018136450473, 46.555967547099826], [-60.42009130904129, 46.555994413634274], [-60.420048133284155, 46.556005796181665], [-60.42002526397382, 46.556011823027575], [-60.41990698049696, 46.55604023934356], [-60.41988141834932, 46.55604637638422], [-60.41977624426119, 46.55609079335303], [-60.41967023496177, 46.556125309426186], [-60.419514636028595, 46.55613258817695], [-60.41939723330263, 46.5561047471478], [-60.419310273914995, 46.55609191216984], [-60.41926767533378, 46.556085622546455], [-60.41924782826155, 46.556085417497265], [-60.419124231877376, 46.55608418422139], [-60.41907314187331, 46.55609765571474], [-60.419058173381345, 46.55610159275287], [-60.41901497052826, 46.556104190345195], [-60.41892733548544, 46.556109447724516], [-60.41882260662127, 46.55611696506544], [-60.41873088987228, 46.55615270297108], [-60.4187160859599, 46.556152620701994], [-60.41867871693066, 46.55615242490895], [-60.41862589626591, 46.55614462623698], [-60.41861393802135, 46.55614286222063], [-60.418562234361865, 46.55613269475458], [-60.41845871839918, 46.55608715743245], [-60.41827739136122, 46.5560317628308], [-60.41812089237711, 46.55600302854584], [-60.41808635271355, 46.555992150516474], [-60.41800391782787, 46.55596618679902], [-60.417952641167545, 46.55594702874762], [-60.41790087205154, 46.555910759639936], [-60.417870002457875, 46.55588880449888], [-60.417863011602414, 46.555883813620355], [-60.417773402727235, 46.55579268103529], [-60.41770902815509, 46.55574712715316], [-60.417636090910186, 46.55571870471989], [-60.41756684307299, 46.555691715575875], [-60.41735857699503, 46.55562671100169], [-60.41718986798354, 46.55560759953824], [-60.41700902647655, 46.55554231393273], [-60.416853809852036, 46.55548661601795], [-60.416797329850226, 46.55548611377242], [-60.416788605203784, 46.55548604262415], [-60.41677657653208, 46.55548604081424], [-60.416710325904276, 46.55548606473677], [-60.41664424493858, 46.55547647150435], [-60.416528617199376, 46.55543875867818], [-60.41645036296232, 46.55543852918007], [-60.41643730517185, 46.55543849507672], [-60.416202594331175, 46.5554358904159], [-60.41613573573149, 46.5554355312655], [-60.41609824994878, 46.555435331987795], [-60.41600738548949, 46.55539817834725], [-60.416007812509186, 46.55538918804534], [-60.41578779795391, 46.555296924175934], [-60.41572927509505, 46.55526225639509], [-60.41571039376448, 46.555251065617604], [-60.41568118014741, 46.5552302543094], [-60.41563341766098, 46.55519622572935], [-60.41556947270577, 46.55514168038907], [-60.41544111226239, 46.554987579187134], [-60.41540511994082, 46.55494249467152], [-60.415340142480815, 46.55486108799025], [-60.41526525801554, 46.554707295632795], [-60.415175701279175, 46.55455506146119], [-60.4151638603046, 46.55453491282463], [-60.415100301021035, 46.554472275974064], [-60.415009866028356, 46.55442613128461], [-60.414711713598635, 46.554295648590944], [-60.4146737433428, 46.55427903096766], [-60.41465067780868, 46.55427299235955], [-60.414387678452755, 46.55420416151426], [-60.414310725214634, 46.55417632110564], [-60.41424592818955, 46.55413975565062], [-60.414247122962884, 46.55406191505284], [-60.41424716740379, 46.55405878407322], [-60.414244171772694, 46.55403891641091], [-60.41423625051424, 46.55398653749201], [-60.41422661134622, 46.553966735556976], [-60.41421010114343, 46.553932846270335], [-60.414160109686456, 46.55388671570325], [-60.41411504216383, 46.5538687403592], [-60.414069206427314, 46.5538504596212], [-60.413919963937204, 46.553807294765406], [-60.41380925130154, 46.553775279325905], [-60.413770340821, 46.55375924312605], [-60.4136544281773, 46.553711476969525], [-60.413614889882076, 46.55369739750314], [-60.4135761728292, 46.55368360660222], [-60.41349877237902, 46.55363775560913], [-60.41346103373237, 46.55360448389849], [-60.41339608640842, 46.5535472326527], [-60.41333301351633, 46.55347470585439], [-60.4132694794565, 46.55338416866975], [-60.41321944762685, 46.5532840370243], [-60.413195436836205, 46.55318539416432], [-60.413184479826626, 46.55305914681403], [-60.41317397112774, 46.55295090952135], [-60.41316329720688, 46.55291172516732], [-60.41314953308743, 46.552861256936936], [-60.41309863396729, 46.55277910552089], [-60.41306119823517, 46.55271615866363], [-60.41303596903795, 46.552670587945194], [-60.413023440028695, 46.55266136745828], [-60.4130207602553, 46.552659011826115], [-60.41297201615168, 46.55261604993852], [-60.41287610624626, 46.552506266927466], [-60.41286935135009, 46.55249852709136], [-60.412864032863396, 46.55247649182789], [-60.41285844459196, 46.552453271463925], [-60.412858834270445, 46.552419287437786], [-60.412858851412196, 46.55241728083485], [-60.41286133369726, 46.55240568206508], [-60.41287226915537, 46.55235458478085], [-60.412861354343065, 46.55228233809295], [-60.412823520998764, 46.55222749111679], [-60.41280702253582, 46.55221341079187], [-60.412759582719154, 46.55217293531671], [-60.41271999674343, 46.55215494847281], [-60.41263081238753, 46.552118289132835], [-60.4124743239093, 46.55205397045711], [-60.412409530203085, 46.55201741301544], [-60.41238798349143, 46.55199345340471], [-60.41238474987362, 46.55198985222632], [-60.412375680615185, 46.551969883028065], [-60.41235994913099, 46.55193529109025], [-60.412349379005185, 46.551800952426056], [-60.41233946994166, 46.55174570237133], [-60.41233803782571, 46.55173768698964], [-60.412325963781186, 46.551702997835704], [-60.41230016454319, 46.55162883916872], [-60.41217226890563, 46.551492753617836], [-60.41212811978189, 46.551437421431515], [-60.41207131298969, 46.551366259749706], [-60.41198086545758, 46.551293112457074], [-60.41197474453149, 46.55128877990373], [-60.41191650104063, 46.55124755548674], [-60.41188275439062, 46.551211592626224], [-60.41186559568789, 46.55119330323248], [-60.41175032633838, 46.551093493898655], [-60.411730613433114, 46.55107377866032], [-60.41168681768572, 46.551029956249565], [-60.41155978075774, 46.550875880514106], [-60.41145544809641, 46.550820418322466], [-60.411403974351074, 46.550789921885354], [-60.41137805346637, 46.550774565991624], [-60.41128972364334, 46.55068436616763], [-60.4112644968166, 46.55063879509289], [-60.41122621896388, 46.55056592857862], [-60.41122336001651, 46.55056185885287], [-60.41121400051184, 46.55054855195584], [-60.41114963760997, 46.55050299457924], [-60.41114729337917, 46.550501267498156], [-60.41113703422031, 46.550493709196466], [-60.41105876497138, 46.55043883687626], [-60.41097005121104, 46.55035672806926], [-60.410862706689564, 46.550274125228974], [-60.4108278482116, 46.550247298829], [-60.41080345357033, 46.550230033378845], [-60.410763485560295, 46.550201750236866], [-60.41066043495973, 46.55017421623125], [-60.41062205398601, 46.55016055792614], [-60.410609123616354, 46.55015595405842], [-60.410595269382775, 46.5501471892798], [-60.41049261797589, 46.55008221531896], [-60.41042824319962, 46.550036657261074], [-60.41041715300534, 46.55002929606776], [-60.41041561028586, 46.55002827112503], [-60.410413291380394, 46.550025464606776], [-60.41039587310697, 46.55000442411841], [-60.410377353472136, 46.549982404682005], [-60.41036834083175, 46.54995277063848], [-60.41035253610693, 46.549900842821934], [-60.41021245515356, 46.54971947016702]]}, "properties": {"OBJECTID": 185731, "FEAT_CODE": "WARV50", "FEAT_DESC": "River - Single Line", "RIVNAME_1": " ", "RIVNAME_2": " ", "ZVALUE": 9999, "FID": null, "SHAPE_Length": 1424.8847597751333}}, {"type": "Feature", "id": 185732, "geometry": {"type": "LineString", "coordinates": [[-60.42354142157579, 46.560912394294746], [-60.42334578743089, 46.56091068505073], [-60.42323403191546, 46.56090935413285], [-60.42317626341517, 46.560908664014576], [-60.423147495440254, 46.56090448758911], [-60.42311017460094, 46.560899074372614], [-60.42307144245842, 46.56088792336639], [-60.42304581469963, 46.56088053272032], [-60.422930395051964, 46.56085106608253], [-60.422825366133694, 46.56082425455714], [-60.42279980432577, 46.560808864391625], [-60.4227352973815, 46.56077002437339], [-60.42263223728047, 46.560714610230846], [-60.422529547837854, 46.56067202927278], [-60.42247612397245, 46.56064987288624], [-60.422334304194784, 46.5605863846105], [-60.422304223759674, 46.56057962239422], [-60.422165182243674, 46.56054837135562], [-60.42204822020189, 46.56053853392242], [-60.42182652025203, 46.56053623427548], [-60.421513486526216, 46.56053367418567], [-60.42146930465915, 46.56053318164979], [-60.421435242018475, 46.560532809344544], [-60.4213973187383, 46.56052800297463], [-60.42135743676171, 46.560522954412164], [-60.42129265214306, 46.560513393133796], [-60.421253551219614, 46.560512511128096], [-60.42124761656137, 46.56050999227231], [-60.42118831532418, 46.5604849487195], [-60.421149572139974, 46.560473769810194], [-60.42112395746091, 46.56046638802625], [-60.4210223834181, 46.560447923723935], [-60.42086394251743, 46.56041912244096], [-60.42080029282147, 46.56040516751387], [-60.42069477957008, 46.56038200607334], [-60.42056484028246, 46.560370974327945], [-60.42047348249196, 46.56034371310288], [-60.42043777119652, 46.560337939331326], [-60.420356947643455, 46.56032488362825], [-60.42013607747252, 46.56027759968938], [-60.41995435102562, 46.560230298757936], [-60.4197082122308, 46.56016533480717], [-60.41960427384261, 46.5601287979814], [-60.419528968263485, 46.56009459936688], [-60.419462501981236, 46.56006439820998], [-60.419191079276054, 46.559899871984186], [-60.41901062419066, 46.559798598561], [-60.41899552228867, 46.559793226633666], [-60.41895930094052, 46.559780339924004], [-60.4188952731708, 46.55975980543323], [-60.41869969455896, 46.55969707882761], [-60.41860584885441, 46.55967252290829], [-60.41855664493462, 46.55965964891403], [-60.41849228857083, 46.55964109576472], [-60.41847621739815, 46.55963003191364], [-60.41845312238894, 46.55961411147613], [-60.41836393289002, 46.559513997940925], [-60.418339562712376, 46.55945044795822], [-60.41831469715408, 46.559396786725316], [-60.418250744685885, 46.55934224276671], [-60.41813463592988, 46.55925952100411], [-60.41801936143738, 46.559186717907465], [-60.417977556680945, 46.5591664058201], [-60.417811472324665, 46.55908572294262], [-60.417775845226416, 46.55907545026235], [-60.41774712993711, 46.55906716968534], [-60.41760711935615, 46.55901386831026], [-60.417553614257905, 46.55899349876175], [-60.41746274248657, 46.55895635514871], [-60.41741013920866, 46.558933206921076], [-60.41735922263975, 46.558910807770324], [-60.41729076691049, 46.55885606253176], [-60.41725614936817, 46.55882837959474], [-60.417115617776844, 46.55868300535907], [-60.417090789436855, 46.55865634453978], [-60.41697464122485, 46.55857452068566], [-60.416972109684274, 46.558571781500724], [-60.41692377990842, 46.55851937176973], [-60.416885802491684, 46.55849953275643], [-60.41687156916666, 46.5584920921836], [-60.41678157550721, 46.558463958814386], [-60.41673292039078, 46.55846346236076], [-60.41663812597897, 46.55846251724353], [-60.41661461856408, 46.558457225050525], [-60.416598107633035, 46.55845351295295], [-60.416572895377136, 46.55843494329854], [-60.4164832285271, 46.55834471742299], [-60.416393653473236, 46.55828058440565], [-60.41635406188234, 46.55826259872324], [-60.416251647137685, 46.55822844224405], [-60.416160125274686, 46.558197915855885], [-60.416142835174114, 46.558191657095165], [-60.41608316551426, 46.55817007652515], [-60.41604274738498, 46.55814147911024], [-60.41595441393207, 46.558078966799776], [-60.41573475930496, 46.55792370236714], [-60.41571073254011, 46.55790600531408], [-60.415696954771775, 46.55789584790662], [-60.41559756053053, 46.55780033445176], [-60.415555961194734, 46.55776036121978], [-60.41547855336274, 46.55771451144531], [-60.41534897134812, 46.55766838200942], [-60.41530022151228, 46.55764216094069], [-60.41524592565567, 46.55761294347055], [-60.41518155943321, 46.55759439721865], [-60.41505113657994, 46.55756624833416], [-60.41496057664834, 46.55753360973995], [-60.41494723651158, 46.557528799108326], [-60.4147410819047, 46.55744673762268], [-60.4146636756457, 46.55740087832676], [-60.41464032887123, 46.55738096443581], [-60.41459972876109, 46.557346341420256], [-60.414568661674686, 46.557316199966856], [-60.41449621395725, 46.55724590082839], [-60.41427704980424, 46.55713564441151], [-60.41421224936164, 46.557099078883304], [-60.41403049623588, 46.55705266785758], [-60.41392741798996, 46.557025136235445], [-60.41377178658057, 46.55697841571465], [-60.41367749439888, 46.556933757723485], [-60.413616121027694, 46.55690470334918], [-60.41360648265565, 46.5569007953057], [-60.41352650342727, 46.55686847594838], [-60.41343478352738, 46.5568493008213], [-60.41327159117207, 46.55684033434452], [-60.41323959297595, 46.55683857530899], [-60.413186340226154, 46.55682559837072], [-60.41316222221044, 46.55681972464946], [-60.41300657905056, 46.55677300281551], [-60.41290221122625, 46.55674545008142], [-60.41279916983085, 46.55669000941458], [-60.412746879357876, 46.55667161807629], [-60.41269523029039, 46.5566534572294], [-60.41262371493513, 46.556619033806314], [-60.412618701725314, 46.556616634353475], [-60.41242347148145, 46.55655190682137], [-60.41233819427122, 46.55652731466799], [-60.412294770543724, 46.55651479379635], [-60.41225835700574, 46.556509865555206], [-60.4121508786017, 46.55649533665245], [-60.4121082542722, 46.55648630778814], [-60.412060463115665, 46.5564761899461], [-60.412025906022464, 46.55646158370637], [-60.41199523728598, 46.55644861347532], [-60.41194452509659, 46.55642146454257], [-60.41190565724227, 46.55638448578751], [-60.41181687001025, 46.55627627620064], [-60.41179076482003, 46.55622168544391], [-60.41177858690921, 46.55620342782098], [-60.41175376317076, 46.55617674792746], [-60.41172852056742, 46.556131176639845], [-60.41170202127424, 46.556112567757765], [-60.411693940475715, 46.55611267279709], [-60.41167591309398, 46.556112885629815], [-60.41159808360084, 46.55607601460887], [-60.41157244597706, 46.55606644316123], [-60.41151572026084, 46.55603380290161], [-60.41150895190843, 46.55602990566549], [-60.41130323926363, 46.55588394825562], [-60.411261195686166, 46.55584024639618], [-60.411251040183146, 46.55582966647508], [-60.41123374774759, 46.55581306596426], [-60.41121359839052, 46.55579371876772], [-60.411174889451196, 46.55572984249031], [-60.41112481676078, 46.55563060902615], [-60.411103623671806, 46.55560002422807], [-60.41107476397125, 46.55555837585615], [-60.41105130573813, 46.555533445721785], [-60.410997771262636, 46.55547653259158], [-60.410933402891786, 46.55543097501367], [-60.410882066935315, 46.555385712563144], [-60.41085169799616, 46.55534590194191], [-60.41080593051017, 46.55528588864712], [-60.410677603005816, 46.55515878267782], [-60.410626310304814, 46.555112621093585], [-60.41058759870908, 46.55510364428288], [-60.41054845920982, 46.5551036577229], [-60.41054308898941, 46.55509560711837], [-60.41053628281185, 46.55508538199742], [-60.41044627878141, 46.55503024349592], [-60.41035540008859, 46.554966076152155], [-60.41018880989437, 46.55484801180323], [-60.41013196106643, 46.55480731309512], [-60.41009923459684, 46.554783882780264], [-60.41004645380008, 46.55475748712361], [-60.41000876070957, 46.5547386332375], [-60.409998111258986, 46.55473103899708], [-60.40993178991929, 46.55468378960676], [-60.409818409990876, 46.554603956093935], [-60.409789150088656, 46.554583349220565], [-60.40977147939184, 46.554557721955405], [-60.40975131838451, 46.55452850127775], [-60.40961122344848, 46.55440202745107], [-60.40945683673831, 46.55427432958869], [-60.409386668833434, 46.55419335986614], [-60.40935419343627, 46.55415590408907], [-60.40929237778174, 46.554029403795504], [-60.409214533632706, 46.553965539920945], [-60.40915104359643, 46.55392900118525], [-60.40907274756541, 46.55390202680136], [-60.40899494131154, 46.5538921633857], [-60.4088649515338, 46.55388201712525], [-60.40855158542147, 46.55388752283462], [-60.408500588731926, 46.553882316803254], [-60.40846071801297, 46.553878253967866], [-60.40833303797466, 46.55386481147782], [-60.4082647069267, 46.553857610363046], [-60.40816079382741, 46.553848063492346], [-60.40795299365653, 46.55380104318389], [-60.407628677566976, 46.553735189399184], [-60.4075622572933, 46.55372677119957], [-60.40755087142605, 46.553725334000575], [-60.4075439504199, 46.55372355705539], [-60.407330468859826, 46.55366902680282], [-60.40726482041224, 46.55365043798025], [-60.40725473271973, 46.55364667220506], [-60.40723918514619, 46.553640856605455], [-60.40713527310777, 46.553631299823806], [-60.40700101047981, 46.5536298024855], [-60.40697880524816, 46.55362955081233], [-60.40691317467553, 46.55363796207179], [-60.4068219088975, 46.55363679182627], [-60.4068054527512, 46.553640459514874], [-60.40670455417897, 46.55366292955633], [-60.40665195538286, 46.55367163629196], [-60.40658409494404, 46.55367126681568], [-60.40654761485583, 46.55367106921476], [-60.40652329716762, 46.55367079652873], [-60.40646938132169, 46.55367018534227], [-60.40637897268222, 46.55365103426898], [-60.40634098955365, 46.55363119158839], [-60.406326784608154, 46.5536237593335], [-60.406289906141076, 46.553623435612096], [-60.40626158256055, 46.553623179981166], [-60.40618334867967, 46.55362230490463], [-60.4061320357223, 46.55360404069594], [-60.406014260488405, 46.553584268379055], [-60.405969940882315, 46.553583775706116], [-60.405936026674695, 46.55358339313441], [-60.40591517514668, 46.55357855499274], [-60.405897316998754, 46.55357441477074]]}, "properties": {"OBJECTID": 185732, "FEAT_CODE": "WARV50", "FEAT_DESC": "River - Single Line", "RIVNAME_1": " ", "RIVNAME_2": " ", "ZVALUE": 9999, "FID": null, "SHAPE_Length": 1675.9794765332672}}, {"type": "Feature", "id": 190969, "geometry": {"type": "LineString", "coordinates": [[-60.4069569044979, 46.568375472856886], [-60.40690549493771, 46.56835374189785], [-60.40689166736368, 46.56834789328714], [-60.406879489435795, 46.56832961717486], [-60.406880346876676, 46.56831163674153], [-60.4068281452121, 46.56828435281615], [-60.4068073252008, 46.56826231668756], [-60.4068020571675, 46.568256761225356], [-60.406789901592404, 46.56822652468806], [-60.406765892099116, 46.568166841446754], [-60.406765877522915, 46.56814005729013], [-60.40676715669778, 46.568085870658706], [-60.40677924479775, 46.56804692311734], [-60.4067810191032, 46.56804118540273], [-60.406788523144066, 46.568028584705075], [-60.40680797267698, 46.567995897105206], [-60.406821419333625, 46.56796020235501], [-60.40681466328813, 46.5679136094051], [-60.40680964857502, 46.56787893587728], [-60.40681176181281, 46.56780698427771], [-60.40679961260209, 46.567767585942725], [-60.406786899964544, 46.567726320837544], [-60.406800389433066, 46.56768972706552], [-60.40682774601426, 46.567663347781675], [-60.4068708608619, 46.567640088919084], [-60.40689337622542, 46.567627936713926], [-60.40694641728403, 46.56761023994224], [-60.40698593411495, 46.567575136500395], [-60.40703757735357, 46.5675232622004], [-60.40703938630502, 46.56752144924207], [-60.40704293944409, 46.56751644486524], [-60.407051975321025, 46.567503734894885], [-60.407054529915854, 46.56742279335609], [-60.40704233465129, 46.567377517038096], [-60.40701664509584, 46.56731393476054], [-60.40697922464844, 46.56727798621834], [-60.40688875858522, 46.56720483467973], [-60.40686705115843, 46.56718937538672], [-60.40685089655307, 46.56717787602089], [-60.406708234639055, 46.567104440351656], [-60.40666967019634, 46.56708427865496], [-60.40665604723255, 46.56707715666351], [-60.40664106005785, 46.56707155171347], [-60.40663040585026, 46.56706757504569], [-60.406626258372064, 46.567064519978345], [-60.40661779953501, 46.567058289126294], [-60.406585516135316, 46.56702982794106], [-60.40656645668967, 46.56701302466981], [-60.406520870174205, 46.566964443800266], [-60.406515542689554, 46.56695876997549], [-60.40650576413268, 46.566937254271984], [-60.40649072867053, 46.56690420737974], [-60.40649324542367, 46.56674226549614], [-60.40649331788094, 46.56673937815808], [-60.40649578354634, 46.5666343237551], [-60.406522028420504, 46.56655709663947], [-60.40652310525083, 46.56655394408844], [-60.40652482026101, 46.56651798322066], [-60.40653867819987, 46.56644629805222], [-60.40654429039191, 46.566439981410255], [-60.40657866559684, 46.56640131448397], [-60.40658508145923, 46.56638936410702], [-60.40659298714297, 46.566374630544566], [-60.406593124212705, 46.56636272672837], [-60.40659339860769, 46.566338640103424], [-60.40659914781133, 46.566330544577994], [-60.406605987476524, 46.56632092579943], [-60.40662646310798, 46.56630036642584], [-60.4066594257132, 46.566267238395035], [-60.40667333106463, 46.56624955394781], [-60.40670155216908, 46.566150303755286], [-60.406703250132175, 46.56608733366406], [-60.40671667898966, 46.56602463868122], [-60.40671796555662, 46.56599765903355], [-60.40675832093201, 46.5659175839652], [-60.40678168122096, 46.56586443820057], [-60.4067861307944, 46.565854315197086], [-60.406809714937104, 46.56583040632381], [-60.40681218337286, 46.56582789733264], [-60.40681427405493, 46.56582510077434], [-60.406838650294404, 46.56579251591626], [-60.40687949034167, 46.56570254285858], [-60.406906095219014, 46.565667002556445], [-60.40691990641966, 46.56564855094734], [-60.40698202563826, 46.565595042296614], [-60.40705326205273, 46.56553367645343], [-60.40717189776012, 46.565453567734316], [-60.407211896911974, 46.565408584207596], [-60.407269724889794, 46.56536214203008], [-60.40727838174711, 46.565355183407625], [-60.40730530827264, 46.56533779419543], [-60.4073171247958, 46.56530643637884], [-60.40731875344453, 46.56530210834196], [-60.407358727148214, 46.56525710618635], [-60.40741133246311, 46.565221399426484], [-60.4074214395233, 46.56521303369016], [-60.40746431039358, 46.56517760114201], [-60.407539316482925, 46.56512007345985], [-60.407557763452154, 46.5651059208738], [-60.40759727800789, 46.56507081716163], [-60.40762422933147, 46.565025528606576], [-60.40765154846888, 46.56494514859934], [-60.40767888536453, 46.56489176882344], [-60.40770583652579, 46.564846480244675], [-60.40773836293629, 46.564824933937786], [-60.40775838532389, 46.564811672037294], [-60.40776857924708, 46.56480476623086], [-60.40781097690615, 46.56477596478129], [-60.40789131063205, 46.56470492275292], [-60.407898817985846, 46.56469908101222], [-60.40798349967174, 46.564633177474306], [-60.408006678638564, 46.56460268920523], [-60.4080238575192, 46.56458009284283], [-60.408090799654346, 46.5645447108273], [-60.40816208582633, 46.56451811220732], [-60.40820903436522, 46.56450059171882], [-60.40828812268867, 46.56445648501269], [-60.40835458667119, 46.564376092274344], [-60.40837461151808, 46.56435921234329], [-60.40840760584854, 46.564331394491184], [-60.408428264317145, 46.564317372897534], [-60.408460183504694, 46.564295686620135], [-60.4085257787292, 46.56426117381078], [-60.40859270711432, 46.56422579118937], [-60.4086587603386, 46.564181388745276], [-60.408751335006535, 46.564100687640995], [-60.40879129480511, 46.56408359349808], [-60.4088569063302, 46.56404818087345], [-60.40890012404609, 46.56401884860961], [-60.40890950948698, 46.56401247337338], [-60.40900291579194, 46.56394169085461], [-60.4090819655391, 46.56384358304805], [-60.409103021480156, 46.56381545842497], [-60.409122377574086, 46.56378959925977], [-60.40912615818139, 46.563600677070525]]}, "properties": {"OBJECTID": 190969, "FEAT_CODE": "WARV50", "FEAT_DESC": "River - Single Line", "RIVNAME_1": " ", "RIVNAME_2": " ", "ZVALUE": 9999, "FID": null, "SHAPE_Length": 634.7629756091567}}, {"type": "Feature", "id": 191730, "geometry": {"type": "LineString", "coordinates": [[-60.405897316998754, 46.55357441477074], [-60.40587337950004, 46.55350187189268], [-60.40586303669767, 46.5534949772189], [-60.40584682718349, 46.55348416942998], [-60.40583422405514, 46.55347488347115], [-60.40579512866427, 46.55347399628389], [-60.40578205399977, 46.55347459957506], [-60.40564006518132, 46.5533916466602], [-60.40556247734944, 46.553346317013826]]}, "properties": {"OBJECTID": 191730, "FEAT_CODE": "WARV50", "FEAT_DESC": "River - Single Line", "RIVNAME_1": " ", "RIVNAME_2": " ", "ZVALUE": 9999, "FID": null, "SHAPE_Length": 38.58981871552155}}, {"type": "Feature", "id": 191731, "geometry": {"type": "LineString", "coordinates": [[-60.40704398165651, 46.555574120203126], [-60.40698707848618, 46.55548505292618], [-60.406968709163614, 46.55545631339613], [-60.40696869147503, 46.55542931312257], [-60.40696741199245, 46.555429059101535], [-60.40691699046231, 46.5554191494354], [-60.406825661653265, 46.55539186889351], [-60.40679674948773, 46.55537109814273], [-60.4067751908795, 46.55535562417155], [-60.406646928720036, 46.555227615138286], [-60.40661423082132, 46.555204706468686], [-60.40654340740318, 46.55515506698508], [-60.40649489318265, 46.55512896447718], [-60.40644037482201, 46.55509963874508], [-60.40641570736737, 46.55508206018294], [-60.40640252161826, 46.555072671072175], [-60.406367760278044, 46.55504871652098], [-60.40636336523415, 46.55504567381996], [-60.40632594796479, 46.55495483430803], [-60.40631454812014, 46.55491783783401], [-60.406301092329976, 46.55487416174285], [-60.406267592125495, 46.55480816096756], [-60.406264121243325, 46.55480133224828], [-60.40622582194241, 46.55475636347633], [-60.406178721282664, 46.55471868295737], [-60.40612277357927, 46.55467392570995], [-60.406100724208976, 46.55465042151012], [-60.40607187105552, 46.55461967095675], [-60.40604666421448, 46.554601099078425], [-60.40599576183313, 46.55454684429363], [-60.40597274000809, 46.55450570508244], [-60.405945271019036, 46.55445659898845], [-60.40590654354372, 46.5544206203492], [-60.405829148759445, 46.554374764277526], [-60.40581727557207, 46.55435782691751], [-60.40580349629121, 46.5543381823134], [-60.40577871793482, 46.55431062913888], [-60.40575302308843, 46.55427493719723], [-60.405754648738515, 46.55421485435984], [-60.405754733793096, 46.55421197630298], [-60.40575470364916, 46.55418497574051], [-60.40575551788831, 46.55411810651911], [-60.40575567085724, 46.55410587004546], [-60.405756301820475, 46.554082241470276], [-60.40576078978765, 46.55407649334354], [-60.40577464387031, 46.55405872681908], [-60.405795456144155, 46.55402745625678], [-60.40580376203049, 46.55401496379903], [-60.40580579210195, 46.55398716399201], [-60.405808026823586, 46.553956713840854], [-60.40580614937156, 46.55395258525422], [-60.40579482807927, 46.55392763245064], [-60.405788362642056, 46.55389140489111], [-60.405791103199576, 46.553888650095374], [-60.405800598566884, 46.553879118617544], [-60.405815076656786, 46.5538597552556], [-60.40582707387788, 46.553843719579], [-60.405893527795726, 46.55376332794727], [-60.405903637893985, 46.55373077951277], [-60.40590739979166, 46.55371864293234], [-60.40590848528146, 46.55366742179182], [-60.40590950870144, 46.55361969122697], [-60.40589646010277, 46.55359238624634], [-60.405897316998754, 46.55357441477074]]}, "properties": {"OBJECTID": 191731, "FEAT_CODE": "WARV50", "FEAT_DESC": "River - Single Line", "RIVNAME_1": " ", "RIVNAME_2": " ", "ZVALUE": 9999, "FID": null, "SHAPE_Length": 262.497335973562}}, {"type": "Feature", "id": 191732, "geometry": {"type": "LineString", "coordinates": [[-60.41269938092232, 46.55972073473985], [-60.41264720470672, 46.559720453855455], [-60.412630453754815, 46.55971657375358], [-60.412608489500485, 46.55971147766235], [-60.41255758279633, 46.55968423462007], [-60.412493221712275, 46.559638669127864], [-60.41240194412329, 46.559565674498], [-60.41239015467151, 46.55955623669503], [-60.41232576015398, 46.55948367949926], [-60.412263096832206, 46.559402161503186], [-60.41220241321399, 46.55934650014343], [-60.4121343288323, 46.559284047254245], [-60.412019469770435, 46.55917525668278], [-60.4119159769915, 46.55910180512587], [-60.41172332507548, 46.55901014395561], [-60.41166056087265, 46.55899301798702], [-60.41161898388073, 46.55898168167339], [-60.41147591119295, 46.55894515134196], [-60.41134637309173, 46.55889810936947], [-60.41115245896084, 46.55886041835705], [-60.41107976628869, 46.55884877319791], [-60.41103462758926, 46.55884154998785], [-60.41084069435601, 46.558776858156804], [-60.41069935319651, 46.558718775180914], [-60.41059499493937, 46.5586758936497], [-60.41050370112987, 46.55864772587675], [-60.41045047582265, 46.558642371249334], [-60.41039982166097, 46.55863727283891], [-60.41006268227092, 46.55863428827089], [-60.41000857251137, 46.55863380937371], [-60.40981211082714, 46.55867705793295], [-60.40974690260099, 46.55867648044552], [-60.40970343936276, 46.55867599963566], [-60.40966866129586, 46.558675607606496], [-60.40959588559346, 46.55866736160164], [-60.40949995909257, 46.55865648495819], [-60.409344314102924, 46.55860975810726], [-60.409278230846645, 46.55860016056968], [-60.409199989672494, 46.55859928741217], [-60.409184619951795, 46.55859353911561], [-60.40917435175141, 46.55858970642451], [-60.40899348602427, 46.55855231645576], [-60.40887607179953, 46.558524446356536], [-60.40884512112038, 46.55851136089411], [-60.40881085871133, 46.558496859365285], [-60.40875796602804, 46.55847494257407], [-60.408721284293385, 46.55845973818298], [-60.40860514944571, 46.558377906085326], [-60.408510456276176, 46.558295146939656], [-60.408489914386784, 46.558277194363434], [-60.40838659257491, 46.55821042142426], [-60.408335495239896, 46.55817739419387], [-60.40832315464482, 46.55816859146867], [-60.408219404408925, 46.55809466270039], [-60.40811240032046, 46.558000311167845], [-60.40806539646806, 46.557958871668], [-60.408021169473194, 46.55791090714282], [-60.408014531872524, 46.55790371868197], [-60.40795057397621, 46.55782215992945], [-60.40794655191365, 46.557813473777074], [-60.40792573204642, 46.55776850593205], [-60.4079170454342, 46.55772847517258], [-60.40791396669321, 46.55771423043642], [-60.407907678595016, 46.557408107407745], [-60.4079093382233, 46.557291136627946], [-60.407938347950655, 46.557147795124], [-60.40794172012862, 46.55699488134972], [-60.407942143825316, 46.55695888213615], [-60.4079776665599, 46.55684997812227], [-60.40801240411147, 46.55674358528065], [-60.408025400769006, 46.556689871226865], [-60.40802718762291, 46.556623618068585], [-60.408028791238884, 46.55656394872257], [-60.408017025563176, 46.55650968222069], [-60.40799179858792, 46.55646411945648], [-60.407957404965465, 46.5564337837665], [-60.407889130320726, 46.556373582975574], [-60.407850443058564, 46.55633670592768], [-60.407761217644236, 46.55621048331933], [-60.40772422612918, 46.556110644985715], [-60.40769605356543, 46.556070505331675], [-60.40768635312825, 46.55605668642726], [-60.407584542531396, 46.55594817820005], [-60.40753282337241, 46.55591100551256], [-60.407520642911315, 46.55586572950342], [-60.40744503189527, 46.55581796200564], [-60.407405364020555, 46.55579291550679]]}, "properties": {"OBJECTID": 191732, "FEAT_CODE": "WARV50", "FEAT_DESC": "River - Single Line", "RIVNAME_1": " ", "RIVNAME_2": " ", "ZVALUE": 9999, "FID": null, "SHAPE_Length": 690.5137479127998}}, {"type": "Feature", "id": 269448, "geometry": {"type": "LineString", "coordinates": [[-60.41469813801023, 46.566119014900984], [-60.41458239241843, 46.56602819789123], [-60.41451073985654, 46.56598430468537], [-60.41449236650838, 46.56597306222027], [-60.414324935670045, 46.5658720760636], [-60.4142478893393, 46.565818133760104], [-60.41413220092137, 46.565726417585935], [-60.41406781808115, 46.56568086154733], [-60.41373120223968, 46.56554274762932], [-60.41346151491345, 46.565369247249514], [-60.413371043403174, 46.56529609171724], [-60.41336675120868, 46.565293330618296], [-60.41321658216891, 46.56519630636183], [-60.413131488311585, 46.56514699616875], [-60.413074370121265, 46.56511388887098], [-60.413049143075966, 46.565095318125486], [-60.41291999139553, 46.56501321398202], [-60.412739450830415, 46.56491281079211], [-60.412404554220984, 46.56473873206379], [-60.41223626249897, 46.56465572321082], [-60.41204271510059, 46.56455504248327], [-60.41195224642759, 46.564481894875016], [-60.4119094085068, 46.56443499836029], [-60.4118121021214, 46.56432841404538], [-60.411782445733294, 46.5642965488178], [-60.411710310709736, 46.56421901911749], [-60.41159415887494, 46.56413719878035], [-60.41153838770173, 46.56410571419396], [-60.411529352586236, 46.56410062264812], [-60.411218884267086, 46.563989193134105], [-60.410906966431604, 46.563886036892356], [-60.4108566222845, 46.56386938979107], [-60.410687051157964, 46.56381335849298], [-60.41048008626432, 46.56377536180705], [-60.41043610679176, 46.563768920628334], [-60.41034921027179, 46.563756197286], [-60.41012902390825, 46.563700746562894], [-60.41009004594667, 46.56369093557878], [-60.40973876296306, 46.56366946781439], [-60.409399651985765, 46.563639283852964], [-60.409230493271856, 46.56362915045655], [-60.40912615818139, 46.563600677070525]]}, "properties": {"OBJECTID": 269448, "FEAT_CODE": "WARV50", "FEAT_DESC": "River - Single Line", "RIVNAME_1": "MacLeods Brook", "RIVNAME_2": " ", "ZVALUE": 9999, "FID": null, "SHAPE_Length": 528.1279880709594}}, {"type": "Feature", "id": 269449, "geometry": {"type": "LineString", "coordinates": [[-60.40912615818139, 46.563600677070525], [-60.409102514552536, 46.563595200252145], [-60.409087440443656, 46.56359170863598], [-60.408975976163035, 46.563577581451455], [-60.40885398039416, 46.56356211746033], [-60.408685258531804, 46.563515984370454], [-60.40864585005902, 46.563499881170856], [-60.40859437265976, 46.563478833406506], [-60.408542603010886, 46.56344256008393], [-60.40845256933895, 46.563360419589976], [-60.40837644512668, 46.56328759429875], [-60.408275440677386, 46.563107105529284], [-60.408266201339146, 46.56307673724142], [-60.40825062133628, 46.563025543323796], [-60.40824725484059, 46.56297735328254], [-60.408240531650094, 46.56288131541893], [-60.408245599925344, 46.562665431577265], [-60.40824597098534, 46.562604798340665], [-60.40824599199052, 46.56260244083052], [-60.408232649093264, 46.56258343643877], [-60.40820810118444, 46.56254848210212], [-60.40814374013387, 46.56250292317648], [-60.40807128316217, 46.56247310156618], [-60.40796330294149, 46.56242863255281], [-60.40794648363203, 46.56241741525861], [-60.40793674568924, 46.56241093049798], [-60.4079268004709, 46.56240112905576], [-60.40789935766875, 46.56237408296667], [-60.40789933966279, 46.56234708271326], [-60.40788879765364, 46.56223974429417], [-60.407877031132486, 46.562185477804285], [-60.40785220467413, 46.56213091518407], [-60.40781349672886, 46.56209493768867], [-60.40767170349715, 46.562003522942675], [-60.407595282226865, 46.561956700226474], [-60.407581704350996, 46.56194838236691], [-60.407542113615236, 46.56193038465696], [-60.40740076284268, 46.561829979654874], [-60.407297704392974, 46.56177454268499], [-60.407156342304766, 46.56170203696299], [-60.40705329738438, 46.5616466000772], [-60.406910246832524, 46.561582155705295], [-60.406844355445706, 46.561550952243074], [-60.406832386544096, 46.56154528977598], [-60.40667842061433, 46.56146349760589], [-60.40660681023285, 46.56142663830081], [-60.40653578663927, 46.561390062260905], [-60.40640620401951, 46.5613439226882], [-60.406107514259084, 46.56128673709783], [-60.40599111191963, 46.561253973039385], [-60.405874503330146, 46.561221159181805], [-60.405792456763834, 46.561203151439585], [-60.40570533605933, 46.561184020493954], [-60.40563966138598, 46.5611584192194], [-60.405563162903015, 46.56112859428557], [-60.40536834100349, 46.56105487306484], [-60.40523918909969, 46.56099974198594], [-60.40522134829632, 46.56099163308327], [-60.40509743278806, 46.560935324704076], [-60.40501667227113, 46.56089228972939], [-60.40494219775985, 46.560852601373426], [-60.40477578265579, 46.56074551315368], [-60.40467256198898, 46.560679081171166], [-60.40463884469742, 46.5606539708278], [-60.40444072499395, 46.56050641853626], [-60.404328178507505, 46.56038580178543], [-60.4043128728045, 46.56036941634444], [-60.40427414196052, 46.56033344611195], [-60.40421233226308, 46.56020693430141], [-60.40416055244855, 46.560143658872704], [-60.4041247947363, 46.5601178450458], [-60.40409748752109, 46.560098136067474], [-60.404058371709716, 46.560070238975484], [-60.40405673974884, 46.560069166922396], [-60.40404572451051, 46.56006185182511], [-60.404038813116635, 46.560053297924505], [-60.40399398793127, 46.55999767730532], [-60.40383744138122, 46.559825796133616], [-60.40382909778224, 46.55981663369761], [-60.40370204805228, 46.559635549253464], [-60.40363211110469, 46.55956317625213], [-60.403561552719815, 46.55949015909571], [-60.40351064849788, 46.5594359032031], [-60.40345849983566, 46.55940771888793], [-60.403394578444505, 46.559380167141114], [-60.40334792391171, 46.55936043252485], [-60.4032641292251, 46.55932500433428], [-60.403208478312905, 46.55930486730889], [-60.40318717486863, 46.559297156426524], [-60.403100994337535, 46.55925923493187], [-60.40308366603826, 46.55925161433094], [-60.40295409196281, 46.55920546200199], [-60.40285062686209, 46.55915901169174], [-60.40275972286604, 46.55912274661819], [-60.40270966005464, 46.55910117031422], [-60.40269580217448, 46.55909519449336], [-60.402647425435376, 46.55906071453473], [-60.402618832992424, 46.55904034599968], [-60.402595339113134, 46.55903452022832], [-60.4025788596864, 46.559030437819565], [-60.402501047073045, 46.559020578855275], [-60.40239149121275, 46.55896890475927], [-60.40234665296155, 46.55894776200898]]}, "properties": {"OBJECTID": 269449, "FEAT_CODE": "WARV50", "FEAT_DESC": "River - Single Line", "RIVNAME_1": "MacLeods Brook", "RIVNAME_2": " ", "ZVALUE": 9999, "FID": null, "SHAPE_Length": 780.5744778372255}}, {"type": "Feature", "id": 272022, "geometry": {"type": "LineString", "coordinates": [[-60.434905502018026, 46.55605237650546], [-60.43487942356043, 46.55605179135533], [-60.43443516669931, 46.55606612203049], [-60.4343485991752, 46.55606537623608], [-60.43430475479658, 46.55606499523218], [-60.43409102399205, 46.55602965240831], [-60.43407173502898, 46.556026465480656], [-60.43390299942499, 46.55598038729374], [-60.43376037271884, 46.55593397695711], [-60.43372171301569, 46.555920212194515], [-60.433682103334974, 46.55590612009484], [-60.433565996913856, 46.55587831374976], [-60.43354384255375, 46.55587806838756], [-60.43348645529412, 46.55587742803188], [-60.43343559240219, 46.55589805700018], [-60.433421280412304, 46.55590386464695], [-60.43338346763441, 46.55591003566608], [-60.433159639828425, 46.55594658997836], [-60.43310832429959, 46.555952475724965], [-60.433094052277376, 46.55595411725281], [-60.43307353873625, 46.55595393564192], [-60.4330288465051, 46.555953553110065], [-60.43280836369858, 46.55589820238629], [-60.43275358324056, 46.555892085234014], [-60.43271751696411, 46.555888062313784], [-60.432697498692725, 46.55588789175759], [-60.43258710560685, 46.55588693356477], [-60.43250971546321, 46.55586810459047], [-60.43243144727393, 46.555840237895815], [-60.43238854960506, 46.55579989965255], [-60.432354010142895, 46.5557673990763], [-60.43231985232237, 46.55572266713278], [-60.43227782016347, 46.555667588372806], [-60.4322424393481, 46.55564241282146], [-60.43223995297786, 46.55564063798434], [-60.43218068917354, 46.55558467714373], [-60.432047611326865, 46.55545901860452], [-60.4319939591973, 46.55540855668856], [-60.43197016220956, 46.555386179249105], [-60.43189359215322, 46.5553223595356], [-60.43183005476676, 46.55525883254847], [-60.431800645795164, 46.55523290901964], [-60.43177868814551, 46.555213578843144], [-60.43175643215391, 46.5552052668966], [-60.431753060210866, 46.5552040121507], [-60.43170833982903, 46.55518434157877], [-60.43164953485625, 46.555158477592165], [-60.43164656522734, 46.555157267881484], [-60.43155865970379, 46.55512133610938], [-60.43142906936254, 46.55507522473651], [-60.43137410607438, 46.555061947852366], [-60.43127298989103, 46.555037517961665], [-60.43123383711176, 46.55503753819412], [-60.43102605253854, 46.55501757813987], [-60.43085425569867, 46.55499749048783], [-60.43077823757128, 46.55498860011106], [-60.430659932143406, 46.554969030331556], [-60.43054522518637, 46.55495006330625], [-60.430413937621346, 46.554939912426754], [-60.430394871937644, 46.55493974487775], [-60.43034873315724, 46.55493934677989], [-60.43031690792027, 46.55493531942917], [-60.43027092095471, 46.554929497743004], [-60.430076552519125, 46.55487382873664], [-60.43004695787097, 46.55487008545348], [-60.42999874046699, 46.554863979517215], [-60.42996182159732, 46.554863662535844], [-60.42993353653297, 46.55486340464498], [-60.429890204450025, 46.55487788337732], [-60.42988052771965, 46.55488112180587], [-60.42978884984506, 46.55491596045807], [-60.42975325516215, 46.55492185614603], [-60.429736253073486, 46.554924677866566], [-60.42971061304388, 46.55491510144226], [-60.42963447110415, 46.55484228987793], [-60.42958269499365, 46.55480602591954], [-60.42948002142882, 46.55474251763811], [-60.42933779750582, 46.55466012001001], [-60.42927256463632, 46.55463255325915], [-60.429215292127964, 46.554611843445436], [-60.429195602756856, 46.55460472270903], [-60.42910477200045, 46.554594580113], [-60.4289775400516, 46.5545935997344], [-60.428922179264234, 46.55459317365558], [-60.428893495945665, 46.554585058593275], [-60.42885652180878, 46.55457459706719], [-60.42872778498379, 46.55451050191241], [-60.42869238723209, 46.55449373982407], [-60.42857210564239, 46.55443680063243], [-60.42852275087063, 46.554421371538965], [-60.42848209912825, 46.554408676178895], [-60.42836825503408, 46.55439329935048], [-60.42833821910262, 46.55438923969819], [-60.428326894787816, 46.55438924594949], [-60.42829907986389, 46.55438925922781], [-60.42827075001675, 46.55439409388907], [-60.428247786620425, 46.55439800527468], [-60.428224972104736, 46.55440014701469], [-60.42807741934845, 46.554413972398656], [-60.42799916822719, 46.554386112033946], [-60.42756289594681, 46.554245067433534], [-60.42717036590126, 46.55411816354917], [-60.42635422127946, 46.55385859393923], [-60.42631885046297, 46.55385011167316], [-60.426275533545045, 46.55383972250986], [-60.42625414160602, 46.55382916995094], [-60.4262372883014, 46.55382085255947], [-60.42605593307465, 46.55373846980293], [-60.42602007126733, 46.553730165387904], [-60.426017219253325, 46.5537295071754], [-60.425985226526336, 46.553725456843146], [-60.425861587109075, 46.55370980295547], [-60.425804791150334, 46.553695888117886], [-60.425744242030234, 46.553681060741525], [-60.425710916488015, 46.553651690452895], [-60.425692882023135, 46.5536358044222], [-60.42562127067245, 46.553566098159386], [-60.42559062676917, 46.55353630222625], [-60.42550146031654, 46.553463194566206], [-60.42538530984561, 46.55338137916118], [-60.4253722510018, 46.55335408519705], [-60.42537310188715, 46.55333610445418], [-60.42533814609533, 46.55331638128815], [-60.42530829813544, 46.55329954513629], [-60.42524349447136, 46.55326298578321], [-60.425089552231725, 46.553180318893716], [-60.42507342448379, 46.5531638457136], [-60.42506341911469, 46.553153630401894], [-60.425064270096094, 46.553135649662764], [-60.42505325235091, 46.553127805534665], [-60.425025147229356, 46.553107777580955], [-60.424960344410934, 46.55307120908431], [-60.42484464772766, 46.55300740325005], [-60.424638111274106, 46.55293345093429], [-60.42449589955639, 46.55285104750127], [-60.424224934840275, 46.552677543391724], [-60.423980513408615, 46.552549636528425], [-60.42395718580722, 46.5525353499358], [-60.42389048635371, 46.552494508108275], [-60.423847139491244, 46.552464119443925], [-60.42381221410624, 46.55243964451483], [-60.42375569724423, 46.55238984312071], [-60.423709524934395, 46.55234914878084], [-60.42365169387268, 46.55229128975721], [-60.42364600147716, 46.552285599497054], [-60.4235320015575, 46.5521309310098], [-60.42351985896215, 46.55211516841924], [-60.423455816316654, 46.55203201442201], [-60.423250446409064, 46.55182308652949], [-60.42311079445152, 46.55168673930856], [-60.423101326936575, 46.55168005492817], [-60.42301990495634, 46.55162259979318], [-60.42289160837934, 46.55154949896756], [-60.42282766010414, 46.551494957596454], [-60.422776318023644, 46.55144969134515], [-60.42276638287297, 46.55142892046207], [-60.42276326007251, 46.551422415091196], [-60.422751480950865, 46.55136814079683], [-60.42276619017572, 46.55130547271364], [-60.42279252827739, 46.55121982890497], [-60.42279396078406, 46.55121519922218], [-60.422793270023234, 46.55121188066536], [-60.422781248323, 46.551152812926645], [-60.42271730061052, 46.55109827150207], [-60.42267495305178, 46.55107821886261], [-60.422639469917456, 46.55106141695542], [-60.422623109473136, 46.55104960915256], [-60.42257638669085, 46.55101589489808], [-60.42254487802528, 46.55100083856229], [-60.42253685419489, 46.55099700367053], [-60.4224207512941, 46.55096918601496], [-60.422317254626414, 46.550923652578085], [-60.42231253541543, 46.55092110717868], [-60.42226510382696, 46.550895476774635], [-60.42211067814005, 46.550795712994976], [-60.42182880557461, 46.55054993946933], [-60.42168788193823, 46.55044057066255], [-60.42159744811851, 46.55039442218882], [-60.42146787779366, 46.55034829988569], [-60.42142442586686, 46.55033533183497], [-60.42137656262874, 46.550321031268766], [-60.421286140297894, 46.55030190068114], [-60.42120791051221, 46.55030103598121], [-60.42118398505949, 46.550300775262436], [-60.421051450955126, 46.55029930642085], [-60.420947542313854, 46.5502897622731], [-60.420820278102795, 46.550273715121754], [-60.42071282802408, 46.55026017587758], [-60.4206484818579, 46.550241624125405], [-60.42055762308757, 46.55020446519467], [-60.42053238355796, 46.550186795767935], [-60.42047128249708, 46.55014795023112], [-60.42040320339063, 46.55010468121948], [-60.420390527276815, 46.55007818729829], [-60.42039014778762, 46.550077386738565], [-60.4203657904032, 46.55004083726619], [-60.420346517630186, 46.550007102514314], [-60.42034362348824, 46.550001835229374], [-60.42034051354066, 46.54999616707632], [-60.420328335453476, 46.54996604840251], [-60.42031482868542, 46.54993258775921], [-60.42034337488235, 46.549798232539445], [-60.420337380425245, 46.5497648064195], [-60.42033203729475, 46.54973497698077], [-60.42030681461231, 46.54971640788656], [-60.42025888788818, 46.54968282750248], [-60.42025504963403, 46.549680139897994], [-60.420112853083964, 46.549597731275604], [-60.41981709288605, 46.54939755708963], [-60.41977813072572, 46.54936998380884], [-60.41975272389352, 46.549352004431434], [-60.41974412451588, 46.54933308141742], [-60.41972791678233, 46.54929744474614], [-60.419735334558595, 46.549280764248294], [-60.41975565973806, 46.549235071212166], [-60.419804662851035, 46.549185138473604], [-60.4198351610314, 46.549154065969375], [-60.419875824419655, 46.54911384492643], [-60.41988853928567, 46.54910127095562], [-60.41988979390468, 46.549047299508864], [-60.41985884076445, 46.54901946601738], [-60.41983849875143, 46.549001141973086], [-60.419734155401976, 46.548973586980225], [-60.4195163769644, 46.54891874847723], [-60.419475035984355, 46.54890833831796], [-60.41940981512646, 46.54888076615378], [-60.419393830896375, 46.548872881357156], [-60.41937157492297, 46.5488619119907], [-60.419335113555036, 46.548831956019555], [-60.41929498622782, 46.54879898329019], [-60.4192436922422, 46.54875281651029], [-60.41920492274502, 46.54868984153153], [-60.4192003408956, 46.548679181137864], [-60.419193184167455, 46.54866257663908], [-60.41918306646314, 46.548518348839465], [-60.41918733780652, 46.54850062534546], [-60.419196062436406, 46.548464642466705], [-60.41922336611575, 46.54841125909895], [-60.41922043374625, 46.54840185093854], [-60.41921204136485, 46.548374994588045], [-60.41919867524855, 46.54836086889582], [-60.41918595518305, 46.548347423784406], [-60.41910898407173, 46.548292577284684], [-60.41906087290132, 46.54827365316017], [-60.418992451588615, 46.54824674649277], [-60.418878932067, 46.54819020165537], [-60.418863728487224, 46.54818264040791], [-60.41886035382624, 46.54818090821897], [-60.41877331343471, 46.54813649909227], [-60.418695916147264, 46.548090651650135], [-60.418641021957626, 46.54803680733026], [-60.41863109951124, 46.54802708831299], [-60.418439256617894, 46.54783645694835], [-60.41833618277623, 46.54778192944715], [-60.41819401749565, 46.5477265189899], [-60.41793658899776, 46.54759830525404], [-60.41781922522934, 46.54754255451871], [-60.41771744546625, 46.547461055794464], [-60.41770863858658, 46.54745477288118], [-60.417678330854855, 46.54743317234157], [-60.4175234976056, 46.54734237502451], [-60.41735695714317, 46.54722341311779], [-60.41731822690048, 46.547187438255975], [-60.41729384983213, 46.547123887769125], [-60.41727341334612, 46.54709989114761], [-60.417255545963286, 46.54707893155409], [-60.41723159750698, 46.547062145549916], [-60.41720379896994, 46.547042653564674], [-60.41718293499904, 46.547027665232264], [-60.4171520682287, 46.54700548492221], [-60.417117233781106, 46.546985824946994], [-60.41708729059121, 46.546968921465826], [-60.416945542446314, 46.54690451890049], [-60.416829464322234, 46.546876696076495], [-60.416724260064306, 46.54686711878724], [-60.41647698263967, 46.54685523066216], [-60.41639744946807, 46.54685499919539], [-60.41638568544719, 46.54685495832128], [-60.41613966594619, 46.54678910710624], [-60.41588014759921, 46.54673284117971], [-60.41584010059024, 46.546718579961], [-60.4158019009321, 46.5467049724865], [-60.41576318130107, 46.5466959972266], [-60.415634042687415, 46.54661387814584], [-60.415513399230676, 46.54656685284386], [-60.41549188330408, 46.546558464434916], [-60.415311914542, 46.54647519578507], [-60.41528493538654, 46.546466485813845], [-60.41525930196242, 46.54645690626727], [-60.41522404891275, 46.5464318002665], [-60.415221449666, 46.5464299505023], [-60.415208419458146, 46.54642965587805], [-60.41520825739664, 46.546423181238374], [-60.41520797047352, 46.54641164579476], [-60.41518319113263, 46.54638408561114], [-60.41506748529745, 46.54629326964613], [-60.41490011106859, 46.54619228519745], [-60.41482267714547, 46.5461473342715], [-60.41467856835495, 46.546112404378135], [-60.414589266273424, 46.54609075579864], [-60.41447103389505, 46.546080881778295], [-60.41424938118627, 46.546078559346], [-60.41411943441474, 46.546068428988896], [-60.41407934567374, 46.54606439916705], [-60.41401557802897, 46.54605797969082], [-60.41383299493921, 46.54602955835212], [-60.41376030431591, 46.54602343186652], [-60.41371607933079, 46.546019704338576], [-60.41336405320097, 46.54601623953588], [-60.41319500392555, 46.54600521434305], [-60.41312061392791, 46.54598736703831], [-60.41300025832571, 46.54595850751596], [-60.41293947939755, 46.545937242128005], [-60.41292326155244, 46.54593156512312], [-60.41279376524033, 46.54588453458432], [-60.412729406328566, 46.54583897814922], [-60.41267850455275, 46.54578473528749], [-60.41265737708186, 46.54576764316525], [-60.41258806557016, 46.54571157959285], [-60.41240802025921, 46.54557520479677], [-60.412332216192894, 46.54552155009492], [-60.412214945908474, 46.54543853477202], [-60.41216608206537, 46.54541359670614], [-60.4121245281509, 46.54539238808878], [-60.41198577021284, 46.54534485896156], [-60.41180109060031, 46.545281575021434], [-60.41176433298495, 46.54527690880641], [-60.411723283432394, 46.54527170440528], [-60.41165731771682, 46.54526654783618], [-60.41159334002992, 46.54526155324275], [-60.411541177279126, 46.54526128112525], [-60.41151426227751, 46.545278671620096], [-60.41149677465916, 46.54528790560709], [-60.411396520276476, 46.54534080526137], [-60.41125139514926, 46.545375318771036], [-60.41120760059276, 46.5453817519813], [-60.411134488031216, 46.54539247120649], [-60.410921717435045, 46.54543327330674], [-60.410912015578624, 46.545435132566396], [-60.41076733068301, 46.54546065546369], [-60.41072888232164, 46.54546027060523], [-60.41063817920816, 46.54545935012122], [-60.410591684383746, 46.545454543970635], [-60.41050683244062, 46.54544579094705], [-60.41043203894347, 46.54542138076801], [-60.41041367139452, 46.54541538470938], [-60.41040172347968, 46.545410443069244], [-60.41036713272275, 46.545396150523956], [-60.41030759025158, 46.545341260855764], [-60.41028632290065, 46.54532164513146], [-60.41021943526701, 46.54523060714196]]}, "properties": {"OBJECTID": 272022, "FEAT_CODE": "WARV50", "FEAT_DESC": "River - Single Line", "RIVNAME_1": "Morrisons Brook", "RIVNAME_2": " ", "ZVALUE": 9999, "FID": null, "SHAPE_Length": 2476.347082676238}}, {"type": "Feature", "id": 298879, "geometry": {"type": "LineString", "coordinates": [[-60.40074738557676, 46.5587526424143], [-60.400596654546, 46.55840938580212]]}, "properties": {"OBJECTID": 298879, "FEAT_CODE": "WARV55", "FEAT_DESC": "River - Single Line Indefinite", "RIVNAME_1": "MacLeods Brook", "RIVNAME_2": " ", "ZVALUE": 9999, "FID": null, "SHAPE_Length": 39.87277493428622}}]}