{"type": "FeatureCollection", "features": [{"type": "Feature", "id": 11343, "geometry": {"type": "LineString", "coordinates": [[-60.42693497913136, 46.51111006765085], [-60.42672403928341, 46.51124301933612], [-60.42670793191695, 46.51125285373859], [-60.42657908452483, 46.511331556136305], [-60.42652748142929, 46.511371182415814], [-60.426485738147726, 46.5114032546484], [-60.426310829774636, 46.51152676575932], [-60.426221419789364, 46.51158990367827], [-60.42595801956525, 46.511784672775], [-60.425745828333284, 46.51197159450371], [-60.425467632919464, 46.51217592928123], [-60.425347841783775, 46.51228304027351], [-60.42524123804054, 46.51238693817857], [-60.425201635485635, 46.51242553816287], [-60.42510964313713, 46.512496366045916], [-60.42499113873212, 46.51257649663271], [-60.424954358755784, 46.512604189108664], [-60.424884340541254, 46.512656899810715], [-60.4245805868565, 46.51290564767344], [-60.42439567894511, 46.51303918155641], [-60.424275527723694, 46.51315437430989], [-60.42414476884745, 46.51328794891101], [-60.42402210385822, 46.51341327275515], [-60.42387718022545, 46.51355579784541], [-60.423744373868566, 46.5136626048306], [-60.423623323657274, 46.51378406763527], [-60.42350488690012, 46.51390290721617], [-60.423440960116146, 46.51396099233118], [-60.4232787373458, 46.514108409731236], [-60.423160282264895, 46.514187639524856], [-60.42308925987224, 46.51427142149715], [-60.423053969924375, 46.51431304295419], [-60.42294741340489, 46.51439178476229], [-60.42292158492828, 46.514410867474545], [-60.422802238593576, 46.51450808580898], [-60.42276275607609, 46.51454407764855], [-60.42270123880327, 46.514619262678444], [-60.42268250368713, 46.51464216826934], [-60.42264256877607, 46.51468716786995], [-60.42246054034634, 46.51482628953546], [-60.42245726719587, 46.514828789730565], [-60.42231100678554, 46.5149442916712], [-60.42227149672587, 46.51498030071906], [-60.42208758048207, 46.51517773523382], [-60.42180590146252, 46.51548010052635], [-60.42179638454659, 46.51548643787813], [-60.421713022682326, 46.515541905668385], [-60.42166003649641, 46.51558662854641], [-60.42160073087906, 46.51565055886138], [-60.42155291056255, 46.515702094213765], [-60.42143314298896, 46.515836192617314], [-60.42142785051205, 46.515842517232095], [-60.42138063438545, 46.515898908141864], [-60.42131419903453, 46.515952327470316], [-60.42126323206584, 46.51600725671632], [-60.4212070716289, 46.5160677927773], [-60.4211120391938, 46.51616569284971], [-60.421034397930796, 46.516245688207086], [-60.420901191101876, 46.516415491846494], [-60.42080829248588, 46.516505195806786], [-60.420740605737755, 46.516585568567976], [-60.420702474005004, 46.516626837170506], [-60.420674646774486, 46.51665698027383], [-60.42063234101275, 46.51669443766789], [-60.42059436215784, 46.516728068682745], [-60.420582215622936, 46.516736794595744], [-60.4205279771264, 46.51680847069003], [-60.420475058182845, 46.51685227653236], [-60.42039560703809, 46.516933283609994], [-60.42030104630009, 46.51705804964921], [-60.42024853560276, 46.517120755600644], [-60.42010023546504, 46.51726505366544], [-60.420074964501715, 46.51728965631437], [-60.41986360823113, 46.51748557690439], [-60.41979634466393, 46.51755695865206], [-60.41977373238855, 46.51758542824598], [-60.419689591526236, 46.517691357971906], [-60.419612812871506, 46.51780121582695], [-60.41960847750883, 46.51780741796208], [-60.41960156761827, 46.517815676980426], [-60.4194896194283, 46.51794963483887], [-60.41939628990683, 46.51804832791433], [-60.41928870137593, 46.5181727989953], [-60.41908910848023, 46.51842299271306], [-60.41887516338505, 46.51864586200693], [-60.41880851056385, 46.5187086979585], [-60.41874278494454, 46.51877067280838], [-60.418462872598695, 46.51906494267848], [-60.41840948022092, 46.51911865486511], [-60.41823865034742, 46.51926494367814], [-60.41811867113946, 46.5193676777984], [-60.417933069200714, 46.51954776949486], [-60.417852178037364, 46.519626258262115], [-60.417836813939935, 46.519641778199286], [-60.41774675100706, 46.51973276770676]]}, "properties": {"OBJECTID": 11343, "FEAT_CODE": "WACO20", "FEAT_DESC": "Coast - Water to the right line", "RIVNAME_1": " ", "RIVNAME_2": " ", "ZVALUE": 0.4, "FID": null, "SHAPE_Length": 1195.061046187468}}, {"type": "Feature", "id": 11544, "geometry": {"type": "LineString", "coordinates": [[-60.41752674425316, 46.52294260528693], [-60.417601608326805, 46.523096396469754], [-60.417674375790455, 46.52334914016876], [-60.4176988334028, 46.52346580159155], [-60.41772319641799, 46.523534409904514], [-60.41774714388159, 46.523601883825094], [-60.41775897991941, 46.52368225113856], [-60.41775609090576, 46.52385318574884], [-60.41778977937356, 46.52413294653543], [-60.417785109915286, 46.52433950788694], [-60.41778266210691, 46.52444778550181], [-60.41776842939864, 46.52455546390114], [-60.41771046078651, 46.52484305415222], [-60.417710786593496, 46.52485268250356], [-60.41771803880423, 46.52506822513365], [-60.41766013551551, 46.525381916790714], [-60.41764502602413, 46.52548057536365], [-60.41762350661791, 46.52558241912574], [-60.41760131263921, 46.52568748764001], [-60.417583233882475, 46.52576104114821], [-60.417559304185936, 46.52585843844825], [-60.41754620533198, 46.52590424048021], [-60.417531169007646, 46.52595680273298], [-60.41752791176601, 46.526111555983356], [-60.417524915254134, 46.5262536611344], [-60.417507365629135, 46.52654124634132], [-60.41750330884462, 46.52671588049266], [-60.41750107415351, 46.526811121896834], [-60.4175078585751, 46.52710827481627], [-60.41750188745782, 46.52718524282532], [-60.41749111283825, 46.52732390523756], [-60.41747557599149, 46.52743155409718], [-60.41744703725675, 46.52756590017901], [-60.41744329379567, 46.52775481536396], [-60.41743522066095, 46.52784585685531], [-60.417426481833495, 46.5279443352956], [-60.417425600873585, 46.52799233032911], [-60.41742399391214, 46.52807927890817], [-60.417404169794835, 46.52823030082899], [-60.417393369139184, 46.528312586701986], [-60.41739296617747, 46.528348577548606]]}, "properties": {"OBJECTID": 11544, "FEAT_CODE": "WACO20", "FEAT_DESC": "Coast - Water to the right line", "RIVNAME_1": " ", "RIVNAME_2": " ", "ZVALUE": 0.4, "FID": null, "SHAPE_Length": 605.0915087330459}}, {"type": "Feature", "id": 11546, "geometry": {"type": "LineString", "coordinates": [[-60.41739296617747, 46.528348577548606], [-60.417392872029886, 46.52835166241732], [-60.41739085765705, 46.52842052981225], [-60.41737574660085, 46.528519188275204], [-60.41734550590842, 46.52874438673185], [-60.4172875948142, 46.52905809587573], [-60.41723342497683, 46.529358344528276], [-60.41722921475585, 46.52938167636726], [-60.41719854157215, 46.5295609830592], [-60.41717040747742, 46.52971424714899], [-60.41714880024524, 46.52984097374349], [-60.41711078912072, 46.53006389953286], [-60.41706834870103, 46.53024384029187], [-60.41702503181605, 46.53041476124165], [-60.4169414720337, 46.53074676355951], [-60.416899090968286, 46.53089903962946], [-60.416856597563076, 46.531051754141636], [-60.41678110265682, 46.531301678705624], [-60.416759119412326, 46.53137445080043], [-60.416703223413926, 46.531563087309394], [-60.416662483176914, 46.53165216647186], [-60.41650019034455, 46.53191219824548], [-60.416420812850426, 46.532017702068316], [-60.41639300256343, 46.532054684456405], [-60.41636597074265, 46.53208185645034], [-60.41633959617706, 46.53210836829413], [-60.41622105809488, 46.53221548887111], [-60.416201339445685, 46.53224189012467], [-60.416194613592594, 46.53225089108382], [-60.416192916736286, 46.53231385261168], [-60.41620466364753, 46.53234111807488], [-60.41624380962933, 46.532368102828826], [-60.41626626756355, 46.53237383942185], [-60.416282463563924, 46.532377976480234], [-60.41631835220706, 46.532388138617215], [-60.41634808996184, 46.53239655972636], [-60.41638848589241, 46.5324139696993], [-60.416411987108425, 46.53242410383464], [-60.416414544961164, 46.53242598864121], [-60.41642458736992, 46.53243338859542], [-60.41642384905706, 46.53250143877875], [-60.416423822104875, 46.53250448016377], [-60.41640854278092, 46.53251839980891], [-60.41638429542448, 46.53254047774753], [-60.416361085126596, 46.53254784614834], [-60.41635781500804, 46.53254887923675], [-60.41631826501977, 46.5325578853227], [-60.41628309719685, 46.532559187456286], [-60.41612230686658, 46.53256515612031], [-60.416076897721936, 46.53256984469291], [-60.4160436761239, 46.532573278741125], [-60.41599333593707, 46.53258624380197], [-60.4158733675842, 46.53261712882986], [-60.41570312395034, 46.53268708008236]]}, "properties": {"OBJECTID": 11546, "FEAT_CODE": "WACO20", "FEAT_DESC": "Coast - Water to the right line", "RIVNAME_1": " ", "RIVNAME_2": " ", "ZVALUE": 0.4, "FID": null, "SHAPE_Length": 546.7884600165462}}, {"type": "Feature", "id": 11578, "geometry": {"type": "LineString", "coordinates": [[-60.4168644085534, 46.52211764053176], [-60.41690350509983, 46.52214552399649]]}, "properties": {"OBJECTID": 11578, "FEAT_CODE": "WACO20", "FEAT_DESC": "Coast - Water to the right line", "RIVNAME_1": " ", "RIVNAME_2": " ", "ZVALUE": 0.4, "FID": null, "SHAPE_Length": 4.313930921756898}}, {"type": "Feature", "id": 11579, "geometry": {"type": "LineString", "coordinates": [[-60.41690350509983, 46.52214552399649], [-60.41692405382126, 46.52219033131573], [-60.41695313344165, 46.52225375439238], [-60.417043170543394, 46.52233498885979], [-60.41713628142671, 46.522423996703054], [-60.41715790960948, 46.52244467238138], [-60.41729837408193, 46.52261704598457], [-60.4174502014502, 46.52282477610268], [-60.417493972124625, 46.52289213993591], [-60.41752674425316, 46.52294260528693]]}, "properties": {"OBJECTID": 11579, "FEAT_CODE": "WACO20", "FEAT_DESC": "Coast - Water to the right line", "RIVNAME_1": " ", "RIVNAME_2": " ", "ZVALUE": 0.4, "FID": null, "SHAPE_Length": 101.23945310082017}}, {"type": "Feature", "id": 11580, "geometry": {"type": "LineString", "coordinates": [[-60.41774675100706, 46.51973276770676], [-60.41767169736713, 46.51983991820865], [-60.4176530549015, 46.51986656005853], [-60.417477351667, 46.52016229060111], [-60.41745138349232, 46.52022106790536], [-60.41742185036128, 46.52028793665936], [-60.41738031513685, 46.520448998217084], [-60.41735775718417, 46.520501291547326], [-60.41732611569351, 46.52057467363796], [-60.41727837517358, 46.520675213971714], [-60.41725805234258, 46.52071803578408], [-60.41718912297364, 46.52087937831436], [-60.41717862912518, 46.520911235197985], [-60.417147976378125, 46.52100444856995], [-60.41705718634669, 46.521240744043254], [-60.41705129673813, 46.52125606395668], [-60.417036499469795, 46.5212887595858], [-60.41694206088915, 46.52149749552851], [-60.41693384080732, 46.521513842773636], [-60.416914700934996, 46.52155177725437], [-60.41687703419259, 46.521717264020545], [-60.416871896992255, 46.52173980992333], [-60.41683114570875, 46.521856788989396], [-60.416830365563314, 46.52189908034095], [-60.416829486728936, 46.52194675145967], [-60.41684180986573, 46.522014889903794], [-60.416852213624246, 46.52207236497756], [-60.41686068429136, 46.522103795379245], [-60.4168644085534, 46.52211764053176]]}, "properties": {"OBJECTID": 11580, "FEAT_CODE": "WACO20", "FEAT_DESC": "Coast - Water to the right line", "RIVNAME_1": " ", "RIVNAME_2": " ", "ZVALUE": 0.4, "FID": null, "SHAPE_Length": 276.32977261189797}}, {"type": "Feature", "id": 38786, "geometry": {"type": "LineString", "coordinates": [[-60.424166440754156, 46.517363916959496], [-60.42421939737797, 46.5173471102608], [-60.42442743324198, 46.51733109780621], [-60.42445353546186, 46.517330785924685], [-60.42450522025154, 46.51734005043435], [-60.42452790967168, 46.51735622164056], [-60.424544330519154, 46.51736793160923], [-60.42456910210522, 46.5173954897177], [-60.424582222404695, 46.517448885312746], [-60.424594422924216, 46.51749416018442]]}, "properties": {"OBJECTID": 38786, "FEAT_CODE": "WALK20", "FEAT_DESC": "Lake - Water to the right line", "RIVNAME_1": " ", "RIVNAME_2": " ", "ZVALUE": 8.4, "FID": null, "SHAPE_Length": 45.69964614993438}}, {"type": "Feature", "id": 38787, "geometry": {"type": "LineString", "coordinates": [[-60.424594422924216, 46.51749416018442], [-60.42459272276626, 46.5175301218743], [-60.424553637279736, 46.51755714126677], [-60.42447548153607, 46.51758328035914], [-60.42439765960486, 46.517591327922325], [-60.42439687352462, 46.517591409210574], [-60.424385770355705, 46.51759131203647], [-60.424331713984074, 46.517590841035016], [-60.42426601340888, 46.51755980463576], [-60.424215666592666, 46.51753602616955], [-60.42419394099842, 46.51752428661941], [-60.424163546019734, 46.51750785171212], [-60.424166440754156, 46.517363916959496]]}, "properties": {"OBJECTID": 38787, "FEAT_CODE": "WALK20", "FEAT_DESC": "Lake - Water to the right line", "RIVNAME_1": " ", "RIVNAME_2": " ", "ZVALUE": 8.4, "FID": null, "SHAPE_Length": 57.885196801918894}}, {"type": "Feature", "id": 38788, "geometry": {"type": "LineString", "coordinates": [[-60.42432173061554, 46.51672661616706], [-60.42437382341542, 46.51672778993208], [-60.424412962670125, 46.516754771808664], [-60.42441900150338, 46.516767399872684], [-60.42442601260516, 46.51678207484295], [-60.42441205562599, 46.51681587036876], [-60.42441128958107, 46.516817734108415], [-60.424407448637, 46.51682286756535], [-60.42438484520424, 46.51685313826855], [-60.4243682963298, 46.51685985739002], [-60.424319713645176, 46.516879570713165], [-60.424252468014906, 46.51692121048344], [-60.42416123582416, 46.51697769970693], [-60.42414695027369, 46.517004377796376], [-60.424146826178045, 46.5170092079997], [-60.42414568894075, 46.517058349369876], [-60.42415418656043, 46.51706584885396], [-60.42419700097129, 46.51710361461759], [-60.42423574278071, 46.517166578594086], [-60.42422412606512, 46.517188924830165], [-60.424221401679915, 46.51719415544036], [-60.42418193366999, 46.51722926608643], [-60.42399780609025, 46.517290816870194], [-60.42395876343328, 46.51731692802546], [-60.423892382105684, 46.517397341056345], [-60.42388862473736, 46.51740235937909], [-60.423878466348384, 46.51741591844578], [-60.42376037661097, 46.51745916607706], [-60.4237334500178, 46.51747745921888], [-60.42370700529356, 46.51751285421262], [-60.42369478794977, 46.5175523048555], [-60.423693157884685, 46.51755755111663], [-60.42368774670458, 46.51756666315878], [-60.423666244955314, 46.51760284454704], [-60.423665311049476, 46.51760357049845], [-60.42358638791522, 46.51766494468294], [-60.423520404561906, 46.51770935747071], [-60.4234548463319, 46.51774477980383], [-60.42337668981974, 46.51777091812778], [-60.423310280912816, 46.51782432120056], [-60.42319220329854, 46.51786755951795], [-60.42318828551835, 46.51786935220196], [-60.42311357867105, 46.51790358710817], [-60.42307026261373, 46.51791501262631], [-60.42304756820102, 46.51792099901544], [-60.42278697120145, 46.51791782394138]]}, "properties": {"OBJECTID": 38788, "FEAT_CODE": "WALK20", "FEAT_DESC": "Lake - Water to the right line", "RIVNAME_1": " ", "RIVNAME_2": " ", "ZVALUE": 8.4, "FID": null, "SHAPE_Length": 214.18687678131087}}, {"type": "Feature", "id": 38789, "geometry": {"type": "LineString", "coordinates": [[-60.42278697120145, 46.51791782394138], [-60.42276173242535, 46.51790015491216], [-60.422770831183726, 46.51788089305529], [-60.42277475908942, 46.51787254861471], [-60.42280607575175, 46.51781851668041], [-60.422815942842654, 46.51780147714207], [-60.42282891360328, 46.51774776958084], [-60.42283061493776, 46.51771180794222], [-60.42281517231853, 46.51769155178266], [-60.42275450600454, 46.51761199201723], [-60.42275447969761, 46.51758499142656], [-60.422767327513704, 46.5175686040956], [-60.422768353769364, 46.51756730423368], [-60.422899895885635, 46.51748746991248], [-60.42297939492682, 46.5174445231818], [-60.423031025345374, 46.5174166261362], [-60.423087700232266, 46.51738323578626], [-60.42313695880521, 46.517354214223836], [-60.423202091487084, 46.517327782478475], [-60.42321837954851, 46.517313353647125], [-60.42328237369524, 46.51725669219309], [-60.42341351572627, 46.517212848259284], [-60.42347903080525, 46.51717832497595], [-60.42360974729998, 46.51714347122498], [-60.42364615883749, 46.51713743388613], [-60.4236623081754, 46.51713475586412], [-60.423692669024526, 46.51713508913839], [-60.42374049043844, 46.517135617923294], [-60.423845173941054, 46.51712717717993], [-60.423885093689115, 46.51711008582872], [-60.42388870950549, 46.51710723331571], [-60.423897295758835, 46.51710045181738], [-60.42390179122373, 46.51709471212803], [-60.4239111693352, 46.51708276447436], [-60.42400239981233, 46.51698496541437], [-60.42404438216132, 46.51693996649008], [-60.4240594770657, 46.51684130665481], [-60.424098533198595, 46.5168151777679], [-60.42416495365427, 46.51678878349289], [-60.42421953919762, 46.51675929650018], [-60.42423052328567, 46.51675336100778], [-60.424232638454974, 46.516752742669354], [-60.42432173061554, 46.51672661616706]]}, "properties": {"OBJECTID": 38789, "FEAT_CODE": "WALK20", "FEAT_DESC": "Lake - Water to the right line", "RIVNAME_1": " ", "RIVNAME_2": " ", "ZVALUE": 8.4, "FID": null, "SHAPE_Length": 202.7798033091409}}, {"type": "Feature", "id": 38790, "geometry": {"type": "LineString", "coordinates": [[-60.42241626002282, 46.51820286531326], [-60.422480773922, 46.518211583020815], [-60.42256005555534, 46.51822230767226], [-60.422688249204654, 46.51826839807564], [-60.42272738824897, 46.5182953895189], [-60.42272653795614, 46.51831336134453], [-60.42271397905082, 46.51833107818326], [-60.42270094246094, 46.518330784253905], [-60.42265988485097, 46.51831651154166], [-60.42264835404868, 46.518312498557826], [-60.42263533048747, 46.518312204914736], [-60.42255884914377, 46.518320272453], [-60.422558023554714, 46.51832036183776], [-60.42254495745361, 46.51832096722503], [-60.42254115843509, 46.51832217756478], [-60.42251848493573, 46.51832937032023], [-60.42250035004272, 46.51834148940827], [-60.42247809550274, 46.518356359601114], [-60.42243536340268, 46.518394834041054], [-60.42239911294506, 46.51842747862203], [-60.422344917566924, 46.518498256533384], [-60.42233633089744, 46.5185050379052], [-60.42233272835494, 46.51850788166818]]}, "properties": {"OBJECTID": 38790, "FEAT_CODE": "WALK20", "FEAT_DESC": "Lake - Water to the right line", "RIVNAME_1": " ", "RIVNAME_2": " ", "ZVALUE": 8.4, "FID": null, "SHAPE_Length": 71.13497969161172}}, {"type": "Feature", "id": 38791, "geometry": {"type": "LineString", "coordinates": [[-60.42233272835494, 46.51850788166818], [-60.4223145358762, 46.51850137843182], [-60.422305804216954, 46.51849827453379], [-60.42229405691472, 46.518471009636784], [-60.42229529412706, 46.518417037546314], [-60.42232174064444, 46.51838163392145], [-60.42232653202913, 46.51837680996735], [-60.422375141085865, 46.51832792909179], [-60.422375717401174, 46.518289575094045], [-60.42237636470092, 46.51824696569747], [-60.422389787544525, 46.51821126837958], [-60.42240582986732, 46.51820617612214], [-60.42241626002282, 46.51820286531326]]}, "properties": {"OBJECTID": 38791, "FEAT_CODE": "WALK20", "FEAT_DESC": "Lake - Water to the right line", "RIVNAME_1": " ", "RIVNAME_2": " ", "ZVALUE": 8.4, "FID": null, "SHAPE_Length": 38.49622485372542}}, {"type": "Feature", "id": 38792, "geometry": {"type": "LineString", "coordinates": [[-60.42115466362557, 46.52761015630909], [-60.42115282903218, 46.52760070993467], [-60.42114802581841, 46.52759392358505], [-60.421141315346375, 46.52758308021358], [-60.42114172064391, 46.52757727536529], [-60.42114245903249, 46.527566915037944], [-60.42115987463313, 46.5275582179418], [-60.42116894306757, 46.527553688528776], [-60.42117635849575, 46.52755047182211], [-60.42119638008772, 46.52754181551026], [-60.42122859091785, 46.52754010316354], [-60.42127139816065, 46.527550608832016], [-60.42129840431607, 46.52757647201545], [-60.421329381675676, 46.5275983297813], [-60.42135364139427, 46.527608669019045], [-60.42135678686728, 46.5276163179635], [-60.42135709020229, 46.52761707180501]]}, "properties": {"OBJECTID": 38792, "FEAT_CODE": "WALK20", "FEAT_DESC": "Lake - Water to the right line", "RIVNAME_1": " ", "RIVNAME_2": " ", "ZVALUE": 14.596, "FID": null, "SHAPE_Length": 26.069203697227874}}, {"type": "Feature", "id": 38793, "geometry": {"type": "LineString", "coordinates": [[-60.42135709020229, 46.52761707180501], [-60.42135739353732, 46.52761782564655], [-60.42136031791645, 46.52762491160428], [-60.42135468436152, 46.5276488774884], [-60.42135416067978, 46.52765112467197], [-60.421344934910984, 46.527655947550095], [-60.42133673937235, 46.52766021766831], [-60.42132919827348, 46.5276641605494], [-60.421323768889245, 46.52766701706812], [-60.42131458316564, 46.52766548685631], [-60.42130233119311, 46.5276634464748], [-60.421261455910205, 46.52765564839704], [-60.42123816511709, 46.52765761598008], [-60.42121850034501, 46.5276592873588], [-60.42120235972726, 46.527666393228806], [-60.42119008045563, 46.527671813208684], [-60.42116380469105, 46.527665496449266], [-60.42115610466226, 46.527655998752834], [-60.421154396083, 46.52763508023778], [-60.42115466362557, 46.52761015630909]]}, "properties": {"OBJECTID": 38793, "FEAT_CODE": "WALK20", "FEAT_DESC": "Lake - Water to the right line", "RIVNAME_1": " ", "RIVNAME_2": " ", "ZVALUE": 14.596, "FID": null, "SHAPE_Length": 26.082995800372473}}, {"type": "Feature", "id": 38794, "geometry": {"type": "LineString", "coordinates": [[-60.420036836862884, 46.52775217078905], [-60.42006268337034, 46.52774029814546], [-60.42008835993065, 46.52771357168126], [-60.42008850587311, 46.5277008579928], [-60.42008862416031, 46.527690654676675], [-60.42007319970623, 46.52767163158692], [-60.42004608557272, 46.52765383866461], [-60.42002091148432, 46.52763473052373], [-60.420013320660935, 46.527615776227535], [-60.42002330933158, 46.52759430269813], [-60.42002853225594, 46.527587823586366], [-60.42003516856775, 46.527579585376266], [-60.42008980658457, 46.52758009851625], [-60.42013648643618, 46.52758152102421], [-60.420154524971444, 46.52758197312721], [-60.42020115681101, 46.527570371543185], [-60.420225824846455, 46.527571261249136], [-60.42025187276056, 46.527572200090255], [-60.42025437630251, 46.52758403757281], [-60.420255591640675, 46.52758976199211], [-60.42027495259284, 46.527586796924595], [-60.420288809755505, 46.527584679647084], [-60.420320098775534, 46.5275795807585], [-60.420372578517785, 46.52759895403102], [-60.42040739091798, 46.52761499459953], [-60.420450255228936, 46.52763475385087], [-60.420510446335676, 46.52766228406163], [-60.42052495082468, 46.52767981033489], [-60.42053741977331, 46.52769488767754], [-60.42053901499567, 46.52772727862801], [-60.42054499534676, 46.527749679543255]]}, "properties": {"OBJECTID": 38794, "FEAT_CODE": "WALK20", "FEAT_DESC": "Lake - Water to the right line", "RIVNAME_1": " ", "RIVNAME_2": " ", "ZVALUE": 11.283, "FID": null, "SHAPE_Length": 74.72271845146989}}, {"type": "Feature", "id": 38795, "geometry": {"type": "LineString", "coordinates": [[-60.42054499534676, 46.527749679543255], [-60.42054605588991, 46.52775371746869], [-60.42054838163085, 46.52776242793671], [-60.42050134663036, 46.52777951055714], [-60.42046038140996, 46.52777911715264], [-60.42040008911235, 46.52778317458784], [-60.42037251360381, 46.52778502730429], [-60.42031393058458, 46.52778851126735], [-60.4202513535389, 46.52780005905335], [-60.42020232834151, 46.52782116463108], [-60.42016511689067, 46.5278342928167], [-60.4201508123827, 46.52783539198483], [-60.420133864308376, 46.52783669248918], [-60.420115055500986, 46.52783488200092], [-60.42010267147073, 46.527833702509106], [-60.4200907983073, 46.52782476755668], [-60.420073624010826, 46.527811851966575], [-60.42004666549008, 46.527780589575904], [-60.420036836862884, 46.52775217078905]]}, "properties": {"OBJECTID": 38795, "FEAT_CODE": "WALK20", "FEAT_DESC": "Lake - Water to the right line", "RIVNAME_1": " ", "RIVNAME_2": " ", "ZVALUE": 11.283, "FID": null, "SHAPE_Length": 47.9769688487413}}, {"type": "Feature", "id": 191723, "geometry": {"type": "LineString", "coordinates": [[-60.42987626493055, 46.528592125171095], [-60.42986236056401, 46.52858281257242], [-60.42981104943246, 46.52856455894717], [-60.42959115977624, 46.52849931489326], [-60.429517418111445, 46.52848469675826], [-60.4294477591949, 46.52847088138299], [-60.429383160297114, 46.528466170735726], [-60.429304811677774, 46.52846047584681], [-60.42918488555762, 46.528444143881046], [-60.42916228909518, 46.528441070705], [-60.42912382130559, 46.52842284460979], [-60.429084485598715, 46.528404220982615], [-60.42905566814912, 46.52839840687895], [-60.42899406738585, 46.528385987455], [-60.42895453564485, 46.528367098374275], [-60.42888664863309, 46.52835055951335], [-60.42887718643845, 46.528348249693934], [-60.428721112819936, 46.5282844482905], [-60.42867107650032, 46.52827124481626], [-60.42857944001717, 46.528247061566404], [-60.42849994864569, 46.52822277345213], [-60.42839819354396, 46.52819168444646], [-60.42833535679044, 46.52819081083988], [-60.42829394324261, 46.52819023916137], [-60.42822136443211, 46.528178625342406], [-60.42817617112759, 46.52817138959689], [-60.42807231677641, 46.52813395308196], [-60.42800841839618, 46.52810641545719], [-60.4278683494582, 46.528030400002336], [-60.42784059499209, 46.52801533952531], [-60.427775394278655, 46.52798777246517], [-60.42773267562412, 46.52797232124163], [-60.427698470305444, 46.52795994156731], [-60.42749117392471, 46.52790397681408], [-60.427334762813636, 46.52787525684964], [-60.42725691199733, 46.52786539576301], [-60.427179203646666, 46.52785555582964], [-60.42712235303151, 46.52784308030379], [-60.42701013626512, 46.527818450579296], [-60.426880614021826, 46.52777233524328], [-60.42665944370115, 46.52773405664829], [-60.42654340065782, 46.527706244333714], [-60.4264844674057, 46.527700318593], [-60.426439576292815, 46.5276958069569], [-60.42632138105824, 46.527685945933236], [-60.42603631474977, 46.5276201275727], [-60.42596649165274, 46.52760762036826], [-60.425932886587354, 46.527601589668826], [-60.425802077823285, 46.52758244409135], [-60.42564318160672, 46.527546474853594], [-60.42563435696376, 46.52754447612197], [-60.42546525121651, 46.527480367756645], [-60.42540648166503, 46.527472366148636], [-60.42532274578307, 46.52746095819652], [-60.42521934724873, 46.52744152931332], [-60.4251651332303, 46.52741936521234], [-60.42506328153413, 46.527377705063955], [-60.425004825163256, 46.52735674132336], [-60.424908135294906, 46.52732201930016], [-60.42477820502754, 46.52731189232242], [-60.424595286577016, 46.52726802745848], [-60.424583527446764, 46.527265215533774], [-60.424582725379494, 46.52726508046365], [-60.42451879841633, 46.527254748206104], [-60.424414958905245, 46.52724520864205], [-60.424386998030215, 46.52723729765934], [-60.42434933569161, 46.5272266300834], [-60.424285002068785, 46.52720808054428], [-60.42422026929779, 46.527198521961346], [-60.424155098269914, 46.52719795345278], [-60.424051275420396, 46.527187513934265], [-60.42400373227298, 46.527187531570014], [-60.4239730361873, 46.52718755083647], [-60.42381576553182, 46.52717680664291], [-60.42367242443336, 46.527202376119796], [-60.42352863135584, 46.527209935256295], [-60.42335837484702, 46.527252897665875], [-60.42329233996083, 46.52727030916683], [-60.423254123512294, 46.5272793477101], [-60.4232011273026, 46.527297053066384], [-60.42304390902915, 46.52734030891178], [-60.42299693879852, 46.52733979004473], [-60.42296571215054, 46.52733944608031], [-60.42293843007309, 46.52734226902955], [-60.422887089809855, 46.527347573590255], [-60.42273114763732, 46.527363857814066], [-60.422711249133755, 46.52736523618037], [-60.42261340550362, 46.52737200313747], [-60.42258230300319, 46.52737344386478], [-60.42244353090622, 46.52737987284647], [-60.422272020703915, 46.527378219433785], [-60.42223497861618, 46.527377870131595], [-60.42219565221158, 46.52737288831137], [-60.42207942342966, 46.52735815324405], [-60.42198733649674, 46.52734798551164], [-60.421870445588304, 46.52733814929178], [-60.42186642234001, 46.5273366455557], [-60.421844819806886, 46.527328571352605], [-60.42180570012014, 46.52732858905302], [-60.421789656770045, 46.527321801219436], [-60.421740503417006, 46.527301018625465], [-60.42169871475362, 46.5272968180974], [-60.42163668092826, 46.527290576918865], [-60.42160565465618, 46.5272904081017], [-60.421584535575775, 46.52729030074268], [-60.4215427561909, 46.5273046313408], [-60.421532841415214, 46.527308034694705], [-60.42144079299675, 46.52735185831411], [-60.42136905879595, 46.5273891021154], [-60.42126967887497, 46.527440698202916], [-60.42120280467452, 46.527476089537636], [-60.42116654016229, 46.52748685441483], [-60.42108899812734, 46.52750988203769], [-60.42103184998779, 46.52754309869783], [-60.421023713550085, 46.527553004119056], [-60.42101260115086, 46.52756655039405], [-60.421003862083765, 46.527586702203415], [-60.4209926465715, 46.52759306416031]]}, "properties": {"OBJECTID": 191723, "FEAT_CODE": "WARV50", "FEAT_DESC": "River - Single Line", "RIVNAME_1": " ", "RIVNAME_2": " ", "ZVALUE": 9999, "FID": null, "SHAPE_Length": 731.0163951387663}}, {"type": "Feature", "id": 191724, "geometry": {"type": "LineString", "coordinates": [[-60.42115466362557, 46.52761015630909], [-60.42115291817266, 46.527610116932216], [-60.42106480013462, 46.52760810198217], [-60.42101270837586, 46.52760090576441], [-60.4209926465715, 46.52759306416031]]}, "properties": {"OBJECTID": 191724, "FEAT_CODE": "WARV50", "FEAT_DESC": "River - Single Line", "RIVNAME_1": " ", "RIVNAME_2": " ", "ZVALUE": 9999, "FID": null, "SHAPE_Length": 12.744321483696618}}, {"type": "Feature", "id": 191725, "geometry": {"type": "LineString", "coordinates": [[-60.4209926465715, 46.52759306416031], [-60.42096876830673, 46.5276066104179], [-60.42095357687889, 46.52761845366109], [-60.42094737604058, 46.52762328175401], [-60.42092793428123, 46.527641995089965], [-60.42088211258041, 46.52766044623918], [-60.42084318237869, 46.52767628086301], [-60.420752759031, 46.527716603598655], [-60.420683739303, 46.52773891423812], [-60.420643419512494, 46.52775325044159], [-60.420618870565974, 46.527761957499585], [-60.42058602304137, 46.527754259321185], [-60.42054499534676, 46.527749679543255]]}, "properties": {"OBJECTID": 191725, "FEAT_CODE": "WARV50", "FEAT_DESC": "River - Single Line", "RIVNAME_1": " ", "RIVNAME_2": " ", "ZVALUE": 9999, "FID": null, "SHAPE_Length": 40.50186276383515}}, {"type": "Feature", "id": 191726, "geometry": {"type": "LineString", "coordinates": [[-60.420036836862884, 46.52775217078905], [-60.42003056695079, 46.52775184928056], [-60.42000648986322, 46.5277505948707], [-60.419965992710075, 46.52775160685095], [-60.41994438817319, 46.52775210923126], [-60.41992350133237, 46.52775260080625], [-60.41989196314144, 46.527755524965386], [-60.41984387004221, 46.52775998345095], [-60.41982570556719, 46.52775861045766], [-60.41980292843956, 46.527756890347334], [-60.41973315458187, 46.527754928424905], [-60.4197112284928, 46.527750383509996], [-60.419678623377614, 46.52774362654066], [-60.419614893564706, 46.52772418799991], [-60.41959662373858, 46.52788354336849], [-60.41958321207828, 46.52788341162183], [-60.41952618962182, 46.527882853413935], [-60.41950941787934, 46.52787657981674], [-60.41950056402294, 46.52787327495308], [-60.419461443978236, 46.52787329184305], [-60.41942192232906, 46.52790929960321], [-60.41939589511412, 46.527935712002126], [-60.41939421490563, 46.527998682982755], [-60.41939126472904, 46.52814953716791], [-60.41938965083696, 46.52823257061482], [-60.419362770895354, 46.528276972728925], [-60.419348454618714, 46.52830363149403], [-60.41934638567932, 46.52840259364245], [-60.41934225630265, 46.52842011339389], [-60.41930395414339, 46.52858253545524]]}, "properties": {"OBJECTID": 191726, "FEAT_CODE": "WARV50", "FEAT_DESC": "River - Single Line", "RIVNAME_1": " ", "RIVNAME_2": " ", "ZVALUE": 9999, "FID": null, "SHAPE_Length": 142.87794191526092}}, {"type": "Feature", "id": 191727, "geometry": {"type": "LineString", "coordinates": [[-60.41930395414339, 46.52858253545524], [-60.419297124995545, 46.528577503288496], [-60.41929135424059, 46.52857325101443], [-60.41926568575722, 46.52856457153293], [-60.419213118410596, 46.52854538477735], [-60.41920006285577, 46.52854599002465], [-60.41916141104126, 46.52853611739864], [-60.41915435248743, 46.52853620103638], [-60.41913531649361, 46.52853642825513], [-60.4191071449484, 46.52852388523096], [-60.41907146499493, 46.52850798668073], [-60.419058396422244, 46.52850859161788], [-60.419045370461134, 46.52850829751695], [-60.419032401107636, 46.52850818469236], [-60.41891502563335, 46.528507154499124], [-60.41882422746156, 46.5284970043194], [-60.41870674002184, 46.528484307400674], [-60.41855048795282, 46.52846742297181], [-60.41837551606929, 46.52841246861608], [-60.418343626006624, 46.52840245142003], [-60.418327915078784, 46.52839580560808], [-60.41827843030448, 46.528374870041155], [-60.41818759522053, 46.528337727558515], [-60.418153254462766, 46.5283254949615], [-60.4181363145066, 46.528319469363325], [-60.418106924445546, 46.528314206559465], [-60.41808459452839, 46.528310201210935], [-60.418071568624704, 46.52830990700007], [-60.41805887116404, 46.528309836205885], [-60.41801942238355, 46.52830962917768], [-60.4179269195387, 46.52833543972909], [-60.4178882491623, 46.52835346621271], [-60.41787014167603, 46.528353363194235], [-60.41783610331026, 46.5283531793155], [-60.41769273260186, 46.52835174966258], [-60.417674930682544, 46.52835152751607], [-60.41760150860357, 46.52835058887723], [-60.41743850683493, 46.528349012422154], [-60.41739296617747, 46.528348577548606]]}, "properties": {"OBJECTID": 191727, "FEAT_CODE": "WARV50", "FEAT_DESC": "River - Single Line", "RIVNAME_1": " ", "RIVNAME_2": " ", "ZVALUE": 9999, "FID": null, "SHAPE_Length": 154.67229393766888}}, {"type": "Feature", "id": 191728, "geometry": {"type": "LineString", "coordinates": [[-60.43033104513849, 46.53197015083991], [-60.43022798841113, 46.53188772536376], [-60.43013753436498, 46.53184249202374], [-60.43008519709119, 46.53182740146106], [-60.4300731932429, 46.5318239456064], [-60.42996979763593, 46.53180452112567], [-60.42986461957438, 46.5317949564523], [-60.42956483213159, 46.5317918158703], [-60.42925197545869, 46.53178928059147], [-60.42913556955017, 46.53179656270729], [-60.429023399800506, 46.531796154996435], [-60.428992146849254, 46.53179603709427], [-60.428953024187614, 46.53176815724919], [-60.42894951741225, 46.53176288538974], [-60.428940859439884, 46.53174988369098], [-60.42891141169413, 46.53170794746548], [-60.42890298102772, 46.531695931873905], [-60.428876473783916, 46.53167733572164], [-60.42881852498332, 46.531665655354814], [-60.428786050257436, 46.53165910193027], [-60.42878209035387, 46.53165762686468], [-60.42876042119149, 46.531649525482585], [-60.42873436756888, 46.531648939458734], [-60.42869479156759, 46.53163094030426], [-60.42865655988164, 46.53161208937675], [-60.42855223123854, 46.53158455164067], [-60.42853041405979, 46.53158455586651], [-60.42851310882238, 46.53158456258484], [-60.428423152660294, 46.53155643904119], [-60.428384180613286, 46.531547192344966], [-60.42830579789636, 46.53152859904503], [-60.42829224473247, 46.531523713150975], [-60.42820193714395, 46.53149116253628], [-60.428167396834716, 46.531462359514364], [-60.428125404043975, 46.53142734082642], [-60.42802193885126, 46.53138181307035], [-60.42794369432243, 46.53135395265042], [-60.427855418284565, 46.53133969042908], [-60.427827231245104, 46.531335132202926], [-60.427722961937675, 46.53133368598301], [-60.4276190879373, 46.531324148581376], [-60.42752783002023, 46.531295995036004], [-60.4271547572935, 46.53104999943129], [-60.427103896978544, 46.53099485482484], [-60.42707822604942, 46.53098617705311], [-60.42697914647655, 46.53094115205434], [-60.42693651940282, 46.53092178761375], [-60.426871287675624, 46.5308672194146], [-60.42675734875046, 46.53073955491806], [-60.42672592488853, 46.5307218195838], [-60.426692570296524, 46.53070299678026], [-60.42652476926383, 46.530638919408126], [-60.42648063290651, 46.530620870815056], [-60.42643393801375, 46.53060177460578], [-60.426241331255675, 46.530483147463706], [-60.42612437768378, 46.53041930531929], [-60.42598352366422, 46.53033693392008], [-60.42594606140863, 46.53032391339111], [-60.425930922658985, 46.53031864951187], [-60.425904869730644, 46.53031806285635], [-60.42585399686349, 46.530290808344674], [-60.42573707084172, 46.53025398436653], [-60.4256470908951, 46.530198858140004], [-60.425607984134956, 46.530170977494095], [-60.42556470773374, 46.53013282395045], [-60.4255566586253, 46.530125721690304], [-60.42555578943376, 46.530124523117536], [-60.42553096051049, 46.530090052008774], [-60.42551875725588, 46.530044768263714], [-60.42550740374277, 46.52998151268938], [-60.42547088416286, 46.52993863329129], [-60.425469105283845, 46.52993654123175], [-60.42541739710144, 46.529899385729024], [-60.425405603378735, 46.529892604119944], [-60.425353923190464, 46.52986285620433], [-60.42522479547675, 46.52978074796536], [-60.42506961553875, 46.52969805274751], [-60.42494179127654, 46.52961597354534], [-60.42492511238446, 46.52960605784626], [-60.42485046804422, 46.52956171642074], [-60.42469489113008, 46.529515011679315], [-60.42467010119954, 46.52948745324427], [-60.42464486961707, 46.52946978483557], [-60.424553616407245, 46.5294416290011], [-60.424550238256565, 46.529438060898286], [-60.42452753740945, 46.52941403249213], [-60.42450314291747, 46.52937839194409], [-60.42449895470998, 46.52937540858781], [-60.42446403733144, 46.52935051092693], [-60.4243218434625, 46.52926900726414], [-60.424279309790954, 46.529255709915475], [-60.424231892956534, 46.529240889522924], [-60.42413015884063, 46.52918511023326], [-60.42406411564532, 46.529148900088195], [-60.42403795144967, 46.52913661951856], [-60.424025845230304, 46.52913093772159], [-60.42392199209129, 46.529093497461396], [-60.4237916189393, 46.529065359423335], [-60.42375690932254, 46.52906088719066], [-60.42357128052681, 46.52903699359107], [-60.423467454319464, 46.52902655347633], [-60.42338537749498, 46.5290290954804], [-60.42323237537308, 46.52903385468434], [-60.42313143567501, 46.529032686314096], [-60.422984764331154, 46.52903097290768], [-60.42269801939137, 46.52902810828245], [-60.422489473786484, 46.52902610619794], [-60.42246007027775, 46.52902083521382], [-60.422437752317, 46.52901683998806], [-60.422378046529296, 46.528999941729865], [-60.422372127291034, 46.52899826925996], [-60.42232478868152, 46.528974098852636], [-60.42228172772133, 46.528952121881986], [-60.422152632666645, 46.52889701083448], [-60.422119489052584, 46.52888893742405], [-60.422075271389, 46.528878175271466], [-60.4220095590801, 46.52887798033542], [-60.42198400412835, 46.528877908013015], [-60.42182719341758, 46.52888517143631], [-60.42180114125872, 46.528884583859934], [-60.42174901995065, 46.528911308260554], [-60.42172160013756, 46.528925008795994], [-60.42169559598278, 46.52893800325607], [-60.42155066677472, 46.5290027741916], [-60.42153839727518, 46.52900825742884], [-60.42153627035572, 46.52900938845155], [-60.42147152127363, 46.52904364887654], [-60.42131513048306, 46.52909682999433], [-60.421157454932995, 46.529122063960436], [-60.42103970881893, 46.529130207578206], [-60.42101487575617, 46.52912122334001], [-60.420962787318864, 46.52910236319822], [-60.42090013203298, 46.52907010664679], [-60.420820215834674, 46.52902895562558], [-60.42066547079423, 46.528937264219664], [-60.42060114954438, 46.528918712890096], [-60.42057509739462, 46.528918125034174], [-60.42044924103914, 46.52891745405065], [-60.42041865674396, 46.52891729488659], [-60.42028792751446, 46.52892424475133], [-60.42027113069447, 46.52892702468768], [-60.42023535470264, 46.52893295830175], [-60.420065900987616, 46.52893183399556], [-60.42000071500379, 46.52893126278274], [-60.41990936659666, 46.52890491007526], [-60.41987207262221, 46.528894168339775], [-60.41980934264215, 46.52886185550096], [-60.41972950405215, 46.528820741464166], [-60.41968010350819, 46.528794156418044], [-60.41962650666952, 46.528765316630704], [-60.4196099357488, 46.52874764460022], [-60.41957562658225, 46.52871106818314], [-60.41956256304677, 46.52868377333405], [-60.419556828696976, 46.52867517490191], [-60.41955038911308, 46.52866549855134], [-60.419525147010134, 46.52864781976704], [-60.41944649749452, 46.528628953338675], [-60.419433471500646, 46.52862865928137], [-60.41936915106036, 46.5286101072734], [-60.4193591291376, 46.52860585803129], [-60.41930395414339, 46.52858253545524]]}, "properties": {"OBJECTID": 191728, "FEAT_CODE": "WARV50", "FEAT_DESC": "River - Single Line", "RIVNAME_1": " ", "RIVNAME_2": " ", "ZVALUE": 9999, "FID": null, "SHAPE_Length": 1008.0141943014241}}, {"type": "Feature", "id": 280390, "geometry": {"type": "LineString", "coordinates": [[-60.43523095628928, 46.528443848945116], [-60.435183043934416, 46.528443376955984], [-60.434988488439245, 46.5284414505905], [-60.434908110174945, 46.52843287901188], [-60.434806829896765, 46.52842207433991], [-60.434417012818336, 46.528337726315534], [-60.43432740741718, 46.52829750130322], [-60.43431357721836, 46.528291304905984], [-60.43425362933421, 46.52825180847582], [-60.4341339871463, 46.52817297421139], [-60.4340887278977, 46.52813585038884], [-60.434056148821234, 46.528109127155474], [-60.43399528751825, 46.5280353381539], [-60.43392909782915, 46.52795508452127], [-60.43385253147194, 46.52786425692995], [-60.43381631376152, 46.52774734412303], [-60.43379143820345, 46.52763878590689], [-60.43378053066867, 46.52759354113113], [-60.43374784496019, 46.52757102740472], [-60.43374136604611, 46.527566561965386], [-60.43373123503597, 46.52755935054314], [-60.43366442095145, 46.527511734669105], [-60.43349660046333, 46.527392767179535], [-60.433317015102794, 46.52727443528001], [-60.43324490687996, 46.52722794228439], [-60.43317527894714, 46.52718305293321], [-60.43300744935823, 46.52709198445863], [-60.43278709354044, 46.52700873610653], [-60.43262997335519, 46.526944160534], [-60.43254147929057, 46.526907820056785], [-60.43251078471293, 46.52689508867517], [-60.432451965445885, 46.52687070960683], [-60.43239291256079, 46.52685460524583], [-60.432347699560026, 46.52684226771571], [-60.432291369458724, 46.52683147145088], [-60.43220424587849, 46.5268147454601], [-60.43214349089665, 46.52679574974063], [-60.43211429546334, 46.52678662492151], [-60.432076273936886, 46.5267686168408], [-60.432036505226016, 46.52674977749926], [-60.43195911300463, 46.52670393898078], [-60.43186718998575, 46.52665322897088], [-60.431843462550376, 46.52664014093242], [-60.43163698362983, 46.52653921113682], [-60.4316088707376, 46.52652732051482], [-60.43157178306227, 46.52651163724264], [-60.43155954028328, 46.52650635817392], [-60.43150788469819, 46.52648410157021], [-60.43131274978248, 46.52641941701121], [-60.431244976344466, 46.52639470110999], [-60.43121018597654, 46.52638201233826], [-60.43109323454384, 46.526318184288385], [-60.43105538776369, 46.526291233806816], [-60.430965378432006, 46.52620911112232], [-60.43094768322963, 46.52618812147615], [-60.43088881901134, 46.526118290660435], [-60.430825709468074, 46.526018772447145], [-60.43081404091858, 46.525970369272606], [-60.43080171895056, 46.52591923341506], [-60.43077198427725, 46.5258405712405], [-60.430740276703354, 46.52575674372268], [-60.43071581944838, 46.5256671031626], [-60.43071591291379, 46.52566097627283], [-60.4307178499234, 46.52554114899394], [-60.4307118557402, 46.5255286302875], [-60.430704781440646, 46.52551385530731], [-60.43069125245626, 46.525489413264346], [-60.43067956197071, 46.525468288537425], [-60.43062911478893, 46.525432054711565], [-60.430331393575784, 46.525302962691036], [-60.43032777112078, 46.525300424264024], [-60.43027964425061, 46.52526669943764], [-60.43015105767808, 46.5251474929284], [-60.43011349262564, 46.52511266447222], [-60.43002433555349, 46.52501255121037], [-60.429910752484794, 46.52484980679468], [-60.429821171493295, 46.52475869282515], [-60.42980703522119, 46.52473856601331], [-60.42978328374106, 46.52470474102817], [-60.42967012300438, 46.52447809694479], [-60.42960934707822, 46.52437728950062], [-60.429517761031754, 46.52422536227811], [-60.4294333787237, 46.52411253992097], [-60.42942945428931, 46.52410728567752], [-60.4294179227355, 46.524086677388844], [-60.429378950267264, 46.524017050077944], [-60.429326897944556, 46.52394608461179], [-60.42925277136574, 46.523845003733726], [-60.42921448606648, 46.523772151821106], [-60.42911266004666, 46.52363666194613], [-60.42899656573044, 46.52355485100313], [-60.42894831856358, 46.52352814288808], [-60.428945739449404, 46.52352670788129], [-60.428839831090855, 46.5234893158233], [-60.428790557802365, 46.52347191755008], [-60.428686287379605, 46.52344347218063], [-60.42862101410547, 46.523433840921534], [-60.42855680295044, 46.523424359517314], [-60.42817076235937, 46.52342058886624], [-60.42806156186376, 46.52341951797526], [-60.42796985017643, 46.523401245502], [-60.42785425345328, 46.52333655356678], [-60.42782816093962, 46.52333687545037], [-60.4277503946229, 46.5233270165809], [-60.42771989456039, 46.52332155126684], [-60.42769867752954, 46.52331775283521], [-60.42724501739896, 46.52317794356377], [-60.427206750002476, 46.52315998230924], [-60.42719760745357, 46.52315561854314], [-60.427167222625215, 46.523141092684064], [-60.427078484296906, 46.52305989547979], [-60.427042207269665, 46.52301802099333], [-60.426975857948904, 46.52294148563944], [-60.426911937872354, 46.52288694690475], [-60.426758006284025, 46.52277818198862], [-60.426655833637994, 46.52267779104903], [-60.42651409300784, 46.52255939124643], [-60.42630931130274, 46.52239548096773], [-60.42619113590291, 46.522319776281705], [-60.42603848809273, 46.522221983275706], [-60.42593541293927, 46.52214046234012], [-60.42574241238402, 46.52203080727054], [-60.42566489819598, 46.52199910966968], [-60.42565160840442, 46.521993671381445], [-60.42564574066885, 46.52198485424391], [-60.42563943379962, 46.521975397217005], [-60.425626104538736, 46.521969139037566], [-60.42560116778392, 46.52195743544926], [-60.425558969319646, 46.52194240010215], [-60.42552295092735, 46.52192957392337], [-60.425488877503625, 46.52191973453531], [-60.42545863608299, 46.52191102544153], [-60.42526356685269, 46.52190033188546], [-60.42515781922223, 46.521894961985474], [-60.42504114596276, 46.52188903087872], [-60.42494913858016, 46.52189970228348], [-60.42489824488027, 46.52190560279975], [-60.424793156692814, 46.52192213540024], [-60.424470890353774, 46.52200977983623], [-60.424374457427426, 46.522036002054726], [-60.42436132759337, 46.522042348210995], [-60.42432108409938, 46.52206179942814], [-60.42426809294106, 46.52207951439425], [-60.42425697217246, 46.52208748980686], [-60.42425594617313, 46.522088231687654], [-60.424246144627915, 46.522094778826094], [-60.42421555470772, 46.522115221527514], [-60.424123517313404, 46.52215904756556], [-60.424083577794455, 46.52220404752862], [-60.42401594202618, 46.52233842327788], [-60.42398864413939, 46.52239180807708], [-60.42392268199832, 46.52246322153592], [-60.42385416826496, 46.52258857740809], [-60.42377687306599, 46.522670787367126], [-60.42376218318015, 46.52268640428777], [-60.42375491876545, 46.52269223456394], [-60.423695768441554, 46.522739807429154], [-60.42360960903391, 46.5227729025374], [-60.423602809858544, 46.52277551229236], [-60.42351204674287, 46.522792366580276], [-60.423354390038796, 46.52281761298407], [-60.42328673889197, 46.52281004907003], [-60.42326360033228, 46.522807466498115], [-60.423242332173125, 46.52280365708443], [-60.42316016884324, 46.52278893497215], [-60.42306796950949, 46.52275649957255], [-60.42305627268266, 46.522752392891974], [-60.422810326379945, 46.52265954827137], [-60.42261694426795, 46.52258587928569], [-60.4224785601523, 46.522544419071785], [-60.42237010556075, 46.52251192257567], [-60.422331882849285, 46.522493060689094], [-60.42220237727054, 46.522446940349575], [-60.42203416827598, 46.52239184702741], [-60.42195240139224, 46.522373451986375], [-60.4218651771128, 46.52235383580311], [-60.42181586556621, 46.52233648764674], [-60.42176129571375, 46.522317292871335], [-60.4217460041514, 46.522313383977725], [-60.421722634747006, 46.522307420888446], [-60.42167135837347, 46.522289164353396], [-60.42156709418539, 46.52226071260442], [-60.42149013896811, 46.52223377677045], [-60.421349390380925, 46.522177852856245], [-60.4212572222462, 46.522141222693385], [-60.42116849190757, 46.522109368008614], [-60.4211020952384, 46.52208552310803], [-60.42094607456723, 46.52204870313608], [-60.42089922686118, 46.52203825916597], [-60.420815762384365, 46.52201966300662], [-60.42073026608578, 46.52201396293268], [-60.4206727917122, 46.5220101370883], [-60.420281846157664, 46.52200581506156], [-60.420125425384896, 46.5220049849151], [-60.4201002271209, 46.522008736211475], [-60.420072901863705, 46.52201279949711], [-60.4199373728572, 46.5220504115833], [-60.41985094007559, 46.5220743896961], [-60.41964072936843, 46.522135344724646], [-60.41960572676772, 46.522143761593554], [-60.41949698698107, 46.52216989988799], [-60.41927419008054, 46.52222157012093], [-60.41921180872968, 46.52222801875331], [-60.41919557471987, 46.5222296952367], [-60.419183128264805, 46.52222958523127], [-60.41913040938585, 46.52222913297449], [-60.41904003501309, 46.52220998350754], [-60.418931996915774, 46.52220920012322], [-60.418922742736555, 46.522209135169035], [-60.41854515584314, 46.52214300886376], [-60.41822022689908, 46.522121270609176], [-60.418189872823305, 46.522119361039856], [-60.41806423213141, 46.522111447265736], [-60.41768631085486, 46.52210741053091], [-60.41758977316814, 46.52210689467315], [-60.41758402471177, 46.52210686380869], [-60.41758203027107, 46.52210685475185], [-60.417567643643146, 46.52210669173935], [-60.41741262762213, 46.52210482761244], [-60.41734703662264, 46.52211324571051], [-60.41722930573436, 46.522121376717536], [-60.417151116183184, 46.52212051905127], [-60.41694727593042, 46.522141104087375], [-60.41690350509983, 46.52214552399649]]}, "properties": {"OBJECTID": 280390, "FEAT_CODE": "WARV50", "FEAT_DESC": "River - Single Line", "RIVNAME_1": "Wreck Cove Brook", "RIVNAME_2": " ", "ZVALUE": 9999, "FID": null, "SHAPE_Length": 1847.862475230215}}]}