{"type": "FeatureCollection", "features": [{"type": "Feature", "id": 4552, "geometry": {"type": "LineString", "coordinates": [[-60.79922419035665, 46.00460910448438], [-60.79895060659698, 46.00473343251824], [-60.798652463652274, 46.00485820468724], [-60.798509217454324, 46.00492024821455], [-60.79849370735383, 46.004927032748576], [-60.79832781603749, 46.0049995663132], [-60.798181644481794, 46.00507444185188], [-60.79811950879445, 46.00510624925186], [-60.79796465838372, 46.005168077421615], [-60.7977435322623, 46.00523941937924], [-60.79753630717997, 46.005319120430066], [-60.79735457215684, 46.00540742210931], [-60.79715951130321, 46.0055053761478], [-60.79695177621323, 46.005630069107895], [-60.79684617336138, 46.005719838189826], [-60.79669031627969, 46.005871641823404], [-60.79659836908182, 46.0059427728812], [-60.796416304966925, 46.00610397125695], [-60.796220895974045, 46.006210908530626], [-60.79577901228207, 46.00644181585893], [-60.79559619928931, 46.00655707761111], [-60.795375361749244, 46.0067184351472], [-60.795087858892465, 46.006932490877354], [-60.79501011799606, 46.00700389485398], [-60.79469687701356, 46.00728046570103], [-60.794513730142796, 46.00746864179706], [-60.79435728629091, 46.00760242977244], [-60.79422607975134, 46.00771870372957], [-60.7940036984958, 46.00795113320058], [-60.79386017209713, 46.00808516093799], [-60.79368885328051, 46.00830056579737], [-60.793413462927894, 46.00863186747123], [-60.79330881723552, 46.00872975224507], [-60.79307495276742, 46.00892594682596], [-60.79290521349567, 46.009069376545774], [-60.792696381366184, 46.009221051199646], [-60.79228014563439, 46.00948842473525], [-60.79201963221644, 46.00964001738597], [-60.7919276863625, 46.00971112668117], [-60.791888823379864, 46.00974637770656], [-60.79177180444207, 46.0098629230585], [-60.791535935674226, 46.010077076833774], [-60.791405636254346, 46.0102023836148], [-60.79128733821556, 46.01031888573349], [-60.791196167243534, 46.010435030197996], [-60.79107749643705, 46.010560543445486], [-60.79085546187396, 46.01078396386245], [-60.790776980285116, 46.0108733607157], [-60.79060657347088, 46.01109777007684], [-60.79054042470838, 46.01116939518036], [-60.790200618695515, 46.01146344087366], [-60.790123197609375, 46.011525847121035], [-60.78993944696405, 46.011696003005646], [-60.78987494578112, 46.01175865903984], [-60.78973117066397, 46.01186568405929], [-60.789599944201065, 46.011981952263646], [-60.78945745874, 46.01208900189052], [-60.7894168226935, 46.01212230963789], [-60.78939203681812, 46.012142648278804], [-60.78911392344525, 46.01234053454636], [-60.78909156186317, 46.012356437765355], [-60.78887022914148, 46.012561866755895], [-60.78862189614609, 46.01273167048123], [-60.78842773957094, 46.01283861859904], [-60.78806253729654, 46.01308806349894], [-60.78784221668927, 46.01320350455116], [-60.78767258209597, 46.01331092624694], [-60.78730774507783, 46.01355137524347], [-60.787152128929336, 46.01363116598233], [-60.78691772445626, 46.01371033021583], [-60.78651571529961, 46.01387895216511], [-60.78637279141085, 46.01393198611595], [-60.78619805028873, 46.0140102528787], [-60.78607421210372, 46.01406571744997], [-60.78591139735518, 46.014130300058255], [-60.78560692628366, 46.01425106318657], [-60.785230858767804, 46.01438418126408], [-60.78512705211853, 46.01442807144064], [-60.78464559143986, 46.014677051322174], [-60.78437249756999, 46.014819363931714], [-60.78416469855591, 46.01494404128524], [-60.78391741883314, 46.015086853522774], [-60.783735111034645, 46.01522012509827], [-60.78353984474415, 46.01535405400806], [-60.78329199015296, 46.015478843630056], [-60.78314949647546, 46.015585885193424], [-60.78287444885404, 46.01580916124956], [-60.78279666675806, 46.015880556048394], [-60.782626754871025, 46.016059069189026], [-60.78253437705479, 46.016140081099024], [-60.78228733556185, 46.016308996010586], [-60.78205246847394, 46.01649615686], [-60.781947913547626, 46.01655891276425], [-60.7817279001976, 46.01666535640414], [-60.78162334386908, 46.016728129984216], [-60.78157120085494, 46.016772120132046], [-60.78130940957754, 46.0169866492793], [-60.78117908428638, 46.017111925802325], [-60.78103584958613, 46.017236951416024], [-60.780762225025356, 46.01742424779574], [-60.780566372869345, 46.0175401591145], [-60.780449151907874, 46.01762877814705], [-60.78037132810727, 46.017701070525405], [-60.780291529139916, 46.017790425512416], [-60.78018720289337, 46.017879303831755], [-60.78008305098336, 46.017996087141995], [-60.779952870355146, 46.0180853538713], [-60.779874150114274, 46.01814773688374], [-60.77982185479631, 46.01822772545797], [-60.77976916318359, 46.018317606907765], [-60.779759406776876, 46.01834057569464], [-60.77968927349612, 46.01850596572777], [-60.779556617252, 46.01872120054668], [-60.7794910284562, 46.01881083117306], [-60.77928126539307, 46.0190164663394], [-60.77920367143242, 46.01911486396481], [-60.779137708433424, 46.01921348765616], [-60.779071174773144, 46.01929409912051], [-60.77887559563105, 46.01950000928971], [-60.77879706925825, 46.01958939695841], [-60.778627283645186, 46.01973189534778], [-60.77854806202569, 46.01983926141486], [-60.77848230683588, 46.01996489039789], [-60.77845501013847, 46.02000127079755], [-60.77832416019796, 46.02017153654654], [-60.77828383994771, 46.02024274774467], [-60.778230285634834, 46.02038660595561], [-60.77817758892539, 46.02047649554902], [-60.77804712053835, 46.02063686779241], [-60.7778235731807, 46.02096013926009], [-60.77781030304895, 46.02096888166516], [-60.77765235203462, 46.02113860143081], [-60.777626728815584, 46.02116511358469], [-60.77749545438173, 46.02128137583803], [-60.77737836757081, 46.02139790498093], [-60.777219389398816, 46.021657627594344], [-60.777141079673314, 46.0217740109482], [-60.77706180193225, 46.02201183774322], [-60.77706023269429, 46.022016496490075], [-60.77703357444907, 46.02207073704226], [-60.77688842003677, 46.022339728718705]]}, "properties": {"OBJECTID": 4552, "FEAT_CODE": "WACO20", "FEAT_DESC": "Coast - Water to the right line", "RIVNAME_1": " ", "RIVNAME_2": " ", "ZVALUE": 0.2, "FID": null, "SHAPE_Length": 2675.385357899972}}, {"type": "Feature", "id": 4553, "geometry": {"type": "LineString", "coordinates": [[-60.768897397755715, 46.02988299910404], [-60.768740972267736, 46.029980749900425], [-60.76867587140621, 46.030025381059765], [-60.76862334334659, 46.03007835824778], [-60.768583690683684, 46.0301324869649], [-60.76853268789471, 46.030227490396534], [-60.76853060689562, 46.03023135597855], [-60.76849155719878, 46.03030259745558], [-60.76846481563665, 46.03035698733698], [-60.76843738672109, 46.03042844679787], [-60.76842312148608, 46.03059017773888], [-60.76841995737639, 46.030797128199616], [-60.76843074399951, 46.03091434584592], [-60.76846852460398, 46.031067192880144], [-60.7684770205804, 46.031178722436806], [-60.76847950328272, 46.03121141586704], [-60.76849102723248, 46.031310646837916], [-60.768463680462766, 46.03146574084838], [-60.76846255897188, 46.03147209131777], [-60.76846011873292, 46.03166106382875], [-60.76845923957951, 46.031664925884414], [-60.76843342426776, 46.03177844933683], [-60.76835254652632, 46.031957771084954], [-60.768286547943745, 46.032056396666306], [-60.76826077089891, 46.03211889680769], [-60.76810222467437, 46.032333612183855], [-60.76800988122621, 46.03247671654088], [-60.767904588786045, 46.03262046786142], [-60.7677485755092, 46.03277222850996], [-60.7676043403863, 46.032888216987466], [-60.767473379330205, 46.03299546416654], [-60.767290936205846, 46.03312960665493], [-60.766952270845664, 46.03338850272594], [-60.76683461846985, 46.03348610873536], [-60.766677647651605, 46.033629748711945], [-60.76661218873986, 46.03368247215476], [-60.766286225656685, 46.03391461298304], [-60.76593407203147, 46.03415524121446], [-60.76575162134786, 46.03428938108108], [-60.765607378069944, 46.034405366859886], [-60.76537295578875, 46.034610502810786], [-60.76530710879814, 46.0346731094904], [-60.765254752855725, 46.03475399010749], [-60.76522746366184, 46.034789458377546], [-60.765163282822066, 46.03484310603914], [-60.76504557463036, 46.03494161815283], [-60.764915329585556, 46.03503086632753], [-60.764757806991824, 46.0351555917378], [-60.764483514937794, 46.03538784735666], [-60.76435274500578, 46.0355220872541], [-60.764313686005686, 46.03559332707544], [-60.764273662179754, 46.03565644752528], [-60.764102812729625, 46.035968527199685], [-60.76410205917807, 46.035969907532575], [-60.76409714899577, 46.035979820014596], [-60.764048598585, 46.0360777675457], [-60.763929489135265, 46.03627525686723], [-60.76392692404238, 46.03627989593274], [-60.7638500412124, 46.03641861021299], [-60.76373221670135, 46.03655220273265], [-60.76369219148671, 46.03661532294416], [-60.76360039458423, 46.03677643541862], [-60.76354745582435, 46.03683930277079], [-60.763507793181084, 46.03689342948739], [-60.763454730155516, 46.03699138741439], [-60.7634022084375, 46.03713227942196], [-60.763401106141835, 46.037135255015755], [-60.76339797900119, 46.037140369093215], [-60.76326965717958, 46.037350494084], [-60.76324220453185, 46.03742196077114], [-60.76318821681469, 46.037574812668154], [-60.7631218805546, 46.0377454237909], [-60.76300206632114, 46.038023894027816], [-60.76293468880051, 46.03822058616321], [-60.76290761587788, 46.038346963397025], [-60.76287892428899, 46.03848141839608], [-60.76285207603162, 46.03857117687917], [-60.762825136764256, 46.03866126659192], [-60.76281190077308, 46.038733011575125], [-60.76281178906153, 46.03873769866038], [-60.76280992391638, 46.03881397757593], [-60.76283329094348, 46.03900344618385], [-60.76285444083966, 46.0391966155804], [-60.7628568963947, 46.03921902096807], [-60.762859919320135, 46.03923729722588], [-60.762880787982446, 46.03936349721176], [-60.762917468706604, 46.039543325933245], [-60.762958492956855, 46.03969624712716], [-60.76296577214995, 46.03972338223802], [-60.762973312855564, 46.03975492372482], [-60.76301553300973, 46.03993136867516], [-60.763059943812536, 46.0400599647231], [-60.763065289510415, 46.040075451291855], [-60.76308901616599, 46.0401920226248], [-60.76311221061436, 46.040417489841865], [-60.763112480909996, 46.040420078284214], [-60.763123363117295, 46.04052571447693], [-60.76311895454324, 46.040903794052134], [-60.76311864586388, 46.0409306455624]]}, "properties": {"OBJECTID": 4553, "FEAT_CODE": "WACO20", "FEAT_DESC": "Coast - Water to the right line", "RIVNAME_1": " ", "RIVNAME_2": " ", "ZVALUE": 0.2, "FID": null, "SHAPE_Length": 1374.5127982938188}}, {"type": "Feature", "id": 6576, "geometry": {"type": "LineString", "coordinates": [[-60.771251253418704, 46.0286742724752], [-60.770914653066484, 46.028690206245535], [-60.77073402725385, 46.028715482374686], [-60.77047456931995, 46.028741021601604], [-60.77041053081954, 46.028758672881814], [-60.77035813836882, 46.02877655143222], [-60.77031960991314, 46.02880280104117], [-60.770280321643654, 46.0288479369314], [-60.77021412501187, 46.02891954919114], [-60.77016123766452, 46.02898152061486], [-60.77001830879065, 46.0290975376864], [-60.769939887551, 46.029151810133634], [-60.76978258580307, 46.029303548468036], [-60.769705142395956, 46.02936594032459], [-60.76950887602816, 46.02949081599406], [-60.769209533489374, 46.0297045839147], [-60.76910496154583, 46.029766445596344], [-60.768897397755715, 46.02988299910404]]}, "properties": {"OBJECTID": 6576, "FEAT_CODE": "WACO20", "FEAT_DESC": "Coast - Water to the right line", "RIVNAME_1": " ", "RIVNAME_2": " ", "ZVALUE": 0.2, "FID": null, "SHAPE_Length": 238.59220310288396}}, {"type": "Feature", "id": 6583, "geometry": {"type": "LineString", "coordinates": [[-60.77688842003677, 46.022339728718705], [-60.776795907615735, 46.02245583542978], [-60.77665192760078, 46.02259884205277], [-60.77648125306871, 46.02279534115951], [-60.77637744494811, 46.02290311817327], [-60.77627274187596, 46.023000986074315], [-60.77623253241614, 46.02303710556677], [-60.77615437066934, 46.02311748893742], [-60.77602386684253, 46.02327875818464], [-60.77589186266362, 46.02341299644366], [-60.775865889971136, 46.02344849293274], [-60.775799554822065, 46.02355610794122], [-60.77578633991383, 46.023627854974315], [-60.775811647271155, 46.0236733504227]]}, "properties": {"OBJECTID": 6583, "FEAT_CODE": "WACO20", "FEAT_DESC": "Coast - Water to the right line", "RIVNAME_1": " ", "RIVNAME_2": " ", "ZVALUE": 0.2, "FID": null, "SHAPE_Length": 173.13632967798318}}, {"type": "Feature", "id": 7182, "geometry": {"type": "LineString", "coordinates": [[-60.77819889368295, 46.022878254930696], [-60.77821180378605, 46.022878506022096], [-60.778327460590575, 46.02286185425319], [-60.77849538711661, 46.02286241982686], [-60.77862472359941, 46.02282713264233], [-60.77867748110021, 46.02280025684846], [-60.77870345133628, 46.022764768671635], [-60.778717122703306, 46.02270410083917], [-60.778717593246945, 46.02270203086355], [-60.77871666939368, 46.02269864669674], [-60.77870519394973, 46.02265678705143], [-60.778682701106284, 46.02259871920798], [-60.77868060534246, 46.02259330513205], [-60.77868062763851, 46.02259113643493], [-60.77868111576659, 46.02254832134664], [-60.77868160461339, 46.022505488270966], [-60.77868162690925, 46.02250331957382], [-60.77870795770869, 46.022458828862824], [-60.77878539417614, 46.02239643072394], [-60.779007434453646, 46.02227204013419], [-60.77930617577563, 46.022103237406284], [-60.77946223621426, 46.02201356546029], [-60.77960497712772, 46.02193353500703], [-60.77970916242165, 46.021880656694925], [-60.77995597388996, 46.02178284728226], [-60.78024223421645, 46.02166780280269], [-60.78050087349383, 46.02159722367081], [-60.78100664420039, 46.02142073799426], [-60.78118871781051, 46.021358570609806], [-60.78150079297232, 46.02124402437401], [-60.781733757687554, 46.021136941661595], [-60.78196776494785, 46.02100377713894], [-60.78217688330595, 46.020879120476394], [-60.782359101501996, 46.020780960856015], [-60.78251546418584, 46.02068319010642], [-60.78270965983235, 46.02057625288025], [-60.78287929020113, 46.02046974760961], [-60.782957291258136, 46.02042534967688], [-60.78304751775364, 46.02039830798382], [-60.78329449351481, 46.02032838722104], [-60.78339798916867, 46.020292593189225], [-60.783501808283695, 46.02024870484972], [-60.7836060227188, 46.020194923486855], [-60.78373673904582, 46.020124555155704], [-60.78390547092039, 46.0200081213259], [-60.78399673909704, 46.019954988510214], [-60.78408764801148, 46.01991084019658], [-60.78422990634337, 46.01987490625808], [-60.78446238440832, 46.0198767151199], [-60.7846820995011, 46.0198422738239], [-60.78481126590647, 46.019842978507036], [-60.784979879292436, 46.019826446835985], [-60.78503154012175, 46.01982654846995], [-60.785354682239294, 46.019855314931945], [-60.785663362106476, 46.01985769856517], [-60.78570305818303, 46.01986656851478], [-60.78579202369463, 46.019903395074635], [-60.78601169642831, 46.019967056331325]]}, "properties": {"OBJECTID": 7182, "FEAT_CODE": "WACO20", "FEAT_DESC": "Coast - Water to the right line", "RIVNAME_1": " ", "RIVNAME_2": " ", "ZVALUE": 0.2, "FID": null, "SHAPE_Length": 738.7915391263106}}, {"type": "Feature", "id": 7183, "geometry": {"type": "LineString", "coordinates": [[-60.775230730548124, 46.02861863476671], [-60.77498530541564, 46.02861655497704], [-60.774687476419786, 46.028632354973496], [-60.774338498269984, 46.028666958845086], [-60.77413144609995, 46.0286746253664], [-60.77397679806915, 46.02866441155373], [-60.7736545546715, 46.02864463102383], [-60.773291924896604, 46.02863306291004], [-60.77294349784947, 46.02862177052929], [-60.77282686165066, 46.028630297269395], [-60.772634012045884, 46.02863823796924], [-60.7724269960081, 46.02864500204947], [-60.772297809774, 46.02864428299104], [-60.77198739409831, 46.0286517300091]]}, "properties": {"OBJECTID": 7183, "FEAT_CODE": "WACO20", "FEAT_DESC": "Coast - Water to the right line", "RIVNAME_1": " ", "RIVNAME_2": " ", "ZVALUE": 0.2, "FID": null, "SHAPE_Length": 251.78113823121438}}, {"type": "Feature", "id": 7184, "geometry": {"type": "LineString", "coordinates": [[-60.794412740928315, 46.0214409456788], [-60.79438781852338, 46.02145036508777], [-60.79428364756037, 46.021503257060594], [-60.79423147396381, 46.021548152417566], [-60.79417836712047, 46.021584029189896], [-60.79413949693643, 46.02161928078883], [-60.79411350087524, 46.021655681026594], [-60.79411346269625, 46.021657939424955], [-60.79411228696138, 46.0217186613672], [-60.7941223531646, 46.021731609509075], [-60.794125808029534, 46.02173602348254], [-60.794176451581485, 46.02182700678544], [-60.79423909501185, 46.02190832117384], [-60.79426518127315, 46.0219349264293], [-60.79430319571149, 46.02195366150491], [-60.79441945753269, 46.02195410614224], [-60.79452348911368, 46.02193721351618], [-60.7946137131516, 46.02191015364147], [-60.794640248359045, 46.02189267383388], [-60.794692422323806, 46.02184776929892], [-60.79474388035881, 46.02182086099965], [-60.79476664476913, 46.02184490886491], [-60.79476991814308, 46.02184836525798], [-60.794772173478236, 46.02185240503484], [-60.79479524048073, 46.02189385677885], [-60.79482038082711, 46.021911443107584], [-60.79482996812952, 46.02192441794403], [-60.79483387933771, 46.021929703856664], [-60.794808046337565, 46.02192920608561], [-60.794794743157894, 46.02193884087658], [-60.79475587274315, 46.021974101679476], [-60.79472916140948, 46.0220284893266], [-60.79470226805168, 46.022054971780655], [-60.7946760901837, 46.02206346696175], [-60.79463825747856, 46.022072637191904], [-60.79434118304391, 46.02207050192672], [-60.79431495642454, 46.022079896137704], [-60.79430044390092, 46.02208972353382], [-60.794263188810696, 46.02211489875122], [-60.79426247280194, 46.02213289500576], [-60.7942825247955, 46.02214717901162], [-60.79430142127612, 46.022160630654504], [-60.794300705278616, 46.02217862690936], [-60.794274527293396, 46.022187121996076], [-60.79421015860364, 46.022213780792015], [-60.79415776678115, 46.02223167027954], [-60.79413180621449, 46.02226717114991], [-60.794131680033715, 46.02230151477158], [-60.79413166582993, 46.02230317059653], [-60.79414348948666, 46.022330400524815], [-60.794157303396645, 46.02234008182876], [-60.79416989759362, 46.022348920530085], [-60.79418448416387, 46.02235671763648], [-60.7942204877971, 46.02237598994553], [-60.79427146134029, 46.02239407520147], [-60.79429449849095, 46.022403799566675], [-60.79433626533885, 46.0224214280113], [-60.794342911599685, 46.02242616461234], [-60.79437521333266, 46.02244918162515], [-60.79438708547176, 46.02247552141013], [-60.79439780509947, 46.02251459270557], [-60.79439949795605, 46.022520754757146], [-60.794412050311, 46.0225299976478], [-60.79443787063814, 46.02253049616346], [-60.79451500961288, 46.02254008594364], [-60.79455377553412, 46.02253994331064], [-60.79457995404111, 46.022531438269645], [-60.794632703791805, 46.02250455495988], [-60.79464551804449, 46.02249552278626], [-60.79467123941275, 46.0224773972236], [-60.7946898434596, 46.02246052934055], [-60.7947101227975, 46.022442145702584], [-60.794737409873676, 46.02240577025549], [-60.79475010224702, 46.02237901365579], [-60.79480263397986, 46.02232512444107], [-60.7948540566418, 46.02229911546462], [-60.794931946553035, 46.02228981922706], [-60.79502235311171, 46.02229066422481], [-60.79502529736566, 46.022291027072725], [-60.795099491869976, 46.02230025360642], [-60.79512264353635, 46.02231002501743], [-60.79516429618662, 46.02232760595219], [-60.7951779725596, 46.022337176471346], [-60.79521583276459, 46.0223637027311], [-60.79523986467738, 46.02240916924358], [-60.79525031984872, 46.022430864314494], [-60.79525297991835, 46.02243642398328], [-60.7952527005955, 46.02250842290327], [-60.795213267657, 46.02252566292434], [-60.79512304288113, 46.02255272325723], [-60.795096367374285, 46.0226062116231], [-60.795095294284536, 46.022633192527245], [-60.795115255196684, 46.02264717760946], [-60.79514683109315, 46.02266928933979], [-60.795158885327304, 46.02269430947846], [-60.79515995925502, 46.02269654433846], [-60.79521020514245, 46.02273261620629], [-60.795197294925046, 46.022732367035594], [-60.79517108103636, 46.022741761688316], [-60.79513365431138, 46.02274103932553], [-60.7951242285791, 46.02273894028547], [-60.79509394165226, 46.022732172344476], [-60.79504262272404, 46.02272308132962], [-60.79501714709713, 46.022713589065724], [-60.79500460750857, 46.02270434648847], [-60.79492653491359, 46.02268573847981], [-60.79488884172158, 46.02265890933101], [-60.79486818330752, 46.02265174215401], [-60.794836589259546, 46.022640808665074], [-60.7947853195045, 46.022630809429025], [-60.79475945043931, 46.0226312101051], [-60.794707991680454, 46.02265811749506], [-60.79464326486393, 46.022693770159016], [-60.794551426163565, 46.022728908368265], [-60.79442125678965, 46.022818192639306], [-60.794265266174406, 46.022906986295446], [-60.794095879412296, 46.02304052375126], [-60.79403804968142, 46.02308790194665], [-60.79403041018842, 46.02309416280742], [-60.79402912565459, 46.02309462403142], [-60.79400420884878, 46.023103557434425], [-60.793926570762494, 46.02313896036348], [-60.793861625566514, 46.02314760675106], [-60.79381066439025, 46.0231295215537], [-60.79378077790438, 46.023116910648284], [-60.79374585984721, 46.02310216843856], [-60.79368274012188, 46.0230649472341], [-60.793634184397725, 46.02301921375862], [-60.793529563575085, 46.022920680287406], [-60.79347887145662, 46.022830595828076], [-60.79346631492286, 46.02282178478023], [-60.79345248882544, 46.02281208515687], [-60.79338825990225, 46.02280274403277], [-60.79319435824209, 46.02283770074609], [-60.79302667064956, 46.02286326297907], [-60.792844962676256, 46.02291645574998], [-60.792740570708965, 46.022942340422006], [-60.7925719891654, 46.023022788000596], [-60.792442315292654, 46.023067084997784], [-60.792428688752075, 46.02308482274872], [-60.79229851486898, 46.0231741126128], [-60.792194771695, 46.02328101417017], [-60.792128393353245, 46.023325634027536], [-60.79203784346358, 46.02336078612277], [-60.79180503029483, 46.023431890595454], [-60.79150637404108, 46.023501712690425], [-60.79133831215588, 46.02353627474652], [-60.79113150928179, 46.023570978521974], [-60.79087350133128, 46.023629065178305], [-60.79085905577129, 46.023632323037916], [-60.79083820993801, 46.023637644254975], [-60.7905483578529, 46.02371181035263], [-60.79039264436644, 46.02372859976997], [-60.78994074462995, 46.023753160040414], [-60.7895148188446, 46.0237413189161], [-60.789218120645764, 46.023730177069375], [-60.789037280399235, 46.0237293773417], [-60.788895540118034, 46.02371943354199], [-60.788791240022114, 46.02371021428081], [-60.78840376157713, 46.02370722269153], [-60.78817143312711, 46.02373331744663], [-60.78787457833229, 46.02375816222901], [-60.78766790404287, 46.023756869066766], [-60.78739680000931, 46.023719216529194], [-60.787022710724806, 46.023671467884995], [-60.78692007407587, 46.023653278598346], [-60.78682909272162, 46.02363441497133], [-60.7867904372644, 46.02362756370273], [-60.786777774457434, 46.02362532025352], [-60.78657167397405, 46.0236420283001], [-60.78647996164418, 46.023641151309555], [-60.786261322729445, 46.02364861530268], [-60.78600261285028, 46.023656202327786], [-60.785744462594884, 46.02368180069227], [-60.78564040232782, 46.02369958481715], [-60.78555022006377, 46.02372573835615], [-60.78531539799079, 46.02381389168155], [-60.7851464444135, 46.02390331262469], [-60.78505611491315, 46.023965474075155], [-60.78488525274793, 46.024134971421276], [-60.78478037991009, 46.024269737008986], [-60.78461095326236, 46.024403268622564], [-60.784466775076375, 46.024519279584936], [-60.78438966531795, 46.024573587406444], [-60.784298749208055, 46.02461772679941], [-60.784194696885514, 46.02463460970681], [-60.7841918795998, 46.02463365500694], [-60.784169212212056, 46.02462601490123], [-60.78413041491121, 46.024562258578335], [-60.78409308534042, 46.024526432381236], [-60.78404083520986, 46.024508317820015], [-60.78397624659201, 46.02450796496304], [-60.78365232547907, 46.02459529548658], [-60.78358737754269, 46.02460392697627], [-60.78353605897299, 46.02459483079669], [-60.78347254908605, 46.02456749696926], [-60.78344760668643, 46.024553422195524], [-60.7834081078248, 46.02453114449575], [-60.783388142275065, 46.024525410770856], [-60.78334423844971, 46.02451280415976], [-60.783253828790414, 46.024511949855814], [-60.783188160876726, 46.024538586225646], [-60.78307123958168, 46.02461911320297], [-60.78293999130236, 46.024734473107785], [-60.78290166042606, 46.024788632472166], [-60.78284803577017, 46.02486949661012], [-60.78283461765846, 46.024914238875304], [-60.78289121094575, 46.02503568345266], [-60.782897684348654, 46.02504957091153], [-60.7828973786546, 46.02505075304961], [-60.78288390652003, 46.02510330673784], [-60.78284499077259, 46.025139453653566], [-60.78279259267528, 46.02515733780257], [-60.78267657248515, 46.02518298757983], [-60.782521028651686, 46.02522767122248], [-60.78245611543647, 46.02523541168952], [-60.78240479649052, 46.02522631499532], [-60.78226300369044, 46.025153349178325], [-60.782237505826615, 46.02514476268646], [-60.78221168449509, 46.02514426139275], [-60.78187654705505, 46.02512425371823], [-60.78175970787695, 46.025105784024824], [-60.78172148422011, 46.025096527281875], [-60.78168292777884, 46.02508719205956], [-60.781622092460545, 46.0250708447945], [-60.78147711800617, 46.02503189225043], [-60.781456565993246, 46.025017245266234], [-60.781438174868626, 46.02500413433389], [-60.7814385348096, 46.02499514078587], [-60.78142596104481, 46.02498679610767], [-60.78143868351023, 46.02495914152011], [-60.78149263422697, 46.024870183890165], [-60.78154496977975, 46.02478929535224], [-60.78159745376603, 46.024672407516974], [-60.781715605803086, 46.02452889317333], [-60.78180811168902, 46.024412782392346], [-60.781900045848985, 46.02427865935532], [-60.78200492596951, 46.02414388754623], [-60.78205830356094, 46.02403691743346], [-60.782072081882674, 46.02398318170713], [-60.78208552342505, 46.02393753992578], [-60.78212477552962, 46.02389329930756], [-60.782189659745995, 46.02382165463411], [-60.78228201529834, 46.02374154270063], [-60.782411994165635, 46.023625267840934], [-60.7825163644143, 46.02353547935434], [-60.78259472953362, 46.023482097211094], [-60.78264747254304, 46.02345522830563], [-60.78276365052651, 46.023393561456686], [-60.78292062733365, 46.02331291212837], [-60.78305009694545, 46.02324162035561], [-60.78325861347645, 46.02309985803887], [-60.783310078055294, 46.02307295501814], [-60.78341393848657, 46.02302816751758], [-60.78346597512778, 46.023019267607204], [-60.78350506489567, 46.02301103452375], [-60.783530166102864, 46.02302952263523], [-60.78354094080762, 46.02305927146566], [-60.78354296496343, 46.023064873073274], [-60.78351768047955, 46.0230832836249], [-60.78346481359195, 46.02314526163776], [-60.78336080557257, 46.02322604848181], [-60.783281722301645, 46.02329741829673], [-60.78326807954088, 46.023315163643005], [-60.783281574842775, 46.023333417596355], [-60.78330739534994, 46.02333391863325], [-60.78333324918971, 46.02332486173736], [-60.78335848724924, 46.023316017900505], [-60.78336621555787, 46.02331209061601], [-60.78341125628019, 46.02328913114592], [-60.783515800250626, 46.0232272557902], [-60.78359359210121, 46.02315586075672], [-60.78369882548465, 46.023012093689964], [-60.78371224238472, 46.022967351288464], [-60.78374849660488, 46.022877824228985], [-60.783752381760465, 46.02286822402213], [-60.78375303557855, 46.02278723183929], [-60.78375207448238, 46.02278380198844], [-60.7837405961801, 46.02274288785632], [-60.783729124224614, 46.02270666312776], [-60.783719869187706, 46.02270224431727], [-60.78368982197411, 46.02268789954314], [-60.78362559504416, 46.02267855296098], [-60.78357355910736, 46.022687443957246], [-60.783313839877174, 46.0227850017091], [-60.78315927030965, 46.022837814620644], [-60.78305508635659, 46.02289069609883], [-60.78298999270975, 46.02293532658393], [-60.78267613993196, 46.02315875791038], [-60.782545590834566, 46.02325702992761], [-60.78238907273168, 46.023390799834665], [-60.78233652809367, 46.02344468309348], [-60.782141094220094, 46.023614590393564], [-60.78208333731307, 46.02367634681828], [-60.782049322618704, 46.02371272363277], [-60.782029566517174, 46.02373954868858], [-60.78194410668921, 46.02385558945575], [-60.78186576750033, 46.02397287548625], [-60.78179825113527, 46.024142574745284], [-60.78174519683069, 46.02424145052776], [-60.78162725684992, 46.0244119706427], [-60.781521331518746, 46.02457282336605], [-60.78144302636915, 46.02468920970346], [-60.78140375005794, 46.02473434966714], [-60.78128610552798, 46.024832870848996], [-60.78128505084281, 46.024835010493995], [-60.78119330011001, 46.02502097969175], [-60.78116732997595, 46.02505647742501], [-60.78107565458656, 46.02511950063442], [-60.78103641330364, 46.02516375009669], [-60.78100970168343, 46.02521808951817], [-60.78098247501487, 46.02531660256975], [-60.780982103334914, 46.02531749540374], [-60.78091565114523, 46.02546921370792], [-60.78087604979996, 46.02552244765614], [-60.78083675914758, 46.025567596142395], [-60.78060187341255, 46.02575473544176], [-60.780536984820785, 46.02582637911245], [-60.78040555592281, 46.025978634786256], [-60.780261786210225, 46.02614865158534], [-60.78018304160634, 46.02621103427677], [-60.779923163141014, 46.02634458334397], [-60.7798573420881, 46.02640720796565], [-60.77970029833858, 46.02658596660985], [-60.77938626168852, 46.02684537838274], [-60.77924299705213, 46.02697040102066], [-60.77902222917704, 46.027094816743336], [-60.77869567103659, 46.02734410057315], [-60.77846051213361, 46.02750511956951], [-60.77835616414364, 46.02759399569092], [-60.778187246338796, 46.02774641975519], [-60.77805631783674, 46.02785367975055], [-60.77793848721833, 46.02792429217365], [-60.77771788595231, 46.02807661026378], [-60.777548942623035, 46.02816513808269], [-60.77743215689177, 46.02820965975783], [-60.777353931518554, 46.02822703891322], [-60.77727606675478, 46.02823542449655], [-60.77715824171902, 46.02824463457207], [-60.77695331154875, 46.02826065499492], [-60.776865221882716, 46.02827236052972], [-60.77682340486025, 46.028277919107424], [-60.77653905896303, 46.028311987399725], [-60.77631930561965, 46.02834641228136], [-60.77616285379563, 46.02838116899272], [-60.77600733205516, 46.028424944131835], [-60.77589090511224, 46.02846047968107], [-60.77581360917983, 46.028486876411634], [-60.77565807397008, 46.028530650812634], [-60.77547670543822, 46.02857482200643], [-60.7753206134571, 46.02860058403597], [-60.775230730548124, 46.02861863476671]]}, "properties": {"OBJECTID": 7184, "FEAT_CODE": "WACO20", "FEAT_DESC": "Coast - Water to the right line", "RIVNAME_1": " ", "RIVNAME_2": " ", "ZVALUE": 0.2, "FID": null, "SHAPE_Length": 3026.9280439493396}}, {"type": "Feature", "id": 7222, "geometry": {"type": "LineString", "coordinates": [[-60.78601169642831, 46.019967056331325], [-60.78606445861536, 46.019986169991014], [-60.78614032265711, 46.020013651815795], [-60.786242593229375, 46.0200408352726], [-60.7863715400827, 46.02007358487169], [-60.786422929746, 46.02008663240367], [-60.786461400660045, 46.020104838914165], [-60.78650027752354, 46.02012323328843], [-60.78666681875131, 46.020223666043066], [-60.78668172675045, 46.02023955282891], [-60.7867176167867, 46.02027775345849], [-60.78675168879511, 46.02030777336139], [-60.78676878684783, 46.020322847514905], [-60.786825388503416, 46.02038819899526], [-60.78697256905918, 46.0205581094236], [-60.787016818450574, 46.0206060214739], [-60.787023344703954, 46.02061309631999], [-60.78702618282831, 46.02061805659612], [-60.78704869599095, 46.020657690083546], [-60.78706088770469, 46.02067592734419], [-60.78706109606962, 46.020701456920506], [-60.78706110174603, 46.0207029331195], [-60.78703420545856, 46.02072941371909], [-60.7869694761664, 46.020765061996755], [-60.78695620748547, 46.02077380549169], [-60.78697883142435, 46.020797717189616], [-60.78698224086678, 46.02080131145143], [-60.78704610729036, 46.020819649708486], [-60.78740711010248, 46.02090314702564], [-60.787613269542135, 46.020949451417444], [-60.787715901826886, 46.020967631009206], [-60.787896351149456, 46.02097832586944], [-60.78810358809772, 46.02099763961178], [-60.78834901728019, 46.02099878226082], [-60.78858006521331, 46.02103656620984], [-60.78872275380837, 46.0210546292589], [-60.78901946337735, 46.02106577263673], [-60.78919991334684, 46.0210764654475], [-60.78957558824987, 46.02105132428519], [-60.789768768233486, 46.02103436983739], [-60.789975803622376, 46.02102667465336], [-60.79014404797622, 46.021019128755526], [-60.79024646535641, 46.021010309287895], [-60.79037563478779, 46.021011007728205], [-60.790518288144, 46.02102996790438], [-60.790584288695044, 46.0210482824521], [-60.79068568600021, 46.021076408086195], [-60.79080087069432, 46.021103837205665], [-60.791083670014494, 46.02120471162143], [-60.79115909567171, 46.02122838339441], [-60.79119978785706, 46.021241158922294], [-60.79171507363299, 46.02134382658725], [-60.79176135652117, 46.02136026520119], [-60.791792784978334, 46.02137143035842], [-60.79215276039897, 46.021480994352416], [-60.79220225316714, 46.02149210350038], [-60.792358939520604, 46.0215272815396], [-60.79250306981813, 46.02156987619122], [-60.792577286920036, 46.02159180456689], [-60.79272350667155, 46.02164390788308], [-60.79293780452032, 46.02172027768874], [-60.79300131641831, 46.02174759729709], [-60.79301162668341, 46.02175668002005], [-60.793052492650595, 46.0217926976376], [-60.793129348281745, 46.02187428720439], [-60.79315825723021, 46.0219153301067], [-60.79316725708042, 46.02192812272452], [-60.79317961438709, 46.02194290631667], [-60.793205488146874, 46.02197386397106], [-60.79335888752407, 46.0221121233214], [-60.79339631758678, 46.022145860311], [-60.793422137717435, 46.022146359052925], [-60.79346183676118, 46.022155226354386], [-60.79352350227852, 46.02218837835733], [-60.79356429647488, 46.02221030855776], [-60.79361561466432, 46.02221940022473], [-60.79364182855307, 46.02221000592852], [-60.793667572161475, 46.02214749935981], [-60.7936682880057, 46.022129512106154], [-60.79366738231268, 46.0221269474611], [-60.793655518631304, 46.02209326332231], [-60.79364368235241, 46.02206603309834], [-60.79361477403926, 46.02202496333116], [-60.79360577299577, 46.02201219772752], [-60.793576924339256, 46.02199592558991], [-60.79354132814269, 46.02197584189657], [-60.79343936729968, 46.02187577560655], [-60.793297925491785, 46.02179383871056], [-60.7931435383419, 46.021712551609816], [-60.79300338802865, 46.021630648295755], [-60.79296444165709, 46.02160288523951], [-60.79291380200404, 46.02158942312436], [-60.79286216506915, 46.021575698703785], [-60.79284153704738, 46.02156778470025], [-60.79269418857361, 46.02151125846067], [-60.79261863619177, 46.02147906174377], [-60.79256584959607, 46.02145657544872], [-60.79239842602392, 46.02141103758796], [-60.79233768142514, 46.02139632687571], [-60.79232166007358, 46.02139245304103], [-60.79230946645922, 46.021374216310036], [-60.79230855047099, 46.02136542308051], [-60.79232180160935, 46.02135645361245], [-60.7923354277382, 46.021338715862235], [-60.79240037101005, 46.021330070306064], [-60.79247693314168, 46.02132164923872], [-60.79254151827989, 46.02132199722261], [-60.792671621476, 46.02133171164801], [-60.792852467077, 46.021332505730804], [-60.793019434049214, 46.02132493091364], [-60.793096929077564, 46.02132552799444], [-60.79317481790062, 46.02131623203502], [-60.79334307578415, 46.02130868168243], [-60.793510617756574, 46.02131911833545], [-60.79369110546965, 46.02132890471749], [-60.79384573770617, 46.02133909154464], [-60.79394908833521, 46.0213392873185], [-60.79395092693319, 46.021339511835556], [-60.79402751655149, 46.02134890232908], [-60.79433678135781, 46.021369274868285], [-60.79437518901825, 46.021378116919706], [-60.79438573955012, 46.02138538604863], [-60.794414172097504, 46.021404971148904], [-60.794412740928315, 46.0214409456788]]}, "properties": {"OBJECTID": 7222, "FEAT_CODE": "WACO20", "FEAT_DESC": "Coast - Water to the right line", "RIVNAME_1": " ", "RIVNAME_2": " ", "ZVALUE": 0.2, "FID": null, "SHAPE_Length": 1018.6031176579554}}, {"type": "Feature", "id": 7223, "geometry": {"type": "LineString", "coordinates": [[-60.77198739409831, 46.0286517300091], [-60.7717807033729, 46.02865039877993], [-60.77154781539286, 46.02865755667467], [-60.77144539439883, 46.02866635930407], [-60.771251253418704, 46.0286742724752]]}, "properties": {"OBJECTID": 7223, "FEAT_CODE": "WACO20", "FEAT_DESC": "Coast - Water to the right line", "RIVNAME_1": " ", "RIVNAME_2": " ", "ZVALUE": 0.2, "FID": null, "SHAPE_Length": 57.09655183272821}}, {"type": "Feature", "id": 7224, "geometry": {"type": "LineString", "coordinates": [[-60.775811647271155, 46.0236733504227], [-60.775876082413056, 46.023709707078886], [-60.7759403090615, 46.02371905801543], [-60.77617366307613, 46.02366689754609], [-60.77628935814574, 46.0236493485324], [-60.77645871959751, 46.023614842920914], [-60.77676954906394, 46.02349938533075], [-60.776951286350794, 46.02344621870668], [-60.77713240454238, 46.023375938717734], [-60.77722336013262, 46.02333090573468], [-60.77758743340855, 46.023144477578704], [-60.7778087712478, 46.02303807674541], [-60.77819889368295, 46.022878254930696]]}, "properties": {"OBJECTID": 7224, "FEAT_CODE": "WACO20", "FEAT_DESC": "Coast - Water to the right line", "RIVNAME_1": " ", "RIVNAME_2": " ", "ZVALUE": 0.2, "FID": null, "SHAPE_Length": 211.38599328984594}}, {"type": "Feature", "id": 60183, "geometry": {"type": "LineString", "coordinates": [[-60.77515233780323, 46.02867202029386], [-60.77531546957111, 46.028686888996006], [-60.77549184108079, 46.02867097243681], [-60.77567424804727, 46.028643112406634], [-60.77588312569277, 46.028577065157364], [-60.77606711835515, 46.02851611340415], [-60.77618009387346, 46.02849735948841], [-60.776240385971256, 46.02848736350384], [-60.776285559100536, 46.028484795643124], [-60.77643180120983, 46.02847649962018], [-60.776526118001954, 46.028467084752215], [-60.776929266104815, 46.02842524787552], [-60.777126796646414, 46.02841010057026], [-60.777252440979325, 46.02841857571216], [-60.77721864393769, 46.028552476096095], [-60.777087305635646, 46.02862024165362], [-60.77703458004468, 46.02864745033801], [-60.77674214687827, 46.02880771126485], [-60.7767259487258, 46.0288165945632], [-60.77654238766818, 46.02889222664754], [-60.776408738117944, 46.0289460586134], [-60.77640490301474, 46.028947604059965], [-60.776367816810186, 46.028962129082046], [-60.77617711921354, 46.02903686561961], [-60.776158829475754, 46.029044736063156], [-60.77597686766151, 46.029122981523045], [-60.77587970685922, 46.029180376416384], [-60.775855631763314, 46.0291945965569], [-60.7756455618706, 46.02936337963266], [-60.77555332471341, 46.02943748510279], [-60.77537115000219, 46.02954995447879], [-60.775265941273645, 46.0296378389397], [-60.77522742224572, 46.02967001273443], [-60.77509582940858, 46.029754935055536], [-60.77498771114108, 46.02976302686684], [-60.77493474000791, 46.02976700842077], [-60.7747215338731, 46.02968293072092], [-60.77449480031232, 46.02959174868082], [-60.77432728041668, 46.02955770318487], [-60.774209541140486, 46.02953991928865], [-60.77417469575762, 46.02953465908233], [-60.773978964531985, 46.029562797112284], [-60.77381445140346, 46.02968874893876], [-60.77366115107721, 46.029757504648025], [-60.7734632899697, 46.02975210929926], [-60.77335277769177, 46.02980080831196], [-60.773340207535455, 46.02981489214895], [-60.773304471741255, 46.02985495000951], [-60.77317957026153, 46.0301012901092], [-60.773072424500675, 46.030182276381744], [-60.77306572809313, 46.030181704815654], [-60.773056331780204, 46.03018079259979], [-60.77290200407725, 46.030165723294864]]}, "properties": {"OBJECTID": 60183, "FEAT_CODE": "WALK20", "FEAT_DESC": "Lake - Water to the right line", "RIVNAME_1": " ", "RIVNAME_2": " ", "ZVALUE": 0.3, "FID": null, "SHAPE_Length": 608.9352515783096}}, {"type": "Feature", "id": 60184, "geometry": {"type": "LineString", "coordinates": [[-60.77290200407725, 46.030165723294864], [-60.77280764119923, 46.030102238952225], [-60.77282232256725, 46.02998127899797], [-60.77283959407269, 46.02993702708211], [-60.77287691011294, 46.02984157488886], [-60.77292790970419, 46.02969950566686], [-60.77295388232772, 46.02962715268535], [-60.77309482026757, 46.029377255198625], [-60.773152874744866, 46.02914833322799], [-60.77315653331459, 46.02894760261633], [-60.77316796048109, 46.0289256210494], [-60.77322753354138, 46.0288110084224], [-60.77330424959466, 46.028781397948904], [-60.77336469056551, 46.02875806759177], [-60.773648805701285, 46.028755585585095], [-60.77393749904467, 46.02875815137902], [-60.774198180942015, 46.02876323084808], [-60.77451386505839, 46.028759741682734], [-60.77480982449166, 46.02871682311267], [-60.77495768067476, 46.028702782074745], [-60.77495916304795, 46.02870254993219], [-60.77515233780323, 46.02867202029386]]}, "properties": {"OBJECTID": 60184, "FEAT_CODE": "WALK20", "FEAT_DESC": "Lake - Water to the right line", "RIVNAME_1": " ", "RIVNAME_2": " ", "ZVALUE": 0.3, "FID": null, "SHAPE_Length": 309.9827209901384}}, {"type": "Feature", "id": 60187, "geometry": {"type": "LineString", "coordinates": [[-60.77070221875952, 46.02916385424986], [-60.77070173816903, 46.02916487993277], [-60.7706501060912, 46.0292277761302], [-60.770609888370636, 46.02926389345763], [-60.77055793050969, 46.02933488373623], [-60.7705444651366, 46.029380523672195], [-60.77055114837809, 46.02938977164507], [-60.770570168532124, 46.0294161273869], [-60.77060710699098, 46.02946185994411], [-60.77059438876167, 46.02948860434275], [-60.77055584699557, 46.02951485376939], [-60.77050417740749, 46.029514745423874]]}, "properties": {"OBJECTID": 60187, "FEAT_CODE": "WALK20", "FEAT_DESC": "Lake - Water to the right line", "RIVNAME_1": " ", "RIVNAME_2": " ", "ZVALUE": 0.3, "FID": null, "SHAPE_Length": 48.85533085294928}}, {"type": "Feature", "id": 60188, "geometry": {"type": "LineString", "coordinates": [[-60.77050417740749, 46.029514745423874], [-60.77048905089826, 46.02950787981571], [-60.770464839283626, 46.02949686675725], [-60.77036166615757, 46.02945976000944], [-60.77028596957299, 46.02941418083512], [-60.77023602009149, 46.029397013926165], [-60.77020822217905, 46.029387461803374], [-60.77014273602722, 46.02938679558894]]}, "properties": {"OBJECTID": 60188, "FEAT_CODE": "WALK20", "FEAT_DESC": "Lake - Water to the right line", "RIVNAME_1": " ", "RIVNAME_2": " ", "ZVALUE": 0.3, "FID": null, "SHAPE_Length": 32.15500241144506}}, {"type": "Feature", "id": 120349, "geometry": {"type": "LineString", "coordinates": [[-60.77014273602722, 46.02938679558894], [-60.77001447660462, 46.02938548000289], [-60.76997534356453, 46.02939462567622], [-60.76996279423585, 46.029385371162604], [-60.769963517949876, 46.029367384220514], [-60.76997586204681, 46.02934962412229], [-60.77001571838886, 46.02932250049874], [-60.77004562561533, 46.02929728877467], [-60.77006788255893, 46.029278516098415], [-60.77012371467737, 46.0292323261366], [-60.770197538500234, 46.02917124042614], [-60.77027664694778, 46.02909988019865], [-60.77036813526211, 46.02900986041914], [-60.770421384187145, 46.02893889542163], [-60.77045958709936, 46.028920739907115], [-60.77048613351611, 46.028903256937646], [-60.77057601833192, 46.028885209078894], [-60.77067934598736, 46.02888632551177]]}, "properties": {"OBJECTID": 120349, "FEAT_CODE": "WALK20", "FEAT_DESC": "Lake - Water to the right line", "RIVNAME_1": " ", "RIVNAME_2": " ", "ZVALUE": 0.3, "FID": null, "SHAPE_Length": 97.80757600637678}}, {"type": "Feature", "id": 120350, "geometry": {"type": "LineString", "coordinates": [[-60.77067934598736, 46.02888632551177], [-60.77077069160127, 46.02889620946721], [-60.770782554057575, 46.028922542505654], [-60.770782484668565, 46.02892619536895], [-60.77078131317057, 46.02898552203825], [-60.77076862859182, 46.02901304116067], [-60.770768310537726, 46.02901388100438], [-60.770755504304645, 46.02904892219869], [-60.77070221875952, 46.02916385424986]]}, "properties": {"OBJECTID": 120350, "FEAT_CODE": "WALK20", "FEAT_DESC": "Lake - Water to the right line", "RIVNAME_1": " ", "RIVNAME_2": " ", "ZVALUE": 0.3, "FID": null, "SHAPE_Length": 37.977194094860614}}, {"type": "Feature", "id": 194385, "geometry": {"type": "LineString", "coordinates": [[-60.787419369079196, 46.01897726806468], [-60.787367179584145, 46.01902215999683], [-60.787287774467906, 46.019102526929316], [-60.78723594403329, 46.019138416210225], [-60.787171216403635, 46.019174073640954], [-60.787027920308326, 46.01923610172213], [-60.78697552914071, 46.0192539879326], [-60.78689845228322, 46.019307398062054], [-60.786780664073405, 46.01937802048758], [-60.786677027069814, 46.019449817027194], [-60.78657213440326, 46.01952069808866], [-60.78645522875181, 46.01960122887613], [-60.78641537414093, 46.019628367294594], [-60.786337390538634, 46.01967274992814], [-60.78631178501428, 46.01969926437436], [-60.7862470568595, 46.019734903268336], [-60.78618103731795, 46.01977052609974], [-60.78615579114312, 46.01978803792978], [-60.786116522231325, 46.01983317968227], [-60.78609055776309, 46.019868678665894], [-60.78601169642831, 46.019967056331325]]}, "properties": {"OBJECTID": 194385, "FEAT_CODE": "WARV50", "FEAT_DESC": "River - Single Line", "RIVNAME_1": " ", "RIVNAME_2": " ", "ZVALUE": 9999, "FID": null, "SHAPE_Length": 156.80541644650177}}, {"type": "Feature", "id": 194519, "geometry": {"type": "LineString", "coordinates": [[-60.77515233780323, 46.02867202029386], [-60.775230730548124, 46.02861863476671]]}, "properties": {"OBJECTID": 194519, "FEAT_CODE": "WARV50", "FEAT_DESC": "River - Single Line", "RIVNAME_1": " ", "RIVNAME_2": " ", "ZVALUE": 9999, "FID": null, "SHAPE_Length": 8.487873820503818}}, {"type": "Feature", "id": 194520, "geometry": {"type": "LineString", "coordinates": [[-60.772678373150676, 46.03110344903595], [-60.77267981890295, 46.031067475096116], [-60.77270543592997, 46.03104097296277], [-60.772718177126116, 46.031013319729986], [-60.77273253515007, 46.03097758853941], [-60.7727453969789, 46.03094243121142], [-60.77274558832668, 46.03094184990751], [-60.77274559595273, 46.03094037396891], [-60.77274539432163, 46.03091484452822], [-60.77274575574671, 46.030905851042576], [-60.772745897829886, 46.03087176879685], [-60.77274591025373, 46.03086985192569], [-60.772746238048235, 46.03086876925224], [-60.77275933772756, 46.03082512005692], [-60.77278679818814, 46.03075274212936], [-60.77278752102062, 46.030734755157034], [-60.77280094842422, 46.03069002328118], [-60.772826706749136, 46.0306275217437], [-60.77285268920946, 46.03057551919078], [-60.77285342061853, 46.030574039361845], [-60.77285411608456, 46.03057281084707], [-60.77287980953747, 46.03052864211722], [-60.772893792651615, 46.03050191312829], [-60.77292167939856, 46.030322446134086], [-60.772899743906905, 46.03017952205185], [-60.77290200407725, 46.030165723294864]]}, "properties": {"OBJECTID": 194520, "FEAT_CODE": "WARV50", "FEAT_DESC": "River - Single Line", "RIVNAME_1": " ", "RIVNAME_2": " ", "ZVALUE": 9999, "FID": null, "SHAPE_Length": 107.19532016369611}}]}