{"type": "FeatureCollection", "features": [{"type": "Feature", "id": 4603, "geometry": {"type": "LineString", "coordinates": [[-60.80968546776743, 45.98047800931753], [-60.810017833722156, 45.98065989332337], [-60.81023544434991, 45.980805374344165], [-60.81029949931029, 45.98085070513707], [-60.81041540857217, 45.98094858524155], [-60.810428190218715, 45.9809593789337], [-60.81044254264726, 45.980969626694986], [-60.81055501084713, 45.98105001555222], [-60.810683488544086, 45.98115462570317], [-60.810733874318586, 45.98119564400252]]}, "properties": {"OBJECTID": 4603, "FEAT_CODE": "WACO20", "FEAT_DESC": "Coast - Water to the right line", "RIVNAME_1": " ", "RIVNAME_2": " ", "ZVALUE": 0.2, "FID": null, "SHAPE_Length": 114.21986302934968}}, {"type": "Feature", "id": 6482, "geometry": {"type": "LineString", "coordinates": [[-60.810733874318586, 45.98119564400252], [-60.811049215918565, 45.98148566482068], [-60.811215274263695, 45.98165193749595], [-60.8115581194414, 45.98206939219612], [-60.811594192766535, 45.98210343046967], [-60.8116496090428, 45.982155741463565], [-60.811780742655266, 45.982310021487216], [-60.81184540801603, 45.982386127106615], [-60.81204172765166, 45.982646584344366], [-60.81223750774683, 45.982927003205134], [-60.81230338986853, 45.9830371360836], [-60.81239581310027, 45.98319160106927], [-60.81250684869657, 45.98341469185869], [-60.81253920286934, 45.98350448925142], [-60.81256655392631, 45.98358036592554], [-60.81257070411813, 45.98393704867782], [-60.81257034729394, 45.98394053407285], [-60.81253567216424, 45.984282180399084], [-60.8124978180884, 45.98442958716765], [-60.812493424848526, 45.98444671215998], [-60.81240649987131, 45.98465395114836], [-60.812364562627785, 45.98469035644505], [-60.812213323922755, 45.98482163173071], [-60.8120388421134, 45.984976871213924], [-60.81192787875102, 45.98515187732946], [-60.811816822796914, 45.98529645958033], [-60.811499573732604, 45.98554248842433], [-60.81118244665425, 45.98575260638356], [-60.81090530476608, 45.98594404846299], [-60.81075520749463, 45.98603081778097], [-60.81054603984355, 45.9862095567759], [-60.81050734363577, 45.98624262128378], [-60.81025194159197, 45.98649163216717], [-60.810026312891, 45.9867975569266], [-60.80986231208365, 45.987020957393455], [-60.809404761294154, 45.98741541011359], [-60.809294537837204, 45.98754515487712], [-60.809265131332964, 45.98758227636541], [-60.80900874382278, 45.98790599737042], [-60.80893658517744, 45.9879944751472], [-60.80883711124921, 45.988116469129956], [-60.80876010238612, 45.98823523072282], [-60.80861863652002, 45.98845340027114], [-60.80857717142478, 45.988504853192], [-60.80843873856014, 45.988676583689994], [-60.808183889514126, 45.989005885675454], [-60.80802588126025, 45.98919096594659]]}, "properties": {"OBJECTID": 6482, "FEAT_CODE": "WACO20", "FEAT_DESC": "Coast - Water to the right line", "RIVNAME_1": " ", "RIVNAME_2": " ", "ZVALUE": 0.2, "FID": null, "SHAPE_Length": 1036.0535429739095}}, {"type": "Feature", "id": 6531, "geometry": {"type": "LineString", "coordinates": [[-60.81258501242135, 45.972757854764914], [-60.81258070034186, 45.972757871198404], [-60.812464540737935, 45.972757446886504], [-60.81246165203588, 45.97302740963573], [-60.81244865465733, 45.97306309113456], [-60.81240896656021, 45.97315240910834], [-60.812394650598954, 45.97318813735335], [-60.81234253821464, 45.973233042411785], [-60.812265209289485, 45.973295465704545], [-60.812225053070776, 45.973333741234626], [-60.812199489187975, 45.973358111284384], [-60.81216942482628, 45.973378758888266], [-60.81213447758766, 45.9734027691927], [-60.81210654127859, 45.97342215245166], [-60.81208271912355, 45.97343868030867], [-60.81188687265699, 45.97354736448477], [-60.81187421625468, 45.97355439453236], [-60.811822444582674, 45.97359030527682], [-60.811805943394624, 45.97361825106898], [-60.811796165043916, 45.973634795872016], [-60.81179237769941, 45.973642787859944], [-60.811783492481815, 45.973661563918796], [-60.81176993740911, 45.97374185063503], [-60.81176832664527, 45.97375127941058], [-60.81176593110504, 45.973758019974035], [-60.811755277464215, 45.97378793189991], [-60.81155977972408, 45.97396600782531], [-60.81141722261772, 45.97404607312722], [-60.811287196789536, 45.97413537895878], [-60.81109591553145, 45.97426044933096], [-60.811000963945304, 45.97432252506903], [-60.81095625961765, 45.974359227893736], [-60.81087025351472, 45.97442981850542], [-60.81075347926015, 45.9745103860815], [-60.8104801683769, 45.97469776053023], [-60.810361748443796, 45.974787296760006], [-60.81019253779355, 45.97492086221152], [-60.81007503891127, 45.97501942539912], [-60.81006308815587, 45.97502818788764], [-60.80987997925093, 45.975188434219994], [-60.809851961374804, 45.97520787836424], [-60.80982815103414, 45.97522439697387], [-60.80980434067932, 45.97524091557824], [-60.80977637647583, 45.97526030672934], [-60.80961962387529, 45.97534010659573], [-60.80960854279252, 45.97534481744151], [-60.80945156782669, 45.97541158894529], [-60.809377842597456, 45.97544467441723], [-60.809372717121185, 45.975446979284456], [-60.8093077007985, 45.975491635483735], [-60.80927240563982, 45.97551949049145], [-60.80913847220659, 45.97562520802053], [-60.809061804402134, 45.97568901890035], [-60.80895561176571, 45.97577740209031], [-60.80884157622257, 45.975846652475234], [-60.80883923517557, 45.975848074666956], [-60.80861767441174, 45.975999534836916]]}, "properties": {"OBJECTID": 6531, "FEAT_CODE": "WACO20", "FEAT_DESC": "Coast - Water to the right line", "RIVNAME_1": " ", "RIVNAME_2": " ", "ZVALUE": 0.2, "FID": null, "SHAPE_Length": 491.2194290199956}}, {"type": "Feature", "id": 6532, "geometry": {"type": "LineString", "coordinates": [[-60.80800638972384, 45.966008834773625], [-60.80829862558275, 45.966232977136016], [-60.80831332107472, 45.96624423984382], [-60.80863240718725, 45.96649877853969], [-60.80874979568023, 45.966597940049866], [-60.8087610496418, 45.96660745356584], [-60.808862988799184, 45.96670661561335], [-60.80886583301456, 45.96670944235939], [-60.80892631724739, 45.96676993458096], [-60.80911804164502, 45.96691582162897], [-60.80925892234239, 45.967041831971386], [-60.80958940270878, 45.967367691296595], [-60.80971735263696, 45.96749435316651], [-60.809895474819676, 45.96765797929023], [-60.81018865249078, 45.96794801925605], [-60.81034159830901, 45.968128263183495], [-60.81041734478002, 45.968236822391916], [-60.81048196648272, 45.968300165266974], [-60.810698339412724, 45.9685086262696], [-60.81096585809178, 45.96876216997854], [-60.81115772867509, 45.96897016053725], [-60.81122070785373, 45.96904247211888], [-60.811232896895945, 45.96906070689152], [-60.81125824582041, 45.96910529558183], [-60.81129381936577, 45.96914787502816], [-60.81129645724592, 45.96915103078125], [-60.811410936153486, 45.96925943137991], [-60.811414167061024, 45.9692635885592], [-60.81148833037788, 45.96935902081766], [-60.811535837404826, 45.96944566177563], [-60.811537690802844, 45.969449072511665], [-60.81153966184684, 45.96945113541052], [-60.81156372633982, 45.96947657313203], [-60.8115890679141, 45.96952135961806], [-60.811588238960034, 45.9695751583661], [-60.81157459713695, 45.96959378928838], [-60.81153529369219, 45.9696740327605], [-60.81149207476548, 45.96979041964338], [-60.811481864686954, 45.969817936897016], [-60.81149463536802, 45.96985417499546], [-60.811530708822986, 45.96991454913853], [-60.811532174162785, 45.96991699837545], [-60.81153377557111, 45.969919270207114], [-60.8115578426339, 45.96995349256897], [-60.81163382058709, 45.97008905718787], [-60.81169583767466, 45.97025135612221], [-60.811782595564324, 45.97053923738343], [-60.81179726526195, 45.97060525882313], [-60.81180670629761, 45.97064771552112], [-60.81181700613476, 45.970672961510495], [-60.8118326153288, 45.97071120707193], [-60.811895115461205, 45.970828512108554], [-60.81207290778234, 45.971099235610225], [-60.81218678317957, 45.97128862927376], [-60.81224963895414, 45.97139694031154], [-60.81240089380198, 45.97168605628867], [-60.81246314185383, 45.97187536099641], [-60.8124879761595, 45.971965842615035], [-60.81249804898774, 45.97213614691511], [-60.81250985768723, 45.97226238149648], [-60.812494100495286, 45.97250446598459], [-60.81249348926491, 45.972514084924484], [-60.81250599361517, 45.97262233161546], [-60.81251842383696, 45.9726675726659], [-60.812530968314476, 45.97267681349243], [-60.81259046405943, 45.97267712474847]]}, "properties": {"OBJECTID": 6532, "FEAT_CODE": "WACO20", "FEAT_DESC": "Coast - Water to the right line", "RIVNAME_1": " ", "RIVNAME_2": " ", "ZVALUE": 0.2, "FID": null, "SHAPE_Length": 851.5226353344485}}, {"type": "Feature", "id": 6575, "geometry": {"type": "LineString", "coordinates": [[-60.80861767441174, 45.975999534836916], [-60.80851356831395, 45.976053332337514], [-60.8083336266686, 45.97613280256035], [-60.8082928454281, 45.97615081335735], [-60.80787777700887, 45.97636426350593], [-60.807777713759776, 45.976436607145885], [-60.807655856135, 45.97652472449094]]}, "properties": {"OBJECTID": 6575, "FEAT_CODE": "WACO20", "FEAT_DESC": "Coast - Water to the right line", "RIVNAME_1": " ", "RIVNAME_2": " ", "ZVALUE": 0.2, "FID": null, "SHAPE_Length": 95.03201331811042}}, {"type": "Feature", "id": 7473, "geometry": {"type": "LineString", "coordinates": [[-60.807655856135, 45.97652472449094], [-60.80760467198284, 45.97657863678464], [-60.80756472901703, 45.97664177440811], [-60.80749826587787, 45.976821410774015], [-60.80749672779495, 45.97689338603586], [-60.80748205894924, 45.97710828177502], [-60.807481387359715, 45.97711809753719], [-60.80746645057616, 45.97723482760976], [-60.80746641408585, 45.97733383348024], [-60.80747524041502, 45.977568018417585], [-60.807462434268466, 45.97763078579603], [-60.807382252842835, 45.977765146775795], [-60.807369091741556, 45.97783689892488], [-60.8073550427229, 45.97796873101095], [-60.807354734508955, 45.97797163228745], [-60.80736701802516, 45.97805287343574], [-60.80737872188464, 45.97811610226285], [-60.807439763087935, 45.978368390546336], [-60.80746083811121, 45.97842740694262], [-60.807465337481354, 45.978439986130454], [-60.80758968393246, 45.97875649354909], [-60.80772864770787, 45.97906248963362], [-60.807827507504534, 45.97922250032111], [-60.80782937624578, 45.979225524381114], [-60.80791769984689, 45.97934242695407], [-60.807996342763516, 45.97942234026091], [-60.808007066411484, 45.979433247746265], [-60.80802244433224, 45.9794475837623], [-60.80817267520362, 45.979587635508075], [-60.80831341924974, 45.97975054655389]]}, "properties": {"OBJECTID": 7473, "FEAT_CODE": "WACO20", "FEAT_DESC": "Coast - Water to the right line", "RIVNAME_1": " ", "RIVNAME_2": " ", "ZVALUE": 0.2, "FID": null, "SHAPE_Length": 378.99819565220133}}, {"type": "Feature", "id": 7474, "geometry": {"type": "LineString", "coordinates": [[-60.80831341924974, 45.97975054655389], [-60.808403164714974, 45.97983147364541], [-60.80865047788466, 45.9799997590421], [-60.808683543367145, 45.98002226479242], [-60.80869320215919, 45.98002810245171], [-60.80877433206847, 45.980077109879645], [-60.808842571072226, 45.98010992992797], [-60.808850350312696, 45.98011367038468], [-60.80886061318016, 45.9801172874698], [-60.809004409571656, 45.98016792879393], [-60.80915343789275, 45.98023125310921], [-60.809197408792635, 45.98024993559966], [-60.809351104235056, 45.98031408721353], [-60.809370480572866, 45.98032231631715], [-60.80954410449009, 45.98039609344973], [-60.80968546776743, 45.98047800931753]]}, "properties": {"OBJECTID": 7474, "FEAT_CODE": "WACO20", "FEAT_DESC": "Coast - Water to the right line", "RIVNAME_1": " ", "RIVNAME_2": " ", "ZVALUE": 0.2, "FID": null, "SHAPE_Length": 134.71981327986657}}, {"type": "Feature", "id": 25293, "geometry": {"type": "LineString", "coordinates": [[-60.81259046405943, 45.97267712474847], [-60.81259549704471, 45.97267715812179], [-60.812608456706265, 45.972675858184], [-60.8126720147247, 45.972668074638996], [-60.81267236895372, 45.97265908081938], [-60.81268697407437, 45.97255045319246], [-60.8127144423868, 45.972442971928906], [-60.8127403667377, 45.97240746591707], [-60.8127659722656, 45.97238005433713], [-60.81281792112796, 45.972372048422066], [-60.81288280405733, 45.97236339006783], [-60.812947332787076, 45.972363725498084], [-60.81299860868334, 45.97237280776166], [-60.81306371896948, 45.9723911554661], [-60.813204840206105, 45.972446060649666], [-60.813307037782096, 45.97247322774438], [-60.813461766734186, 45.97251038289387], [-60.81362939425715, 45.972547793714384], [-60.81377087052169, 45.972593704388395], [-60.81391142407861, 45.97263059662563], [-60.814105454510035, 45.97268560417501], [-60.81422056464623, 45.972713017542674], [-60.8142982076507, 45.97274060495482], [-60.814426432264135, 45.97279526185463], [-60.81447700059146, 45.97282234011918], [-60.8144777350742, 45.97282302921694], [-60.81455417737817, 45.97289491244535], [-60.81457914131769, 45.972949393663384], [-60.81460401489655, 45.97303897549331], [-60.81460400266699, 45.973039614302074], [-60.814602347604726, 45.973146950814595], [-60.81462947466708, 45.97326160642125], [-60.81463684749136, 45.97329271854207], [-60.814638872474035, 45.97330128985255]]}, "properties": {"OBJECTID": 25293, "FEAT_CODE": "WACORV20", "FEAT_DESC": "Coast River - Water to the right line", "RIVNAME_1": "Nashs Brook", "RIVNAME_2": " ", "ZVALUE": 0.2, "FID": null, "SHAPE_Length": 239.49977840077062}}, {"type": "Feature", "id": 25294, "geometry": {"type": "LineString", "coordinates": [[-60.81499404387747, 45.97378872525635], [-60.814992015901794, 45.97378875846978], [-60.814968197569705, 45.973789130922434], [-60.8148677240931, 45.973769243788816], [-60.81482731226261, 45.97376123425202], [-60.81463775717457, 45.97375181159988], [-60.81462117598247, 45.97375099034638], [-60.81461553632723, 45.97375029741281], [-60.81454281063728, 45.973741390541676], [-60.81441479887402, 45.97371373965818], [-60.814273332126774, 45.973667829976414], [-60.814068371641326, 45.97359460336288], [-60.81399108160487, 45.97355802195285], [-60.81384118030316, 45.97346012486002], [-60.813824957916914, 45.973449535704596], [-60.81381967268937, 45.97344738241679], [-60.81373475643347, 45.973412707015015], [-60.81350647385807, 45.97336040944846], [-60.81349040563082, 45.97335672665732], [-60.81348626888066, 45.973355567402315], [-60.813425294074165, 45.973338379176234], [-60.81330996813231, 45.97328396807485], [-60.81318279311418, 45.97320232821301], [-60.813156072566294, 45.97319281607005], [-60.81314352786879, 45.97318357530901], [-60.81309713750627, 45.97316710714494], [-60.81309260536982, 45.97316549927654], [-60.81298910350677, 45.973138316023174], [-60.81297972120522, 45.97313694831266], [-60.81292494096862, 45.97312898702699], [-60.81278333711211, 45.973119075273544], [-60.812770438275706, 45.97311882829236], [-60.812733477625045, 45.97309335092157], [-60.81273146623749, 45.973091980318536], [-60.81271928875991, 45.973073745940134], [-60.812681200610825, 45.97299201120099], [-60.81267493027381, 45.9729702986894], [-60.812644848328084, 45.97286620673653], [-60.81263326640905, 45.97276697833105], [-60.812619432019154, 45.97275771281549], [-60.81258501242135, 45.972757854764914]]}, "properties": {"OBJECTID": 25294, "FEAT_CODE": "WACORV20", "FEAT_DESC": "Coast River - Water to the right line", "RIVNAME_1": "Nashs Brook", "RIVNAME_2": " ", "ZVALUE": 0.2, "FID": null, "SHAPE_Length": 237.765119040553}}, {"type": "Feature", "id": 60437, "geometry": {"type": "LineString", "coordinates": [[-60.81393303057344, 45.98037756304031], [-60.81407466605598, 45.98038747393857], [-60.81413848992157, 45.98044070967428], [-60.814150890335426, 45.980451036624345], [-60.81429121146619, 45.980559928610795], [-60.8143012441384, 45.9805690761651], [-60.814380944580186, 45.9806417508021], [-60.81439313743334, 45.98065997627335], [-60.814358404170996, 45.98068370331213], [-60.81435466316976, 45.98068625090568]]}, "properties": {"OBJECTID": 60437, "FEAT_CODE": "WALK20", "FEAT_DESC": "Lake - Water to the right line", "RIVNAME_1": " ", "RIVNAME_2": " ", "ZVALUE": 3.7, "FID": null, "SHAPE_Length": 54.36430997860593}}, {"type": "Feature", "id": 60438, "geometry": {"type": "LineString", "coordinates": [[-60.81435466316976, 45.98068625090568], [-60.814238499798314, 45.98068582834821], [-60.814096850619116, 45.98067591739257], [-60.814029586258144, 45.98065202072958], [-60.81401919676609, 45.98064832968223], [-60.814014781062696, 45.98064571601491], [-60.813942238334356, 45.980602754044135], [-60.81390456319814, 45.98057594032788], [-60.813869190722485, 45.98053359964333], [-60.813866342428824, 45.98053019691312], [-60.813865649794835, 45.98052877056472], [-60.81385321421027, 45.98050294389171], [-60.81393303057344, 45.98037756304031]]}, "properties": {"OBJECTID": 60438, "FEAT_CODE": "WALK20", "FEAT_DESC": "Lake - Water to the right line", "RIVNAME_1": " ", "RIVNAME_2": " ", "ZVALUE": 3.7, "FID": null, "SHAPE_Length": 63.10727670547146}}, {"type": "Feature", "id": 60496, "geometry": {"type": "LineString", "coordinates": [[-60.80918698776218, 45.97586824562313], [-60.809212786650036, 45.97586874041567], [-60.80923955614111, 45.97587735435609], [-60.80926464539329, 45.97589583672493], [-60.80927706105061, 45.97594106882859], [-60.80931376152378, 45.976057898394664], [-60.80933754026718, 45.976179628481795], [-60.80933846334927, 45.97618437149849], [-60.80933843108539, 45.97618617099945], [-60.8093369019003, 45.976256346340946]]}, "properties": {"OBJECTID": 60496, "FEAT_CODE": "WALK20", "FEAT_DESC": "Lake - Water to the right line", "RIVNAME_1": " ", "RIVNAME_2": " ", "ZVALUE": 3.6, "FID": null, "SHAPE_Length": 47.711965506565775}}, {"type": "Feature", "id": 60497, "geometry": {"type": "LineString", "coordinates": [[-60.8093369019003, 45.976256346340946], [-60.80910497158971, 45.9762455978146], [-60.80898951458537, 45.9762271822535], [-60.808925691231494, 45.97620885692405], [-60.80884780806839, 45.97615425947135], [-60.808836328133246, 45.97611803686917], [-60.808797498539555, 45.976055187901764], [-60.80879820833557, 45.976037200319816], [-60.80881676896917, 45.976017971051874], [-60.80882379492752, 45.976010689331495], [-60.80901963927764, 45.975921739706216], [-60.80908557927458, 45.9758991708575], [-60.80909684609234, 45.97589531868194], [-60.809099699459516, 45.97589465336082], [-60.80913593476643, 45.97588616772684], [-60.80916682845986, 45.9758753204837], [-60.80918698776218, 45.97586824562313]]}, "properties": {"OBJECTID": 60497, "FEAT_CODE": "WALK20", "FEAT_DESC": "Lake - Water to the right line", "RIVNAME_1": " ", "RIVNAME_2": " ", "ZVALUE": 3.6, "FID": null, "SHAPE_Length": 90.78120820787869}}, {"type": "Feature", "id": 134568, "geometry": {"type": "LineString", "coordinates": [[-60.81140422396928, 45.964679792148424], [-60.8114167665016, 45.964689033073675], [-60.81142850816593, 45.96475136227315], [-60.81142873485639, 45.9647783684569], [-60.81140129754164, 45.96485890229071], [-60.81140100629568, 45.96485974276815], [-60.8113490001391, 45.96496765374875], [-60.81126837785582, 45.96514702129927], [-60.811242669833604, 45.96520953299641], [-60.811216039321316, 45.96526302639817], [-60.811215574593476, 45.96530692248266], [-60.81121555715387, 45.965308020223276], [-60.811216745504, 45.965310617169], [-60.81124052719771, 45.96536251135948], [-60.8112645010954, 45.96540559762756], [-60.81126582657054, 45.965407990186115], [-60.811267519616024, 45.96540957073189], [-60.811304425368206, 45.965443832159934], [-60.81135463226995, 45.96547987853353], [-60.811470472294694, 45.96555322083353], [-60.811610396810224, 45.96567111842657], [-60.81165945698004, 45.965705486582635], [-60.81166189347189, 45.965707198373025], [-60.81166453652984, 45.96570858109801], [-60.81171373124768, 45.96573429321923], [-60.8118026422327, 45.96577109884443], [-60.81185520158791, 45.96578020622468], [-60.81191455604338, 45.965788831701445], [-60.81191936837616, 45.9657895359246], [-60.81193303387415, 45.96578960867699], [-60.81211293158258, 45.965790543329014], [-60.812172286094004, 45.965799168672724], [-60.81217709843135, 45.9657998728851], [-60.81218518119912, 45.96580208883415], [-60.81227924829308, 45.96582793108959], [-60.81249883149813, 45.965856447009976], [-60.812614268716096, 45.96587484969489], [-60.81267901718351, 45.965902191329356], [-60.81283218393827, 45.96601133137131], [-60.81288438959301, 45.96602943211588], [-60.81288933275861, 45.96602943675541], [-60.81293601506167, 45.966029520505096], [-60.8129872851455, 45.96603860267823], [-60.81300053643442, 45.966029855773705], [-60.813012881781304, 45.966011991904566], [-60.8130258759201, 45.965976337245934], [-60.81303948127476, 45.96595859650406], [-60.81306027098922, 45.965943927506515], [-60.813077980737305, 45.9659314316906], [-60.813139153091065, 45.96591487162002], [-60.81314321013915, 45.96591377921084], [-60.813147517845685, 45.9659132046351], [-60.81320808544196, 45.965905120526536], [-60.81325607003204, 45.9659052020745], [-60.81325970951125, 45.96590520874267], [-60.813266596141425, 45.9659066636666], [-60.813349317010214, 45.96592402527101], [-60.81340152276122, 45.96594212578097], [-60.813439152223964, 45.96596984792221], [-60.81346485563715, 45.966005442316856], [-60.81351442170062, 45.96612339903217], [-60.813536781728864, 45.96617737166527], [-60.813540365825276, 45.966185999849884], [-60.81352543299434, 45.966302721962975], [-60.81352673527139, 45.966305051046476], [-60.813550747200125, 45.966348209558376], [-60.81358970213496, 45.96637505695756], [-60.81368316501635, 45.96640907704244], [-60.81369149981742, 45.96641210776326], [-60.81376963367394, 45.966421748748516], [-60.813846919877776, 45.96643128345145], [-60.81394444839381, 45.96646957541581], [-60.81396258632583, 45.966476699988704], [-60.81398127172487, 45.96648467209247], [-60.814090796358855, 45.966531357056084], [-60.81414135927954, 45.96655842639795], [-60.8141670280159, 45.96659492002791], [-60.81418015335313, 45.966622173018884], [-60.814179312034504, 45.96667602557312], [-60.814152552686934, 45.96676564563003], [-60.814086758673554, 45.966859946077676], [-60.81403356250884, 45.966936189328045], [-60.8140266389447, 45.96694616451876], [-60.81402124660406, 45.966953963862295], [-60.81398255435642, 45.96695322340972], [-60.813892341366504, 45.96691727663557], [-60.81384303727531, 45.966900194952444], [-60.81384012129092, 45.96689918508055], [-60.81378911347073, 45.966916210081635], [-60.813763601910495, 45.966945576840786], [-60.81374990567872, 45.96696136279467], [-60.813749779483025, 45.96699736281954], [-60.81381324043246, 45.96702467016097], [-60.81398076078061, 45.96709718984402], [-60.81414731070921, 45.96716158116087], [-60.81419845613914, 45.96720666284016], [-60.814222276895855, 45.96725863814307], [-60.81422341737526, 45.967261144134426], [-60.8142247244604, 45.967263680315575], [-60.81426060373937, 45.9673329605055], [-60.8142605800206, 45.96743196675494], [-60.8142462668525, 45.96746769531312], [-60.81423924648178, 45.96747980180796], [-60.81421996946558, 45.96751309522147], [-60.814189398907246, 45.96753817998568], [-60.814154612537905, 45.96756674831076], [-60.81410323735598, 45.967592767030624], [-60.814081623714166, 45.96760015695652], [-60.81405090252626, 45.967610666814785], [-60.81396113059787, 45.96762875019643], [-60.81395644630147, 45.967628723555734], [-60.81389660734202, 45.96762841543719], [-60.81376700156021, 45.96760883382615], [-60.813419439022624, 45.96755267794039], [-60.81332980638191, 45.96753476105458], [-60.81312416135844, 45.96747952076358], [-60.81304709487304, 45.96746994477784], [-60.813000902406785, 45.967476107875775], [-60.81298223060901, 45.9674786035822], [-60.812938434108055, 45.96750095062058], [-60.8129295298145, 45.96750549645551], [-60.812852563884626, 45.96755892653002], [-60.812816190925936, 45.967608102466734], [-60.81279939487535, 45.967630813425004], [-60.81275793928844, 45.967677947891424], [-60.812681838184496, 45.967764471648294], [-60.81264250194623, 45.96784562395383], [-60.81262000512383, 45.96791738704811], [-60.81261445469403, 45.96793509296761], [-60.81256332039431, 45.968014291204184], [-60.81256222057798, 45.9680159982601], [-60.8124963802357, 45.968114644185086], [-60.8123969023017, 45.968199540995876], [-60.81239220079044, 45.96820355523465], [-60.812301237533326, 45.96828461875576], [-60.81229556988746, 45.96828891150734], [-60.812184159723465, 45.96837328258575], [-60.812118031525124, 45.968431366033904], [-60.81209190610683, 45.968454321224584], [-60.81201368808833, 45.968570938018075], [-60.812000381292506, 45.96861547916117], [-60.811986787363494, 45.968668619383884], [-60.81198663464807, 45.96866921949944], [-60.81197241918518, 45.96876795389554], [-60.811972846026904, 45.96876989720228], [-60.811984481032475, 45.96882218858371], [-60.81201002195196, 45.96889468266982], [-60.81204768807789, 45.96892150589746], [-60.812084855410774, 45.96893838288786], [-60.81208699830423, 45.96893935999543], [-60.8120920291118, 45.96894009539709], [-60.81215115586915, 45.968948689379445], [-60.81233180971294, 45.96895034920387], [-60.812378386994524, 45.96896689327864], [-60.81238272813685, 45.96896842551427], [-60.81238357381109, 45.968969566785816], [-60.81239620733726, 45.96898668487036], [-60.81247184602658, 45.96903223637842], [-60.812665887941286, 45.96908725564269], [-60.812703200339, 45.969123072486596], [-60.81278816145442, 45.96917511171745], [-60.81279268591232, 45.96917788953124], [-60.81279715393717, 45.96917947818414], [-60.81287033619128, 45.9692054780757], [-60.81302470132059, 45.96925163648917], [-60.81316594128712, 45.96927054160157], [-60.81322566591604, 45.969270847912284], [-60.81323046643102, 45.969270876807656], [-60.813241213412866, 45.96926903940611], [-60.813386410243695, 45.969244160035956], [-60.813507059570284, 45.969194941003806], [-60.813514969791854, 45.96919171718744], [-60.813517768084026, 45.9691898176183], [-60.81356801308607, 45.96915582999758], [-60.81358952434503, 45.96913728645796], [-60.813620107654124, 45.96911092401689], [-60.81368489810813, 45.969039259186665], [-60.81375131929178, 45.968958624922486], [-60.81380332484399, 45.96885071290143], [-60.81384343437722, 45.96881547810738], [-60.813880388974425, 45.968796122996], [-60.81389483332936, 45.96878855990189], [-60.81390543522545, 45.96878548657792], [-60.81398492573788, 45.96876238215947], [-60.81401905101573, 45.96875653677384], [-60.81403690643728, 45.96875347623805], [-60.81408817921783, 45.96876255796124], [-60.814114202832144, 45.968790057773276], [-60.81412626678357, 45.96884429227261], [-60.814116224095415, 45.9688718579702], [-60.814113242918566, 45.968880045478954], [-60.814086841181606, 45.96896054571964], [-60.81405860489066, 45.9689922185548], [-60.81400716860685, 45.969049927196195], [-60.81398786436946, 45.969083238043766], [-60.813980857331636, 45.96909532677404], [-60.81389479963479, 45.969162948518544], [-60.81389028422588, 45.96916649834846], [-60.81383746892437, 45.9692293918722], [-60.81381071260185, 45.96931888586614], [-60.813798039283604, 45.96942737964659], [-60.813797072391544, 45.969435875715455], [-60.81379589334246, 45.96949862338084], [-60.81380832436891, 45.96954385532638], [-60.8138333994968, 45.96956233643971], [-60.81388525479584, 45.96958943061354], [-60.813961844264696, 45.96964399992976], [-60.81400044767963, 45.96967984105157], [-60.814012402321715, 45.96972340774532], [-60.81401286565662, 45.969725081724235], [-60.814011197552524, 45.969833057076386], [-60.81398455440378, 45.96988655084464], [-60.81395189817678, 45.969924907520735], [-60.813892541480264, 45.96999459734448], [-60.81386626503655, 45.970039097496134], [-60.813865382207624, 45.97004053869861], [-60.81382763680146, 45.970102262520534], [-60.8138133226052, 45.97013799099158], [-60.813813196367505, 45.97017399099848], [-60.81382561428686, 45.970219231687096], [-60.81386421799838, 45.9702550728572], [-60.81396611169692, 45.970355129463286], [-60.814004146639604, 45.97037295848969], [-60.81402958907792, 45.97038244598089], [-60.814159349918036, 45.97036512776273], [-60.814275276596724, 45.97033854408284], [-60.814279161787624, 45.97033854641911], [-60.814326904806805, 45.97033863189038], [-60.81440491105459, 45.97035723458938], [-60.81445499816176, 45.97042928869407], [-60.81447996098377, 45.9704837699341], [-60.81449237384648, 45.97052915446023], [-60.814491545883946, 45.9705829982398], [-60.814478498051685, 45.97070037750609], [-60.81447756233946, 45.970708739166504], [-60.81443755365621, 45.970806989338094], [-60.81442523438011, 45.97082384578031], [-60.81439798994608, 45.970861127044344], [-60.814374462028006, 45.970883016373435], [-60.8143591336721, 45.970897286063845], [-60.814321825341864, 45.97091903771873], [-60.814267976434216, 45.97095043653539], [-60.814216095306094, 45.97102235769913], [-60.81412326934824, 45.97118349237631], [-60.81409733357196, 45.97121899848839], [-60.81404488335168, 45.97127289847286], [-60.81400853846131, 45.97129771066561], [-60.81396662326876, 45.97132630450796], [-60.81394862406644, 45.97132938928283], [-60.81391464013556, 45.97133521035031], [-60.8138583155659, 45.97135078353521], [-60.81385069437423, 45.97135288783068]]}, "properties": {"OBJECTID": 134568, "FEAT_CODE": "WALK20", "FEAT_DESC": "Lake - Water to the right line", "RIVNAME_1": " ", "RIVNAME_2": " ", "ZVALUE": 3.2, "FID": null, "SHAPE_Length": 1388.7551856793973}}, {"type": "Feature", "id": 134569, "geometry": {"type": "LineString", "coordinates": [[-60.81385069437423, 45.97135288783068], [-60.81381164503957, 45.971361141094484], [-60.81369584234889, 45.971351724258845], [-60.813682570867265, 45.97134980513614], [-60.81350203202528, 45.97132371302103], [-60.8134199271224, 45.971322960456284], [-60.813411707638856, 45.97132288412435], [-60.813387599304896, 45.97132835403734], [-60.81333486331373, 45.97134031441035], [-60.81324844541172, 45.971379927875006], [-60.813178445640546, 45.97141202505971], [-60.813151006827425, 45.971423398564255], [-60.81311413252994, 45.97143869569911], [-60.812986465363224, 45.97148210056281], [-60.81290610754571, 45.97150941795971], [-60.81276331825857, 45.97156248770567], [-60.812711597370956, 45.97159749977325], [-60.81269140977372, 45.97162074880206], [-60.812672411067645, 45.97164265250093], [-60.81264623406478, 45.971651151851304], [-60.812622972586546, 45.97164330792453], [-60.81262075587837, 45.971642563429796], [-60.812582768863805, 45.97162383480366], [-60.81257647639356, 45.97161383164395], [-60.812531747941215, 45.97154275240154], [-60.812476869517575, 45.97144818520317], [-60.81246889145604, 45.971434441508784], [-60.8124675170345, 45.97143197602443], [-60.81244357598025, 45.9713889536856], [-60.8123812012858, 45.97123564894556], [-60.81232458396658, 45.971163612883096], [-60.81231728226593, 45.971154328429506], [-60.81231076812694, 45.971142745903165], [-60.812266616770785, 45.97106424310373], [-60.81214055180612, 45.97085661483462], [-60.81208509756758, 45.97076948890891], [-60.81207734251765, 45.97075729756111], [-60.81206505331067, 45.97067605672827], [-60.81206637098258, 45.97057707530697], [-60.81205372751949, 45.9705048282909], [-60.812052952833746, 45.97050221227757], [-60.81202979457502, 45.97042426448738], [-60.81203040367909, 45.97034327070231], [-60.81204391094395, 45.97026252396902], [-60.8120582617354, 45.970225896359494], [-60.812097083563735, 45.97019063751932], [-60.812129619237474, 45.97017208939867], [-60.812174989478336, 45.970146226579615], [-60.81227837269729, 45.97011040407622], [-60.81232734652064, 45.970093655821394], [-60.812330709164215, 45.97009250513942], [-60.812382655929746, 45.970084499382125], [-60.81251112670227, 45.9700671583313], [-60.8125276078813, 45.97006721292645], [-60.81267890860923, 45.970067671043104], [-60.81280721695734, 45.97008722903365], [-60.812873467575194, 45.97009883923553], [-60.812911054353826, 45.970105418289805], [-60.81292430664851, 45.97009667141754], [-60.812923760288584, 45.97009513985433], [-60.81291153533277, 45.97006042446883], [-60.812873400487334, 45.9699795889212], [-60.8128230103409, 45.96991561985717], [-60.812796597277824, 45.96989801296515], [-60.812707337808064, 45.96987020207946], [-60.81268131724935, 45.96984263000451], [-60.812681795570754, 45.96979770813647], [-60.81272251455913, 45.96968147995106], [-60.81272347678772, 45.96959149230947], [-60.81269922444399, 45.969519023066226], [-60.812686807582395, 45.96947378226922], [-60.812584148168156, 45.969392611114635], [-60.81251988990875, 45.96932027579762], [-60.81248261292547, 45.96928355951234], [-60.812414633281946, 45.96924410409229], [-60.81240563577815, 45.96923888244162], [-60.81236729657159, 45.96922913859677], [-60.812365397742006, 45.96922917423667], [-60.8123414649338, 45.96922955294723], [-60.81212912041278, 45.96921941063029], [-60.81212115835166, 45.96921903311485], [-60.81210730252554, 45.969221476910626], [-60.81207046673132, 45.969227962854795], [-60.81201125248082, 45.969253038427475], [-60.811966766177974, 45.96927187964083], [-60.811948897588586, 45.969274939600616], [-60.81191478469298, 45.96928078460461], [-60.811759938581815, 45.96927961851181], [-60.811721563680244, 45.96927078282753], [-60.81169748665586, 45.96924533589782], [-60.811695541054426, 45.96924328248964], [-60.81169624974379, 45.96922529485131], [-60.81172230072659, 45.969153789050644], [-60.81172231780585, 45.96915270030433], [-60.81172278263189, 45.96910879524482], [-60.81171055720866, 45.969074115717824], [-60.81171001230881, 45.969072548174054], [-60.81169817744764, 45.96904531963005], [-60.81168852339061, 45.96903448696694], [-60.811609175186234, 45.968945507944916], [-60.811583117327594, 45.968918906965584], [-60.811365902902004, 45.968764435185015], [-60.81130292383333, 45.96869212368243], [-60.81123878301454, 45.96858378745029], [-60.81120150737015, 45.96854707076652], [-60.8110480751922, 45.96841182173096], [-60.811035863228106, 45.96837714238527], [-60.81103530545582, 45.96837557459141], [-60.81104797636631, 45.96834882457706], [-60.8111138198981, 45.9682501705482], [-60.811125905590494, 45.96819634447974], [-60.81112790879069, 45.96818743626009], [-60.811129001411025, 45.96806144867095], [-60.81115596604517, 45.967998205052325], [-60.81119555290639, 45.96794481593952], [-60.81123874153213, 45.967828518563145], [-60.811248979958556, 45.96780092986166], [-60.81130142944166, 45.967747031120616], [-60.81130632737523, 45.967740653529724], [-60.81131504869187, 45.96772929085408], [-60.81132803074975, 45.9676936541659], [-60.811327417486794, 45.96769218431679], [-60.81131494989014, 45.967666284694175], [-60.81127634959375, 45.96763044270904], [-60.81123836574372, 45.96761171368085], [-60.81117397046236, 45.967575377395534], [-60.81112268639808, 45.9675662941433], [-60.81099365308371, 45.967565621631415], [-60.81089114629606, 45.967546556056256], [-60.81088518444863, 45.967546522807446], [-60.81082662321819, 45.96754621956459], [-60.81066804888387, 45.96760046929303], [-60.810644759815276, 45.967608438498495], [-60.81059300595166, 45.967644349052826], [-60.810557745527014, 45.967676381432646], [-60.81055418467243, 45.967679616404965], [-60.81054537800661, 45.96768167975698], [-60.81051510239542, 45.96768875897176], [-60.81047676424963, 45.96767902350875], [-60.81039921025762, 45.9676163327927], [-60.810392935210736, 45.967611802210286], [-60.81033520553642, 45.967570102849024], [-60.81026573045003, 45.967513012274914], [-60.81025894160657, 45.96750743676556], [-60.81024106949888, 45.9674981565544], [-60.81011854494312, 45.9674345405501], [-60.81001594138473, 45.967352468061016], [-60.80993877843243, 45.967279883853365], [-60.809820588335974, 45.96712796463312], [-60.809812246960924, 45.9671172469823], [-60.809723215641945, 45.96701833329344], [-60.80971967350936, 45.967012910011455], [-60.80963434896248, 45.96688252018538], [-60.8095979995565, 45.96683087971228], [-60.809596459607604, 45.96682869003622], [-60.809593039093926, 45.96682542022829], [-60.80952058764966, 45.96675613029412], [-60.809392510805694, 45.96666546819842], [-60.80916055229711, 45.966457479778946], [-60.80914942027342, 45.966447491608484], [-60.809147779430035, 45.96644557000945], [-60.8091111898451, 45.96640265536388], [-60.80909911835611, 45.96634842016332], [-60.809075355969284, 45.966230956444804], [-60.8090659894499, 45.96621449468597], [-60.80904999714496, 45.96618636705676], [-60.80904461643003, 45.966182402589865], [-60.80903746758429, 45.9661771261222], [-60.80890696141107, 45.96614090658135], [-60.80887021723894, 45.966130715116684], [-60.808852496817195, 45.96612284169044], [-60.808664724460414, 45.966039467237756], [-60.808588109687484, 45.96598579390038], [-60.80842253888624, 45.96583140710661], [-60.8084090617372, 45.96581314730933], [-60.80830628559496, 45.965767972457606], [-60.808215046446335, 45.96567835784095], [-60.80820441039162, 45.96566791106138], [-60.80820157915899, 45.965665084547425], [-60.808141083991515, 45.96560459171947], [-60.80812796186549, 45.96557733808748], [-60.80812809166793, 45.96554133812593], [-60.808129244229555, 45.9655405861891], [-60.808167834493965, 45.965515098884204], [-60.80829766149126, 45.96541833118632], [-60.808311464466755, 45.96540804730444], [-60.808414615898926, 45.965345221996365], [-60.808581469546176, 45.96527696725535], [-60.8086100807363, 45.965265266308805], [-60.808817458671165, 45.965177438257115], [-60.808947350853785, 45.965124126030055], [-60.809206399296784, 45.96503548824493], [-60.80936170415834, 45.964991663547686], [-60.809376969889335, 45.964989445136865], [-60.809542154582466, 45.96496542200168], [-60.80957554852801, 45.96495418155266], [-60.80962063542783, 45.96493902502945], [-60.8098658499836, 45.96484111986221], [-60.80988122956767, 45.964835357325086], [-60.809982440606085, 45.964797452096406], [-60.81012341884904, 45.96474770830331], [-60.81033321747056, 45.96467366784002], [-60.810464432225544, 45.96461096459592], [-60.81050159355326, 45.964593198639065], [-60.81055628267174, 45.96457050327143], [-60.810565887273235, 45.96456652008036], [-60.81056978808923, 45.96456546077046], [-60.8106311158015, 45.964548869017044], [-60.81081549289678, 45.96451201699038], [-60.810889995555726, 45.964497126693296], [-60.81089573782996, 45.96449715573433], [-60.81095451509358, 45.96449746308578], [-60.81140422396928, 45.964679792148424]]}, "properties": {"OBJECTID": 134569, "FEAT_CODE": "WALK20", "FEAT_DESC": "Lake - Water to the right line", "RIVNAME_1": " ", "RIVNAME_2": " ", "ZVALUE": 3.2, "FID": null, "SHAPE_Length": 1390.994724777745}}, {"type": "Feature", "id": 136571, "geometry": {"type": "LineString", "coordinates": [[-60.81305414447472, 45.980435445112334], [-60.81305379021146, 45.98044443892195], [-60.81302720548277, 45.98056183770939], [-60.8130143072787, 45.98060872686943], [-60.81300010035178, 45.98066032528288], [-60.812972296712026, 45.980715254613116], [-60.81295950010951, 45.980740553292016], [-60.81290851937429, 45.98082767500537], [-60.812906899461815, 45.980830452174715], [-60.81290699954293, 45.98089345823088], [-60.81297153854136, 45.98089378483083], [-60.81306081531822, 45.98092160477381], [-60.81308218380391, 45.98092909733411], [-60.813163964438004, 45.980957781750796], [-60.81336870708671, 45.98101129441115], [-60.813446377094714, 45.98103159239281], [-60.81357639061736, 45.98104128144432], [-60.81361543360113, 45.98104156070335], [-60.8139506746533, 45.98104394446318], [-60.8140533820237, 45.98102610863519], [-60.81430897413082, 45.98097712186617], [-60.814416320580484, 45.980956548289846], [-60.814451227775386, 45.980947756542534], [-60.81451933338221, 45.98093061735459], [-60.814739620225595, 45.980877227907705], [-60.8149200591353, 45.98085187769955], [-60.81504950328304, 45.98084355299996], [-60.815214535075846, 45.98084424335581], [-60.81523021856899, 45.98084430930188], [-60.81538545106623, 45.9808364774429], [-60.815412758755066, 45.980829529195155], [-60.81559280073518, 45.980783738991235], [-60.815685068813075, 45.98077657478146], [-60.815695105023465, 45.980775794628414], [-60.815711924092014, 45.98077226398497], [-60.815903377546945, 45.98073207385025], [-60.81602192736302, 45.9807184364132], [-60.816057721664436, 45.98071432344134], [-60.81613272005067, 45.98070704471005], [-60.81640634038318, 45.98068048535731], [-60.81651297190673, 45.980673460034005], [-60.81652282217517, 45.98067281126284], [-60.816539412935064, 45.98067212932083], [-60.81671680420931, 45.98066481820759], [-60.816857668070355, 45.980674683900425], [-60.816858427792674, 45.98067473442231], [-60.816910419657454, 45.9806658184077], [-60.81697437499076, 45.98064814840923], [-60.81716988343909, 45.98056816102612], [-60.81722408295311, 45.980547091253555], [-60.81726033404895, 45.98053299597727], [-60.81731738200951, 45.98052682256327], [-60.81733813945942, 45.98052458201294], [-60.81744141493737, 45.98052475517404], [-60.81757013808075, 45.980534415022525], [-60.81764722351206, 45.980543988273894], [-60.817668030657146, 45.9805368702927], [-60.81769956794532, 45.9805260960459], [-60.81774500735495, 45.98050683880067], [-60.81780328585937, 45.98048216543578], [-60.81785101384659, 45.98047398659227], [-60.81785527705319, 45.980473257978666], [-60.817859930980745, 45.980474084930414], [-60.817906548021234, 45.98048234692231], [-60.81794490957502, 45.98049207130479], [-60.8180093241003, 45.980528404042815], [-60.818034100275895, 45.98055497901617], [-60.81809835550234, 45.980628220083204], [-60.81813603274982, 45.98065503245257], [-60.81820077522107, 45.980682370754565], [-60.81821334823079, 45.980691611486925], [-60.81823836725903, 45.980745192825104], [-60.818262352454965, 45.98077054656133], [-60.81826438546211, 45.980772691528486], [-60.81830273438112, 45.98078241554862], [-60.818303637779124, 45.98078176675888], [-60.8183160234482, 45.98077277770607], [-60.818380200225405, 45.98074387841286], [-60.81843299505756, 45.980720108064716], [-60.81844589570768, 45.98072035443806], [-60.81845487259645, 45.9807169616417], [-60.8184707953186, 45.98071093831141], [-60.81851046928409, 45.980719796508424], [-60.81859927229194, 45.98079259702032], [-60.81869108599164, 45.980865994988264], [-60.81870192618643, 45.980874653541356], [-60.81871297383572, 45.980881317923796], [-60.81879145880546, 45.98092856659434], [-60.81882910090788, 45.98095628712154], [-60.818855167737425, 45.98098288655838], [-60.8188673617947, 45.98100112057236], [-60.81886723855041, 45.98103712057922], [-60.81880174632437, 45.98112677601101], [-60.81864520643962, 45.981233594039345], [-60.818637685329335, 45.981238049717874], [-60.81855400015035, 45.98128765599042], [-60.81839874941686, 45.98139449829784], [-60.818306747496784, 45.981501648333754], [-60.8182418608469, 45.98158998291838], [-60.81818807756928, 45.98166319253519], [-60.81817992952298, 45.98168721249061], [-60.81814863742889, 45.981779446884424], [-60.81810931132872, 45.98186060109929], [-60.8179772617458, 45.98206689245822], [-60.81795039935649, 45.98209338110238], [-60.817950977347174, 45.98211119530768], [-60.81795176623166, 45.98211543165304], [-60.8179757058775, 45.982237873923026], [-60.81798654746909, 45.98237855320007], [-60.817986821381126, 45.98238209566349], [-60.81799774298984, 45.98249840287206], [-60.81799770428414, 45.982499059175645], [-60.81798099259801, 45.98276000902395]]}, "properties": {"OBJECTID": 136571, "FEAT_CODE": "WALK20", "FEAT_DESC": "Lake - Water to the right line", "RIVNAME_1": " ", "RIVNAME_2": " ", "ZVALUE": 2.7, "FID": null, "SHAPE_Length": 780.9200212058336}}, {"type": "Feature", "id": 136572, "geometry": {"type": "LineString", "coordinates": [[-60.81798099259801, 45.98276000902395], [-60.817969938565966, 45.98281426942987], [-60.81796821012861, 45.982822768970784], [-60.81795450815594, 45.982876402756624], [-60.81792761530565, 45.98290299881788], [-60.81783734213213, 45.982966078599034], [-60.81782444096565, 45.982965832147755], [-60.817794878532496, 45.98296902965604], [-60.81774665798334, 45.98297424687314], [-60.81765594800814, 45.982982414581826], [-60.81761720914689, 45.9829825745453], [-60.81747488491002, 45.982990656072154], [-60.81741068439547, 45.982981328901076], [-60.81734685040431, 45.982963008109444], [-60.817179542607114, 45.98291660837125], [-60.81713077345658, 45.98289670320512], [-60.81708932364762, 45.982879782073155], [-60.817062400901875, 45.98287133807125], [-60.81697326718252, 45.98284336199642], [-60.816844892506765, 45.982824707556375], [-60.81683147961375, 45.982823029119956], [-60.81676780443445, 45.98281512471904], [-60.816728711647194, 45.98282428720503], [-60.8166256431594, 45.982859120647376], [-60.816560447790046, 45.982867874164675], [-60.81649590675463, 45.98286754055769], [-60.81643207321372, 45.98284921926214], [-60.816417866123956, 45.98284180122182], [-60.81638021738169, 45.98282212630608], [-60.8163132489394, 45.98275812103652], [-60.81630430240059, 45.98274957046361], [-60.81630133733759, 45.98274748864986], [-60.81627791727006, 45.982731073895884], [-60.816223582609254, 45.9827154722352], [-60.81621408431466, 45.98271274348835], [-60.81618824674906, 45.98271314960243], [-60.81609719612058, 45.98273031014809], [-60.81598018269449, 45.98278387664679], [-60.81591622422543, 45.9828015550265], [-60.81574737744539, 45.98282712846648], [-60.8157095749597, 45.982836306275196], [-60.81564397236313, 45.982862953652194], [-60.81561328895653, 45.98287987305815], [-60.81557929303163, 45.98289861923495], [-60.81547343415512, 45.98297087672622], [-60.8154625551033, 45.982978301176864], [-60.81537679732303, 45.98302400422521], [-60.81534518698664, 45.983040851828264], [-60.815279812288125, 45.98309450511798], [-60.815227692947715, 45.98313940230198], [-60.81520153627644, 45.98314791161942], [-60.815150124383926, 45.98317483012337], [-60.81504581753251, 45.9832007368722], [-60.81502024332122, 45.98322724946409], [-60.81499357173473, 45.98328164288174], [-60.81498019070797, 45.98332638986886], [-60.814980116100465, 45.98333287786547], [-60.81497743762872, 45.98356035248344], [-60.814964410506526, 45.98359610564911], [-60.8149508012281, 45.98361384650294], [-60.81493751053872, 45.98362349292066], [-60.81461458411655, 45.983692929344876], [-60.814497339684934, 45.98371947913806], [-60.81443337968504, 45.98373715665691], [-60.81430310712733, 45.98379946833503], [-60.81415169846106, 45.983902778122314], [-60.81414655073054, 45.98390628885457], [-60.81406933526424, 45.983932704107886], [-60.814005020736, 45.98395937518935], [-60.8139006764837, 45.983986180233984], [-60.81384907100639, 45.983985192625795], [-60.81379850557374, 45.98395812319656], [-60.81376200269346, 45.98393755129019], [-60.81373407709327, 45.98392178783502], [-60.81367463877989, 45.98388660101453], [-60.81365711446291, 45.98387621195203], [-60.81365398421892, 45.98387176875449], [-60.81361921016616, 45.983822383008935], [-60.81359846382587, 45.983777099995095], [-60.81359424267961, 45.98376790160691], [-60.8135974825713, 45.98348894540487], [-60.813624601115, 45.98339045798769], [-60.813638109942175, 45.98330971125286], [-60.813638122598135, 45.98330840640984], [-60.813638577939514, 45.98326471727022], [-60.81361118130899, 45.98323192579406], [-60.81360036816978, 45.983218982998], [-60.81357854720805, 45.983188206357056], [-60.813511078129686, 45.983093056826135], [-60.813487300158094, 45.982975603044274], [-60.81346654167048, 45.98293031076708], [-60.81346233315237, 45.98292112161504], [-60.81343328651769, 45.982882043101824], [-60.81334830408669, 45.98276772900359], [-60.8132463412349, 45.98266857079425], [-60.81316986196897, 45.98257800087948], [-60.81306203218717, 45.98238263989479], [-60.813055379916726, 45.98237059575772], [-60.81287970997555, 45.98204501133371], [-60.81287504923106, 45.98203550748002], [-60.81280440940426, 45.98189145960146], [-60.81274485177252, 45.98179972829062], [-60.812739910247316, 45.981792109178656], [-60.81263901291361, 45.98166597804025], [-60.8126312617921, 45.981657252054596], [-60.81257472806318, 45.981593642395865], [-60.81251102472751, 45.9815393190313], [-60.812422228720635, 45.98146651391589], [-60.81196260145545, 45.98104098355151]]}, "properties": {"OBJECTID": 136572, "FEAT_CODE": "WALK20", "FEAT_DESC": "Lake - Water to the right line", "RIVNAME_1": " ", "RIVNAME_2": " ", "ZVALUE": 2.7, "FID": null, "SHAPE_Length": 787.3987327629055}}, {"type": "Feature", "id": 136573, "geometry": {"type": "LineString", "coordinates": [[-60.81196260145545, 45.98104098355151], [-60.81195066514349, 45.98095074900251], [-60.81192682896835, 45.98090792664329], [-60.81192534604428, 45.980905261064805], [-60.81189962418385, 45.98086966605703], [-60.81189997863925, 45.98086067225501], [-60.81191270316139, 45.98085228442573], [-60.811913246619575, 45.980851925811386], [-60.811926856145824, 45.98083418531681], [-60.81195514435286, 45.980820713247354], [-60.8119650122794, 45.98081601494146], [-60.81210853526165, 45.980744959107085], [-60.812379972007804, 45.98063855033464], [-60.81238506135099, 45.980637171702696], [-60.81244521906994, 45.98062089860957], [-60.81250259079595, 45.98060423011117], [-60.81253533152801, 45.98059472241761], [-60.81271794499438, 45.98051450472038], [-60.812925422533695, 45.98042578019186], [-60.81305414447472, 45.980435445112334]]}, "properties": {"OBJECTID": 136573, "FEAT_CODE": "WALK20", "FEAT_DESC": "Lake - Water to the right line", "RIVNAME_1": " ", "RIVNAME_2": " ", "ZVALUE": 2.7, "FID": null, "SHAPE_Length": 124.53061367112538}}, {"type": "Feature", "id": 194378, "geometry": {"type": "LineString", "coordinates": [[-60.816972669375524, 45.97665274331193], [-60.81684360173375, 45.97665207678506], [-60.816839153121826, 45.976651289717346], [-60.81679232157205, 45.9766429871784], [-60.8166637188997, 45.976597335353205], [-60.816602817135454, 45.97657160866879], [-60.81659896900789, 45.97656999601382], [-60.816594178884074, 45.976567060266916], [-60.816509480467005, 45.976515190977686], [-60.816424688487565, 45.97647194240812], [-60.81641961334218, 45.97646936122936], [-60.816384365246776, 45.97645308940305], [-60.81634226985138, 45.97643367147153], [-60.816214512838144, 45.97633404072295], [-60.81599784014875, 45.97619757153151], [-60.81588265292791, 45.97610627226781], [-60.81584441061603, 45.97606143813142], [-60.815730387919274, 45.97590805685504], [-60.81564126471246, 45.975745232942124], [-60.815566205791654, 45.97561868930057], [-60.815517986338854, 45.97547931998746], [-60.81551636369187, 45.975474626646914], [-60.81550844697371, 45.97545075867505], [-60.81546558571024, 45.975321545471914], [-60.815428906968314, 45.975203845244074], [-60.81541680555861, 45.97515050128043], [-60.81536712496334, 45.97496953918374], [-60.815356107027334, 45.97479021654656], [-60.81534607352271, 45.97461901327011], [-60.815346665162046, 45.97453801919026], [-60.81530927983615, 45.97443829759443], [-60.81527997511629, 45.97439174406383], [-60.81525823955295, 45.974357216083284], [-60.81525158898829, 45.97434776426448], [-60.815220352742635, 45.974303387923314], [-60.81518284233158, 45.9742396662895], [-60.81514931512419, 45.97417707389862], [-60.81514436055689, 45.97416782552357], [-60.8150586213292, 45.973951584265095], [-60.815031622863124, 45.97388350034044], [-60.81499404387747, 45.97378872525635]]}, "properties": {"OBJECTID": 194378, "FEAT_CODE": "WARV50", "FEAT_DESC": "River - Single Line", "RIVNAME_1": " ", "RIVNAME_2": " ", "ZVALUE": 9999, "FID": null, "SHAPE_Length": 376.4375257165131}}, {"type": "Feature", "id": 194379, "geometry": {"type": "LineString", "coordinates": [[-60.81393303057344, 45.98037756304031], [-60.81377178223231, 45.98037688923623], [-60.81375230399958, 45.98037680446632], [-60.81374273023862, 45.98037633321642], [-60.813544879216636, 45.98036653399637], [-60.813485725955715, 45.980373052252645], [-60.813468363601515, 45.980374970063664], [-60.81323493684608, 45.98040110374263], [-60.81305414447472, 45.980435445112334]]}, "properties": {"OBJECTID": 194379, "FEAT_CODE": "WARV50", "FEAT_DESC": "River - Single Line", "RIVNAME_1": " ", "RIVNAME_2": " ", "ZVALUE": 9999, "FID": null, "SHAPE_Length": 68.95907261185317}}, {"type": "Feature", "id": 194380, "geometry": {"type": "LineString", "coordinates": [[-60.81196260145545, 45.98104098355151], [-60.81196245848475, 45.98104100781476], [-60.81196152254763, 45.98104116989917], [-60.81194406615722, 45.98104415674759], [-60.81191062178048, 45.981049888545876], [-60.81160801363001, 45.98107251556885], [-60.81157524078417, 45.98107496591735], [-60.81156762257313, 45.98107564802268], [-60.8114845460964, 45.98108312901332], [-60.81138908129026, 45.98109865313387], [-60.8113805961667, 45.98110003866441], [-60.81137617950247, 45.98110170915816], [-60.81135569487852, 45.98110946221372], [-60.81129932241249, 45.981120082882924], [-60.81126464554697, 45.981126618931505], [-60.81123189103834, 45.981136134997044], [-60.81117454455459, 45.981152794339586], [-60.811070900642925, 45.981161609040164], [-60.810859465309825, 45.98115181487885], [-60.810838936505725, 45.98115086342312], [-60.81079182183331, 45.98117094987119], [-60.810733874318586, 45.98119564400252]]}, "properties": {"OBJECTID": 194380, "FEAT_CODE": "WARV50", "FEAT_DESC": "River - Single Line", "RIVNAME_1": " ", "RIVNAME_2": " ", "ZVALUE": 9999, "FID": null, "SHAPE_Length": 98.35389185531844}}, {"type": "Feature", "id": 272992, "geometry": {"type": "LineString", "coordinates": [[-60.82071113964103, 45.97165499856212], [-60.820685695784206, 45.97164550353674], [-60.820682387138305, 45.9716439643146], [-60.82064767065632, 45.9716276769315], [-60.820577475847784, 45.971570110926194], [-60.82057012197194, 45.97156409322616], [-60.820557236328106, 45.971563847376316], [-60.82053374108583, 45.97155403847177], [-60.820403564132704, 45.97149971119946], [-60.820365879267534, 45.971472890389556], [-60.82032672185694, 45.971418139600345], [-60.82028918495195, 45.97135531917676], [-60.82028919021721, 45.971354527224186], [-60.82028966000158, 45.971310325227286], [-60.820265555784744, 45.97126703140438], [-60.82026433810806, 45.97126483902338], [-60.820262026561586, 45.97126321980892], [-60.820239211842775, 45.97124725841579], [-60.82022631337681, 45.97124701228381], [-60.82007110782848, 45.971254860219744], [-60.819800329874056, 45.97128028550708], [-60.819658010118786, 45.971288369819035], [-60.819502098542436, 45.97131419571064], [-60.81936188929836, 45.97133033047697], [-60.81934780739381, 45.97133195178063], [-60.81921873909249, 45.97133128791165], [-60.819212425565524, 45.97133165341154], [-60.819089378740074, 45.97133871886357], [-60.81896055359827, 45.97136506115437], [-60.81881777019582, 45.97141813858148], [-60.81878477211882, 45.97143633775105], [-60.818753119338766, 45.971453806549164], [-60.81862358728005, 45.971498136166865], [-60.81851997528032, 45.97150695823102], [-60.81851442787731, 45.97150819338047], [-60.81844184232399, 45.97152436734429], [-60.81829905803429, 45.97157744410532], [-60.81816917201354, 45.97163076704969], [-60.8181299825033, 45.971653114056856], [-60.81809126861624, 45.971675182116144], [-60.81807895359397, 45.97169293909098], [-60.81807895147707, 45.97169365009816], [-60.8180788297277, 45.9717289481367], [-60.818051265874736, 45.97177342464625], [-60.818033205857574, 45.971798758393184], [-60.818025309851365, 45.97180983131864], [-60.81800991572035, 45.97182579235348], [-60.81799974248551, 45.97183634474616], [-60.81792148529274, 45.97188975354031], [-60.81780449679025, 45.971943322442634], [-60.817675316268236, 45.97197865709618], [-60.81763963863322, 45.97199900088891], [-60.81759741198995, 45.97202307180745], [-60.81757685631592, 45.972031427667986], [-60.81753182322755, 45.972049720560435], [-60.81750950750166, 45.97205589163744], [-60.817467877712055, 45.97206740006995], [-60.8173898676262, 45.97204880840079], [-60.81733859088292, 45.9720397370947], [-60.817325692257896, 45.97203949063208], [-60.817170346632714, 45.972083316357526], [-60.817028279662416, 45.972118404029885], [-60.81699382172746, 45.97211854657589], [-60.81698954838872, 45.97211856391625], [-60.816977016172494, 45.97210932381411], [-60.816899701671375, 45.97207274389804], [-60.81686395284236, 45.972072888735745], [-60.81686095753214, 45.97207290349485], [-60.81685518865173, 45.972073531290455], [-60.81678316359882, 45.97208132635007], [-60.81664514870019, 45.972116436987235], [-60.81657588648161, 45.97213406837894], [-60.81656297494261, 45.9721338215833], [-60.816420894940876, 45.97216889925023], [-60.81640985147635, 45.972172684414225], [-60.81634369667637, 45.97219532539695], [-60.8163118232249, 45.9722075419478], [-60.816251956171826, 45.97223047408897], [-60.81619139055228, 45.97226690274798], [-60.81616203970338, 45.972284558843995], [-60.816153266659164, 45.972290349520144], [-60.816135547931154, 45.97230205357826], [-60.816134840602906, 45.97232004126016], [-60.81617364077179, 45.972383787257066], [-60.81622391292604, 45.97247815658877], [-60.81623613901653, 45.97250108983724], [-60.816236376965904, 45.97252753815501], [-60.81623638083703, 45.97252809626635], [-60.816223128455526, 45.972536843518434], [-60.816074490313106, 45.972630335294134], [-60.81605370981282, 45.97264341189774], [-60.81594961672976, 45.97269722544161], [-60.815884837607996, 45.9727688917365], [-60.81585797925413, 45.97279537099743], [-60.81581909679601, 45.97284859514415], [-60.81581841436149, 45.97284953615917], [-60.81581757023168, 45.9728509781161], [-60.81579213836335, 45.97289402774283], [-60.8157925957638, 45.9729480400984], [-60.815840948635476, 45.97300849462828], [-60.81584302631387, 45.97301113552874], [-60.815830016077214, 45.97304687116787], [-60.81579927217411, 45.97307334812399], [-60.81577790725788, 45.97309175985935], [-60.81576130114989, 45.97311422285047], [-60.81572473607013, 45.97316365701825], [-60.815697751993966, 45.9732261452417], [-60.81563273039361, 45.97327080494885], [-60.815610216840525, 45.973271157482905], [-60.81560691012422, 45.97327121125724], [-60.81557130596015, 45.973228605601676], [-60.81556869238471, 45.973225477416456], [-60.81556521929198, 45.97322385389614], [-60.815530667899054, 45.973207649122116], [-60.81547907237763, 45.973206662427465], [-60.8154272048414, 45.973215544166976], [-60.81541178614642, 45.97322980326598], [-60.81538823036926, 45.9732517282666], [-60.81533576648851, 45.973305628567445], [-60.81529623680004, 45.973358876157036], [-60.815278767025795, 45.97336719161566], [-60.81525809982964, 45.97337704802535], [-60.815231935272195, 45.97338554820514], [-60.81519739642647, 45.9733693525712], [-60.81519391079107, 45.97336771979913], [-60.81518277670828, 45.97336067538773], [-60.81507803618009, 45.97329439873025], [-60.81504292028352, 45.97328631055407], [-60.81503965795822, 45.97328556410758], [-60.81502675906375, 45.97328531738035], [-60.81464050127395, 45.97330123100747], [-60.814638872474035, 45.97330128985255]]}, "properties": {"OBJECTID": 272992, "FEAT_CODE": "WARV50", "FEAT_DESC": "River - Single Line", "RIVNAME_1": "Nashs Brook", "RIVNAME_2": " ", "ZVALUE": 9999, "FID": null, "SHAPE_Length": 643.7850574066678}}, {"type": "Feature", "id": 311007, "geometry": {"type": "LineString", "coordinates": [[-60.814638872474035, 45.97330128985255], [-60.814657194249605, 45.973340540967996], [-60.814657860669506, 45.97334197581232], [-60.81466387170296, 45.97335488066402], [-60.81472779626872, 45.973436208938274], [-60.814774056550405, 45.97346945106989], [-60.81477926627978, 45.97347319597557], [-60.81478855499059, 45.97347858501625], [-60.81485625114077, 45.97351787155486], [-60.81512489658865, 45.973645418416034], [-60.815160332524606, 45.97367917340015], [-60.815163468071894, 45.97368215856789], [-60.81516504499714, 45.9736844028769], [-60.81518914060927, 45.973718651996734], [-60.815189019801714, 45.973753878036895], [-60.81518901516991, 45.973754651999954], [-60.815175054299154, 45.97378139578017], [-60.81512402792105, 45.97379841201196], [-60.815117639724335, 45.973798370830345], [-60.81505951036478, 45.9737980780283], [-60.815034491915426, 45.97379450327766], [-60.814998664873976, 45.97378938968562], [-60.81499404387747, 45.97378872525635]]}, "properties": {"OBJECTID": 311007, "FEAT_CODE": "WACORV20", "FEAT_DESC": "Coast River - Water to the right line", "RIVNAME_1": "Nashs Brook", "RIVNAME_2": " ", "ZVALUE": 0.2, "FID": null, "SHAPE_Length": 86.55369193623964}}]}