{"type": "FeatureCollection", "features": [{"type": "Feature", "id": 10608, "geometry": {"type": "LineString", "coordinates": [[-60.59170637430864, 46.256723649945584], [-60.591770149675554, 46.25677809571499], [-60.59177932938422, 46.25678328433764], [-60.59183473880775, 46.25681455804155], [-60.59188544939616, 46.256841727568215], [-60.59194068038774, 46.256867894302054], [-60.59204052854913, 46.25691519787273], [-60.59210459636724, 46.256933648503185], [-60.5923504581146, 46.25700813135772], [-60.59245306149578, 46.25703549400202], [-60.592556806833365, 46.25703677980757], [-60.59266098527646, 46.25702817433778], [-60.59284337582761, 46.25701132513064], [-60.592973048024994, 46.25701314773656], [-60.593020515562195, 46.25700504835518], [-60.59307632409866, 46.256995513601254], [-60.5932067067018, 46.25695146748976], [-60.5932341584272, 46.25694414346028], [-60.593272349473374, 46.25693394952606], [-60.593362622332336, 46.256916950279034], [-60.59341330780905, 46.25691744177278], [-60.593440441047704, 46.25691768921988], [-60.593459801138465, 46.25692151706719], [-60.59358323086929, 46.25694589720854], [-60.59368583479369, 46.25697325875548], [-60.59387905889923, 46.25706463036632], [-60.59389863114333, 46.257074285785855], [-60.59400860838064, 46.25712856012572], [-60.594107569768894, 46.25718283642596], [-60.59417586762311, 46.25722028453778], [-60.59445881179806, 46.25736664577718], [-60.59448025882372, 46.257376457567844], [-60.594638172303156, 46.2574487239578], [-60.594767201061416, 46.25749464133474], [-60.59494976617632, 46.257593652995794], [-60.59498648488039, 46.25761356042482], [-60.59500956102452, 46.25762588148014], [-60.59519189023311, 46.25772318673316], [-60.595208806831, 46.257728897917104], [-60.59521746311468, 46.25773182517688], [-60.59529419404638, 46.257786532615576], [-60.59533322637775, 46.257814363863325], [-60.595372943573835, 46.25783988743868], [-60.59546069683804, 46.25789623976148], [-60.59549131550646, 46.25791055549407], [-60.59557767952706, 46.25795091200275], [-60.595629334516204, 46.25797316757773], [-60.595641356555305, 46.257978352693726], [-60.595705820128, 46.25798780934727], [-60.59581047019095, 46.25799812050448], [-60.59587442428712, 46.257989556791536], [-60.59595949786149, 46.25798168938344], [-60.59605681765419, 46.257972693506936], [-60.596134244803935, 46.25798242264628], [-60.5962635653231, 46.25799234335937], [-60.59630308299264, 46.25798772048929], [-60.596407028780725, 46.25797556059677], [-60.59644657084644, 46.257981360509284], [-60.59647149249922, 46.25798501682074], [-60.596520147451635, 46.25799369047388], [-60.59652299273186, 46.25799420033527], [-60.596600930170645, 46.25802194044213], [-60.596633305924286, 46.258037921874624], [-60.59663903454576, 46.25804074244728], [-60.596641990195174, 46.25804199264966], [-60.59670402154627, 46.258068210096546], [-60.59683254331797, 46.25809611391538], [-60.59688443676955, 46.258096305261006], [-60.596890134787834, 46.258098342153446], [-60.596911267153054, 46.25810586979783], [-60.59705268764947, 46.25810614378205], [-60.59728638411755, 46.25816235959248], [-60.59775004677582, 46.258300803148224], [-60.59786661346372, 46.258365364591334], [-60.59805916869517, 46.25850171639773], [-60.59816032432379, 46.258592045383544], [-60.59822541765361, 46.25864651521951], [-60.598340715977756, 46.258710140485476], [-60.59848272719418, 46.258756335508494], [-60.59856360905942, 46.258775828898074], [-60.59863809593193, 46.25879379279442], [-60.59867280451613, 46.25879411719234], [-60.59871591751849, 46.25879452819394], [-60.59876758771084, 46.25879063686646], [-60.598818762919045, 46.25878678911571], [-60.598897769252005, 46.25878297714824], [-60.5989878017968, 46.25877864079031], [-60.59911380424855, 46.25879447373039], [-60.59914267254556, 46.258798095377536], [-60.599246566267624, 46.258825479007534], [-60.5994472222928, 46.25889291255344], [-60.599466518774555, 46.258899411123814], [-60.599477587556656, 46.258903855786], [-60.59967181991933, 46.25898201731636], [-60.59973845995822, 46.25899635055413], [-60.59980165479146, 46.25900994536542], [-60.59981064898359, 46.2590128703731], [-60.599943668465635, 46.259056129616646], [-60.59995663225784, 46.25905640190705], [-60.59996925431852, 46.25905796305767], [-60.600000512876534, 46.25906182369753], [-60.60011147825328, 46.25907585465709], [-60.60026171812628, 46.25909084533048], [-60.60039700998641, 46.25910435186317], [-60.60052554916498, 46.25913225187759], [-60.600613369303744, 46.25916375186667], [-60.600680135180255, 46.25918769948712], [-60.60082215048208, 46.25923387367598], [-60.60083153250593, 46.259236833746805], [-60.60093863032893, 46.25927052029476], [-60.60111835976102, 46.25934450474289], [-60.601247411576985, 46.259390415248646], [-60.60127306706962, 46.25939035980171], [-60.60128634246232, 46.25939033247289], [-60.60131305104155, 46.259394988265434], [-60.601339141282374, 46.259399541068994], [-60.60140650981248, 46.259447459638146], [-60.60155686507898, 46.25955441580614], [-60.60160876000956, 46.25955460503246], [-60.60169494927894, 46.25951852291289], [-60.60171317564972, 46.259510895215556], [-60.60185691432742, 46.25945811029092], [-60.60190829727499, 46.25944028809199], [-60.601973548242476, 46.259431757179556], [-60.60214254960601, 46.25942450342014], [-60.602245445937534, 46.25942513257559], [-60.60232416187492, 46.25942561427201], [-60.60241125467341, 46.25943425492182], [-60.60242752054267, 46.25943587425527], [-60.602517561628225, 46.25945397296926], [-60.602588133220586, 46.259460304785335], [-60.60263518030527, 46.25946454095874], [-60.60270109108839, 46.259474204022844], [-60.60276411366238, 46.25948344644553], [-60.603010313121615, 46.25952101223718], [-60.6032693498705, 46.259587656626664], [-60.60337217236013, 46.25961409599555], [-60.60371977170042, 46.25970689756237], [-60.60378251621111, 46.25972401782802], [-60.60388775781932, 46.259752721527406], [-60.60409514885994, 46.25981737201876], [-60.60427569484262, 46.259872459031016], [-60.60444287206231, 46.25993716578544], [-60.60448454260542, 46.2599570029512], [-60.60464410586256, 46.26003297113201]]}, "properties": {"OBJECTID": 10608, "FEAT_CODE": "WACO20", "FEAT_DESC": "Coast - Water to the right line", "RIVNAME_1": " ", "RIVNAME_2": " ", "ZVALUE": 0.4, "FID": null, "SHAPE_Length": 1117.1849267319562}}, {"type": "Feature", "id": 10708, "geometry": {"type": "LineString", "coordinates": [[-60.59788534667636, 46.24611061356277], [-60.59788562395878, 46.246111096407326], [-60.597884886123275, 46.24615591134368], [-60.59779121318982, 46.246280900167896], [-60.597751719824096, 46.24634753605802], [-60.597737995546204, 46.24637068427926], [-60.59773102500455, 46.246389492343624], [-60.59771152411394, 46.24644213007006], [-60.59771140314247, 46.246457671027976], [-60.59771124917823, 46.24647812545069], [-60.59771018873121, 46.24653210489683], [-60.59769695296313, 46.24656782778801], [-60.59764451805994, 46.246633147520434], [-60.59761738112343, 46.24666695808317], [-60.597523316240924, 46.24680088472829], [-60.597511259041305, 46.24681140456466], [-60.59743160772653, 46.24688085910176], [-60.5973770043525, 46.24692215634247], [-60.597313544999984, 46.24697017956123], [-60.59726330295919, 46.24701587059332], [-60.59723518967265, 46.24704143426881], [-60.59718145994942, 46.24711320676657], [-60.597126432964714, 46.24727405482318], [-60.597111428031155, 46.247409643649945], [-60.59709858451036, 46.247436374427764], [-60.59709197472469, 46.247440681571206], [-60.59708523061325, 46.24744509389295], [-60.59699131631965, 46.2474609034625], [-60.59698067803277, 46.24746269580102], [-60.596916226480204, 46.24745324008482], [-60.59689407190943, 46.24744336884993], [-60.59685260005748, 46.24742490107857], [-60.59676218724286, 46.247415799298], [-60.59675463958561, 46.24741692759487], [-60.59670995023587, 46.24742370091342], [-60.59665728098124, 46.247441493731586], [-60.59662051000488, 46.24746715416495], [-60.596618475878046, 46.247468578427274], [-60.59659775039974, 46.24748686309741], [-60.59644711163806, 46.247619778880974], [-60.59642087439426, 46.2476561281625], [-60.59640685152642, 46.247709834921274], [-60.59640469670752, 46.24780960279768], [-60.5964043478984, 46.247826786011984], [-60.59645381936266, 46.2479709312422], [-60.59649529818473, 46.248021602335534], [-60.59650554467618, 46.24803412125999], [-60.596506178973335, 46.24803474662172], [-60.59654285629829, 46.248070907238294], [-60.59655636695394, 46.248088291970674], [-60.59656354710845, 46.248121105044646], [-60.59656826646778, 46.248142543995094], [-60.59656762702621, 46.24819636126952], [-60.59656732202707, 46.24822352672443], [-60.59656083634031, 46.24823983383135], [-60.59655274965212, 46.24826012139088], [-60.59654029861735, 46.24827786007079], [-60.596510928408264, 46.24831435047727], [-60.59644701420815, 46.248393801647445], [-60.596381893202945, 46.24842932399058], [-60.59627749452634, 46.24847303832861], [-60.59622482412094, 46.248490830922286], [-60.5961738428426, 46.248499658738474], [-60.596156602103655, 46.24849578592509], [-60.59613401664494, 46.248490720633924], [-60.596108880199296, 46.24847219124162], [-60.59610935225701, 46.24841004518321], [-60.59610943229178, 46.24840020055177], [-60.596097257135376, 46.24838194383464], [-60.59607246813084, 46.24837030696386], [-60.59605912020972, 46.24836404095438], [-60.59602603316586, 46.248355856612015], [-60.5960193334353, 46.248354203609985], [-60.595968745320036, 46.248354039318], [-60.595954287479806, 46.248358919302134], [-60.59591607493597, 46.24837183176993], [-60.59587640506693, 46.248388997700054], [-60.59583799198918, 46.2484070900885], [-60.595819732544555, 46.24842296042306], [-60.595797535883534, 46.24844224002491], [-60.59578425906242, 46.248478861852384], [-60.595821960351714, 46.24859575882653], [-60.59582038798216, 46.248631726894935], [-60.59578870397591, 46.24866088719857], [-60.59578118851497, 46.248667803293756], [-60.595559795413564, 46.24874684746768], [-60.59533825915413, 46.24879888733617], [-60.5953132113547, 46.248811860642256], [-60.59528649109676, 46.24882569877452], [-60.59527844829587, 46.24883606884945], [-60.59527274338942, 46.24884341002698], [-60.595281829275564, 46.24886941406674], [-60.59528542813236, 46.24887967813098], [-60.595362958611666, 46.248916419866774]]}, "properties": {"OBJECTID": 10708, "FEAT_CODE": "WACO20", "FEAT_DESC": "Coast - Water to the right line", "RIVNAME_1": " ", "RIVNAME_2": " ", "ZVALUE": 0.4, "FID": null, "SHAPE_Length": 467.36682236832013}}, {"type": "Feature", "id": 10712, "geometry": {"type": "LineString", "coordinates": [[-60.59168629516168, 46.25475306549641], [-60.59156781204573, 46.254851371376944], [-60.59136988677658, 46.25507490654167], [-60.591278027754285, 46.25512787189967], [-60.59112010860086, 46.255235156298944], [-60.590950406114516, 46.255350472311], [-60.59085867348767, 46.25543044083714], [-60.5908324680651, 46.25546588944866], [-60.590827001449945, 46.255479310612564], [-60.590817929188866, 46.255501584032736], [-60.59081744953233, 46.25552555966683], [-60.590816861445845, 46.255555563202485], [-60.59086601815916, 46.25573660521877], [-60.59085797353186, 46.25576740557223], [-60.5908519875134, 46.255790311081235], [-60.59086287734757, 46.25581302337862], [-60.590865051777264, 46.25581758736405], [-60.59087723968421, 46.25583584488861], [-60.59104464344389, 46.25595367778048], [-60.59113368271911, 46.25605365792451], [-60.591163868179535, 46.25610298578062], [-60.59118332484422, 46.25613480692033], [-60.591199672095215, 46.25617185467231], [-60.591247048489464, 46.2562792546915], [-60.591322236152855, 46.25636994240658], [-60.59143004164601, 46.25646718579713], [-60.591553151036074, 46.25657821607096], [-60.59163422219024, 46.256655167155465], [-60.59170637430864, 46.256723649945584]]}, "properties": {"OBJECTID": 10712, "FEAT_CODE": "WACO20", "FEAT_DESC": "Coast - Water to the right line", "RIVNAME_1": " ", "RIVNAME_2": " ", "ZVALUE": 0.4, "FID": null, "SHAPE_Length": 264.76769795480044}}, {"type": "Feature", "id": 10809, "geometry": {"type": "LineString", "coordinates": [[-60.60406891247909, 46.24704992569078], [-60.604016366737085, 46.24709472535377], [-60.60400043459245, 46.247105479630584], [-60.60397626930866, 46.24712178544727], [-60.60396342916721, 46.24714851706367], [-60.60396335107515, 46.247159540778384], [-60.60396288743474, 46.24722050800406], [-60.60396904529194, 46.24726050840235], [-60.60397401065005, 46.24729274354736], [-60.6039735706334, 46.24731594606168], [-60.603972995475566, 46.24734582395533], [-60.60396552683713, 46.2473707511453], [-60.60395933261, 46.24739143892195], [-60.603919786710705, 46.24743561110568], [-60.60390715058135, 46.247447235510585], [-60.60388059333088, 46.247471690409384], [-60.60384053473189, 46.247497851239835], [-60.60378916369225, 46.24751567456881], [-60.603697221378766, 46.24754164732922], [-60.60367773958066, 46.24755526121268], [-60.60365841957512, 46.24756873448133], [-60.60361777940848, 46.24766778536188], [-60.60360826692364, 46.247680663280946], [-60.60356539254941, 46.247738688979055], [-60.6035250232515, 46.24780174435826], [-60.60348520550089, 46.247881911835385], [-60.6034055213504, 46.24795404291668], [-60.60338445284771, 46.247962682312696], [-60.60334079667765, 46.247980586250115], [-60.60314563678388, 46.24802329417502], [-60.603089103856426, 46.24803838982798], [-60.60308000768432, 46.248040818102496], [-60.60301489084855, 46.24807635331147], [-60.60289644238631, 46.24817467171387], [-60.60287578429226, 46.24819323794144], [-60.602857286604596, 46.24820986042476], [-60.60284543842114, 46.248217982129674], [-60.602830541391015, 46.24822819093994], [-60.602757224030505, 46.24825512069369], [-60.60268683339131, 46.24828097776783], [-60.602655045677025, 46.248298320420446], [-60.60262172898105, 46.2483165130129], [-60.60257502291407, 46.248353181266964], [-60.602542461689964, 46.24837874292098], [-60.60248945555044, 46.24843850869325], [-60.60246332651343, 46.2484679944052], [-60.60245831386433, 46.248480012613946], [-60.60243725206888, 46.24853044930494], [-60.60239797729289, 46.24861477692278], [-60.602382863539944, 46.24864721183347], [-60.6023507432502, 46.24868378103374], [-60.602343276249634, 46.24869228262676], [-60.602304120131635, 46.248727462139165], [-60.60217258760735, 46.248798504375955], [-60.601977897101975, 46.248860111755846], [-60.601833794144525, 46.248921898506495], [-60.60166306460347, 46.24902901866331], [-60.60161271056498, 46.249056492664266], [-60.60159793272685, 46.24906455274674], [-60.60144048852221, 46.249135050254864], [-60.601336604462226, 46.249196771584565], [-60.60116549384018, 46.24931288328184], [-60.601074046034284, 46.24935686488225], [-60.600709989030904, 46.249434723854286], [-60.60069683324498, 46.249437714717345], [-60.60055405978736, 46.249470150836906], [-60.60028127126657, 46.24956194033005], [-60.60026702477406, 46.24956673529523], [-60.6001885507708, 46.24961097965442], [-60.60010617782569, 46.24967113557774], [-60.60003042434416, 46.24972646231624], [-60.60000147613223, 46.2497494530458], [-60.59999951349454, 46.24975102287404], [-60.59995246082546, 46.24978872680556], [-60.599952067999546, 46.24979772784008], [-60.599872183358364, 46.249895980064004], [-60.59980674767905, 46.24997647216746], [-60.59978883788276, 46.25000039673163], [-60.599766764844965, 46.250030534040135], [-60.59964646262148, 46.25020081239814], [-60.599607827842895, 46.2502540025039], [-60.59938283790789, 46.25050398392416], [-60.599329892867054, 46.250557764314664], [-60.59926437769747, 46.250602298296144], [-60.59914660165613, 46.25064778625058], [-60.59908095030878, 46.25067314665977], [-60.59903963161229, 46.25069180908818], [-60.599002865977376, 46.250708407104725], [-60.59887162787112, 46.2507876509781], [-60.59875370029518, 46.250858876155675], [-60.59870253562756, 46.250889688941754], [-60.598649757753954, 46.250921493834795], [-60.598439882281966, 46.25106376961485], [-60.5981259428141, 46.2512407947774], [-60.598047032268596, 46.25129493779689], [-60.59798116208057, 46.25134755483269], [-60.59789127479649, 46.251420421594354], [-60.597837244899765, 46.25146423316988], [-60.59778355028565, 46.25153511562117], [-60.59772833850004, 46.251627953842814], [-60.59770373523102, 46.251669341909626], [-60.59765157308248, 46.25170513740999], [-60.597481887764474, 46.251758271552454], [-60.597415860001504, 46.251784775125294], [-60.59735124514338, 46.25183832721953], [-60.597219187276444, 46.25198045493092], [-60.597139921140716, 46.25204269009827], [-60.597089643691504, 46.25207720193243], [-60.59708775748551, 46.25207850330916], [-60.59705667299642, 46.2520867869029], [-60.59702213505695, 46.25209601489481], [-60.596943524142915, 46.25211326228943], [-60.596924340481564, 46.25211849302301], [-60.59687918448782, 46.25213080977059], [-60.59683947284916, 46.2521488751801], [-60.596787752231464, 46.252190871765684], [-60.59677356117876, 46.2522023906721], [-60.59673554143611, 46.25222805186705], [-60.59669468722052, 46.252255633495025], [-60.596675378905054, 46.25226371465467], [-60.59659028139306, 46.252299347956665], [-60.596382597315895, 46.25236067249132], [-60.59622667050146, 46.25239608461714], [-60.59620348440071, 46.252404426131605], [-60.5960566275427, 46.25245731837276], [-60.595755151567744, 46.252616580649224], [-60.59567638284713, 46.252670644008006], [-60.59565082210318, 46.25268818773455], [-60.5956457792308, 46.25269195174484], [-60.595519388237946, 46.252786225218536], [-60.595453081313444, 46.25284873191185], [-60.59544889402945, 46.252858742113496], [-60.59542700965429, 46.25291118524646], [-60.59539028162817, 46.25291736956311], [-60.595374714548626, 46.25291999405979], [-60.59529572209253, 46.252946223573325], [-60.59525242034441, 46.252956760643016], [-60.595152781247265, 46.252981016492996], [-60.59504283661184, 46.253005361364195], [-60.59499687790554, 46.25301553640605], [-60.594866412975065, 46.253067350079704], [-60.594839755103166, 46.25307793131354], [-60.594578262617055, 46.2531831303584], [-60.594500132554316, 46.25321928678686], [-60.59418765269085, 46.253333311856565], [-60.594145291949374, 46.25334990750844], [-60.594030567437, 46.253394806412764], [-60.59395477588153, 46.253414568191914], [-60.59386126703304, 46.25343894299729], [-60.5938215928311, 46.25345610811685], [-60.59374755614182, 46.2534811268758], [-60.593483146038515, 46.25357048447744], [-60.59344538465874, 46.25358188456979], [-60.593366127781735, 46.253605812107686], [-60.593256487264576, 46.25363798290997], [-60.593157164240964, 46.25366712182943], [-60.59297409965609, 46.25372896773884], [-60.59288304467822, 46.25376395076555], [-60.592848771587654, 46.25377894325524], [-60.59270050094573, 46.25384381677298], [-60.59267457595611, 46.25384327059227], [-60.5926222933172, 46.25385206040772], [-60.59250452549926, 46.25390448089931], [-60.59242599936486, 46.25394962784536]]}, "properties": {"OBJECTID": 10809, "FEAT_CODE": "WACO20", "FEAT_DESC": "Coast - Water to the right line", "RIVNAME_1": " ", "RIVNAME_2": " ", "ZVALUE": 0.4, "FID": null, "SHAPE_Length": 1233.6865085378006}}, {"type": "Feature", "id": 10878, "geometry": {"type": "LineString", "coordinates": [[-60.59242599936486, 46.25394962784536], [-60.59238683315756, 46.25398480373366], [-60.59230688625132, 46.2540920226061], [-60.59229768167655, 46.25411052224088], [-60.59227985555368, 46.25414635475632], [-60.59223963619726, 46.254235501092005], [-60.59219895685341, 46.25433455603001], [-60.59218583041234, 46.25439728139928], [-60.592170302451805, 46.25441825785749], [-60.59214583640723, 46.254451349351186], [-60.59210627666158, 46.25449549912955], [-60.59202700035141, 46.254557748525954], [-60.592021128993196, 46.25456175592488], [-60.59185712422208, 46.254673863256265], [-60.59181550689231, 46.254694181826494], [-60.591804104959756, 46.25469974670765], [-60.59168629516168, 46.25475306549641]]}, "properties": {"OBJECTID": 10878, "FEAT_CODE": "WACO20", "FEAT_DESC": "Coast - Water to the right line", "RIVNAME_1": " ", "RIVNAME_2": " ", "ZVALUE": 0.4, "FID": null, "SHAPE_Length": 109.6279038863651}}, {"type": "Feature", "id": 314005, "geometry": {"type": "LineString", "coordinates": [[-60.595362958611666, 46.248916419866774], [-60.59537466354547, 46.24891575716113], [-60.59538682217929, 46.24891391596407], [-60.59542690214603, 46.24890785618927], [-60.59566221271383, 46.2488372053824], [-60.59584390953495, 46.24877622640192], [-60.59594885802576, 46.24874963357553], [-60.59606267682506, 46.24873083251269], [-60.59615662023862, 46.24871530332745], [-60.59617904740277, 46.24871063597272], [-60.59619591019256, 46.24870712959587], [-60.596427918358835, 46.248659457475206], [-60.59653365256976, 46.248637731794304], [-60.596638600485335, 46.2486111383221], [-60.59671668323569, 46.24857587945313], [-60.59676884331817, 46.24854007532413], [-60.59687889555385, 46.24845366506959], [-60.59692736581144, 46.24841560519673], [-60.597018291906394, 46.24835361536217], [-60.59702588097548, 46.24834916681243], [-60.59711016032969, 46.24829974553056], [-60.59713552929604, 46.24827524921517], [-60.59720226461197, 46.24821077946119], [-60.59726738523425, 46.248175247641896], [-60.59733342201485, 46.2481487353378], [-60.59743603132343, 46.24811773581887], [-60.59745041356147, 46.24811339407489], [-60.59760669426609, 46.24806987845857], [-60.597635762293876, 46.24806166932281], [-60.59769864015335, 46.248043910674895], [-60.597859643414495, 46.24797631922549], [-60.59797219916149, 46.24792905779714], [-60.59811156133569, 46.24785466585611], [-60.59815550059896, 46.247831207688165], [-60.59829959124246, 46.24776943431092], [-60.59845537248269, 46.247707906458416], [-60.598551918986026, 46.24765558283305], [-60.59865201307639, 46.24760133561692], [-60.59874057102264, 46.247557556225786], [-60.598795224981394, 46.24753054285814], [-60.598941577800844, 46.24747783449781], [-60.59896524920366, 46.24746931361706], [-60.599329334580204, 46.24739056077329], [-60.59951204543334, 46.24736558941453], [-60.59955733538046, 46.247359610641794], [-60.5996412226764, 46.247348511483054], [-60.5999280919797, 46.24731493612476], [-60.59995354196749, 46.247296570080756], [-60.59997172524534, 46.24729073280686], [-60.59997985679838, 46.247288113513356], [-60.59999086784639, 46.247280451536575], [-60.59999992576229, 46.247274143580064], [-60.600058719954866, 46.2472348771732], [-60.60009651410531, 46.247204457970895], [-60.60020258186793, 46.247119094858824], [-60.60025383293688, 46.247072820709576], [-60.60032142502091, 46.247011787232736], [-60.600357251456686, 46.2469875098179]]}, "properties": {"OBJECTID": 314005, "FEAT_CODE": "WACO20", "FEAT_DESC": "Coast - Water to the right line", "RIVNAME_1": " ", "RIVNAME_2": " ", "ZVALUE": 0.4, "FID": null, "SHAPE_Length": 452.50153440119885}}]}