{"type": "FeatureCollection", "features": [{"type": "Feature", "id": 7917, "geometry": {"type": "LineString", "coordinates": [[-60.773110593032754, 46.07114522177021], [-60.77312138375206, 46.07120356619638], [-60.77312227337023, 46.07120845279584], [-60.77312051516157, 46.071316424259834], [-60.7731078003211, 46.07134317784932], [-60.7729898323753, 46.071414691209036], [-60.77297654946958, 46.071423423753934], [-60.77295163660013, 46.07143194758509], [-60.77284767613871, 46.07147671442337], [-60.772821109525076, 46.0714941974638], [-60.77273031239107, 46.071565331200105], [-60.77267771103506, 46.071619208592395], [-60.77256046624897, 46.07167272565033], [-60.772507658416, 46.07169959750546], [-60.772430661792555, 46.07171699721625], [-60.772299927000844, 46.071752250015855], [-60.77227501424475, 46.07176076470098], [-60.77227325432535, 46.07186873611195], [-60.77228827818753, 46.071879082607445], [-60.77231226104467, 46.07189559811534], [-60.77236322293985, 46.0719145927912], [-60.77237545661577, 46.07193193224273], [-60.77240903436534, 46.07194781577675], [-60.77245286591339, 46.07196854347906], [-60.772480050199945, 46.07199451787183], [-60.772528827399675, 46.07204112834204], [-60.7726363106977, 46.07211674885667], [-60.77267093099961, 46.07214111308754], [-60.77269677407192, 46.07214161693082], [-60.77277340927391, 46.072133210471726], [-60.77283877736584, 46.072115574833155], [-60.7729558544381, 46.07209805613025], [-60.77299373788749, 46.072088894094726], [-60.77334278717168, 46.072091197531115], [-60.773485939630056, 46.07210118793411], [-60.77366655168448, 46.07211190816313], [-60.7738860007982, 46.072121584785876], [-60.77396354038551, 46.07212219562717], [-60.774053484516905, 46.07210504715656], [-60.77411920063262, 46.07207842608999], [-60.774275584030455, 46.07201666947583], [-60.7743138159886, 46.07199851331547], [-60.77452133936925, 46.07191885166011], [-60.77466462017995, 46.07189284117857], [-60.77475513265761, 46.071893704179566], [-60.77482012498652, 46.071885069564935], [-60.774857995081675, 46.07187590665087], [-60.77488419966298, 46.071867416563435], [-60.774962862439324, 46.07184104717233], [-60.775027647241, 46.07180540696729], [-60.77526156349345, 46.07168035555143], [-60.77531397234381, 46.071663375179085], [-60.775404648666814, 46.07162733890059], [-60.77558634409478, 46.0716110757591], [-60.77574130200873, 46.07158439124126], [-60.77593519580742, 46.07158636599387], [-60.77602607954423, 46.07157733469067], [-60.77606556664402, 46.07156010242505], [-60.77610415910809, 46.07153295220586], [-60.77610416750213, 46.07153113427292], [-60.77610431253279, 46.07149695328456], [-60.77608567963728, 46.07147117322225], [-60.776078587002445, 46.071461350640156], [-60.776054551182895, 46.07141588035806], [-60.77602702846511, 46.0714015108436], [-60.77600262153876, 46.07138876806128], [-60.775955898626535, 46.071360164019005], [-60.77591301206015, 46.07133392076462], [-60.77589042258131, 46.07131810817547], [-60.77586144399166, 46.071297814964915], [-60.775822085683316, 46.071274520518394], [-60.77578439471454, 46.071252212570414], [-60.77573375749288, 46.071225125312594], [-60.77565562404203, 46.07120650315452], [-60.775578059833286, 46.07120589298155], [-60.775422416067784, 46.07124966483005], [-60.775267097435005, 46.07128534236817], [-60.77521505046686, 46.071293329289354], [-60.77518974065356, 46.07131173740324], [-60.775149014796575, 46.07139194858401], [-60.77513596882026, 46.0714276064216], [-60.775122258715676, 46.071446330426404], [-60.774978658028, 46.07154433907022], [-60.774900784951875, 46.07161572623938], [-60.77475857687745, 46.07161475648081], [-60.77474601705955, 46.07160551136163], [-60.774591262153564, 46.0715952965269], [-60.77442223173929, 46.071585703429044], [-60.774409671985396, 46.07157645827396], [-60.7743712694016, 46.071566709663536], [-60.77426891080504, 46.07153951418299], [-60.77413977871639, 46.071502805494674], [-60.77402393064631, 46.07145733701509], [-60.773946159230874, 46.07142972026359], [-60.773882963157085, 46.071393386994], [-60.7738286425942, 46.07135758665901], [-60.77376993798033, 46.071318901718385], [-60.77370281833445, 46.07127467047507], [-60.77358769573567, 46.07118097312569], [-60.77353628302756, 46.07113911799456]]}, "properties": {"OBJECTID": 7917, "FEAT_CODE": "WACO20", "FEAT_DESC": "Coast - Water to the right line", "RIVNAME_1": " ", "RIVNAME_2": " ", "ZVALUE": 0.2, "FID": null, "SHAPE_Length": 699.3283137584381}}, {"type": "Feature", "id": 10037, "geometry": {"type": "LineString", "coordinates": [[-60.77133984049632, 46.06910088438186], [-60.77139192209631, 46.069091999854734], [-60.771456924130014, 46.069083376345226], [-60.771463347335036, 46.069090207001686], [-60.77150776374851, 46.06913745290555], [-60.771545439555176, 46.06916519827207], [-60.77155839659695, 46.06916455096739], [-60.771674201971585, 46.06921091218934], [-60.7717215321577, 46.06923107839218], [-60.77180260254289, 46.06926561938425], [-60.771855891966034, 46.06928455168812], [-60.77188036947057, 46.0692932465239], [-60.7718890975987, 46.06929935706896], [-60.77193193341692, 46.06932934505839], [-60.77203433673516, 46.06941954688835]]}, "properties": {"OBJECTID": 10037, "FEAT_CODE": "WACO20", "FEAT_DESC": "Coast - Water to the right line", "RIVNAME_1": " ", "RIVNAME_2": " ", "ZVALUE": 0.2, "FID": null, "SHAPE_Length": 68.8722386663521}}, {"type": "Feature", "id": 10038, "geometry": {"type": "LineString", "coordinates": [[-60.7727337733053, 46.06926217604389], [-60.772735937767145, 46.06911713049065], [-60.772736049513284, 46.06910921224599], [-60.77280084535859, 46.06907357350813], [-60.77294371947954, 46.06899355437017], [-60.77299652411475, 46.06896669124441], [-60.773126272865184, 46.068923308988], [-60.77316525252446, 46.06888716681864], [-60.77320511033582, 46.06886005123429], [-60.773217837796764, 46.068833288870394], [-60.7732449200125, 46.06877081337606], [-60.773245281833894, 46.06876181994718], [-60.773260219586284, 46.06851908910413], [-60.77326236111502, 46.06837489812551], [-60.773262493870206, 46.06836613424378], [-60.77327630589002, 46.068312409566325], [-60.773277029510844, 46.06829442270669]]}, "properties": {"OBJECTID": 10038, "FEAT_CODE": "WACO20", "FEAT_DESC": "Coast - Water to the right line", "RIVNAME_1": " ", "RIVNAME_2": " ", "ZVALUE": 0.2, "FID": null, "SHAPE_Length": 126.56846866653716}}, {"type": "Feature", "id": 10365, "geometry": {"type": "LineString", "coordinates": [[-60.773277029510844, 46.06829442270669], [-60.773290282365565, 46.0682494535977], [-60.773290490751805, 46.06824877362274], [-60.773303566180914, 46.0682130355483], [-60.77333064833269, 46.068150551026655], [-60.77330476853644, 46.06808704323311], [-60.773358438266776, 46.0680061849051], [-60.77338479630856, 46.06796169622089], [-60.773568185310246, 46.06777446014047], [-60.773738495160885, 46.067559058390096], [-60.7738951493049, 46.06742531268566], [-60.77394831402134, 46.06738944664892], [-60.77415685283256, 46.06721980057918], [-60.7742480025103, 46.067139671159325], [-60.77476947990541, 46.06687263376686], [-60.77479512680388, 46.06684611386611], [-60.77483428545498, 46.0668369760561], [-60.77488538519631, 46.066819961375614], [-60.77505507029008, 46.06674857121294], [-60.775224344772184, 46.06668706433304], [-60.77536648631212, 46.06662502884799], [-60.77554850871641, 46.06653586822588], [-60.77569230293236, 46.06646486403059], [-60.77577001400694, 46.06642947505938], [-60.77593927346316, 46.06636797582657], [-60.776004800004216, 46.06631433951906], [-60.77603046854323, 46.066286937713514], [-60.77612176720998, 46.06617080865577], [-60.776135302447386, 46.06611809528605], [-60.77613556328044, 46.06611707430827], [-60.77613563850992, 46.06611359258531], [-60.776137161809096, 46.06604510155132], [-60.77613782963371, 46.065964110191906], [-60.776190575315624, 46.065874232042745], [-60.77627024486754, 46.065757876490856], [-60.77636240485226, 46.06558776108979], [-60.77642808273069, 46.06549813454109], [-60.776480300284724, 46.0654532483991], [-60.77655910643467, 46.06539086974578], [-60.77662388217456, 46.0653552374362], [-60.77675440331635, 46.06529298306166], [-60.77685798847855, 46.065257187824756], [-60.777078415596584, 46.06517777258383], [-60.77720875780826, 46.06515150714847], [-60.7774027816294, 46.06511748002931], [-60.77764891822646, 46.0650736657573], [-60.77781803228129, 46.06504816284716], [-60.77816666916179, 46.064995531611515], [-60.778464996943036, 46.06490772817788], [-60.7785956991793, 46.06487245867443], [-60.77876461578967, 46.06481994906701], [-60.77884232262859, 46.064784557918706], [-60.77903761415962, 46.06468664922228], [-60.779128962113525, 46.06463352210083], [-60.77918118960095, 46.06458863491456], [-60.77924596274987, 46.06455300106579], [-60.77941588928465, 46.064410487267715], [-60.779546556489166, 46.06431222159375], [-60.77972871517055, 46.06418706399893], [-60.77988533838603, 46.064073470525976], [-60.77993780776349, 46.06403541906103], [-60.77994390535362, 46.06402910220725], [-60.77996342466301, 46.06400890641036], [-60.78012016248719, 46.06393724810629], [-60.78026322329688, 46.06388421586295], [-60.7804055619231, 46.063849188382704], [-60.78050874511219, 46.06382329155722]]}, "properties": {"OBJECTID": 10365, "FEAT_CODE": "WACO20", "FEAT_DESC": "Coast - Water to the right line", "RIVNAME_1": " ", "RIVNAME_2": " ", "ZVALUE": 0.2, "FID": null, "SHAPE_Length": 792.1005281698651}}, {"type": "Feature", "id": 10463, "geometry": {"type": "LineString", "coordinates": [[-60.74554812003332, 46.07266766727669], [-60.74555452262904, 46.072675570042136], [-60.74556095330843, 46.07268944968167], [-60.745579632266406, 46.072730266456084], [-60.74566830701918, 46.072839122043284], [-60.74574406062904, 46.072947722596304], [-60.745773238389916, 46.07298192413689], [-60.74578232219553, 46.07299257993935], [-60.74585954152759, 46.07306520740748], [-60.74594711841788, 46.07320104255342], [-60.745950092314345, 46.07320486343114], [-60.74596063613234, 46.0732184101788], [-60.746048421950384, 46.07332277468239], [-60.746075348462156, 46.073354789612445], [-60.74620246071152, 46.07347249454556], [-60.74627971787802, 46.07354422242082], [-60.7462964009338, 46.07355627016216], [-60.746343786937004, 46.07359048873502], [-60.74637477216345, 46.073617795403216], [-60.746394971074615, 46.07363560079015], [-60.746465446351806, 46.073679212259115], [-60.746497146153764, 46.07369881867724], [-60.746637913825644, 46.07379880051793], [-60.746654341742634, 46.07380473184752], [-60.746714382021686, 46.07382641017781], [-60.74672146981385, 46.073831149221064], [-60.74672824262092, 46.073835684040645], [-60.74679716859951, 46.073880515811716], [-60.746868072136806, 46.0739266466102], [-60.74693120184515, 46.073954398077504], [-60.74697098057103, 46.07397187847196], [-60.74709992640556, 46.074044626051275], [-60.74712146468382, 46.07406003659164], [-60.747189144267104, 46.07410849773939], [-60.747318457213275, 46.074172241928345], [-60.74749726086589, 46.07429097366234], [-60.74750985321697, 46.07429932237539], [-60.74753499605901, 46.074311329722036], [-60.74754916579939, 46.07431809844553], [-60.74760439627004, 46.07434676484975], [-60.74768975582336, 46.074391074033755], [-60.74777035316937, 46.074422436584385], [-60.74783105242023, 46.07444606241807], [-60.747867044490974, 46.074466357001874], [-60.74789553935968, 46.07448243556251], [-60.747916339190425, 46.0744934391601], [-60.747998070768546, 46.07453665953862], [-60.74805142087825, 46.0745556131432], [-60.74807584579406, 46.07456429404177], [-60.74819185035393, 46.074573772026035], [-60.74837173181143, 46.07460252783324], [-60.74860466681985, 46.07463051980841], [-60.74867832959493, 46.07465148450851], [-60.74873378773018, 46.074667266164184], [-60.74881498979585, 46.074696821794355], [-60.74883573619081, 46.074704376987306], [-60.748872951121, 46.07472641444044], [-60.74891276726851, 46.07474999721646], [-60.74892586930013, 46.07476394511254], [-60.74896358873967, 46.07480410143995], [-60.74905337090543, 46.074885974734535], [-60.74918232132295, 46.0749587281352], [-60.74927602150768, 46.07502568364825], [-60.74930924903537, 46.07504942449519], [-60.74934211043501, 46.075066587770266], [-60.74936116850797, 46.075076548735446], [-60.74939638811987, 46.07510759218774], [-60.74941235685198, 46.07512165050444], [-60.74960305371669, 46.075329717939766], [-60.74970575940216, 46.07541185428475], [-60.74979608000541, 46.0754487352027], [-60.74984670788113, 46.075475833779386], [-60.74995510258556, 46.0755478394063], [-60.750051962567, 46.07561219236562], [-60.75020643197156, 46.07569352960568], [-60.7502441015367, 46.07572127286201], [-60.75027217884261, 46.07574701811431], [-60.75037251993252, 46.075839007811496], [-60.75041061762903, 46.07587149369349], [-60.75043626603134, 46.07589336587363], [-60.7504753388252, 46.07591650143798], [-60.750513300088215, 46.07593898506897], [-60.75059150918432, 46.07598210721456], [-60.75062840637327, 46.07600245474354], [-60.75065909898599, 46.076024318184686], [-60.75070507516713, 46.076057067093075], [-60.75073372385132, 46.07608149140921], [-60.75076882220849, 46.076111415984975], [-60.75083349531607, 46.07617480155007], [-60.75093510813668, 46.07628390768611], [-60.75099831950809, 46.076383266283315], [-60.75107372314971, 46.07650084780613], [-60.751075397554516, 46.07650547101032], [-60.751086512591364, 46.076536192427376], [-60.751096598828, 46.07658172637512], [-60.7510985337305, 46.076590440922885], [-60.75110190931686, 46.07659743773852], [-60.751111651805665, 46.076617700582325], [-60.75113749658696, 46.076618209337944], [-60.75121600478931, 46.076563951789616], [-60.75122982790631, 46.07651022103136], [-60.751256743074485, 46.07642074607041], [-60.751270004486386, 46.07634901229805], [-60.75132221163579, 46.07622495130241], [-60.751322970709474, 46.076223139146805], [-60.751323550437085, 46.076220648425384], [-60.7513371590991, 46.07616041508655], [-60.751350786167805, 46.07607967902265], [-60.75135224804776, 46.07604370589115], [-60.75139139025798, 46.07597158146382], [-60.75140542216792, 46.07594484721896], [-60.75144365118322, 46.075926698658165], [-60.75147022654569, 46.07590922076522], [-60.75152212154227, 46.07587334019829], [-60.75162660600063, 46.075784482754635], [-60.75169178801641, 46.07573987213053], [-60.75173077344956, 46.07570373740604], [-60.75178371480623, 46.07564177592871], [-60.75187621247946, 46.07549778845304], [-60.751929372188854, 46.075398929247164], [-60.7519697692052, 46.0753277203556], [-60.751996682535676, 46.07523824517072], [-60.75202934621145, 46.07515779360174], [-60.7520369067893, 46.07513913137416], [-60.75203765210868, 46.07513288170752], [-60.75205071462474, 46.075022396862536], [-60.75206465228664, 46.07495371845286], [-60.75206526717327, 46.074950679389914], [-60.7520799983153, 46.07477906012382], [-60.752150338799325, 46.07462079369202], [-60.752159704318174, 46.074599718839096], [-60.75216022430559, 46.07459837899866], [-60.7521871785063, 46.07452825559264], [-60.75223887508254, 46.07446537835621], [-60.75226618044825, 46.0744299046812], [-60.752278540746495, 46.07441214691377], [-60.75230532062288, 46.074357770885825], [-60.752358368596056, 46.07420080217728], [-60.75235970666869, 46.074196832290355], [-60.75236730831481, 46.07417810784319], [-60.75239994237098, 46.07409771857769], [-60.752491472280035, 46.07394561110528], [-60.75257139974991, 46.0738562786631], [-60.75273946435677, 46.07379388128309], [-60.75281719962691, 46.0737585174208], [-60.752948497796375, 46.073678286609265], [-60.75311704560247, 46.073571795828215], [-60.75328748336343, 46.0734824428767], [-60.75335230946868, 46.073446815774226], [-60.753469342514826, 46.07336721287701], [-60.75361316881137, 46.07329624613916], [-60.75369071948577, 46.07323385861126], [-60.75384894752969, 46.07306326042482], [-60.7540060141354, 46.07285752830938], [-60.75415071953588, 46.072669571930994], [-60.754242636733615, 46.07257147352841], [-60.75429545396694, 46.07254461029919], [-60.75451699313383, 46.07237525568749], [-60.75459582033748, 46.072312901630454], [-60.75468687549423, 46.07226788876037], [-60.75480337195255, 46.07223327634542], [-60.75489368420112, 46.07220624967153], [-60.75504882683175, 46.07220749835469], [-60.755101476226386, 46.07221663337695], [-60.75543579123988, 46.07226370444688], [-60.75554012642044, 46.07227385474554], [-60.75564211179831, 46.07231006017906], [-60.755720616810905, 46.07231971186144], [-60.75584952679132, 46.07232943559504], [-60.756107700567675, 46.07234079814287], [-60.756314187978255, 46.072351163015014], [-60.75639106033846, 46.07236887360288], [-60.756417830774524, 46.07237839982499], [-60.756422089456535, 46.07238021155243], [-60.756546222847696, 46.07243312400147], [-60.756661823345915, 46.072452494977675], [-60.75684246873547, 46.0724623424393], [-60.75694627793071, 46.072453580115564], [-60.756998328319995, 46.07244560158874], [-60.75717932532299, 46.072446454940646], [-60.75754095728202, 46.0724580542046], [-60.75760523669958, 46.072467416354996], [-60.75770921122707, 46.07242265466328], [-60.75774834002187, 46.07241442217569], [-60.757787869621204, 46.07239629701331], [-60.75790421518328, 46.07233376798632], [-60.75799594674796, 46.072271673843545], [-60.75806074226668, 46.072236052466685], [-60.75819130074454, 46.07217380206538], [-60.75829596641183, 46.07211195248867], [-60.75843830523351, 46.07201394004116], [-60.758516962710836, 46.07198758187042], [-60.75859492805634, 46.07197831097856], [-60.75886602200912, 46.07198992977889], [-60.75911167390549, 46.0719911483591], [-60.7593445323774, 46.071957013619524], [-60.759551547840026, 46.071922371592095], [-60.75961728332023, 46.071895759245244], [-60.759721255197185, 46.07185099566846], [-60.75982446278894, 46.07182510901809], [-60.75999416914223, 46.07175374166931], [-60.76012361911531, 46.071718477764115], [-60.76026599024788, 46.071683467033246], [-60.760433839893814, 46.071657956078845], [-60.76062903695435, 46.07159607897307], [-60.760746480203196, 46.07156957948671], [-60.76083640129211, 46.071552440974536], [-60.76094092306712, 46.07152568802545], [-60.761199420091955, 46.07146505955425], [-60.76148492387531, 46.07137614014418], [-60.761654239956094, 46.07131465420799], [-60.7617711303818, 46.07127014187521], [-60.76184942158342, 46.071252774713024], [-60.762354481036155, 46.07120236510672], [-60.76241820793891, 46.07119371276617], [-60.762561881770836, 46.07115871568696], [-60.76275629528514, 46.07111483856036], [-60.762963493840424, 46.0710441830102], [-60.76300265728985, 46.07103504935251], [-60.76315810797915, 46.070964289204575], [-60.76334032925999, 46.0709030534476], [-60.763522384653186, 46.070813912661954], [-60.7636392596537, 46.07076939811415], [-60.76369148199907, 46.07072541797937], [-60.763731371892355, 46.07069829733021], [-60.76392598373613, 46.070618402169416], [-60.764198157880934, 46.07053912460015], [-60.76436672901034, 46.07049562102276], [-60.76458811023582, 46.07042524906563], [-60.764692075453254, 46.07038048082982], [-60.76495096315925, 46.070309941979026], [-60.76526298687654, 46.070204440040385], [-60.76547035553979, 46.070160793710336], [-60.765560309307936, 46.07014275206899], [-60.765896910902036, 46.070100732475524], [-60.76593608615238, 46.070091598042346], [-60.766039853454785, 46.070083726681446], [-60.76619517380138, 46.070048070724305], [-60.76628654310575, 46.06999494531196], [-60.766325718221225, 46.06998581074243], [-60.766506990836, 46.06991555090036], [-60.766520274726545, 46.069906810124294], [-60.76658564165752, 46.069889187039884], [-60.76670178653459, 46.069862656044805], [-60.766897161155214, 46.069827773135714], [-60.76723345926911, 46.069793844103565], [-60.76744046182196, 46.06975919652207], [-60.76773811936567, 46.0696893999951], [-60.76799827935069, 46.06961887909448], [-60.76815318573626, 46.06959310391508], [-60.76837312119905, 46.0695586982993], [-60.768425203658325, 46.06954981514211], [-60.76862016750428, 46.06946091837277], [-60.76869824976868, 46.069416540989074], [-60.76875069460605, 46.06939866427967], [-60.76886681415595, 46.069373030635774], [-60.768970965644385, 46.069355263585], [-60.769177603449755, 46.06932959721222], [-60.76930778008657, 46.06927633612002], [-60.76947727324073, 46.06924184348201], [-60.76961999487616, 46.069197827448626], [-60.76965786391204, 46.069188666236954], [-60.76986577998114, 46.06916302357423], [-60.76991786221386, 46.06915413073132], [-60.7700081516893, 46.06912800070624], [-60.77015071539809, 46.069119982852925], [-60.770215717994105, 46.06911135106054], [-60.77024062984217, 46.06910283680503], [-60.77043455063084, 46.06910392139386], [-60.77062955819051, 46.06907802541647], [-60.77065539979739, 46.069078529695595]]}, "properties": {"OBJECTID": 10463, "FEAT_CODE": "WACO20", "FEAT_DESC": "Coast - Water to the right line", "RIVNAME_1": " ", "RIVNAME_2": " ", "ZVALUE": 0.2, "FID": null, "SHAPE_Length": 2545.4150456453576}}, {"type": "Feature", "id": 10465, "geometry": {"type": "LineString", "coordinates": [[-60.77065539979739, 46.069078529695595], [-60.77095275942503, 46.06907983177874], [-60.77104488475729, 46.069105390517024], [-60.77112028358656, 46.06912630261613], [-60.77112319814175, 46.069126818503754], [-60.77117162799609, 46.069135404769455], [-60.77123628124142, 46.06913576606161], [-60.77128836288932, 46.069126881582676], [-60.77133984049632, 46.06910088438186]]}, "properties": {"OBJECTID": 10465, "FEAT_CODE": "WACO20", "FEAT_DESC": "Coast - Water to the right line", "RIVNAME_1": " ", "RIVNAME_2": " ", "ZVALUE": 0.2, "FID": null, "SHAPE_Length": 55.12702021796001}}, {"type": "Feature", "id": 10502, "geometry": {"type": "LineString", "coordinates": [[-60.77353628302756, 46.07113911799456], [-60.77333191499617, 46.07101182836872], [-60.77315261546725, 46.07084002462336], [-60.77305060545016, 46.07073993996256], [-60.77301267224818, 46.070686088696014], [-60.77301105537591, 46.070682564991856], [-60.7729627588267, 46.07057710995542], [-60.7729239081559, 46.07051424929422], [-60.772899513436926, 46.070477771819775], [-60.77287394561598, 46.07040617770236], [-60.772852417548236, 46.070255405011714], [-60.77285074167386, 46.070243707719484], [-60.77284677174369, 46.07023149767996], [-60.772812770663215, 46.070126862188474], [-60.77279292941559, 46.070059178791745], [-60.772788893634, 46.07004539238209], [-60.772791636406104, 46.06978443193735], [-60.772789617056965, 46.06977709318004], [-60.772779232869155, 46.069739187724615], [-60.772744367393464, 46.069638368657195], [-60.772729414230795, 46.06959510883948], [-60.77271826502586, 46.06948688571017], [-60.77271857616859, 46.069414887932155], [-60.772719203129434, 46.06940862682046], [-60.7727337733053, 46.06926217604389]]}, "properties": {"OBJECTID": 10502, "FEAT_CODE": "WACO20", "FEAT_DESC": "Coast - Water to the right line", "RIVNAME_1": " ", "RIVNAME_2": " ", "ZVALUE": 0.2, "FID": null, "SHAPE_Length": 226.49309612819613}}, {"type": "Feature", "id": 10503, "geometry": {"type": "LineString", "coordinates": [[-60.77203433673516, 46.06941954688835], [-60.77216113419234, 46.06954622625749], [-60.77223535758113, 46.06961628431957], [-60.772276991144594, 46.0696555912318], [-60.77230483558857, 46.0697030446954], [-60.772377429944044, 46.0698267587612], [-60.77245468059544, 46.06989936883835], [-60.77254340467392, 46.07000820448576], [-60.77263144141355, 46.07013412757233], [-60.77267112087942, 46.07022618405053], [-60.77268229690908, 46.0702521253129], [-60.772707502162625, 46.07033272098643], [-60.77278170307458, 46.07051327622672], [-60.772826246874246, 46.070607219472684], [-60.772832957278105, 46.070621382038816], [-60.77283512700901, 46.070628840732304], [-60.77285683458936, 46.07070285183405], [-60.772894961500434, 46.07078369936431], [-60.77292765161401, 46.07082516280649], [-60.77294540523872, 46.070847686076384], [-60.77297625705627, 46.07088791660471], [-60.773035098178994, 46.07096464064027], [-60.773084699297556, 46.07108171368502], [-60.773110593032754, 46.07114522177021]]}, "properties": {"OBJECTID": 10503, "FEAT_CODE": "WACO20", "FEAT_DESC": "Coast - Water to the right line", "RIVNAME_1": " ", "RIVNAME_2": " ", "ZVALUE": 0.2, "FID": null, "SHAPE_Length": 211.16882281454718}}, {"type": "Feature", "id": 22089, "geometry": {"type": "LineString", "coordinates": [[-60.777065994949304, 46.07009089401597], [-60.776975719570146, 46.070117038893], [-60.77687176437668, 46.07016181850059], [-60.776793687384824, 46.07020620156617], [-60.77676712224748, 46.07022369455508], [-60.77676717882069, 46.070224217683766], [-60.77676805345357, 46.070232704154925], [-60.77679353444353, 46.070242200504126], [-60.77695650067842, 46.070273579259755], [-60.776986014838016, 46.07027924783909], [-60.77700184468151, 46.07028370508539], [-60.77705122632857, 46.07029761765482], [-60.77721828184913, 46.070388172745815], [-60.77728184024513, 46.07041551074383], [-60.777309654369944, 46.07043517790874], [-60.77734596846974, 46.07046086074879], [-60.77738755610001, 46.07050302704434], [-60.777409325788575, 46.07052508772275], [-60.7774995540044, 46.07059705579649], [-60.77782276505962, 46.070598842882625], [-60.777913067061604, 46.07057268885432], [-60.77801697284293, 46.07052881638837], [-60.7780431995061, 46.07051942595718], [-60.778161065768096, 46.07038581110112], [-60.77818781833718, 46.070331428474226], [-60.7781883739672, 46.07032982819458], [-60.77821561784786, 46.07025096481472], [-60.77822920403615, 46.070170224731655], [-60.77822956506567, 46.07016123127454], [-60.77819001703619, 46.07013782594551], [-60.77815251532495, 46.07011563046246], [-60.77814192116838, 46.07010444383891], [-60.77812646412788, 46.07008812237011], [-60.77798492516331, 46.070006165332444], [-60.77793428794555, 46.06997907904585], [-60.777917312776374, 46.06997319557686], [-60.77788199758733, 46.06996096106044], [-60.777754006391525, 46.069960280557005], [-60.77753351793706, 46.06997668352614], [-60.77737751794684, 46.07002945159075], [-60.77720964403238, 46.070055887027635], [-60.777065994949304, 46.07009089401597]]}, "properties": {"OBJECTID": 22089, "FEAT_CODE": "WACOIS10", "FEAT_DESC": "Coastal Island - Water to the right line", "RIVNAME_1": " ", "RIVNAME_2": " ", "ZVALUE": 0.2, "FID": null, "SHAPE_Length": 288.3508497378952}}, {"type": "Feature", "id": 60101, "geometry": {"type": "LineString", "coordinates": [[-60.771450637096905, 46.06859721869587], [-60.77145027498613, 46.06860621211405], [-60.771436835790006, 46.06865095236209], [-60.77142282873151, 46.06867768056712], [-60.771421365802034, 46.068804576822785], [-60.77142127319342, 46.06881265744877], [-60.77139539548491, 46.06881305268677], [-60.77138211261225, 46.068821794050116], [-60.77134315770029, 46.06885793609516], [-60.771316954048544, 46.068866425390326], [-60.77125195188999, 46.06887505781811], [-60.77118787963177, 46.06889270883237], [-60.77114839301063, 46.06890993942613], [-60.77114803084683, 46.06891893284195], [-60.77108250980689, 46.06897255745774], [-60.771044278956865, 46.06899071256411], [-60.770734035236636, 46.06898825925844]]}, "properties": {"OBJECTID": 60101, "FEAT_CODE": "WALK20", "FEAT_DESC": "Lake - Water to the right line", "RIVNAME_1": " ", "RIVNAME_2": " ", "ZVALUE": 0.3, "FID": null, "SHAPE_Length": 85.3846831318705}}, {"type": "Feature", "id": 60102, "geometry": {"type": "LineString", "coordinates": [[-60.770734035236636, 46.06898825925844], [-60.77039835490522, 46.06898616372758], [-60.77019107263635, 46.06898486328793], [-60.77015263639781, 46.06897601264209], [-60.770113837839496, 46.06897615539293], [-60.77012715717798, 46.06896651484067], [-60.77026967281396, 46.06889548352806], [-60.77033539935744, 46.068868873834106], [-60.770477757105766, 46.06883385010779], [-60.77055475024821, 46.06881645164371], [-60.770697469967125, 46.068772434225416], [-60.77112547120769, 46.0686763797467], [-60.77122941509925, 46.068631605139984], [-60.771282197254074, 46.06860563341438], [-60.771450637096905, 46.06859721869587]]}, "properties": {"OBJECTID": 60102, "FEAT_CODE": "WALK20", "FEAT_DESC": "Lake - Water to the right line", "RIVNAME_1": " ", "RIVNAME_2": " ", "ZVALUE": 0.3, "FID": null, "SHAPE_Length": 161.4053372407084}}, {"type": "Feature", "id": 120322, "geometry": {"type": "LineString", "coordinates": [[-60.773170853405226, 46.07141551067318], [-60.77319720040145, 46.071371021837194], [-60.77328860124736, 46.07131700040358], [-60.77331552947204, 46.071290523824366], [-60.773328244199895, 46.07126377020949], [-60.77332805711308, 46.07123852922286], [-60.77332803758422, 46.07123676474856], [-60.773353903508166, 46.07123636884127], [-60.773378642099054, 46.07124245830177], [-60.773393610727496, 46.07124614322248], [-60.7734369693708, 46.07127701387142], [-60.77347029614889, 46.07130074062023], [-60.77363734858031, 46.071391300882695], [-60.77378319939978, 46.071460827658235], [-60.7737908757499, 46.07146448743053], [-60.77390708538283, 46.07150096271466], [-60.77397156081242, 46.071537320898365], [-60.77413766111125, 46.07161976144137], [-60.77426749668761, 46.0716550617613], [-60.77430523190113, 46.07166532843285], [-60.77439568098772, 46.07169155382904], [-60.774498260978895, 46.071721291642206], [-60.774536674014925, 46.0717301403654], [-60.77454525002859, 46.07173586972097], [-60.77455053889182, 46.071739410929915], [-60.77456201377021, 46.07177563636698], [-60.774562213249204, 46.071800904591605], [-60.77456222098042, 46.07180264183426]]}, "properties": {"OBJECTID": 120322, "FEAT_CODE": "WALK20", "FEAT_DESC": "Lake - Water to the right line", "RIVNAME_1": " ", "RIVNAME_2": " ", "ZVALUE": 0.3, "FID": null, "SHAPE_Length": 142.7867350247026}}, {"type": "Feature", "id": 120323, "geometry": {"type": "LineString", "coordinates": [[-60.77456222098042, 46.07180264183426], [-60.77447121834727, 46.071846771516135], [-60.77440585142319, 46.07186439911149], [-60.77429041653171, 46.07187294181702], [-60.77423836852162, 46.07188093727324], [-60.77421176524267, 46.07189933797029], [-60.77418592225682, 46.071898834471575], [-60.77410908129581, 46.071880218438], [-60.773980465450336, 46.07179850824495], [-60.77389065050381, 46.07171665392693], [-60.773762758908184, 46.07161695664339], [-60.77369956274937, 46.07158062327173], [-60.77366559921769, 46.0715730400394], [-60.77365983197666, 46.07157174858661], [-60.773492143091055, 46.07156128020653], [-60.77333697765631, 46.07156095619498], [-60.773272719556935, 46.071550703273374], [-60.77326662899056, 46.07154812743089], [-60.77320788272392, 46.0715233381276], [-60.773182727477064, 46.07150574689915], [-60.77318381307452, 46.07147876662653], [-60.77317931192883, 46.071472684572434], [-60.7731703232855, 46.07146050272875], [-60.77317081198509, 46.07141814700579], [-60.773170853405226, 46.07141551067318]]}, "properties": {"OBJECTID": 120323, "FEAT_CODE": "WALK20", "FEAT_DESC": "Lake - Water to the right line", "RIVNAME_1": " ", "RIVNAME_2": " ", "ZVALUE": 0.3, "FID": null, "SHAPE_Length": 136.6828322538449}}, {"type": "Feature", "id": 194503, "geometry": {"type": "LineString", "coordinates": [[-60.76221101329549, 46.06739505075246], [-60.762405228441196, 46.06732505092208], [-60.76250917651083, 46.06728028432373], [-60.76262604471735, 46.067235770666144], [-60.76269122105508, 46.067191144617865], [-60.762809155988826, 46.067120550254465], [-60.763132869891656, 46.06707738638828], [-60.763235703227295, 46.06706049880757], [-60.76332694460662, 46.067042484134454], [-60.76345621993343, 46.06704321496677], [-60.76355998177141, 46.067035345757354], [-60.763675771872734, 46.067017802376704], [-60.763714895641186, 46.06700957674551], [-60.76384433218972, 46.06697430835108], [-60.76389677616726, 46.06695643384976], [-60.76401311815439, 46.066956910901425], [-60.764091026351586, 46.06694853518926], [-60.76419424829484, 46.06692265386524], [-60.76432461276695, 46.06689641257284], [-60.7644025212027, 46.06688802765233], [-60.764530880337865, 46.06687973885319], [-60.76465979215981, 46.06688946169548], [-60.76486661205054, 46.066890808148216], [-60.76491906855559, 46.066872933422594], [-60.76498443234211, 46.066855311190004], [-60.76503558383369, 46.06683741087973], [-60.765255699812805, 46.06683001625818], [-60.76552769315897, 46.06678673390801], [-60.76569572868702, 46.066788220313036], [-60.765825366553216, 46.06677995506745], [-60.76599323528161, 46.06675353626706], [-60.766251895381885, 46.066719891993124], [-60.76654961724399, 46.066712221163776], [-60.76678374174395, 46.066678087006935], [-60.766860383018184, 46.06666968463918], [-60.767002914848746, 46.06666167009977], [-60.767080848093016, 46.06665329283711], [-60.76711907855001, 46.0666351390448], [-60.76722251272939, 46.066635360539756], [-60.76744262776965, 46.066627961683416], [-60.76753346819314, 46.06661983634754], [-60.76779164174941, 46.066630281456256], [-60.76796005256113, 46.06662277137557], [-60.76847678810036, 46.066634675181184], [-60.768967647982635, 46.06664695337236], [-60.7694071526999, 46.066650144312185], [-60.76967826042311, 46.066660828692555], [-60.769782044184524, 46.066652054207694], [-60.76994971732257, 46.066662527760435], [-60.77032411513167, 46.06670943766277], [-60.770453957597006, 46.066728172608116], [-60.7705272719835, 46.06675420170895], [-60.77058271347053, 46.06677388765473], [-60.770672466762605, 46.06679274905991], [-60.77098202310722, 46.0668761844982], [-60.771032654024104, 46.06690327376745], [-60.7711867331538, 46.06699447562666], [-60.77121775240812, 46.067010876642904], [-60.771289286766155, 46.06704869716116], [-60.77149332341409, 46.06724797895197], [-60.771596446420105, 46.06732019428072], [-60.771655024384, 46.06738340421755], [-60.77167203854941, 46.06740177305346], [-60.771693393030326, 46.067426031856826], [-60.77179939867558, 46.06754646481167], [-60.7718314487298, 46.06758481094108], [-60.77183764191711, 46.067592213122865], [-60.771901244300516, 46.06768255837634], [-60.771898447901876, 46.06788051446199], [-60.771898196668275, 46.06788257967316], [-60.77188505878853, 46.06798826812308], [-60.771871620472815, 46.06803299944245], [-60.77181777952667, 46.068149855664515], [-60.77171172467101, 46.06831069585651], [-60.77169848357972, 46.06842375366056], [-60.77169795006704, 46.06842833350028], [-60.77164536082432, 46.06848131962786], [-60.771450637096905, 46.06859721869587]]}, "properties": {"OBJECTID": 194503, "FEAT_CODE": "WARV50", "FEAT_DESC": "River - Single Line", "RIVNAME_1": " ", "RIVNAME_2": " ", "ZVALUE": 9999, "FID": null, "SHAPE_Length": 928.1735581861426}}, {"type": "Feature", "id": 194504, "geometry": {"type": "LineString", "coordinates": [[-60.770734035236636, 46.06898825925844], [-60.77065539979739, 46.069078529695595]]}, "properties": {"OBJECTID": 194504, "FEAT_CODE": "WARV50", "FEAT_DESC": "River - Single Line", "RIVNAME_1": " ", "RIVNAME_2": " ", "ZVALUE": 9999, "FID": null, "SHAPE_Length": 11.73371211597754}}, {"type": "Feature", "id": 270712, "geometry": {"type": "LineString", "coordinates": [[-60.76948941473406, 46.06239451070719], [-60.7691917650378, 46.062401299538436], [-60.768933598239094, 46.06239084869514], [-60.76870126928226, 46.062380919921544], [-60.76841690138733, 46.062378965652826], [-60.76832641767148, 46.062378098164494], [-60.768261785681254, 46.062377726627496], [-60.76815804566532, 46.06238560953089], [-60.768093050731004, 46.06239424029933], [-60.76787275743398, 46.06243854792238], [-60.76774302090767, 46.062481906471135], [-60.76765213813892, 46.062490931191135], [-60.76756187112275, 46.06251706880431], [-60.76732905702911, 46.06255122116317], [-60.76717282901681, 46.06257786944276], [-60.76703012281872, 46.06262188274048], [-60.766796773044895, 46.062701025998216], [-60.766550333472225, 46.062816814882915], [-60.76635446117378, 46.06289668992432], [-60.766238354256906, 46.06292232126685], [-60.76596636758885, 46.06296560543941], [-60.76549978130269, 46.06302578399486], [-60.76529206364629, 46.06307842405206], [-60.765150296526556, 46.063131453860066], [-60.76486415176939, 46.06323746187289], [-60.76473436152234, 46.06328172500072], [-60.76444981580993, 46.063315759337335], [-60.76432054876949, 46.06331503878077], [-60.76415250085583, 46.06331444114195], [-60.76404836991245, 46.063331304151184], [-60.76347786233546, 46.06343534293453], [-60.76284306019274, 46.0635939228644], [-60.76271311528894, 46.063610279145344], [-60.76267395709576, 46.063619412809565], [-60.762544164283426, 46.063663673397585], [-60.76240252942446, 46.06368070042176], [-60.76232426210313, 46.06369806843574], [-60.76227311271993, 46.06371596757775], [-60.762026644053016, 46.06376784264394], [-60.76190920514528, 46.06379434353981], [-60.76148264374371, 46.06379138631426], [-60.761391770902684, 46.06380040624621], [-60.761276036587695, 46.063817039353495], [-60.761159311768175, 46.06382555249053], [-60.76108175843125, 46.06382493266388], [-60.760990558107444, 46.063842046300046], [-60.76093904442281, 46.06386893819528], [-60.760900086432486, 46.06390507664685], [-60.76076902412477, 46.06401231376896], [-60.76067840067153, 46.06404743944385], [-60.76057391650118, 46.06407329285116], [-60.76045865933198, 46.064045832080026], [-60.76043564534382, 46.064034940351576], [-60.76038126916043, 46.06400921301428], [-60.760332158397894, 46.063986928060125], [-60.76024033671891, 46.06394524671119], [-60.760197208027115, 46.063930423380505], [-60.76016254656264, 46.06391852019412], [-60.76003331510753, 46.063916886431784], [-60.759955397765864, 46.063925259193525], [-60.75985144120209, 46.06397002331593], [-60.75970930284803, 46.064032039579885], [-60.75957912991066, 46.06408528983416], [-60.75934469758374, 46.06419139810278], [-60.75927952224313, 46.06423602227834], [-60.759226551218184, 46.06429888677834], [-60.75916160166034, 46.064370507785355], [-60.75907042169257, 46.06445064172028], [-60.75891352857964, 46.06455736101535], [-60.75851068579047, 46.0647348677816], [-60.75838014552343, 46.06479711894986], [-60.75824999574058, 46.064850359140195], [-60.758107111987236, 46.06493035975896], [-60.75797751181906, 46.06500162040412], [-60.757860432761326, 46.06501912370765], [-60.757640535512145, 46.065053509822654], [-60.75749833285317, 46.0650525096392], [-60.7572789518497, 46.06504191174276], [-60.75718751281355, 46.065032925234775], [-60.75700656393894, 46.065031163756885], [-60.75691645375353, 46.06502129407256], [-60.756334724827106, 46.06501797100655], [-60.75610243782621, 46.06500710837675], [-60.756025445852174, 46.06502449712308], [-60.75598627271258, 46.06503362820016], [-60.755947502902934, 46.06503376669626], [-60.755896175655195, 46.065023757967914], [-60.755817657004414, 46.065015015163155], [-60.75567583174493, 46.06500502863269], [-60.75540437177168, 46.06500329554234], [-60.75521106564315, 46.06501929840446], [-60.75510725730316, 46.0650280591575], [-60.75504190568445, 46.06504567597862], [-60.75500370900955, 46.065062926348524], [-60.7549505346397, 46.06509878339704], [-60.75489848513031, 46.0651706644878], [-60.75485866220325, 46.06525988677081], [-60.75484504344808, 46.06530555762694], [-60.75483172245993, 46.06535026228023], [-60.75480462144066, 46.065412733093886], [-60.754764564421734, 46.065475840319635], [-60.754738192467414, 46.065520333466104], [-60.75469922930461, 46.06555646969768], [-60.75467266002902, 46.06557394848077], [-60.75456925858295, 46.06563671968084], [-60.75450356481569, 46.06566242990904], [-60.75441288542779, 46.06569844955899], [-60.75429620524393, 46.06570605650984], [-60.75414104440197, 46.065705706468144], [-60.753921674984866, 46.06569509334936], [-60.753869594098155, 46.06570396992227], [-60.75375347593957, 46.065729588348034], [-60.753636956213164, 46.06576509929825], [-60.753532991243524, 46.06580985749969], [-60.75345490240693, 46.06585422441253], [-60.753324002284096, 46.06592545331126], [-60.753089931191326, 46.06608555967108], [-60.75301054925249, 46.0661299098467], [-60.75292028304315, 46.06615602689858], [-60.75286782355882, 46.066173896057066], [-60.75271325975078, 46.06619065674958], [-60.75264846776457, 46.066226284187536], [-60.752569647346505, 46.0662886370806], [-60.75255632568874, 46.06629827554545], [-60.752516301607216, 46.06636049157775], [-60.75245115903109, 46.06646811591879], [-60.752371804130945, 46.06657546060326], [-60.75234539356267, 46.06662084348162], [-60.75231938466227, 46.06665633371867], [-60.75229280119469, 46.066673811667414], [-60.75225366507003, 46.0666829421918], [-60.752188650004975, 46.06669156351178], [-60.752059741365464, 46.06668182664189], [-60.75195690570736, 46.06669870411188], [-60.751917743673694, 46.066707834011304], [-60.75169692409677, 46.0667961844628], [-60.75164411014352, 46.06682307357264], [-60.7515793045466, 46.06685868213339], [-60.75142239037415, 46.06696539070711], [-60.75138382555464, 46.06699164210698], [-60.75129314201898, 46.06702765919524], [-60.75121485344002, 46.067045028175436], [-60.7511372963246, 46.06704439252287], [-60.75094395846095, 46.06706128758844], [-60.75080138527005, 46.06706928126254], [-60.7507227313978, 46.06709563420151], [-60.750618761631046, 46.067140389651655], [-60.75057963599229, 46.06714861075934], [-60.75051557215292, 46.067166259345484], [-60.75022973221424, 46.067263236184495], [-60.75011264619433, 46.06728073140705], [-60.749983931919616, 46.06729799748817], [-60.74987980252603, 46.067314847606994], [-60.7497706485728, 46.067374819006986], [-60.74961647365555, 46.06745950985455], [-60.749438451799236, 46.0676590629654], [-60.749337610520776, 46.06777533375356], [-60.74932693355663, 46.06778764308553], [-60.74915892747515, 46.067820344019474], [-60.749090882209025, 46.067859235517645], [-60.74897922967081, 46.06791795986373], [-60.74884420048174, 46.067972812274775], [-60.748689403008434, 46.06801773444451], [-60.74864938191766, 46.06801870085209], [-60.74857226485671, 46.06802056526566], [-60.74848711754695, 46.06802211835582], [-60.74837787946199, 46.06802464564997], [-60.74827926628965, 46.06804443818393], [-60.7482321236674, 46.068053904546495], [-60.748200577241, 46.06806428133842], [-60.74813946313743, 46.068084389863124], [-60.74807242814839, 46.068128934973345], [-60.748009619194114, 46.06817067419361], [-60.747905305632905, 46.06825555356814], [-60.74781610607138, 46.06829725845393], [-60.747812770969084, 46.06829882179305], [-60.747650757511735, 46.06833036957923], [-60.74747193430461, 46.068330768024474], [-60.747433629238024, 46.06833086779261], [-60.74730462177435, 46.06836129278638], [-60.74725724084991, 46.06837247314051], [-60.74721649343221, 46.068384288312046], [-60.7471465393314, 46.06840458200375], [-60.74704175984107, 46.06844050674878], [-60.74693390192971, 46.068485344171215], [-60.746830499881455, 46.06852903630747], [-60.74679825838251, 46.06854218015362], [-60.746707280362465, 46.06857925884732], [-60.74666890257932, 46.068594162726725], [-60.74663777734201, 46.06860624848651], [-60.74654350690807, 46.06865082251753], [-60.746517214347826, 46.0686633095874], [-60.74643998461494, 46.06869999322471], [-60.74635794077966, 46.068730416508004], [-60.74623888403099, 46.06879620149912], [-60.74615149111308, 46.068763956719124], [-60.746120767755976, 46.06874679868246], [-60.74607714113276, 46.06876420894918], [-60.74600838194835, 46.06879165390447], [-60.74592510726589, 46.06880117146125], [-60.74588026867549, 46.06886707036641], [-60.74586415766837, 46.068884510436995], [-60.74585821927292, 46.06889093661853], [-60.74576027360675, 46.06889872449712]]}, "properties": {"OBJECTID": 270712, "FEAT_CODE": "WARV50", "FEAT_DESC": "River - Single Line", "RIVNAME_1": "MacKay Brook", "RIVNAME_2": " ", "ZVALUE": 9999, "FID": null, "SHAPE_Length": 2104.474393131042}}]}