{"type": "FeatureCollection", "features": [{"type": "Feature", "id": 157427, "geometry": {"type": "LineString", "coordinates": [[-60.892137196222976, 46.47901323965205], [-60.8921388860598, 46.47882685599578], [-60.89212920860001, 46.478756658391305], [-60.892127692730206, 46.47874565057148], [-60.892126866929566, 46.478742746379844], [-60.89211507489282, 46.478701318449176], [-60.892089704721705, 46.47865626520965], [-60.89206387185602, 46.47861037544273], [-60.89205035854355, 46.47857303771973], [-60.89203797618768, 46.47853879881156], [-60.892033372296765, 46.478514315209694], [-60.89202608813253, 46.47847558035406], [-60.89204513844593, 46.47841781928217], [-60.89205264839453, 46.4783950710168], [-60.89206455513194, 46.47836035295841], [-60.89208055817597, 46.478313686564974], [-60.89211942873387, 46.478251403973374], [-60.89212965005506, 46.478235356615485], [-60.89215964879833, 46.47818824625939], [-60.892199227045786, 46.47810797689652], [-60.89223953475437, 46.478008821187004], [-60.89225768439783, 46.477984145087404], [-60.89226565920956, 46.47797330323908], [-60.89233122066408, 46.477928612446185], [-60.89243450286896, 46.477893544883976], [-60.89243682604696, 46.47789275972032], [-60.892554113008444, 46.47785802221966], [-60.8926327270954, 46.477812671869245]]}, "properties": {"OBJECTID": 157427, "FEAT_CODE": "WARV10", "FEAT_DESC": "Double Line River - Water to the left line", "RIVNAME_1": "Northeast Margaree River", "RIVNAME_2": "MacLeods Pool", "ZVALUE": 9999, "FID": null, "SHAPE_Length": 153.6948539521687}}, {"type": "Feature", "id": 157428, "geometry": {"type": "LineString", "coordinates": [[-60.88812201200112, 46.484051106277846], [-60.88812210662088, 46.48405101802677], [-60.88828046658958, 46.483899091075294], [-60.888333636769055, 46.483848296794655], [-60.888411700862235, 46.48377371657131], [-60.88850399501634, 46.483711521957105], [-60.88855619881237, 46.483675586540606], [-60.88870256107478, 46.48358380867701], [-60.88871375066116, 46.48357679740397], [-60.88879165836218, 46.483550336438206], [-60.8889089598058, 46.483515602951655], [-60.888919806080686, 46.48351308526362], [-60.888948401433524, 46.4835064313657], [-60.88896631816711, 46.48350267624513], [-60.88898780824621, 46.483498159112195], [-60.88904686330945, 46.483498286533475]]}, "properties": {"OBJECTID": 157428, "FEAT_CODE": "WARV10", "FEAT_DESC": "Double Line River - Water to the left line", "RIVNAME_1": "Northeast Margaree River", "RIVNAME_2": "Marsh Pool", "ZVALUE": 9999, "FID": null, "SHAPE_Length": 97.27006825502528}}, {"type": "Feature", "id": 157433, "geometry": {"type": "LineString", "coordinates": [[-60.88262590231455, 46.490913416774426], [-60.882594353536646, 46.49087989292374], [-60.882523269408466, 46.49080442638689], [-60.88238097425076, 46.49067758350829], [-60.88222593306768, 46.49054242245519], [-60.882136336557785, 46.49043365519025], [-60.88208501020873, 46.49037960509356], [-60.882026585211676, 46.49027884008106], [-60.88199585805768, 46.490225855536885], [-60.88193195512642, 46.49012657297059], [-60.88192806275887, 46.490104667146284]]}, "properties": {"OBJECTID": 157433, "FEAT_CODE": "WARV10", "FEAT_DESC": "Double Line River - Water to the left line", "RIVNAME_1": "Northeast Margaree River", "RIVNAME_2": "Second Brook Pool", "ZVALUE": 9999, "FID": null, "SHAPE_Length": 105.48754962113983}}, {"type": "Feature", "id": 158458, "geometry": {"type": "LineString", "coordinates": [[-60.8926327270954, 46.477812671869245], [-60.89281557493952, 46.477733234086024], [-60.89301182181415, 46.477644161062926], [-60.89308940489935, 46.477622119127254], [-60.89310402564308, 46.477617969620816], [-60.893117586173965, 46.47761428656865], [-60.89323436489873, 46.47758256296883], [-60.89342678093283, 46.477520472326944], [-60.89348237122503, 46.477502533833466], [-60.893691287564984, 46.4774226839788], [-60.89384800880074, 46.47737878077841], [-60.89385167818992, 46.477377543391675], [-60.89392719432241, 46.47735233084578], [-60.89402483115762, 46.477316311859695], [-60.89407124447052, 46.477299185022055], [-60.89409555020543, 46.47729252281952], [-60.89413576235855, 46.47728147365831], [-60.89426545102425, 46.47724870881631], [-60.894344937551026, 46.47722862706484], [-60.89446321139793, 46.47720200568795], [-60.8945404001555, 46.477193527348405], [-60.89459322783697, 46.47717559143736], [-60.89465837951129, 46.477148198562226], [-60.89469781478577, 46.477131617960715], [-60.89472423238718, 46.47712221354615], [-60.89477607873681, 46.4770952685836], [-60.89485500218788, 46.477041822493945], [-60.895000164479896, 46.47692569670422], [-60.89517078032946, 46.476792039555676], [-60.89524804429574, 46.47673903963576], [-60.89534072322724, 46.47667546956594], [-60.8954992613822, 46.47655058948021], [-60.89568222079118, 46.476434258585144], [-60.8957606655985, 46.476385744000986], [-60.895826352290754, 46.47634511245831], [-60.8960498364446, 46.47615752764554], [-60.89605018321382, 46.47614853413011], [-60.896063286045724, 46.476112784672196], [-60.896067278571806, 46.476105190233724], [-60.8960773449246, 46.476086025703886], [-60.89609754976673, 46.47603028316795], [-60.89610358552486, 46.47601361843288], [-60.89611634187706, 46.47598685348948], [-60.896122256434424, 46.47597738644074], [-60.89614411136172, 46.47594236502507], [-60.89616212073369, 46.47591788371816], [-60.89617023226948, 46.47590684611401], [-60.8961747660354, 46.47589703865682], [-60.89618301021902, 46.47587918157054], [-60.8961961259114, 46.47584343233283], [-60.89623827107268, 46.47578727451689], [-60.89626341559926, 46.47575376259414], [-60.89627979731424, 46.47572621835198], [-60.89628988306011, 46.47570925013442], [-60.896302724353234, 46.47564648714184], [-60.89632887968228, 46.475610068836964]]}, "properties": {"OBJECTID": 158458, "FEAT_CODE": "WARV10", "FEAT_DESC": "Double Line River - Water to the left line", "RIVNAME_1": "Northeast Margaree River", "RIVNAME_2": " ", "ZVALUE": 9999, "FID": null, "SHAPE_Length": 391.96028264215937}}, {"type": "Feature", "id": 158805, "geometry": {"type": "LineString", "coordinates": [[-60.88904686330945, 46.483498286533475], [-60.88920928057981, 46.48349864832702], [-60.88929939562846, 46.48352641172768], [-60.889507299209946, 46.48360854884788], [-60.88972855795612, 46.48368193221006], [-60.889948167476, 46.48376428459189], [-60.8901824946104, 46.483837017273], [-60.890377083750295, 46.48389189843133], [-60.89041554337875, 46.4839037409575], [-60.890467226107724, 46.48391966141076], [-60.89049426751367, 46.48392826026329], [-60.89057240753511, 46.483928802035706], [-60.89064960670948, 46.48392031750819], [-60.890741487602945, 46.48390312190689], [-60.8909510261678, 46.48384128834624], [-60.8909546381079, 46.48383952799963], [-60.89113427897432, 46.483751969880146], [-60.891145698833895, 46.48374809457817], [-60.89134287522202, 46.48368111833131], [-60.89155173009974, 46.48363727083574], [-60.89158623180385, 46.483626792252295], [-60.89166905181193, 46.48360163490319], [-60.89169146735059, 46.48358867443365], [-60.891761020519205, 46.48354843154954], [-60.89194531364574, 46.48343213130161], [-60.89208955805513, 46.48330699246922], [-60.89221272169045, 46.48319937458167], [-60.89222170197325, 46.48319153024391], [-60.89232758147728, 46.483047684020114], [-60.89240424768767, 46.48291367603465], [-60.892419799136015, 46.48288648605851], [-60.89244523660606, 46.48283812158608], [-60.89249995130576, 46.4827340654961], [-60.89259246232927, 46.48259897247586], [-60.89259400042654, 46.48259625586142], [-60.89263299790182, 46.48252772054763], [-60.89263986867684, 46.482506688454365], [-60.8926596072146, 46.48244631203211], [-60.892699522070416, 46.48235705785856], [-60.892718028651565, 46.482320139429355], [-60.89272634354151, 46.482303543894034], [-60.89273712690865, 46.482256097235464], [-60.892753027186515, 46.48218613716572], [-60.89276752363214, 46.48211440523974], [-60.89276757694659, 46.48209008852008], [-60.892767698828905, 46.48204240935], [-60.89277964130894, 46.48198046722731], [-60.892795389278824, 46.48189893048309], [-60.892809313484776, 46.48180827923248], [-60.89281012743201, 46.48176831672198], [-60.89281079053199, 46.481736307333996], [-60.89279904140735, 46.48160199241656], [-60.892796709470346, 46.481575003763815], [-60.89278732706619, 46.481466778147094], [-60.89277149626568, 46.48137304049718], [-60.89276294103509, 46.481322330424234], [-60.89274622654275, 46.48125349717901], [-60.89272584868705, 46.481169548589925], [-60.89270886612215, 46.481061110874904], [-60.89270181030445, 46.481016107363466], [-60.89269883392108, 46.48100344365461], [-60.89266376379107, 46.48085430802235], [-60.89262229911247, 46.48074053207952], [-60.89260132886286, 46.48068305922319], [-60.892542322429144, 46.48058765267484], [-60.89251181426948, 46.48053831088311], [-60.892408292047264, 46.48038520434016], [-60.892319125866024, 46.48023146237112], [-60.89224332642499, 46.4800689668674], [-60.8921792439615, 46.4799066963318], [-60.89215516013632, 46.47975414510875], [-60.89214380775648, 46.47960994651171], [-60.89214580886436, 46.47945698521629], [-60.89214646360358, 46.47937057130866], [-60.892146768289344, 46.47933098639343], [-60.89213531501732, 46.47922278550184], [-60.89213646946099, 46.47909409930178], [-60.892137196222976, 46.47901323965205]]}, "properties": {"OBJECTID": 158805, "FEAT_CODE": "WARV10", "FEAT_DESC": "Double Line River - Water to the left line", "RIVNAME_1": "Northeast Margaree River", "RIVNAME_2": " ", "ZVALUE": 9999, "FID": null, "SHAPE_Length": 763.1972740028863}}, {"type": "Feature", "id": 158806, "geometry": {"type": "LineString", "coordinates": [[-60.88192806275887, 46.490104667146284], [-60.881919123574555, 46.49005434519449], [-60.881907305627884, 46.489956018536034], [-60.881926551961726, 46.48992581149739], [-60.88194754649968, 46.48989286487878], [-60.8819610117431, 46.48984811492237], [-60.88197422262223, 46.48977636060428], [-60.882040695049966, 46.48964169380719], [-60.88213454610072, 46.48950663415478], [-60.88218613410729, 46.48945359047893], [-60.88221868775706, 46.48941858995722], [-60.88225275233944, 46.48938192543559], [-60.88230531490804, 46.48933699965216], [-60.88231212533801, 46.489331743870366], [-60.88241009060819, 46.489256141423155], [-60.88256774238206, 46.489122263104306], [-60.88267308654027, 46.489060305916134], [-60.88269978307166, 46.48904224256343], [-60.88275203963365, 46.48900685978258], [-60.88291630607995, 46.488912000973265], [-60.88292265096349, 46.488908329513556], [-60.88293939226688, 46.4888986586478], [-60.88301462371779, 46.48885514228805], [-60.88307590772164, 46.488820484509084], [-60.88309321375287, 46.488810698078936], [-60.88332800965538, 46.48870345575285], [-60.883472462396014, 46.4886413218842], [-60.88350306861341, 46.48862457270598], [-60.883537695027655, 46.488605629971104], [-60.88358990681462, 46.488569696984555], [-60.88367025379194, 46.48848028548312], [-60.88368020173707, 46.48847005676271], [-60.88369604005979, 46.488453763156265], [-60.88369638901392, 46.4884447697318], [-60.88372217525187, 46.488418247398414], [-60.88378740745309, 46.488382555334304], [-60.88399733276885, 46.48831174180086], [-60.88408137882506, 46.488297241506494], [-60.88410096386497, 46.488293860019795], [-60.88412981545267, 46.488290758023815], [-60.88417947146793, 46.488285422072664], [-60.8842449590508, 46.488276725125495], [-60.884257979746174, 46.48827696608434], [-60.88436326160967, 46.48825011473035], [-60.88457153485962, 46.48818826855519], [-60.884650956320755, 46.48815592550197], [-60.884702602036086, 46.48813489434057], [-60.8847156096808, 46.48813513500586], [-60.88488610029407, 46.488073490993685], [-60.88500545952041, 46.488030699691436], [-60.885108090339315, 46.487993898736704], [-60.885253297191255, 46.487929688593134], [-60.88533081197174, 46.48789541982364], [-60.88554047735276, 46.48779759899574], [-60.885645118020534, 46.487753634822546], [-60.885710696804544, 46.48770894818559], [-60.88576255771104, 46.48768200760063], [-60.88595929319457, 46.48754794735767], [-60.88613030038682, 46.48740531118057], [-60.886285463862826, 46.48726499179396], [-60.886288286209904, 46.487262434007086], [-60.88638038008281, 46.48717233778114], [-60.88643394773547, 46.48710132900802], [-60.88656599590066, 46.486921972400076], [-60.886671976441875, 46.486742133786926], [-60.88671412304912, 46.48667733968216], [-60.886724624869295, 46.486661199008886], [-60.88673645750709, 46.48663761302877], [-60.88677828286801, 46.486554201198416], [-60.886884623382585, 46.4863653691484], [-60.88693798057336, 46.48626645659679], [-60.88699092830299, 46.486177436326045], [-60.88707119212485, 46.485989022132095], [-60.88717753011592, 46.48580019875026], [-60.88728383321507, 46.48561225660942], [-60.88737715000407, 46.485423183409075], [-60.88739650793762, 46.48538896354899], [-60.88748345164149, 46.48523524104726], [-60.887501474515126, 46.48520050150609], [-60.88757638360445, 46.485056069441], [-60.88768237002545, 46.48487622996057], [-60.887716541413745, 46.48480231523456], [-60.887736407698306, 46.48475932981606], [-60.88775065389682, 46.4847265544324], [-60.887763583152115, 46.48469683267764], [-60.88777678493503, 46.48462507748027], [-60.8878167579799, 46.484534908111755], [-60.887884253553445, 46.4843732660823], [-60.887908899448234, 46.48433268190202], [-60.88794965984917, 46.4842655757433], [-60.888007222050945, 46.48418784508778], [-60.88805551819581, 46.48412262407691], [-60.888121400000884, 46.484051769964545], [-60.888121930401084, 46.48405119476941], [-60.88812201200112, 46.484051106277846]]}, "properties": {"OBJECTID": 158806, "FEAT_CODE": "WARV10", "FEAT_DESC": "Double Line River - Water to the left line", "RIVNAME_1": "Northeast Margaree River", "RIVNAME_2": " ", "ZVALUE": 9999, "FID": null, "SHAPE_Length": 869.2407055415201}}, {"type": "Feature", "id": 182573, "geometry": {"type": "LineString", "coordinates": [[-60.88336301512633, 46.49253624325088], [-60.88336367484721, 46.49251924569449], [-60.88336371324364, 46.49251825641873], [-60.88336388168184, 46.49249142189974], [-60.88336423740545, 46.49243726721692], [-60.88335311424859, 46.4923209628548], [-60.88335300374192, 46.49227915637249], [-60.883352953321754, 46.49225796072465], [-60.883342207729925, 46.49220075655283], [-60.883341072932254, 46.49219474162428], [-60.883340272070186, 46.4921918738358], [-60.8833285074352, 46.492149510495864], [-60.88332505006933, 46.49213417369243], [-60.8833162650107, 46.49209528456811], [-60.88330468068812, 46.492075135364736], [-60.883290630073425, 46.492050710555795], [-60.88327849483387, 46.491960487090964], [-60.8832725826417, 46.491939236914966], [-60.88326591644949, 46.49191525481528], [-60.88320260028717, 46.49183398361535], [-60.88319003501308, 46.49178875157301], [-60.883202103461436, 46.49177997514031], [-60.883202452537496, 46.49177098172399], [-60.883212761266, 46.4917642336815], [-60.88321582313171, 46.49176222939891], [-60.883234922090885, 46.49175898305853], [-60.88326828015664, 46.491753300749686], [-60.883294403413885, 46.49175373040175], [-60.883319810113015, 46.4917353550333], [-60.88333327474386, 46.49169060491751], [-60.88325695026817, 46.49160909291117], [-60.88315333986872, 46.491491985116284], [-60.88307293251639, 46.491418317282], [-60.88302497687922, 46.49137440089702], [-60.8829643323946, 46.49132436361128], [-60.882947994486706, 46.49131086725686], [-60.882933993660174, 46.49130161712047], [-60.882926587805876, 46.491296359052264], [-60.88288325659441, 46.49126557806484], [-60.882801974992674, 46.49120874162294], [-60.8827272263884, 46.49115649004836], [-60.882688825670805, 46.49113867912318], [-60.88255873131313, 46.491066070709486], [-60.8824468422384, 46.490987058426825]]}, "properties": {"OBJECTID": 182573, "FEAT_CODE": "WARV20", "FEAT_DESC": "Double Line River - Water to the right line", "RIVNAME_1": "Northeast Margaree River", "RIVNAME_2": " ", "ZVALUE": 9999, "FID": null, "SHAPE_Length": 207.4003220679713}}, {"type": "Feature", "id": 182577, "geometry": {"type": "LineString", "coordinates": [[-60.891759657459986, 46.479032260992234], [-60.89175980925107, 46.478972027498344], [-60.89175982081653, 46.47896026484962], [-60.89174838173157, 46.47885205517335], [-60.89175236947386, 46.478836513892276], [-60.891775985118926, 46.47874456545567], [-60.89178394489307, 46.47866938311686], [-60.89179034533854, 46.47860893185004], [-60.8917913677993, 46.478538301529085], [-60.89179191165032, 46.47850096199349], [-60.891791999803964, 46.4784649640388], [-60.891817247826644, 46.47838841751118], [-60.89181856040383, 46.47838445476146], [-60.8918457274359, 46.478321965449986], [-60.891851560962245, 46.4783152960972], [-60.89188525325439, 46.4782767858217], [-60.89193247557223, 46.47822864313129], [-60.89193814449445, 46.47822286172852], [-60.89196461671774, 46.47817835036711], [-60.89203130901684, 46.47807068132952], [-60.89206598914346, 46.478018059377455], [-60.892096351773986, 46.47797198173392], [-60.892189080105275, 46.47786479263883], [-60.892380984600535, 46.47772021928038], [-60.89243875411215, 46.477676905762124]]}, "properties": {"OBJECTID": 182577, "FEAT_CODE": "WARV20", "FEAT_DESC": "Double Line River - Water to the right line", "RIVNAME_1": "Northeast Margaree River", "RIVNAME_2": "MacLeods Pool", "ZVALUE": 9999, "FID": null, "SHAPE_Length": 165.50380095682274}}, {"type": "Feature", "id": 182578, "geometry": {"type": "LineString", "coordinates": [[-60.89243875411215, 46.477676905762124], [-60.89244098927954, 46.477676037976885]]}, "properties": {"OBJECTID": 182578, "FEAT_CODE": "WARV20", "FEAT_DESC": "Double Line River - Water to the right line", "RIVNAME_1": "Northeast Margaree River", "RIVNAME_2": "MacLeods Pool", "ZVALUE": 9999, "FID": null, "SHAPE_Length": 0.19688067420972033}}, {"type": "Feature", "id": 182579, "geometry": {"type": "LineString", "coordinates": [[-60.887641049796116, 46.483922459362496], [-60.88772007143072, 46.483868939042864], [-60.887728439385285, 46.48385303784395], [-60.88773413580229, 46.483842199223346], [-60.88775329202675, 46.48381585947205], [-60.887786431149415, 46.4837702662937], [-60.887829227699214, 46.48373368041493], [-60.88783898367837, 46.48372533775815], [-60.88786476597092, 46.48369880540545], [-60.887943344244576, 46.48365436662775], [-60.88798314733299, 46.483636202163154], [-60.88804906735701, 46.483582520582786], [-60.88808786873216, 46.48355623767698], [-60.888114639084606, 46.48353783241962], [-60.88813597954398, 46.48352102783419], [-60.88819392659707, 46.48347539779197], [-60.88829522780453, 46.48340635880365], [-60.88832506944956, 46.483386021249856], [-60.888332537042444, 46.48338361220996], [-60.88835145670066, 46.48337750873914], [-60.88841163742532, 46.4833502346172], [-60.8884296990251, 46.48334206331065], [-60.888430675004074, 46.48334175734039], [-60.888520648203624, 46.48331493440826], [-60.88857997835024, 46.48331535514814], [-60.88859880029937, 46.483315477755355], [-60.88861464042402, 46.4833155542916], [-60.88872906540194, 46.483316083433095], [-60.88876552595011, 46.48332131968132], [-60.8887938499046, 46.48332537967844], [-60.888951108077435, 46.48333548344969], [-60.8889691812817, 46.48333980411855], [-60.88902855117117, 46.48335401318953], [-60.88904442322309, 46.48335629522853]]}, "properties": {"OBJECTID": 182579, "FEAT_CODE": "WARV20", "FEAT_DESC": "Double Line River - Water to the right line", "RIVNAME_1": "Northeast Margaree River", "RIVNAME_2": "Marsh Pool", "ZVALUE": 9999, "FID": null, "SHAPE_Length": 138.08563408908577}}, {"type": "Feature", "id": 182583, "geometry": {"type": "LineString", "coordinates": [[-60.8824468422384, 46.490987058426825], [-60.88238511427409, 46.490943471675486], [-60.88231394964075, 46.49089323918371], [-60.882216453834, 46.49081271129698], [-60.88217127912908, 46.49077539797359], [-60.88211995243503, 46.49072134788966], [-60.88204328185418, 46.49064882852462], [-60.88191399606828, 46.49052223505752], [-60.88188895352817, 46.490495671454646], [-60.88186361056041, 46.49046342335491], [-60.88181072719594, 46.49039612346221], [-60.88176587586875, 46.490336073264935], [-60.88169553351449, 46.4902418911923], [-60.88164525572298, 46.490160860676895]]}, "properties": {"OBJECTID": 182583, "FEAT_CODE": "WARV20", "FEAT_DESC": "Double Line River - Water to the right line", "RIVNAME_1": "Northeast Margaree River", "RIVNAME_2": "Second Brook Pool", "ZVALUE": 9999, "FID": null, "SHAPE_Length": 111.25002659942899}}, {"type": "Feature", "id": 183091, "geometry": {"type": "LineString", "coordinates": [[-60.89244098927954, 46.477676037976885], [-60.892491422173116, 46.47765975987065], [-60.892516885942456, 46.47764133848718], [-60.89259441558927, 46.477595725174545], [-60.89262219614384, 46.47757938044971], [-60.89275262274882, 46.47750798537243], [-60.89279240671975, 46.47748981887362], [-60.89284170790854, 46.47746741782423], [-60.89291042227415, 46.477436185654106], [-60.89308016231309, 46.4773925234473], [-60.8930864841688, 46.47738838300128], [-60.89309352775746, 46.477383769861184], [-60.893210487674104, 46.477357125566115], [-60.89321796447537, 46.47735411338313], [-60.89327666796865, 46.47733044542539], [-60.893355777361215, 46.47729787455602], [-60.89340639870025, 46.47727703657101], [-60.89351196741483, 46.4772420821651], [-60.893617481974445, 46.477218313534976], [-60.89370777772191, 46.47719799038262], [-60.893916605846, 46.47715413807474], [-60.894034185497354, 46.47714550414595], [-60.89412473945034, 46.477128272384974], [-60.894159568754574, 46.477118636046804], [-60.89434727922904, 46.47706667206294], [-60.89441549637068, 46.477053015627504], [-60.894437867664635, 46.47704854069942], [-60.89452946243009, 46.477004328097756], [-60.894635029927436, 46.476969372632304], [-60.8947136410281, 46.47692402079404], [-60.89475209723215, 46.47690141021353], [-60.89490958670092, 46.4768088302643], [-60.8949993396781, 46.476737034689734], [-60.895066859111836, 46.476683027483034], [-60.895224704082736, 46.47657613480811], [-60.89536953046338, 46.47646900225696], [-60.89540285881856, 46.476437468159844], [-60.89543578133373, 46.47640632257751], [-60.89550107711831, 46.476334625381384], [-60.89552454451415, 46.476314555596275], [-60.89555361604015, 46.476289693019524], [-60.895645294192605, 46.47620948146876], [-60.895672716998675, 46.476173995635406], [-60.895712683426034, 46.476083823300534], [-60.89572551246624, 46.476021060149556], [-60.89577943814206, 46.47594015361747], [-60.89585887653168, 46.475805717229846], [-60.895925630499875, 46.4756620474428], [-60.89597913093418, 46.4754911340083], [-60.896032583321606, 46.47532111965049], [-60.89604681183809, 46.475222382618874], [-60.89604729006798, 46.475198829686], [-60.89604828413435, 46.47515041052694], [-60.89605020344693, 46.47497393083883], [-60.89605033292017, 46.47496145036213], [-60.89604887834465, 46.47495559165922], [-60.89602554755751, 46.47486199534825], [-60.8960263133246, 46.47480801004792], [-60.89602622423123, 46.47479849551522], [-60.89602579034902, 46.47475400103014], [-60.89598826060037, 46.47464621155691], [-60.89595007213724, 46.47455550975495], [-60.895937789646226, 46.47452472005066], [-60.89592512805948, 46.47449295137881], [-60.895925475175886, 46.474483948867956], [-60.89591399239289, 46.47446755571781], [-60.89588720122397, 46.47442925406666], [-60.89584411384851, 46.47436155580596], [-60.8958356141406, 46.474348205517174], [-60.895801047073256, 46.47430785275119], [-60.89571968468305, 46.4742128642716], [-60.89565534159284, 46.47415858954976], [-60.89561698295612, 46.47413988369533], [-60.89555159992128, 46.47411258047202], [-60.89543515318767, 46.47405823750983], [-60.89536978336127, 46.47403093442493], [-60.895365779472414, 46.47402801674881], [-60.89535709981104, 46.474021701032584], [-60.89530773271154, 46.47399863446307], [-60.89516260035501, 46.4739308212716], [-60.895124255067756, 46.47391211549626], [-60.89502090760322, 46.47385827427774], [-60.894968448472575, 46.47383094767628], [-60.89491476682144, 46.473804246533085], [-60.89474860963246, 46.47372160083908], [-60.89465302209867, 46.47367868406067], [-60.89456678258383, 46.47363995331146], [-60.89451846964629, 46.473613215852446], [-60.89445071956015, 46.47357571651365], [-60.89439734003079, 46.47354592472362], [-60.89438568481027, 46.47353941913173], [-60.894321344191106, 46.47348513469481]]}, "properties": {"OBJECTID": 183091, "FEAT_CODE": "WARV20", "FEAT_DESC": "Double Line River - Water to the right line", "RIVNAME_1": "Northeast Margaree River", "RIVNAME_2": " ", "ZVALUE": 9999, "FID": null, "SHAPE_Length": 670.5470818141645}}, {"type": "Feature", "id": 183238, "geometry": {"type": "LineString", "coordinates": [[-60.88904442322309, 46.48335629522853], [-60.88906849733464, 46.48335974569463], [-60.8890933487952, 46.483363309507084], [-60.889236891620946, 46.483391159426986], [-60.88934813444298, 46.48340389604668], [-60.88940551975236, 46.483410472376846], [-60.88943165138624, 46.483415634729326], [-60.88949603051286, 46.48342834305018], [-60.88953665557828, 46.48343572590368], [-60.88960082808947, 46.48344737736428], [-60.88969099072668, 46.48347425034548], [-60.88974887381558, 46.48349456952143], [-60.88976940171915, 46.48350178833663], [-60.88984810018586, 46.48352358065072], [-60.890002738942464, 46.48356639422069], [-60.890209998399605, 46.4836305183946], [-60.89021092120493, 46.48363091341921], [-60.89031380101859, 46.48367563336851], [-60.89040523193441, 46.48370342017611], [-60.89052312950951, 46.48372333435591], [-60.89062658138271, 46.48374080391588], [-60.89067836009866, 46.48374985913047], [-60.890730460531074, 46.483749920368794], [-60.89083438084096, 46.48372393792273], [-60.890842293169996, 46.48372080793272], [-60.89092568991049, 46.48368782285917], [-60.89097693965359, 46.483660346633904], [-60.89099221373964, 46.4836521505011], [-60.89113637218222, 46.48356301083908], [-60.89120060851161, 46.48352583818295], [-60.891228328308074, 46.48350980768112], [-60.89133203666306, 46.48345592121916], [-60.8914366643949, 46.483411951496386], [-60.89152861997644, 46.48335874808642], [-60.891594337968684, 46.48331727358754], [-60.89171292594995, 46.483242448447236], [-60.89190927021372, 46.48311737059573], [-60.89194795762676, 46.48308689933121], [-60.89198855284628, 46.48305493324914], [-60.89205420886735, 46.48297424482683], [-60.8920757724376, 46.48294083882518], [-60.89209439792964, 46.48291198659209], [-60.89211437118151, 46.48286308945238], [-60.89212030023471, 46.48284856494782], [-60.89212335133211, 46.48284277127346], [-60.89213436218732, 46.482821824542114], [-60.89217571361682, 46.4827277911], [-60.89220149562211, 46.482669164158914], [-60.89222346773398, 46.48261607390254], [-60.892227362930605, 46.482606641832184], [-60.89224128795243, 46.482515999673495], [-60.89224368985302, 46.482318946373944], [-60.89223293125824, 46.482192749570274], [-60.892234109767536, 46.482090082553334], [-60.89223458499462, 46.482048781819465], [-60.89223486780551, 46.48198818177349], [-60.89223529727139, 46.48189579681834], [-60.892235788182006, 46.481857799332154], [-60.89223728541116, 46.48174283533569], [-60.89225161113667, 46.48160809208774], [-60.89225174958161, 46.481594054810685], [-60.89225248156209, 46.48151811822764], [-60.89226631828768, 46.48146347398715], [-60.89226767955344, 46.481357759364876], [-60.892268284556025, 46.48131141207996], [-60.89226852025963, 46.48129553161765], [-60.892269067025424, 46.48125743615882], [-60.892257266479525, 46.48115821080147], [-60.8922576888267, 46.48111321913136], [-60.89228338724997, 46.481050324669475], [-60.89228360303505, 46.48104979765404], [-60.892284297932875, 46.48103181068217], [-60.892298099741765, 46.480978065779496], [-60.89229821907533, 46.480929450565405], [-60.892298275502135, 46.480906069887325], [-60.89227368043837, 46.48083451731455], [-60.89225693273181, 46.48079185506425], [-60.892248772729815, 46.480771058874254], [-60.892159258945384, 46.480626310273344], [-60.89214594611573, 46.480599956138725], [-60.89201821216645, 46.48036541281641], [-60.89199417605507, 46.48021197145998], [-60.891943113329155, 46.48004993185619], [-60.89190571127984, 46.47990524391368], [-60.89188164054586, 46.47975271087272], [-60.891844934191724, 46.47959002694433], [-60.89180680325689, 46.47946421629483], [-60.891789256064705, 46.47936808885375], [-60.891782072681465, 46.4793287708528], [-60.8917462917414, 46.479041005416235]]}, "properties": {"OBJECTID": 183238, "FEAT_CODE": "WARV20", "FEAT_DESC": "Double Line River - Water to the right line", "RIVNAME_1": "Northeast Margaree River", "RIVNAME_2": " ", "ZVALUE": 9999, "FID": null, "SHAPE_Length": 717.9868732020454}}, {"type": "Feature", "id": 183239, "geometry": {"type": "LineString", "coordinates": [[-60.8917462917414, 46.479041005416235], [-60.89175332194519, 46.47903641011233], [-60.891759657459986, 46.479032260992234]]}, "properties": {"OBJECTID": 183239, "FEAT_CODE": "WARV20", "FEAT_DESC": "Double Line River - Water to the right line", "RIVNAME_1": "Northeast Margaree River", "RIVNAME_2": " ", "ZVALUE": 138.7, "FID": null, "SHAPE_Length": 1.4135067918725488}}, {"type": "Feature", "id": 183240, "geometry": {"type": "LineString", "coordinates": [[-60.88164525572298, 46.490160860676895], [-60.88163207558049, 46.490097617291674], [-60.88165782343025, 46.48998356186136], [-60.881660403906324, 46.489972143823515], [-60.88166044504077, 46.48995867176178], [-60.88166059415455, 46.48990014828928], [-60.881678956126194, 46.48986352598956], [-60.88168742998707, 46.489846646217885], [-60.88171381684061, 46.489802018705305], [-60.881766924225886, 46.48971222085052], [-60.881780040631455, 46.489676455333765], [-60.88178121810141, 46.48961258698147], [-60.88179398484071, 46.48958582386697], [-60.8818345265305, 46.489514584924834], [-60.88186086026737, 46.48948775816095], [-60.8818874522035, 46.489460657178086], [-60.881975800330345, 46.489391806840935], [-60.88197882364099, 46.48938945088124], [-60.88198431550102, 46.48938426069037], [-60.882045105494875, 46.48932678860929], [-60.882086483410085, 46.489279972750275], [-60.88212415438465, 46.48923734515192], [-60.88213928951835, 46.489224413692], [-60.88217671691357, 46.489192419426004], [-60.8821963515543, 46.48916998643143], [-60.8822162581202, 46.489147261474315], [-60.88231628586257, 46.48907088732073], [-60.882320999354675, 46.48906728467528], [-60.88235481403152, 46.4890383913921], [-60.88242612332063, 46.48897744199646], [-60.882453212511415, 46.48895094408311], [-60.88246417923258, 46.48893965435208], [-60.882478999243, 46.48892443103989], [-60.88255833603282, 46.48886110127363], [-60.882650322769955, 46.48880789659976], [-60.88283289480822, 46.48873656962374], [-60.88288415067968, 46.488711851112434], [-60.88292451826776, 46.48869237588517], [-60.882958843698965, 46.48867682970814], [-60.883002772084815, 46.48865692539534], [-60.88313533218575, 46.48853158155137], [-60.88317951831578, 46.48850167407188], [-60.88321428405359, 46.48847813507354], [-60.88331800934355, 46.48842426521026], [-60.88335811854083, 46.48839800813309], [-60.88351556474001, 46.48833612376413], [-60.883681547055126, 46.48825135748583], [-60.88377747233027, 46.48820237375533], [-60.88386838362186, 46.48817615684534], [-60.88406424071274, 46.48813208244845], [-60.88409140942449, 46.48812802232836], [-60.88418219416711, 46.48811446566374], [-60.88425082207518, 46.488094675973116], [-60.884273118148016, 46.48808824866674], [-60.88449549280578, 46.48799876484356], [-60.884704414957596, 46.48791982165292], [-60.88470948753709, 46.487917368537836], [-60.88488900631401, 46.4878305469836], [-60.88509737011355, 46.48773270378743], [-60.88528099416072, 46.48763440170635], [-60.88531999401983, 46.48761688930815], [-60.885438797712276, 46.4875635214127], [-60.88558262691819, 46.48748338257278], [-60.88564817902978, 46.48743870447697], [-60.88566087800579, 46.4874479122115], [-60.885687650416486, 46.487429525566746], [-60.886002834345234, 46.48719775696478], [-60.88613477903643, 46.48705439848185], [-60.886154193505796, 46.487026488803075], [-60.886253446142724, 46.486883794709065], [-60.886306094980156, 46.48680286913177], [-60.88637303118516, 46.48672310765406], [-60.88645263589011, 46.48655178150244], [-60.886533507258065, 46.486381378695796], [-60.88661274065577, 46.48621994543617], [-60.88666094642702, 46.48609627809774], [-60.88667927577609, 46.486049277509615], [-60.88677281736996, 46.4858881086138], [-60.886852384678065, 46.48571768146375], [-60.8868929649781, 46.48564553242661], [-60.886917412424395, 46.48562053260172], [-60.88697165175926, 46.48556508778255], [-60.88699179580773, 46.48553816342876], [-60.88701149985318, 46.48551183393173], [-60.88703039099564, 46.48545401680294], [-60.88703810645102, 46.48543041769493], [-60.88706796126526, 46.48535528940417], [-60.887105954219194, 46.485259773763254], [-60.887129511328325, 46.485202249845024], [-60.88717215120914, 46.485098099168006], [-60.88722517137342, 46.484978237499725], [-60.88723927929489, 46.484946350613804], [-60.887306416482005, 46.48479368419696], [-60.88732882864586, 46.48473038814827], [-60.8873605460972, 46.484640786374804], [-60.887370088357756, 46.48461475502967], [-60.88738676822964, 46.48456927182001], [-60.88742604493973, 46.484497098495304], [-60.88750656174305, 46.48433568829416], [-60.88751708754741, 46.48430040522415], [-60.887533514893136, 46.48424528744464], [-60.88755169389387, 46.48419809493007], [-60.8875610519343, 46.4841737881423], [-60.8875713487214, 46.48411783709078], [-60.887602294371135, 46.48394956195481]]}, "properties": {"OBJECTID": 183240, "FEAT_CODE": "WARV20", "FEAT_DESC": "Double Line River - Water to the right line", "RIVNAME_1": "Northeast Margaree River", "RIVNAME_2": " ", "ZVALUE": 9999, "FID": null, "SHAPE_Length": 877.8569041253879}}, {"type": "Feature", "id": 183241, "geometry": {"type": "LineString", "coordinates": [[-60.887602294371135, 46.48394956195481], [-60.88761273798437, 46.483949034926276], [-60.88761533586796, 46.483948902928425], [-60.88764042546843, 46.4839231048191], [-60.887641049796116, 46.483922459362496]]}, "properties": {"OBJECTID": 183241, "FEAT_CODE": "WARV20", "FEAT_DESC": "Double Line River - Water to the right line", "RIVNAME_1": "Northeast Margaree River", "RIVNAME_2": " ", "ZVALUE": 143.9, "FID": null, "SHAPE_Length": 4.544770412162857}}, {"type": "Feature", "id": 188420, "geometry": {"type": "LineString", "coordinates": [[-60.88018876417266, 46.47838450749057], [-60.8801415582369, 46.478441681545696], [-60.88013681375956, 46.47844744350676], [-60.880070180263125, 46.478519116132894], [-60.880004163256885, 46.478608781948445], [-60.879932291805574, 46.478705611078176], [-60.87992442839252, 46.478716202137456], [-60.87991965748145, 46.478721972599054], [-60.87987247734936, 46.47877913801968], [-60.879858378239284, 46.47881408415925], [-60.87985806108118, 46.4788148702687], [-60.87985526274634, 46.478819831317814], [-60.87979229640467, 46.478931549332344], [-60.87969919268273, 46.47904772132933], [-60.87962965756525, 46.479143738603575], [-60.87962072345012, 46.4791560647636], [-60.87955633922531, 46.479218427907945], [-60.87952866755462, 46.479245256359846], [-60.87942227796343, 46.47933418201453], [-60.879348672979425, 46.4794142208066], [-60.87933113877263, 46.47943329034092], [-60.87910805665295, 46.479575850449535]]}, "properties": {"OBJECTID": 188420, "FEAT_CODE": "WARV50", "FEAT_DESC": "River - Single Line", "RIVNAME_1": " ", "RIVNAME_2": " ", "ZVALUE": 9999, "FID": null, "SHAPE_Length": 157.8252555463833}}, {"type": "Feature", "id": 188421, "geometry": {"type": "LineString", "coordinates": [[-60.88097777149247, 46.47886622905631], [-60.88094485046981, 46.47890312143967], [-60.88093825858854, 46.47891049617292], [-60.88090769333012, 46.4789393953013], [-60.880871988213656, 46.47897316709389], [-60.88081994258558, 46.479072101239915], [-60.88077926408595, 46.479180245966454], [-60.880764308068294, 46.47929696739699], [-60.88076351396435, 46.47935095205991], [-60.88077025432468, 46.479369607791845], [-60.88078939509766, 46.4794225309944], [-60.88080231822253, 46.47945877013066], [-60.880853620364675, 46.47951282046529], [-60.88090561232547, 46.479549783758415], [-60.88093089082504, 46.47960334269478], [-60.88094346443335, 46.47964858423203], [-60.88093259136558, 46.479669244458506], [-60.88092939791548, 46.47967532319672], [-60.88090357969319, 46.479702744326715], [-60.88088334465925, 46.479711531154166], [-60.88086382519997, 46.479720007245476], [-60.880844715130515, 46.479726663942905], [-60.880812318983246, 46.47973795230779], [-60.88080102306176, 46.4797453478358], [-60.880772215106134, 46.47976420861498], [-60.88070721005374, 46.479827811878735], [-60.880601507226665, 46.479898742560366], [-60.880562032300666, 46.47994301024584], [-60.880535864393565, 46.479979424705895], [-60.88051181297556, 46.48002775826025], [-60.880482165884516, 46.480087327939735], [-60.88046475556259, 46.4801417785343], [-60.88044211090578, 46.480212583894144], [-60.88042716682643, 46.480329305485384], [-60.88041420128923, 46.480440033824195], [-60.88041349851632, 46.480446050725135], [-60.88043761076301, 46.48056349640022], [-60.880452962686675, 46.48062507930457], [-60.88046240922002, 46.48066294599906], [-60.880461996675876, 46.48069569797004], [-60.88046116932087, 46.480761930861036], [-60.88044735596134, 46.48081567414189], [-60.880440758609545, 46.48083760157395], [-60.88043389197213, 46.48086042400268], [-60.880406868894404, 46.480985903535895], [-60.880392478888105, 46.481121553160726], [-60.8803919720252, 46.48115572536399], [-60.88039088976108, 46.481229522435434], [-60.88039005075832, 46.48129605210128], [-60.88038965038202, 46.48132848929823], [-60.88040286190811, 46.48139084250964], [-60.88038901336897, 46.481445485115906], [-60.8803738120634, 46.48152019040384], [-60.88036163938316, 46.48157998501608], [-60.88023813152576, 46.48179621252608], [-60.88016173393349, 46.481929956403384]]}, "properties": {"OBJECTID": 188421, "FEAT_CODE": "WARV50", "FEAT_DESC": "River - Single Line", "RIVNAME_1": " ", "RIVNAME_2": " ", "ZVALUE": 9999, "FID": null, "SHAPE_Length": 365.3848560267745}}, {"type": "Feature", "id": 188422, "geometry": {"type": "LineString", "coordinates": [[-60.87910805665295, 46.479575850449535], [-60.87910283087714, 46.479582593427075], [-60.87909432584937, 46.47959359552074], [-60.87908582081811, 46.47960459761369], [-60.87908060805529, 46.47961134083162], [-60.87908065584389, 46.47963223047967], [-60.879080764522044, 46.47967434301487], [-60.87904078133635, 46.47976450022434], [-60.879000483352854, 46.479862751485925], [-60.878960150255374, 46.479961902070315], [-60.878941960674, 46.48003267279191], [-60.87893252102278, 46.48006938823792], [-60.87890530305137, 46.48013278253414], [-60.87887977149848, 46.4801863082256], [-60.87882706466084, 46.48026291844317], [-60.87879968237077, 46.480302720935605], [-60.87877178684552, 46.48034030892411], [-60.87871994257069, 46.480410140173376], [-60.87865452312794, 46.480517825071026], [-60.87861428613136, 46.48058096872448], [-60.87860587660439, 46.480603915414704], [-60.87860117005924, 46.48061673393307], [-60.87860033423515, 46.48068346165253], [-60.87859992713692, 46.480715709725594], [-60.87859894241262, 46.48076314790437], [-60.878598431420215, 46.48078768113851], [-60.87861090676273, 46.48086891168694], [-60.87862382526018, 46.48089652907779], [-60.878661424381235, 46.480976956812135], [-60.87869675915457, 46.481050619596715], [-60.8787132447858, 46.48108500808573], [-60.878725382543365, 46.48110657204792], [-60.87873883613826, 46.48113048239627], [-60.87875993813425, 46.48115135768985], [-60.87880282002169, 46.48119376883505], [-60.878838124609416, 46.48123470739426], [-60.8788414657845, 46.48123857634026], [-60.878905799218174, 46.481292878310136], [-60.87894845717536, 46.48132664534564], [-60.8790094431026, 46.48137490022124], [-60.87902909987249, 46.48138737874995], [-60.87913785840764, 46.481456481580814], [-60.879280595047994, 46.48153832845023], [-60.87943543345945, 46.48161050872268], [-60.879591286673175, 46.48165658991187], [-60.87974774267043, 46.48172069085484], [-60.87988987801944, 46.4817845260174], [-60.88016173393349, 46.481929956403384]]}, "properties": {"OBJECTID": 188422, "FEAT_CODE": "WARV50", "FEAT_DESC": "River - Single Line", "RIVNAME_1": " ", "RIVNAME_2": " ", "ZVALUE": 9999, "FID": null, "SHAPE_Length": 324.4393267404401}}, {"type": "Feature", "id": 188423, "geometry": {"type": "LineString", "coordinates": [[-60.878161473589905, 46.47798689498702], [-60.87816650051859, 46.47799363921021], [-60.878175093775766, 46.478005156569715], [-60.87818200497158, 46.478020062672506], [-60.87820033358768, 46.47805962440081], [-60.8782094809043, 46.478079674945405], [-60.87821233757436, 46.47808594689322], [-60.878212384465456, 46.47810584654148], [-60.87821249309579, 46.47814894907649], [-60.878227247509855, 46.47821442717539], [-60.87823693645705, 46.47825740151315], [-60.8782744331613, 46.47836519620416], [-60.878312834127456, 46.47848290755122], [-60.878313854967445, 46.47848647245635], [-60.878350596829016, 46.478617706845995], [-60.87835023640369, 46.47864238687973], [-60.878349800370465, 46.47867169145825], [-60.878374341217935, 46.47874414607059], [-60.87843917713192, 46.47885244804604], [-60.87851571686085, 46.478960967163516], [-60.878559360023225, 46.47902228333054], [-60.8785923178935, 46.47906858737511], [-60.87865651678609, 46.479159786593726], [-60.878722145314306, 46.47922293261947], [-60.878759492351726, 46.479258887171376], [-60.878862817578586, 46.479349003243605], [-60.87897877710363, 46.479449253503994], [-60.87910805665295, 46.479575850449535]]}, "properties": {"OBJECTID": 188423, "FEAT_CODE": "WARV50", "FEAT_DESC": "River - Single Line", "RIVNAME_1": " ", "RIVNAME_2": " ", "ZVALUE": 9999, "FID": null, "SHAPE_Length": 195.04739294929198}}, {"type": "Feature", "id": 188713, "geometry": {"type": "LineString", "coordinates": [[-60.87425717303106, 46.48801585646656], [-60.874261574379446, 46.4880072354113], [-60.87427128013653, 46.48798821911349], [-60.87433658266903, 46.48791743418092], [-60.87436279784432, 46.487890714928085], [-60.874389500658125, 46.48786351874151], [-60.874441717598316, 46.48782759001851], [-60.87456482704187, 46.48777669843546], [-60.87461256879009, 46.48775696723384], [-60.874680607323164, 46.487728973432155], [-60.874742329192294, 46.48770358013502], [-60.8747599780891, 46.48769639330481], [-60.87487340441095, 46.48765021732856], [-60.874991108542964, 46.48760560573262], [-60.875081399782204, 46.487572310371036], [-60.87513520373496, 46.4875524846265], [-60.87521381075669, 46.48750805513695], [-60.87524740356474, 46.48748492875042], [-60.87526601414834, 46.48747211678512], [-60.875384180119696, 46.487382513928644], [-60.875502647942795, 46.487284816659496], [-60.875632074272936, 46.48720482767306], [-60.87564684082637, 46.487195697171515], [-60.87577896468703, 46.48711535314674], [-60.87589711602023, 46.48702574948574], [-60.875968920920116, 46.48698163409306], [-60.876027937070944, 46.486945380967384], [-60.876061908331636, 46.486924898338664], [-60.87614668929689, 46.486873787987136], [-60.87630355016627, 46.4867939028873], [-60.876460760704944, 46.48670502417838], [-60.87660565069956, 46.486597916649146], [-60.87673621789756, 46.48649054293773], [-60.87678793590355, 46.48646200178228], [-60.87688134562032, 46.48641043913834], [-60.87701347168705, 46.48634165858076], [-60.87705158730621, 46.48632180160806], [-60.87707524203241, 46.486309929001045], [-60.87719511012837, 46.486249767508205], [-60.87730739393245, 46.4861862791138], [-60.877352317657355, 46.48616088751449], [-60.87749615461704, 46.48608075896847], [-60.87764129316594, 46.48600065440355], [-60.8777721092043, 46.48592028379122], [-60.87788990479784, 46.485839671349034], [-60.87789432505106, 46.485835568447555], [-60.877995344736796, 46.48574172966659], [-60.878043313468844, 46.48570268748116], [-60.87806127735677, 46.48568804507878], [-60.87812650947118, 46.48565236523007], [-60.87816770637104, 46.485624618169346], [-60.87821883133684, 46.48559017943114], [-60.878231421814725, 46.485572656312215], [-60.878245016615864, 46.48555376584767], [-60.87837750838435, 46.48532942740603]]}, "properties": {"OBJECTID": 188713, "FEAT_CODE": "WARV50", "FEAT_DESC": "River - Single Line", "RIVNAME_1": " ", "RIVNAME_2": " ", "ZVALUE": 9999, "FID": null, "SHAPE_Length": 441.4187126219746}}, {"type": "Feature", "id": 188787, "geometry": {"type": "LineString", "coordinates": [[-60.88793795337036, 46.476087155909944], [-60.888003077274966, 46.4760874590002], [-60.888119305737455, 46.47607970618958], [-60.88822387901153, 46.476070837082666], [-60.8882879529724, 46.47606595467425], [-60.88832840439824, 46.4760628678855], [-60.88840652699072, 46.47606323174034], [-60.88845865213659, 46.47606347448245], [-60.8885256822141, 46.47605626156516], [-60.88861563154107, 46.47604657391748], [-60.88868427493403, 46.47603739272436], [-60.88881074526726, 46.47602047745606], [-60.88890547919425, 46.476000591049406], [-60.88898017113939, 46.47598490644217], [-60.88908539210356, 46.47595894959787], [-60.88913748506837, 46.47595901143821], [-60.88927980955433, 46.475950839278404], [-60.88942342276566, 46.47594269073251], [-60.88948624769266, 46.47595493840177], [-60.88951522300802, 46.47596058523807], [-60.88957961670046, 46.47597976473822], [-60.88970942671279, 46.47602536942433], [-60.88976881276627, 46.47605041431697], [-60.88983888985007, 46.47607994945896], [-60.88994142657265, 46.47613216040402], [-60.88998197664835, 46.476152798583776], [-60.89008191703342, 46.47619703257265], [-60.89012413189546, 46.47621572144784], [-60.89013551277984, 46.47622157441626], [-60.89026593066613, 46.476288546443804], [-60.8904093669871, 46.47635238358077], [-60.89052084855306, 46.476388235241416], [-60.890525171809905, 46.476389628996515], [-60.89059090293737, 46.47640793261144], [-60.89059294551378, 46.47640833929433], [-60.890681389562786, 46.47642580193925], [-60.89071954309005, 46.47643127581019], [-60.890746179313005, 46.476435097197914], [-60.89082458052204, 46.476462643330706], [-60.89090263419032, 46.47649918289602], [-60.8909448682507, 46.4765291846921], [-60.8909533502672, 46.47653521809847], [-60.890973260430094, 46.47654925623609], [-60.8910700218298, 46.47661746943814], [-60.89117371051009, 46.4766985811903], [-60.891184405632984, 46.47670836335928], [-60.89126305829395, 46.4767803193217], [-60.891379392017164, 46.476870664016815], [-60.891470041498046, 46.47695244399122], [-60.89150788782947, 46.47700094044052], [-60.891547000212206, 46.47705106220748], [-60.89163694255235, 46.477150819798865], [-60.8916558096078, 46.47716860053585], [-60.89167590866516, 46.47718753797628], [-60.891740945822484, 46.47722383692069], [-60.891844711713816, 46.477268949889556], [-60.89190880775129, 46.47729623148689], [-60.891928004663946, 46.47730615235092], [-60.89196118752115, 46.47732329701556], [-60.89207724232588, 46.47738753614577], [-60.8921812813818, 46.47745965353238], [-60.892270965952505, 46.477532406174014], [-60.8924381243907, 46.477676345159836], [-60.89243865344009, 46.47767681390732], [-60.89243875411215, 46.477676905762124]]}, "properties": {"OBJECTID": 188787, "FEAT_CODE": "WARV50", "FEAT_DESC": "River - Single Line", "RIVNAME_1": " ", "RIVNAME_2": " ", "ZVALUE": 9999, "FID": null, "SHAPE_Length": 424.0365042192521}}, {"type": "Feature", "id": 188788, "geometry": {"type": "LineString", "coordinates": [[-60.88930997701318, 46.48032354584023], [-60.88932273775382, 46.48029678174632], [-60.8893416589116, 46.48027107637076], [-60.88936261434438, 46.48024262758048], [-60.8894152525598, 46.480161682312385], [-60.88946880910698, 46.48009067185486], [-60.8894905697152, 46.48005723396363], [-60.88952144596832, 46.480009753511204], [-60.88956251729109, 46.47994659443529], [-60.88957408301805, 46.47992882614616], [-60.88961418289014, 46.47990256668291], [-60.889633103769036, 46.479876861252876], [-60.88965405924092, 46.4798484034088], [-60.88968269399062, 46.47980901744022], [-60.88970634807377, 46.47977646944769], [-60.88974627863836, 46.47968721655469], [-60.889813235918965, 46.4796065443992], [-60.889832890609085, 46.47958409244145], [-60.889852764016375, 46.47956137452033], [-60.88989190909263, 46.47952610644177], [-60.889940922850265, 46.47949235247421], [-60.88999630697534, 46.479454225109066], [-60.890115337727615, 46.47937452282351], [-60.890180902624856, 46.479329833331676], [-60.89024577188773, 46.47930313075391], [-60.890376464343234, 46.479258742984754], [-60.89049344256049, 46.47923210180739], [-60.890546247119914, 46.47921417634086], [-60.890652898497585, 46.479204606256346], [-60.89072927224591, 46.47919775343233], [-60.89085675018469, 46.479175841543594], [-60.89088532765492, 46.47917093281049], [-60.89106801794441, 46.47916350307681], [-60.89127676709181, 46.47915565371125], [-60.89145852474032, 46.47913830626727], [-60.891561830620155, 46.4791033749305], [-60.8917462917414, 46.479041005416235]]}, "properties": {"OBJECTID": 188788, "FEAT_CODE": "WARV50", "FEAT_DESC": "River - Single Line", "RIVNAME_1": " ", "RIVNAME_2": " ", "ZVALUE": 9999, "FID": null, "SHAPE_Length": 257.2323682863967}}, {"type": "Feature", "id": 188789, "geometry": {"type": "LineString", "coordinates": [[-60.88688734785177, 46.480274294022344], [-60.88691294541263, 46.48031977471036], [-60.886912854341865, 46.480355763603086], [-60.886925433434534, 46.480400995569006], [-60.8869632970524, 46.48049979422728], [-60.88700150946382, 46.48058959042419], [-60.88700458834842, 46.48060327316708], [-60.88702597094054, 46.48069805024147], [-60.88706519328666, 46.48076177528861], [-60.88709082600708, 46.4808063574932], [-60.887154728452536, 46.480905628307895], [-60.88723381794704, 46.48100164278445], [-60.88724432046952, 46.48101438272123], [-60.88733359939959, 46.48113123117976], [-60.8873731706973, 46.48118596177143], [-60.88742414578513, 46.481249002975474], [-60.88744249095232, 46.48127016771308], [-60.887526409722184, 46.48136699120723], [-60.887613764345865, 46.48147064603983], [-60.88761733994847, 46.481474870055116], [-60.88770657256692, 46.48159261734472], [-60.88780958196903, 46.4816917193148], [-60.88792556308444, 46.48179196081789], [-60.88796997150601, 46.48182273284548], [-60.888002960731214, 46.481845589999594], [-60.88801619486966, 46.48186450925101], [-60.88804123128128, 46.481900296322756], [-60.88805351871722, 46.481922132045945], [-60.888066830842284, 46.48194576867495], [-60.88806711566633, 46.48197172962324], [-60.88804231215296, 46.48202213881975], [-60.888040262817604, 46.4820262769122], [-60.88800471359978, 46.482050360911124], [-60.88800146253426, 46.48205255982621], [-60.88799565341876, 46.48205655646338], [-60.887922490293946, 46.482106900252674], [-60.887877344885005, 46.48213722385465], [-60.887870322447014, 46.482141936061204], [-60.88785792066968, 46.48217083959329], [-60.88784311367049, 46.48220533262026], [-60.8878425967892, 46.48228632209082], [-60.88782886842552, 46.48230405924596], [-60.88776249729183, 46.48240274082743], [-60.887709610813125, 46.482456663055515], [-60.8876486895153, 46.4824973599641], [-60.88764407491569, 46.48250045166472], [-60.887625796706864, 46.48250681886749], [-60.88759256816519, 46.4825183997675], [-60.88755277845131, 46.482536573344866], [-60.88753322943675, 46.48253639213113], [-60.887461608502335, 46.482535779737816], [-60.887395780368855, 46.482553463121405], [-60.88730417054584, 46.48259766971438], [-60.88725196700144, 46.48263360456888], [-60.88721122654614, 46.48266118334338], [-60.887173014982736, 46.48268704485986], [-60.88715100263293, 46.48271043377033], [-60.887147211390754, 46.48271446765579], [-60.88711925057123, 46.482730645714454], [-60.8870552527669, 46.48276766749344], [-60.887013655623754, 46.482803231267134], [-60.88700270055529, 46.482812595680336], [-60.88698095404261, 46.4828331545055], [-60.88693643212731, 46.48287527011446], [-60.88688364499165, 46.48293365774031], [-60.88683161888133, 46.48299123141792], [-60.88673988177836, 46.48307232575533], [-60.88672959493759, 46.483085626445984], [-60.88672616552503, 46.48309007200057], [-60.88671306709796, 46.483125838444664], [-60.88671122049265, 46.48320680332256], [-60.886736322740916, 46.48333236579302], [-60.88675132056553, 46.483407999093565], [-60.88676138990764, 46.48345883659577], [-60.88678177319167, 46.483645682072115], [-60.886808498649465, 46.48389079304969]]}, "properties": {"OBJECTID": 188789, "FEAT_CODE": "WARV50", "FEAT_DESC": "River - Single Line", "RIVNAME_1": " ", "RIVNAME_2": " ", "ZVALUE": 9999, "FID": null, "SHAPE_Length": 471.4490085413929}}, {"type": "Feature", "id": 200072, "geometry": {"type": "LineString", "coordinates": [[-60.88016173393349, 46.481929956403384], [-60.88019870558486, 46.48195585962319], [-60.880226431965234, 46.481975264486614], [-60.88025317593647, 46.481999835067064], [-60.88026541551813, 46.482011086871005], [-60.88033045049304, 46.48204739224821], [-60.88036240644122, 46.48206557951128], [-60.88039418363645, 46.48208367345232], [-60.880433145454205, 46.48212039536492], [-60.880460597514464, 46.4821525659337], [-60.88051040503089, 46.48221093563568], [-60.88062640883034, 46.48231027599522], [-60.8806517704701, 46.482327845937974], [-60.880716024447956, 46.48241814497282], [-60.88080655874913, 46.48253591278886], [-60.88085463144339, 46.4825826133178], [-60.88090949579537, 46.4826359286342], [-60.88093170125753, 46.48265928994294], [-60.88096082731126, 46.48268997043365], [-60.88098892137768, 46.482729442683976], [-60.8809991262111, 46.482743779656914], [-60.88108907101097, 46.48284354553046], [-60.8811786757254, 46.482951404931185], [-60.88126895745662, 46.483042177011136], [-60.881555976198676, 46.483146998523985], [-60.88164536278751, 46.483179650415245]]}, "properties": {"OBJECTID": 200072, "FEAT_CODE": "WARV50", "FEAT_DESC": "River - Single Line", "RIVNAME_1": " ", "RIVNAME_2": " ", "ZVALUE": 9999, "FID": null, "SHAPE_Length": 183.81803096562422}}, {"type": "Feature", "id": 277198, "geometry": {"type": "LineString", "coordinates": [[-60.87837750838435, 46.48532942740603], [-60.87837785817692, 46.485320434007576], [-60.87839157769785, 46.48530268882553], [-60.87843038486474, 46.4852764093039], [-60.87854913031341, 46.48520481369446], [-60.878600642464846, 46.48518686976704], [-60.87862668228626, 46.48518735294386], [-60.878666379498384, 46.48520518931685], [-60.87867475974541, 46.485206802792845], [-60.87871810942655, 46.48521514903553], [-60.878757204154994, 46.48521497441868], [-60.878775982319574, 46.48520183199341], [-60.87879604605836, 46.48518779542845], [-60.878849175198404, 46.485161772489526], [-60.878851151534604, 46.485160873168425], [-60.87892741235105, 46.485126351467365], [-60.87904562475645, 46.485086200067556], [-60.8790581417519, 46.48508195033111], [-60.879063340556456, 46.48508060679383], [-60.87916211779595, 46.485055079539414], [-60.879191398478895, 46.48504861179305], [-60.879240971010915, 46.48503765151069], [-60.879306804650085, 46.485019972925166], [-60.87946260678799, 46.484967063513714], [-60.87951820640856, 46.48494819599886], [-60.879568234002285, 46.484931223088495], [-60.879633115007515, 46.484904526756715], [-60.879777294894375, 46.48481540180515], [-60.87984864199266, 46.48477821439499], [-60.87989565311013, 46.48475369749366], [-60.879906802098446, 46.48474910729967], [-60.879960533747386, 46.484727000969045], [-60.880104363134535, 46.48464686899465], [-60.88017029201028, 46.48459319211721], [-60.880236304014765, 46.48450350818203], [-60.88031650478822, 46.48435111504151], [-60.88033426599877, 46.48431953072902], [-60.880357092922324, 46.48427895944294], [-60.88037473533378, 46.484236348055404], [-60.88038297454248, 46.484216440053295], [-60.880422959047976, 46.48412628245749], [-60.8804378216975, 46.48404555898583], [-60.880439252784335, 46.48387459658952], [-60.88045395777964, 46.4837308619518], [-60.88046847117696, 46.48365912288816], [-60.88049499040301, 46.48361371508231], [-60.880507755562085, 46.48358697005908], [-60.88052787039636, 46.48357058516395], [-60.88057368273117, 46.48353329291156], [-60.88061814454825, 46.48350896244848], [-60.88063891132442, 46.48349759355898], [-60.880713796523835, 46.483459823200945], [-60.88074389714346, 46.48344463136139], [-60.88083519876866, 46.483408533212724], [-60.88103110131463, 46.48332936527615], [-60.88114784183623, 46.48328973341284], [-60.881214622106505, 46.48326706733235], [-60.88148060480858, 46.48321308308389], [-60.88164536278751, 46.483179650415245]]}, "properties": {"OBJECTID": 277198, "FEAT_CODE": "WARV50", "FEAT_DESC": "River - Single Line", "RIVNAME_1": "Second Fork Brook", "RIVNAME_2": " ", "ZVALUE": 9999, "FID": null, "SHAPE_Length": 382.907754795206}}, {"type": "Feature", "id": 277199, "geometry": {"type": "LineString", "coordinates": [[-60.875735145476455, 46.485162462974756], [-60.87576118523787, 46.48516294680375], [-60.875830131698336, 46.48512759827232], [-60.875866213568806, 46.485109098888906], [-60.87594541837646, 46.485082670774936], [-60.876009950735856, 46.4850649789114], [-60.87603655199688, 46.485065095113896], [-60.87607508540302, 46.4850652799825], [-60.876140219722075, 46.48506559000988], [-60.87619198403216, 46.485074651523476], [-60.876247754881256, 46.48509425431197], [-60.87627038980542, 46.485102207684996], [-60.876308749156536, 46.48512092001622], [-60.87638645482011, 46.4851664628738], [-60.87642615125725, 46.485184300012335], [-60.876458657994036, 46.485191698719944], [-60.87646489583729, 46.485193119566645], [-60.87651697541469, 46.48519408688692], [-60.87655922390916, 46.48518954365319], [-60.87659547987895, 46.4851856450958], [-60.87675122175689, 46.48516783783157], [-60.87693211291934, 46.485151631367], [-60.876934270301604, 46.48515143743249], [-60.87714304352367, 46.48514361430488], [-60.87717793142511, 46.48513536121295], [-60.87722063082351, 46.48512525517497], [-60.87726201154423, 46.485109526705216], [-60.87731320487539, 46.485090074456224], [-60.87737443894973, 46.48507241958315], [-60.87740412687307, 46.485063862880956], [-60.877482618013374, 46.485055420233195], [-60.87760437058403, 46.48505557455622], [-60.87763897480555, 46.48505561395612], [-60.877661241967736, 46.48505929427823], [-60.877755488507916, 46.48507488563003], [-60.877886009633315, 46.485102508088275], [-60.877924404544494, 46.485120320547], [-60.87793742443353, 46.48512056221286], [-60.87796276449513, 46.48513903233283], [-60.87801452665998, 46.48516791973763], [-60.87802780189784, 46.485175330045], [-60.878053176650134, 46.48519290979943], [-60.87808651067764, 46.4852085222978], [-60.87813123374463, 46.48522945809957], [-60.878235330797324, 46.48526648961448], [-60.878270101040314, 46.485282362710215], [-60.87831342310213, 46.48530213845378], [-60.878356142043216, 46.48532033700756], [-60.87837750838435, 46.48532942740603]]}, "properties": {"OBJECTID": 277199, "FEAT_CODE": "WARV50", "FEAT_DESC": "River - Single Line", "RIVNAME_1": "Second Fork Brook", "RIVNAME_2": " ", "ZVALUE": 9999, "FID": null, "SHAPE_Length": 221.1379219595024}}, {"type": "Feature", "id": 277200, "geometry": {"type": "LineString", "coordinates": [[-60.886808498649465, 46.48389079304969], [-60.88682151831995, 46.48389103369942], [-60.88684547069004, 46.4838888844523], [-60.88691303922335, 46.48388282541071], [-60.88695091283337, 46.483882868418796], [-60.88696515273816, 46.483882888607944], [-60.88704226055314, 46.483910413385026], [-60.887146047956136, 46.48395553095808], [-60.887223852604855, 46.48396506871205], [-60.887602294371135, 46.48394956195481]]}, "properties": {"OBJECTID": 277200, "FEAT_CODE": "WARV50", "FEAT_DESC": "River - Single Line", "RIVNAME_1": "Second Fork Brook", "RIVNAME_2": " ", "ZVALUE": 9999, "FID": null, "SHAPE_Length": 63.34133078111401}}, {"type": "Feature", "id": 277201, "geometry": {"type": "LineString", "coordinates": [[-60.88164536278751, 46.483179650415245], [-60.881660643690935, 46.48317969955437], [-60.881762607752066, 46.4831800227893], [-60.88187683649754, 46.48318056415941], [-60.88195800440001, 46.483180942926275], [-60.88204228055604, 46.483177104268535], [-60.88214073075051, 46.48317262812731], [-60.88219447740196, 46.48316852980581], [-60.882245270476396, 46.48316466474478], [-60.88227233957539, 46.48316478816284], [-60.88231040268437, 46.483164971218926], [-60.88238916740109, 46.48315778125594], [-60.882400621321146, 46.483156733423776], [-60.882505799320484, 46.48316589041873], [-60.88257144443481, 46.48317480113999], [-60.88271316828249, 46.48319403068023], [-60.88292114103344, 46.48324019052779], [-60.883128846831305, 46.48325932737991], [-60.88319459619604, 46.48327764455897], [-60.88326000157904, 46.48330281324829], [-60.88333708867396, 46.48333248212407], [-60.88335934249811, 46.48334791494753], [-60.88338910778235, 46.483368544769405], [-60.88338806095297, 46.4833955250614], [-60.88338124052263, 46.48341818651422], [-60.88337459865329, 46.48344027527938], [-60.88337409117503, 46.483468129545834], [-60.88337345798113, 46.48350325339642], [-60.883382677365034, 46.48352218885293], [-60.883386732650244, 46.48353049883079], [-60.88342534822968, 46.48357622218965], [-60.88347667011065, 46.483630262666416], [-60.883566736499084, 46.48369312926542], [-60.88368296905588, 46.48382037937719], [-60.88376033000131, 46.48387491972882], [-60.88379904909956, 46.483907577033825], [-60.88382465912493, 46.48392920081282], [-60.88388325639913, 46.48398816370943], [-60.883941289542435, 46.48404655814072], [-60.88399535414045, 46.484084665338884], [-60.884018651414046, 46.48410108933175], [-60.88403857892856, 46.48411705495771], [-60.88410835734688, 46.48417294871496], [-60.884134464779976, 46.484197542592455], [-60.884147336172624, 46.48420966965671], [-60.88418703455695, 46.48422750413354], [-60.884276812313935, 46.48426426514306], [-60.88432142342278, 46.484280066512625], [-60.884432328222715, 46.48431934233485], [-60.884481467414226, 46.4843289185086], [-60.8845241406894, 46.48433724103265], [-60.884606348814124, 46.484358885900676], [-60.884770481619434, 46.48440209821545], [-60.88491332735371, 46.48444794044367], [-60.88502987781271, 46.48446629638856], [-60.885134710535866, 46.48448443545746], [-60.88530367599081, 46.484494760806925], [-60.885577244324466, 46.48449622065159], [-60.88582457266787, 46.48448993079888], [-60.8858641680667, 46.484488926019544], [-60.88591076717278, 46.484483704689154], [-60.886098407156446, 46.484462667573], [-60.886242043507764, 46.48445451442443], [-60.88634632830711, 46.48441955190807], [-60.88638611980397, 46.484401378785925], [-60.88642177078901, 46.48437708117933], [-60.88645169386868, 46.484356691621905], [-60.88650360811884, 46.48429465211356], [-60.886556602386435, 46.48420473289108], [-60.88657187739621, 46.48416021381435], [-60.88658451057769, 46.484123349804555], [-60.88659017813827, 46.48410451880623], [-60.88659797044512, 46.48407859917238], [-60.88661072042924, 46.484051835193895], [-60.886620961046106, 46.48402392684121], [-60.88662384520605, 46.48401606925313], [-60.886664680849975, 46.483970933667436], [-60.886680167094056, 46.483949881190476], [-60.886690811533775, 46.4839354261301], [-60.886711797643116, 46.483920721234725], [-60.88672964899262, 46.48390823536362], [-60.88673989262519, 46.483903789766586], [-60.88676940479981, 46.48389097043656], [-60.886797969349374, 46.483890841426756], [-60.886808498649465, 46.48389079304969]]}, "properties": {"OBJECTID": 277201, "FEAT_CODE": "WARV50", "FEAT_DESC": "River - Single Line", "RIVNAME_1": "Second Fork Brook", "RIVNAME_2": " ", "ZVALUE": 9999, "FID": null, "SHAPE_Length": 501.84036278226637}}, {"type": "Feature", "id": 287119, "geometry": {"type": "LineString", "coordinates": [[-60.895520335006665, 46.4863392576731], [-60.89570268934559, 46.48634080519303], [-60.8957283809635, 46.486343915026936], [-60.895781787747936, 46.486350369918185], [-60.89588725770426, 46.48637007680916], [-60.896027591389725, 46.48639629312211], [-60.89611342654816, 46.48640753857207], [-60.896171492862074, 46.486415141011875], [-60.896226087516695, 46.48641546163384], [-60.89631478610421, 46.48641597776279], [-60.89652321615693, 46.486417103781875], [-60.89655712808824, 46.48642126465837], [-60.896601025817766, 46.486426644228324], [-60.89667338637587, 46.486439297332], [-60.89675633382037, 46.48645380112956], [-60.89682207882837, 46.48647211036086], [-60.89692585777767, 46.48651811884037], [-60.89697692073473, 46.48654515778829], [-60.89710745585235, 46.48657275851168], [-60.89732812855346, 46.48662811653751], [-60.89743222921254, 46.48666512158922], [-60.89761291003618, 46.48671045570697], [-60.897614200640454, 46.486710776435885], [-60.89776947533832, 46.48673883133193], [-60.89778413200062, 46.486738875833986], [-60.89788672863918, 46.48673918729581], [-60.898110579577924, 46.486747946855196], [-60.89814692959633, 46.48674937111858], [-60.89843350505974, 46.486751039278815], [-60.89856344540333, 46.486760627638915], [-60.898733043283194, 46.486788944491565], [-60.89877718492712, 46.48679409371007], [-60.89888869990414, 46.48680710501417], [-60.89904458482789, 46.48685316915249], [-60.89910938849345, 46.48686245988415], [-60.89929194569555, 46.48692611357999], [-60.899408735147645, 46.4869723588524], [-60.89955102570692, 46.48699927277389], [-60.899615803600426, 46.4870085627441], [-60.899746665942445, 46.487028066563994], [-60.899916049709844, 46.48702847809225], [-60.89995504619412, 46.48702919440203], [-60.9000007047545, 46.4870291330796], [-60.90019997454841, 46.487065192664964], [-60.900391293812525, 46.48710470584649], [-60.90053737419881, 46.487168587646494], [-60.900691661054246, 46.487222720076964], [-60.90077354883492, 46.48725533625335], [-60.90084564528934, 46.48728404664607]]}, "properties": {"OBJECTID": 287119, "FEAT_CODE": "WARV55", "FEAT_DESC": "River - Single Line Indefinite", "RIVNAME_1": " ", "RIVNAME_2": " ", "ZVALUE": 9999, "FID": null, "SHAPE_Length": 429.1025968627191}}, {"type": "Feature", "id": 287120, "geometry": {"type": "LineString", "coordinates": [[-60.895218500532096, 46.48781328198261], [-60.895231521208906, 46.48781352169045], [-60.89524537146678, 46.487808808734606], [-60.89525660753641, 46.48780498363884], [-60.895310475816366, 46.487772837751685], [-60.89536196979074, 46.48774211511217], [-60.8954477517844, 46.48769738081582], [-60.89548031705564, 46.48768040349905], [-60.89548792521289, 46.48767773558337], [-60.895558249244225, 46.48765303839292], [-60.89565695118679, 46.48761992660458], [-60.895662534901945, 46.48761805840431], [-60.895682966101155, 46.487615347498995], [-60.89572801973049, 46.48760936382713], [-60.8957935045394, 46.48760066921207], [-60.89592343331288, 46.48761026035822], [-60.89618320553118, 46.48766544016165], [-60.8962880137459, 46.487684468505705], [-60.896368183164576, 46.487712601281366], [-60.89639086095037, 46.48772056044572], [-60.896534333960865, 46.48778439938951], [-60.89655196847659, 46.48779271572793], [-60.896689179133105, 46.48785744724653], [-60.8967806204116, 46.48788522910602], [-60.896909509764704, 46.4879217996493], [-60.897040381844484, 46.4879404067556], [-60.89724203688112, 46.48797141243496], [-60.89733961344676, 46.48798640985778], [-60.89754913159614, 46.48801692961489], [-60.8976648393932, 46.48803379016072], [-60.89800138839815, 46.48812547712905], [-60.89813158125848, 46.48816207025527], [-60.89824299056869, 46.48817349626083], [-60.8983132831343, 46.48818071037297], [-60.8983748651354, 46.4881965482056], [-60.89845649714702, 46.4882175424916], [-60.89862197734501, 46.48824259784829], [-60.89863915492791, 46.48824519954093], [-60.898678217353805, 46.488245917496904], [-60.89893877214045, 46.488247106124206], [-60.899081461109, 46.48822992853172], [-60.89926420274469, 46.488221586603764], [-60.899508897640686, 46.48822283350898], [-60.89960291697284, 46.48822330983518], [-60.89961360262366, 46.48822429813489], [-60.8999158052267, 46.488252457301414], [-60.899935787764925, 46.48825700029697], [-60.89995456906564, 46.488261269227614], [-60.89998524877013, 46.48826548671042], [-60.899999934189, 46.488267502429196], [-60.90010229035938, 46.48829647209435], [-60.900159765110885, 46.48831273751835]]}, "properties": {"OBJECTID": 287120, "FEAT_CODE": "WARV55", "FEAT_DESC": "River - Single Line Indefinite", "RIVNAME_1": " ", "RIVNAME_2": " ", "ZVALUE": 9999, "FID": null, "SHAPE_Length": 401.4543895019182}}, {"type": "Feature", "id": 294510, "geometry": {"type": "LineString", "coordinates": [[-60.891428851565465, 46.49005192173835], [-60.89145088498294, 46.490051950102234], [-60.89148097105266, 46.490051982974975], [-60.891574205835745, 46.4900394646086], [-60.89161064561149, 46.49003457468753], [-60.891807110479554, 46.49000849799371], [-60.89193773934565, 46.49000010681156], [-60.89223736535112, 46.490002031116354], [-60.89250956220378, 46.49000362002148], [-60.89266597056493, 46.490004532091], [-60.892822199591386, 46.49001210955143], [-60.89287536833431, 46.49001469145686], [-60.89296246828851, 46.49002166062763], [-60.89310919411764, 46.49003339149744], [-60.89333572838376, 46.49006207256777], [-60.893408732735416, 46.490071319633934], [-60.8934272969778, 46.49007142769295], [-60.893552035419944, 46.490072160006825], [-60.89394235973617, 46.49001994261277], [-60.89412545478672, 46.49000262452696], [-60.89419287816448, 46.490003200409625], [-60.89430782090812, 46.49000418346778], [-60.894444363759035, 46.49001236811971], [-60.89463284302343, 46.4900236689943], [-60.894907021943276, 46.49004311744498], [-60.895114424116656, 46.490071235718005], [-60.89513617087366, 46.49007869199286], [-60.89516715164003, 46.49008930622354], [-60.89523546779503, 46.49011368460481], [-60.895244272454256, 46.49011682565448], [-60.89531289630269, 46.49013086879377], [-60.89533607678243, 46.49013561546078], [-60.89543995599037, 46.490144727600125], [-60.89573958323366, 46.49014664273997], [-60.89579316803896, 46.490146890976256], [-60.89593500590804, 46.490147539402024], [-60.89610400449493, 46.49015784934219], [-60.896220918165724, 46.490167200630545], [-60.896441604326114, 46.49022256056195], [-60.896609451906876, 46.49026677811461], [-60.89675377090993, 46.49030480266169], [-60.89676188256496, 46.49031071180748], [-60.89676644502485, 46.49031404469525], [-60.89700017567038, 46.49036873452487], [-60.8971951459493, 46.49041552008187], [-60.89723024512773, 46.49043153742626], [-60.897273258355895, 46.49045115626616], [-60.89735001718837, 46.49048404954012], [-60.897402741106866, 46.490506636882536], [-60.897480147345746, 46.49056025969128], [-60.89757401157952, 46.490612187123446], [-60.89759624949441, 46.49062449389403], [-60.89759922626934, 46.49062603361334], [-60.89764863172755, 46.49065155677742], [-60.89767363444506, 46.490679016166276], [-60.89771256416286, 46.490750831033864], [-60.897737135755946, 46.490823281863115], [-60.89780133071042, 46.49094956052253]]}, "properties": {"OBJECTID": 294510, "FEAT_CODE": "WARV55", "FEAT_DESC": "River - Single Line Indefinite", "RIVNAME_1": " ", "RIVNAME_2": " ", "ZVALUE": 9999, "FID": null, "SHAPE_Length": 530.7308338235897}}, {"type": "Feature", "id": 306022, "geometry": {"type": "LineString", "coordinates": [[-60.89254817944489, 46.48192406446341], [-60.89258680206943, 46.48196977585471], [-60.89259730948987, 46.48196960954284], [-60.89261287533155, 46.481969356473456], [-60.8926262423435, 46.48196059397498], [-60.8926651277008, 46.48189832050139], [-60.89270474283194, 46.481817151695985], [-60.89270536215275, 46.48178189254142], [-60.89270585961057, 46.48175417304855], [-60.892712035342974, 46.481726846214166], [-60.892720021617706, 46.48169143485002], [-60.89272046531849, 46.48162294486205], [-60.892720544240305, 46.48161044546882], [-60.89271771423546, 46.48160208640738], [-60.8926959830728, 46.48153799363189], [-60.89265637138754, 46.48148416414164], [-60.89260504256022, 46.48143011865621], [-60.89256676769296, 46.48137541378611], [-60.8925643120814, 46.4813698425881], [-60.89255479079919, 46.48134819333929], [-60.892528458507236, 46.481321599259196], [-60.89248940119149, 46.48132087928474], [-60.89248836484782, 46.48140537815647], [-60.892488183056706, 46.48141986462961], [-60.892499549229555, 46.48156407240461], [-60.89252454173185, 46.48172653113977], [-60.89253498827228, 46.48186082207284], [-60.89254817944489, 46.48192406446341]]}, "properties": {"OBJECTID": 306022, "FEAT_CODE": "WARVIS10", "FEAT_DESC": "River Island - Island to the left line", "RIVNAME_1": "Northeast Margaree River", "RIVNAME_2": " ", "ZVALUE": 140.3, "FID": null, "SHAPE_Length": 155.35044838984427}}, {"type": "Feature", "id": 310621, "geometry": {"type": "LineString", "coordinates": [[-60.88264588905792, 46.50529918066009], [-60.882623841165504, 46.50526044193817], [-60.88259463057706, 46.505209132752455], [-60.88254400208624, 46.50513709621058], [-60.88241536729173, 46.504992524986626], [-60.88229940912061, 46.50485717027684], [-60.88226915204054, 46.50483079823738], [-60.88224772013448, 46.50481211354146], [-60.88215670314877, 46.50473932870748], [-60.882079664035615, 46.5046758025925], [-60.88204099998216, 46.504630987038226], [-60.88184769016593, 46.50444020784936], [-60.88183909496348, 46.5044373396531], [-60.881821955611116, 46.50443163120409], [-60.88169243448171, 46.50437704135075], [-60.881562914279016, 46.50432243426708], [-60.881519267534856, 46.50430691076139], [-60.881458778922806, 46.50428540525166], [-60.881290500015155, 46.50422198788651], [-60.881181436154975, 46.504162880620314], [-60.88112200272584, 46.50413066664913], [-60.88097990445755, 46.50403083457773], [-60.88095994787163, 46.50401344596075], [-60.88087651728887, 46.503940719700466], [-60.88086899134513, 46.503935495285326], [-60.88082449375275, 46.50390465597389], [-60.88074736129579, 46.503877126671924], [-60.880564430319325, 46.503821527516], [-60.8804485523968, 46.50378518888103], [-60.88038372894938, 46.50375485456906], [-60.88037046755874, 46.503748641803725], [-60.88017649265043, 46.50367574653527], [-60.88011143248326, 46.50363944076883], [-60.88002102325578, 46.50358466520886], [-60.879981318720894, 46.50354287160676], [-60.87996970013598, 46.50353061434808], [-60.87996587901643, 46.50352463958284], [-60.87991809791988, 46.5034495586949], [-60.87990146246362, 46.50339873397911], [-60.879868004587294, 46.50329653208017], [-60.87986934379854, 46.503161558942196], [-60.879870139961874, 46.503107574516456], [-60.879849494179275, 46.503054974449476], [-60.879831007574055, 46.50300785033665], [-60.87976813041989, 46.50288159519845], [-60.87973037589353, 46.502746788056754], [-60.87972699603924, 46.50271137390591], [-60.8797183415226, 46.50262056676181], [-60.87970735654578, 46.502467365326645], [-60.8796818167489, 46.5023867928786], [-60.87966993883474, 46.50232357353578], [-60.87965745812265, 46.50224234327947], [-60.87964885002779, 46.502228089846774], [-60.87961949733313, 46.50217954019217], [-60.87960622034778, 46.50215229435895], [-60.879607269733356, 46.50212531422177], [-60.879620040677466, 46.502098551471775], [-60.87964657046216, 46.50205313516838], [-60.87969911274312, 46.50200911025494], [-60.87971777254607, 46.501998152470804], [-60.87979114607971, 46.5019550268217], [-60.87981172207407, 46.50194674151768], [-60.879857349925885, 46.501928354926356], [-60.879906876277154, 46.50190925761985], [-60.879948648875676, 46.50189314846775], [-60.880085174148924, 46.50185624256123], [-60.88014490827531, 46.501840088381066], [-60.880168157380744, 46.50183377854726], [-60.88027531353865, 46.501804706750114], [-60.88035384152257, 46.50179626279124], [-60.88057511208923, 46.50177066525696], [-60.880771261442575, 46.50175360152136], [-60.88081036805156, 46.50175342640109], [-60.88092775711116, 46.50174072542374], [-60.881044635742036, 46.50172807786491], [-60.88126650949272, 46.50172048000434], [-60.88139716768764, 46.50171210138038], [-60.881433828271724, 46.5017057797116], [-60.881500825147846, 46.501694223335484], [-60.881631543742834, 46.50165074608386], [-60.88166871695357, 46.50163626105915], [-60.88172417845479, 46.50161466297038], [-60.88186651468409, 46.50155796389435], [-60.88194657813883, 46.50152608463595], [-60.8820180249532, 46.50149022075598], [-60.88214196343474, 46.5014280055953], [-60.882239143449254, 46.50137521250959], [-60.88233903916802, 46.501320948664265], [-60.882428546317314, 46.501260669408076], [-60.88252370124455, 46.501196579739336], [-60.88261143950748, 46.50114425046067], [-60.88261442843201, 46.50114246084202], [-60.882720158538575, 46.50107151096237], [-60.882760974391694, 46.50104845316722], [-60.88279876606907, 46.50102708532971], [-60.88282866710911, 46.50099982044746], [-60.882877145920816, 46.50095562882636], [-60.88298388123844, 46.50084669087711], [-60.883008784052976, 46.50082126836909], [-60.88319134230006, 46.500671110785966], [-60.883259195241344, 46.500615307882086], [-60.8832859408458, 46.500597803314534], [-60.88332514093731, 46.50056162959608], [-60.883329779549335, 46.50055192361722], [-60.883337896304475, 46.50053487513955], [-60.883338594974106, 46.50051687933954], [-60.88335829923072, 46.50046320892603], [-60.883364843739095, 46.500445366350164], [-60.8833836059978, 46.50041058721425], [-60.883418209259155, 46.500346446772014], [-60.88345399934474, 46.500274561403906], [-60.883471923016636, 46.50023855174639], [-60.883481097207216, 46.50022313380975], [-60.88349841305241, 46.500194051793784], [-60.88352052732611, 46.50009138568392], [-60.883525441158476, 46.500068544984096], [-60.88352648852913, 46.50004156476869], [-60.8835264909057, 46.5000324389465], [-60.88352654810896, 46.500006457386284], [-60.88352696670715, 46.49999567429341], [-60.88348884208998, 46.49986987036523], [-60.88346998613013, 46.49977043274959], [-60.8834650434075, 46.49974433162867], [-60.88345454412976, 46.49970659881079], [-60.88342730313736, 46.49960863493421], [-60.88338882950243, 46.49949183337183], [-60.883312938196745, 46.49936532119366], [-60.883223070415625, 46.49922955932676], [-60.88314623936394, 46.499094038762976], [-60.88308205668946, 46.49896775220785], [-60.883005213314654, 46.498832231314346], [-60.88296794926586, 46.49875144247111], [-60.88296734534685, 46.498733431548544], [-60.88294773336417, 46.49870182984872], [-60.882917058256325, 46.49865240154268], [-60.88288282195758, 46.49861111516546], [-60.88286477056871, 46.49858933420765], [-60.88284192856981, 46.49856674454579], [-60.88280076218378, 46.49852604980262], [-60.88269857238576, 46.49837205957796], [-60.88269357338174, 46.49836420011264], [-60.88264699672931, 46.49829100558439], [-60.88258288119468, 46.49826371855208], [-60.882530835742685, 46.498227655157855], [-60.88248688250171, 46.49817383187207], [-60.882478596848635, 46.498163688557035], [-60.88246336083403, 46.498125462913805], [-60.88245365847659, 46.49810112756094], [-60.88245393220921, 46.49807260303961], [-60.882454546632886, 46.49801114529987], [-60.88246845776328, 46.49792140423813], [-60.88249566820442, 46.49785800911599], [-60.88257518586708, 46.497723583765904], [-60.88259950021649, 46.49768274265875], [-60.882601688705726, 46.49767907524239], [-60.8826423656788, 46.49757093012384], [-60.88264995629176, 46.497547959028104], [-60.88266895000843, 46.49749042360603], [-60.88270859169119, 46.49740926790396], [-60.88277602570621, 46.49728360950128], [-60.88281898126894, 46.497191274286415], [-60.882842855173735, 46.49713994911748], [-60.88292394317795, 46.49689756312328], [-60.882923900467034, 46.49688691548319], [-60.88292378326806, 46.496834552054366], [-60.882954029473886, 46.49669092516351], [-60.88296532423401, 46.49663732406717], [-60.8829749894753, 46.4965964906153], [-60.883005852295454, 46.496466176936124], [-60.88301460352675, 46.496371345316426], [-60.88302160223037, 46.4962954709771], [-60.88304872319608, 46.49613397543274], [-60.88305056332534, 46.49605301064247], [-60.88306437851691, 46.495999267202684], [-60.88306580334623, 46.49582829598209], [-60.88306639713191, 46.49576869181134], [-60.883066690323865, 46.4957383136653], [-60.883076178695305, 46.49569095201608], [-60.88308123861048, 46.495665684059325], [-60.88308262842745, 46.49549561216913], [-60.883085006229145, 46.49533365845504], [-60.883077649924694, 46.49532878831292], [-60.88307103076353, 46.4953243998127], [-60.883074832912435, 46.49499148384321], [-60.8831033034462, 46.494829104256446], [-60.88310430807657, 46.4947454870162], [-60.88310740679686, 46.49448808495016], [-60.883108017509045, 46.494426699105155], [-60.88310829360652, 46.49439810261179], [-60.883117574529535, 46.49437252580858], [-60.88313456133428, 46.49432568997721], [-60.88317556010067, 46.494247763162335], [-60.88321475751382, 46.49417326793288], [-60.88329493951177, 46.49402086356671], [-60.88332109112859, 46.49398533922957], [-60.88336351619551, 46.49394619221837], [-60.8833994810479, 46.493913000509515], [-60.88343897723785, 46.49386873231697], [-60.88344072254843, 46.49382376524477], [-60.883453247886294, 46.49376998886288], [-60.883454388747516, 46.49370701984633], [-60.883460570000395, 46.49369079050122], [-60.883481957500976, 46.49363464021097], [-60.883495167825814, 46.49356287675004], [-60.88349630897498, 46.493499898736644], [-60.883521947707685, 46.49343795921748], [-60.88352219176817, 46.493437378743536], [-60.88353670382465, 46.49336564837341], [-60.88355063395604, 46.493274998486115], [-60.88356390734357, 46.49320294818496], [-60.88357871737008, 46.49312252944144], [-60.8835864857175, 46.49304962123943], [-60.88359306807722, 46.492987796930834], [-60.88360702502199, 46.492922977177344], [-60.88362009111463, 46.492862307874276], [-60.88362768764055, 46.49279382442606], [-60.88363412751385, 46.49273566942547], [-60.88364531850355, 46.49262224412174], [-60.88364918899551, 46.49258295030118], [-60.88365328462806, 46.492560688417456], [-60.883664036954876, 46.49250221724599], [-60.88366392239906, 46.492459501702896], [-60.883663875675566, 46.492439215112135], [-60.883656678708086, 46.49228921591334], [-60.883653068379516, 46.492214018095865], [-60.88365168362142, 46.49221108550188], [-60.883627782471535, 46.492160441742804], [-60.88360322884287, 46.49208799719323], [-60.88360309959867, 46.49203558760578], [-60.88360306765317, 46.49202499415688], [-60.88359083799976, 46.49197076849438], [-60.88356624994429, 46.49189921428526], [-60.883561928546136, 46.49188935142007], [-60.88350278524896, 46.49175494134737], [-60.88347753424086, 46.49170047461467], [-60.88343827338773, 46.491637658523025], [-60.883415659088776, 46.49160926824026], [-60.883387328932656, 46.49157370722817], [-60.88336329667589, 46.491551635598796], [-60.883348310632634, 46.49153788533384], [-60.88331988870195, 46.49151442744372], [-60.883271301239645, 46.49147436041422], [-60.883247269073074, 46.4914522887616], [-60.88323229575842, 46.491438547716676], [-60.883115605719816, 46.491356279250624], [-60.883000277186305, 46.49123894534135], [-60.88294860012652, 46.491193889028516], [-60.88292311713136, 46.491162538564105], [-60.88284537554494, 46.49106687922012], [-60.8828199961943, 46.49104930946829], [-60.88266525583201, 46.49094024524792], [-60.8826362486239, 46.49092046629649], [-60.88262590231455, 46.490913416774426]]}, "properties": {"OBJECTID": 310621, "FEAT_CODE": "WARV10", "FEAT_DESC": "Double Line River - Water to the left line", "RIVNAME_1": "Northeast Margaree River", "RIVNAME_2": " ", "ZVALUE": 9999, "FID": null, "SHAPE_Length": 1935.229567318996}}, {"type": "Feature", "id": 254407, "geometry": {"type": "LineString", "coordinates": [[-60.897417749386, 46.491468990669766], [-60.89745768967373, 46.491379735425916], [-60.89752437527088, 46.49127206326471], [-60.89758242045361, 46.49120260764601], [-60.89762956401005, 46.49114619934957], [-60.897722651599324, 46.49103001268687], [-60.89775896641267, 46.49099287195096], [-60.89780133071042, 46.49094956052253]]}, "properties": {"OBJECTID": 254407, "FEAT_CODE": "WARV50", "FEAT_DESC": "River - Single Line", "RIVNAME_1": "Alder Brook", "RIVNAME_2": " ", "ZVALUE": 9999, "FID": null, "SHAPE_Length": 65.10510874383179}}, {"type": "Feature", "id": 254408, "geometry": {"type": "LineString", "coordinates": [[-60.89780133071042, 46.49094956052253], [-60.897827525947534, 46.49092715548913], [-60.897853882273374, 46.49090462741331], [-60.898008132035486, 46.490793921007366], [-60.89809108597598, 46.49073439094983], [-60.89829788534463, 46.49053919641423], [-60.898327728675866, 46.4905110444072], [-60.89842012056391, 46.49041284413438], [-60.89843906475594, 46.49039599359507], [-60.898551001599245, 46.49029645150369], [-60.89870861761514, 46.49016255033866], [-60.89878859612374, 46.490082121370456], [-60.89890576141615, 46.48998347600904], [-60.89891778430978, 46.489979188020435], [-60.89893218497501, 46.48997406173954]]}, "properties": {"OBJECTID": 254408, "FEAT_CODE": "WARV50", "FEAT_DESC": "River - Single Line", "RIVNAME_1": "Alder Brook", "RIVNAME_2": " ", "ZVALUE": 9999, "FID": null, "SHAPE_Length": 139.333536459252}}]}