{ "type": "FeatureCollection", "features": [{"type":"Feature","geometry":{"type":"Point","coordinates":[-59.79000622746516,45.95216158162851]},"properties":{"gaz_map":"011G13","admin_loc":"Cape Breton","concise_ds":"Cape","orig_narr":null,"objectid":"7150","generic_cd":"1604","locn_narr":"W. shore of Main-à-Dieu Passage","county":"Cape Breton","generic_tm":"Point (1)","cgndb_key":"CBRJN","tmod_date":"20130205","concise_cd":"CAPE","status_cd":"1348","ordec_date":"19240704","jurr_narr":null,"fmod_date":"20151125","nad83_lon":"-59.79","nts_map":"011G13","status_ds":"Official - Official","decis_date":"19240704","nad83_lat":"45.952163","geoname":"Cape Breton"}},{"type":"Feature","geometry":{"type":"Point","coordinates":[-60.0368600160869,45.93534945060245]},"properties":{"gaz_map":"011F16","admin_loc":"Cape Breton","concise_ds":"Lake","orig_narr":"Morrison Lake was adopted 2 December 1924 on 11F/16. Changed to Morrisons Lake 20 February 1976 on 11F/16.","objectid":"13883","generic_cd":"951","locn_narr":"E. of Bras d'Or Lake","county":"Cape Breton","generic_tm":"Lake","cgndb_key":"CBAHJ","tmod_date":"20130205","concise_cd":"LAKE","status_cd":"1348","ordec_date":"19760220","jurr_narr":null,"fmod_date":"20151125","nad83_lon":"-60.036854","nts_map":"011F16","status_ds":"Official - Official","decis_date":"19760220","nad83_lat":"45.935352","geoname":"Morrisons Lake"}}], "crs" : { "type": "name", "properties": { "name": "urn:ogc:def:crs:OGC:1.3:CRS84" } } }