{"type": "FeatureCollection", "features": [{"type": "Feature", "id": 135010, "geometry": {"type": "LineString", "coordinates": [[-61.16017645358414, 45.62300910158101], [-61.160183834191145, 45.622983477521565], [-61.16018946432772, 45.62296430600711], [-61.16020237037874, 45.622883504601575], [-61.1602132080475, 45.6228541557977], [-61.160229114568374, 45.6228110270552], [-61.16023795777961, 45.62280342862554], [-61.16028058818612, 45.62276685108894], [-61.16034019945268, 45.62272487642508], [-61.16038300538987, 45.62269469241307], [-61.16045544537378, 45.62266444566384], [-61.16051175773117, 45.622640959906356], [-61.16058890230529, 45.622596297181815], [-61.16065322581457, 45.62255142790955], [-61.160718537072704, 45.622515574645135], [-61.16076912724659, 45.6224983873377], [-61.160774771399055, 45.62249838822619], [-61.16084611165849, 45.62249782783738], [-61.16087244712266, 45.62251625402145], [-61.16088526805899, 45.6225164604901], [-61.16087978658981, 45.6225271734601], [-61.16087156438199, 45.62254324291453], [-61.16083859227796, 45.62256692471162], [-61.16083347146452, 45.62257053266885], [-61.16078159917804, 45.622587698456286], [-61.16074350618703, 45.62261498817925], [-61.160729907430515, 45.62267777642049], [-61.16073530354891, 45.62269712554379], [-61.16074253912429, 45.62272298593764], [-61.16076321527095, 45.62278893648172], [-61.160768096894756, 45.62280440687172], [-61.16078016957076, 45.622866708448754], [-61.16080591665953, 45.62290312724281], [-61.16089531498814, 45.62299367719037], [-61.16090898391196, 45.623003258389176], [-61.16092039801541, 45.62301118308911], [-61.16110599216872, 45.62301192142302], [-61.161138444138466, 45.6230119939091], [-61.16116467465106, 45.62299441419189], [-61.161216177138954, 45.622949338166606], [-61.16129386878001, 45.62288794184975], [-61.16131888768695, 45.622868182340916], [-61.16134144656132, 45.622841272401885], [-61.16137094885767, 45.622806013271884], [-61.161434284061514, 45.62275212661381], [-61.16144885608357, 45.62273408910722], [-61.161499783686075, 45.622671271656394], [-61.16151107324256, 45.622667312925095], [-61.16152443768492, 45.622662667512095], [-61.16155201281585, 45.62265888093635], [-61.161588866105234, 45.62265380354649], [-61.1617196277287, 45.62264843758615], [-61.16179438401822, 45.62264541040088], [-61.162115055394786, 45.62264607095861], [-61.16217988434315, 45.62269166937263], [-61.162230420895646, 45.62272713661514], [-61.16229337918336, 45.62276325377337], [-61.1622956399204, 45.62276473031802], [-61.16230718826674, 45.62277247701891], [-61.16240914527138, 45.62287132880045], [-61.16241447015117, 45.622877175143685], [-61.1624847370116, 45.62295265430906], [-61.16249737020687, 45.62299786275314], [-61.162496888361005, 45.6230518612127], [-61.162503361739255, 45.62311677282239], [-61.1625094398828, 45.62317807765774], [-61.16250734905902, 45.62355608748325], [-61.16250071288093, 45.623590364660934], [-61.16249345800651, 45.623627872255746], [-61.16249295454668, 45.62370608314483], [-61.16249278825598, 45.623726872858754], [-61.162483933572844, 45.62375445357365], [-61.16246706401505, 45.62380746826544], [-61.16246662901876, 45.62384040505173], [-61.16246628810318, 45.62387046302066]]}, "properties": {"OBJECTID": 135010, "FEAT_CODE": "WALK20", "FEAT_DESC": "Lake - Water to the right line", "RIVNAME_1": " ", "RIVNAME_2": " ", "ZVALUE": 53.7, "FID": null, "SHAPE_Length": 411.5466021011298}}, {"type": "Feature", "id": 141255, "geometry": {"type": "LineString", "coordinates": [[-61.147801668223515, 45.614746836556336], [-61.14778911578528, 45.61473853202733], [-61.14777821877774, 45.61473448483915], [-61.14776377390975, 45.6147291199602], [-61.14772519025134, 45.6146933900732], [-61.147720263079904, 45.61466774717885], [-61.14771316317962, 45.61463018765916], [-61.14766139714156, 45.61456634068593], [-61.147653303968, 45.61455504811405], [-61.14764914104334, 45.61454903989891], [-61.14762696393825, 45.614533108368015], [-61.14759776819096, 45.61451220242055], [-61.14757495391238, 45.614500040984744], [-61.14754735138232, 45.61448528158072], [-61.1475423022123, 45.614475028492784], [-61.14753413936234, 45.61445806412112], [-61.147521194023476, 45.6144227500415]]}, "properties": {"OBJECTID": 141255, "FEAT_CODE": "WALK20", "FEAT_DESC": "Lake - Water to the right line", "RIVNAME_1": "Morgans Brook", "RIVNAME_2": " ", "ZVALUE": 57.8, "FID": null, "SHAPE_Length": 43.87591092355274}}, {"type": "Feature", "id": 141256, "geometry": {"type": "LineString", "coordinates": [[-61.14763244042462, 45.61525085079352], [-61.147661454451395, 45.61522665853159], [-61.14769706173288, 45.615196992552775]]}, "properties": {"OBJECTID": 141256, "FEAT_CODE": "WALK20", "FEAT_DESC": "Lake - Water to the right line", "RIVNAME_1": "Morgans Brook", "RIVNAME_2": " ", "ZVALUE": 57.8, "FID": null, "SHAPE_Length": 7.824321208635908}}, {"type": "Feature", "id": 141257, "geometry": {"type": "LineString", "coordinates": [[-61.14769706173288, 45.615196992552775], [-61.147742468271055, 45.61519691892676], [-61.14779967437485, 45.615196856636324], [-61.14784976605538, 45.61523367324092], [-61.147849602498994, 45.615293167515176], [-61.14784949387067, 45.6153587833922], [-61.147862486764815, 45.615377086220086], [-61.147875229207926, 45.61539520496365], [-61.14788775217769, 45.615404409109075], [-61.14791115021118, 45.61542612105808], [-61.14792633641469, 45.61544013894614], [-61.147947457175725, 45.615449212488876], [-61.14798957348846, 45.61546726752161], [-61.14802812821025, 45.615503896949924], [-61.148066416381376, 45.615548622985244], [-61.1480784440151, 45.61561182536165], [-61.148103883394946, 45.615657243127934], [-61.14814801166956, 45.61567263041335], [-61.148206594008805, 45.61569311262306], [-61.14829969463752, 45.61569363211151], [-61.14845024939054, 45.615694362959815], [-61.1485139853852, 45.61568297485009], [-61.14855217332378, 45.61567621310562], [-61.148616595517986, 45.61566735635657], [-61.14868369197543, 45.61565908298643], [-61.14875825913276, 45.61564985055392], [-61.148796027271445, 45.615632460686946], [-61.14896355738443, 45.61556946858089], [-61.14902788174854, 45.61552460582429], [-61.14913066375367, 45.615480366323176], [-61.149220952001016, 45.61542602310041], [-61.14929770137329, 45.615354358410485], [-61.14930333410534, 45.615346888812134], [-61.149311112637584, 45.615336573651994], [-61.14932214037349, 45.615324960988815], [-61.14933635720217, 45.61530997960658], [-61.14934413572311, 45.61529966444395], [-61.14934976844335, 45.615292194843065], [-61.1493706268929, 45.61526246935592], [-61.14937533858106, 45.615255704912265], [-61.14937593060193, 45.61523771241032], [-61.149389341812785, 45.61521992764148], [-61.14938910934424, 45.61520750242834], [-61.14938894791759, 45.615192918114914], [-61.14937400891149, 45.6151791744584], [-61.149350362900336, 45.615157188758815], [-61.14935154695341, 45.61512120375474], [-61.14931299160995, 45.6150845747616], [-61.149297699483085, 45.615077666168865], [-61.149273814664504, 45.61506683788262], [-61.14924847238386, 45.61505742613935], [-61.14918424925956, 45.61502128123113], [-61.14918122003131, 45.615019791969885], [-61.14910848899664, 45.61498494930161], [-61.14905054800037, 45.61496447794705], [-61.149031150857354, 45.61495759279566], [-61.14900081336525, 45.61494017911248], [-61.14896820990056, 45.61492146854643], [-61.14886579626129, 45.6148766034972], [-61.14881449021835, 45.61487667195056], [-61.14865961591561, 45.614866960518334], [-61.14864473305107, 45.61486320883934], [-61.14862145472858, 45.6148573408248], [-61.14853255021006, 45.614830696575616], [-61.14849409292349, 45.61483007308744], [-61.148391777096194, 45.61482121339178], [-61.14837866183824, 45.614830001794644], [-61.148364216886314, 45.61482463699046], [-61.148353319819165, 45.61482058985632], [-61.14823749541278, 45.61479350889781], [-61.14813537650992, 45.6147708805609], [-61.14807069102402, 45.61475660007436], [-61.14800686225002, 45.61474746404209], [-61.14788118201777, 45.614747046014905], [-61.147801668223515, 45.614746836556336]]}, "properties": {"OBJECTID": 141257, "FEAT_CODE": "WALK20", "FEAT_DESC": "Lake - Water to the right line", "RIVNAME_1": "Morgans Brook", "RIVNAME_2": " ", "ZVALUE": 57.8, "FID": null, "SHAPE_Length": 335.7167244107321}}, {"type": "Feature", "id": 141355, "geometry": {"type": "LineString", "coordinates": [[-61.147521194023476, 45.6144227500415], [-61.147521986211, 45.614359755547284], [-61.14753473810575, 45.6143230580953], [-61.147550050985764, 45.61430206400914], [-61.14757369086092, 45.61426968364788], [-61.14758103539996, 45.61426476219375], [-61.14758680610831, 45.614260895336585], [-61.14761485869832, 45.61424640862132], [-61.147639000407075, 45.61423383869496], [-61.14775462964391, 45.61418890870337], [-61.14780554190265, 45.61416183119176], [-61.14789520714576, 45.614126381106836], [-61.14801531430478, 45.61411293713611], [-61.14804968598752, 45.61410908401739], [-61.1480725058211, 45.614105493612435], [-61.14816442607386, 45.61409114233988], [-61.148260515995574, 45.614086489726375], [-61.1483314275037, 45.61408304897864], [-61.14836728919411, 45.61407678963998], [-61.14838302897339, 45.61407398448328], [-61.14879444068689, 45.61407516358162], [-61.148857536449334, 45.614075376254036], [-61.148864494198996, 45.614074408909396], [-61.14892195675905, 45.614066519301055], [-61.14907495493254, 45.614094202071385], [-61.14935669363684, 45.614185178098325], [-61.14941165621865, 45.61419479977722], [-61.149458712503105, 45.61420303316772], [-61.14953575385905, 45.614239385628], [-61.14963550138075, 45.6142950981522], [-61.149650364377784, 45.61430334990502], [-61.149685919217504, 45.61431031672266], [-61.149740846469186, 45.614321017796186], [-61.149856246962514, 45.614321987321176], [-61.15017716555086, 45.61431368440995], [-61.15025321766638, 45.614313836144234], [-61.150305414626786, 45.61431396149537], [-61.15037704019879, 45.61433951441993], [-61.15045880862509, 45.61436865196645], [-61.15054771338006, 45.614395294720694], [-61.1505751894613, 45.6144022204385], [-61.150585874605895, 45.61440491377142], [-61.150665983607944, 45.61441431199887], [-61.1508171297693, 45.61443206128641], [-61.15085023343245, 45.61443556765225], [-61.15090659674132, 45.61444161087156], [-61.15106018845642, 45.614451298490344], [-61.15159882425618, 45.61445281698689], [-61.151804608695286, 45.61443544510374], [-61.15185244732426, 45.61443549921344], [-61.15192003908428, 45.61443551292062], [-61.1520601212093, 45.614426978474626], [-61.15214322398913, 45.61442724303877], [-61.15220118964991, 45.614427460864135], [-61.15226600518105, 45.614445611564804], [-61.15235547245641, 45.614455160018835], [-61.15239336808293, 45.61447287511151], [-61.15240849015872, 45.614488871597864], [-61.1524194015242, 45.614500299436], [-61.152511382052644, 45.61458171679448], [-61.15257270255214, 45.614635994993996], [-61.15259777928458, 45.614653502647265], [-61.152610007395005, 45.61467170255363], [-61.152610144889636, 45.61468313610913], [-61.15261040284187, 45.6146987120954], [-61.152604763570906, 45.61470249132185], [-61.152597288257084, 45.61470750099368], [-61.152545491240765, 45.614761569471135], [-61.15252584183956, 45.61477016263575], [-61.1524426836052, 45.61480671174028], [-61.152369118533805, 45.61483234470024], [-61.15236613467195, 45.614833376550955], [-61.15230171396112, 45.61484223544076], [-61.15215187158461, 45.61488625640735], [-61.15212169561104, 45.61489512922793], [-61.15199494406754, 45.614935113102085], [-61.1519804299626, 45.6149396487897], [-61.151891327530784, 45.61495800919577], [-61.15158246640871, 45.61502861931712], [-61.151532902711644, 45.615034207832785], [-61.151505226199355, 45.61503727026545], [-61.151365142488416, 45.61504580400488], [-61.151039006247686, 45.615044934724466], [-61.1505058741553, 45.615043592732775], [-61.15044066507631, 45.61503740605436], [-61.1504035871511, 45.615033835203505], [-61.150287859721836, 45.61504276209045], [-61.15019720840918, 45.615069197030046], [-61.15016502632276, 45.61508055713221], [-61.15009469427919, 45.61510534088963], [-61.15008157921351, 45.61511412949078], [-61.15006915426448, 45.615140931365296], [-61.15006925258813, 45.61517693714944], [-61.1500808881858, 45.615213129823296], [-61.15009651654895, 45.61524101619867], [-61.150106329026826, 45.61525854716882], [-61.150122013716576, 45.615273022891856], [-61.150144914599984, 45.61529427627739], [-61.1501774467046, 45.61531127515086], [-61.150196615323374, 45.615321216761494], [-61.150201499426146, 45.61532480628133], [-61.15020913866503, 45.61533042065809], [-61.150260247712474, 45.61537535362449], [-61.15034981457063, 45.615420909451586], [-61.15035425988602, 45.61542224159618], [-61.15043869133487, 45.61544845193671], [-61.150515636422135, 45.61544879797823], [-61.15054054324277, 45.615455862114814], [-61.150579170620254, 45.61546692888248], [-61.15062201059952, 45.61546690255728], [-61.15068178382962, 45.61546679038352], [-61.15083309738022, 45.61546392995738], [-61.151066805192826, 45.61545952299661], [-61.151325872500266, 45.61546011660941], [-61.151387434515904, 45.615460213043555], [-61.15148975205933, 45.615469070079364], [-61.15152630575343, 45.61547299213351], [-61.1515792208065, 45.61547861916325], [-61.1516593345917, 45.61554256311408], [-61.15168170755322, 45.615560387247626], [-61.151687035480464, 45.61556218367741], [-61.15170708004626, 45.61556889883368], [-61.15183631835487, 45.615578191254095], [-61.151912572945214, 45.61556052308494], [-61.15198366912987, 45.615539801045735], [-61.152003224293765, 45.61553408678543], [-61.15213117731211, 45.615426344460275], [-61.1521432518203, 45.615417988839624], [-61.15223484344565, 45.61535511332839], [-61.15230840926692, 45.61532948046876], [-61.15243984031485, 45.61528372127314], [-61.15246511151877, 45.61527188868516], [-61.152478918577756, 45.61526545127777], [-61.15263613846914, 45.615215518523605], [-61.15264611859352, 45.6152123495776], [-61.152928088714525, 45.61514040154873], [-61.15303086705027, 45.61509615847546], [-61.153088605503854, 45.615072069346375], [-61.153159608528945, 45.61504243402985], [-61.15322362353297, 45.615022496806546], [-61.15327493982984, 45.615006494682234], [-61.15337324157971, 45.61495794841768], [-61.15345485701665, 45.61491759325036], [-61.153480127847125, 45.61490576043115], [-61.15349393470256, 45.61489932289743], [-61.1535117095832, 45.61489312954078], [-61.153570483215624, 45.61487265732403], [-61.153597702897265, 45.61486787680545], [-61.153622084644034, 45.61486359046036], [-61.15395599017185, 45.614811381755764], [-61.154148956204224, 45.61479379843838], [-61.154443741517504, 45.61472205379515], [-61.15453310846457, 45.61469559472764], [-61.154565354423085, 45.6146822541953], [-61.15459811903398, 45.61466874201387], [-61.154643154092454, 45.61463697595045], [-61.15464932369632, 45.61463266512994], [-61.154675552199585, 45.614615086849696], [-61.15467985501466, 45.61460903566387], [-61.15470108908211, 45.61457949529163], [-61.15472695059405, 45.61453400781997], [-61.1548176913986, 45.614426561292845], [-61.15485604714405, 45.61439117681599], [-61.154946623329586, 45.61432783266244], [-61.15501064647574, 45.614291962711036], [-61.155087193465825, 45.61426529609417], [-61.15512267001757, 45.61425902841145], [-61.15513879411089, 45.61425622853171], [-61.155216032762134, 45.61424757509899], [-61.15538234214522, 45.614221458144065], [-61.15542546313529, 45.61420892309772], [-61.15547298977098, 45.614195019025175], [-61.15552389842734, 45.614167938014546], [-61.15555369082388, 45.61414726672508], [-61.1555632699445, 45.61414067064862], [-61.1556530216114, 45.614024206427914], [-61.1556830732128, 45.614003449279934], [-61.155692392964525, 45.61399693901427], [-61.15579506507322, 45.61391668753486], [-61.155975889175494, 45.61379989351123], [-61.15607866271666, 45.61375564760953], [-61.15609573113212, 45.61375142267382], [-61.15611616195179, 45.61374635191967], [-61.156143849407165, 45.613742928503456], [-61.15625781866683, 45.61372883669569], [-61.156321033541246, 45.613729317196515], [-61.15636039936341, 45.613729592672904], [-61.156449895786004, 45.61373823828413], [-61.15646378722885, 45.613744853277154], [-61.15664185377721, 45.61382954717336], [-61.156725029159325, 45.61385105204933], [-61.156783023583294, 45.61386602973252], [-61.156871736040245, 45.61390643606213], [-61.156961205971875, 45.61394721458888], [-61.15699979509959, 45.613982941442345], [-61.15700632959222, 45.614006629644514], [-61.15701242207751, 45.61402815046137], [-61.15701526681344, 45.614078332211044], [-61.15702388358082, 45.614226358495976], [-61.15698493972486, 45.61427973630711], [-61.15690259801172, 45.61434627533006], [-61.15689535296931, 45.6143520990941], [-61.15688917614777, 45.614360550401805], [-61.15685640890188, 45.61440547685703], [-61.156740888804414, 45.6144864220186], [-61.15668939075689, 45.61453149615343], [-61.15663693504349, 45.61456665365397], [-61.15658632139126, 45.614584738873205], [-61.156560064000416, 45.614603217230766], [-61.156495259303966, 45.61470208276818], [-61.15648195288028, 45.61475587425468], [-61.156477149120434, 45.61476938829123], [-61.15646923617286, 45.614791673163445], [-61.15646936560566, 45.61480337661488], [-61.15646963347274, 45.61481868272005], [-61.15655832006773, 45.61489122260879], [-61.15657236203947, 45.61490108039417], [-61.15658339817986, 45.614908729407], [-61.1566337773928, 45.61491737351683], [-61.1566356914235, 45.614917674443234], [-61.156660067084005, 45.61491356737198], [-61.15673758204616, 45.614900416846154], [-61.15680229702315, 45.614882559154765], [-61.15700738938247, 45.61484716462616], [-61.157135242330334, 45.61482042450014], [-61.157199957095266, 45.614802566579755], [-61.15722618490059, 45.61478498770298], [-61.15724623891497, 45.61476010836212], [-61.15727699033371, 45.61472190005662], [-61.157279422983805, 45.61445190787146], [-61.15729213909468, 45.614416108861256], [-61.15759508747413, 45.61431424427091], [-61.157716214069254, 45.61427353336248], [-61.157767519676845, 45.61427346090056], [-61.15777990256172, 45.614271320380624], [-61.15781911993536, 45.61426439212027], [-61.157845927941196, 45.61426824495409], [-61.15788294993009, 45.61427352268436], [-61.15795900972934, 45.61430085257328], [-61.158035953452206, 45.61430119352349], [-61.15809437430374, 45.614291424533924], [-61.15813912446557, 45.61428395532591], [-61.15821455943393, 45.61429120262946], [-61.15833090932311, 45.61430235008088], [-61.15845525855723, 45.614308135766926], [-61.15853708980906, 45.61431197559072], [-61.158784213053934, 45.61431289974461], [-61.15897183235823, 45.61431358420872], [-61.15900259788707, 45.61430624925912], [-61.159010613425096, 45.614304308232896], [-61.15915043509456, 45.614295850896426], [-61.15915197632501, 45.61429578572947], [-61.15915686523043, 45.61429532447206], [-61.15924203354777, 45.61428733619771], [-61.15924650096076, 45.61428407781773], [-61.159255176460064, 45.614277646887786], [-61.15932893983638, 45.61425759333539], [-61.15938329207489, 45.6142428075328], [-61.15948550452387, 45.61421565151577], [-61.15956032458866, 45.61420641610159], [-61.15962716150756, 45.61419813211517], [-61.15968297992895, 45.614189490510284], [-61.15974318035108, 45.61418019940626], [-61.15984506876392, 45.61416293899868], [-61.160037337722486, 45.614127332397196], [-61.160051428169574, 45.61412395899545], [-61.16007611849557, 45.614118056054465], [-61.16008893751236, 45.61411826258317], [-61.16024311883825, 45.61410994524609], [-61.16029471858181, 45.61410087533831], [-61.16044879484864, 45.61405655183767], [-61.16051994792126, 45.61403393517516], [-61.160615984074965, 45.614003438284406], [-61.16070537653568, 45.613976074689326], [-61.16078221468381, 45.61394040789412], [-61.16089790909163, 45.613932369939484], [-61.161051425596476, 45.61390513860248], [-61.161065404162116, 45.61390518367234], [-61.16120531213042, 45.613905816267234], [-61.16125125630594, 45.61391672720296], [-61.16128294911336, 45.61392416828798], [-61.16130988541039, 45.61392802237384], [-61.16134677934682, 45.61393329691897], [-61.16142324013309, 45.61398763410081], [-61.16142639194955, 45.61398930503174], [-61.16147494523818, 45.61401456954898], [-61.16151166869501, 45.61402506190418], [-61.1615384815552, 45.614032694389074], [-61.161665201045565, 45.61427596238362], [-61.16167841991607, 45.61430317831398], [-61.16170317596812, 45.61433057995629], [-61.16170183492522, 45.61452858141882], [-61.1616944709392, 45.614553755824616], [-61.1616888275438, 45.614573377276834], [-61.16163733331031, 45.61461845370266], [-61.16161124219336, 45.614631895311256], [-61.16158645650294, 45.61464463784477], [-61.16153456238751, 45.61466270464447], [-61.16139330441507, 45.6147072359777], [-61.161265264997, 45.61477898310702], [-61.16124601737129, 45.614783173727886], [-61.161226513359274, 45.614787360217406], [-61.161123606991, 45.61479650452345], [-61.16107200672756, 45.61480557479698], [-61.161052239199975, 45.61481389749518], [-61.161008280892155, 45.61483245188415], [-61.16099440846435, 45.614836999050645], [-61.16098234836969, 45.614841035337065], [-61.16086499691343, 45.614840855738876], [-61.16067454079866, 45.614840578751235], [-61.160622641173184, 45.61484703369639], [-61.16061015066222, 45.61484854271781], [-61.16059730205408, 45.61484923587588], [-61.16053162997927, 45.61485717915049], [-61.16037981498968, 45.614875436147734], [-61.160230019896346, 45.61489075513763], [-61.160212389917845, 45.614892541361414], [-61.16015975930278, 45.61489781418372], [-61.16003352623626, 45.61491036214122], [-61.15998192570741, 45.6149194319176], [-61.159964319589115, 45.61492832931476], [-61.1599297659553, 45.61494559464979], [-61.159876788597415, 45.61497714481232], [-61.159822762095885, 45.61500939812865], [-61.15976363595677, 45.615044629600334], [-61.15969833296327, 45.61508048158842], [-61.159608084583354, 45.6151339336341], [-61.15950627648968, 45.615183958933684], [-61.15948033635614, 45.61519668240393], [-61.15947474164451, 45.61519911253042], [-61.159377562725986, 45.61524093135745], [-61.159335567656875, 45.61525825659696], [-61.15931255368325, 45.61526778681494], [-61.159274230645025, 45.61529048183456], [-61.15922230464003, 45.61532123854371], [-61.159157988466205, 45.615366107174275], [-61.159004865626926, 45.61542034544705], [-61.158975262247104, 45.61543526001022], [-61.158862720340295, 45.61549186248071], [-61.15881085404877, 45.61550902838449], [-61.15874620668508, 45.61552481806255], [-61.15873457209967, 45.61552760082509], [-61.15855426272101, 45.61558950110482], [-61.15843863885389, 45.615634442111386], [-61.158297965261475, 45.61566097694055], [-61.158246069188344, 45.615679042211745], [-61.15818726830283, 45.61569645603798], [-61.158156702319474, 45.61570550418377], [-61.15807946204864, 45.61571415957959], [-61.15802351369106, 45.6157227983035], [-61.1579634395476, 45.61573209053623], [-61.157758241254854, 45.615731480885906], [-61.15769825841491, 45.61573798412757], [-61.157194453916844, 45.61579259293962], [-61.15714000097486, 45.615798645057644], [-61.15711721339835, 45.615801247680245], [-61.157092972981154, 45.61580121654998], [-61.15705308702667, 45.61580111295453], [-61.15701430461781, 45.61581038824219], [-61.15688618401705, 45.61584522485194], [-61.15677076071269, 45.61585659350288], [-61.15670603446663, 45.61586301966386], [-61.15657817894373, 45.61588975926476], [-61.1564969576735, 45.61592985299044], [-61.15648822123293, 45.61593421248506], [-61.15638531212398, 45.61594335247455], [-61.15633400501055, 45.615943424291736], [-61.156319290619685, 45.61594624709822], [-61.156243649843496, 45.61596086776439], [-61.15621393221296, 45.615967498803755], [-61.15620617863242, 45.615969263841684], [-61.15619161739227, 45.61597523947045], [-61.15614116727902, 45.615996117453776], [-61.15610178196564, 45.616004212560966], [-61.156052064418645, 45.61601448109854], [-61.155994337778495, 45.616046042782074], [-61.15592276289914, 45.616085301742515], [-61.15587155768371, 45.61612137918095], [-61.155852799752516, 45.61613016733287], [-61.15583247988294, 45.61613965034268], [-61.155719204535316, 45.616183276360104], [-61.15560125500201, 45.6162286269844], [-61.155447169115156, 45.61627294377626], [-61.15542646159226, 45.616282510462845], [-61.15537032446255, 45.616308606865516], [-61.1552157200938, 45.61640782134797], [-61.15517738353501, 45.616415212993545], [-61.15512536385698, 45.61642526391738], [-61.15476637145075, 45.61645996870634], [-61.1544246681669, 45.61647983001464], [-61.15431787820459, 45.616486025088165], [-61.15403573080285, 45.61648506520456], [-61.15376600695528, 45.61645730233182], [-61.15363412435595, 45.616446439169884], [-61.153535758010065, 45.61643827801735], [-61.15298428335964, 45.616436561029715], [-61.15289419235409, 45.616445905181536], [-61.152859210384996, 45.61645659068238], [-61.15277888738869, 45.6164809444597], [-61.152702040812045, 45.61651660572128], [-61.15253490725383, 45.61660661285685], [-61.1524958576153, 45.61662398322663], [-61.152025179839306, 45.616622488548025], [-61.15173918019976, 45.6166216406723], [-61.15150890182975, 45.61660351189742], [-61.15136743312928, 45.61657601903961], [-61.15125232366123, 45.616566054711555], [-61.151098696565384, 45.61655726689011], [-61.15070141021845, 45.61654723379144], [-61.15054546886884, 45.61654641868054], [-61.15053469752946, 45.616546334252384], [-61.15047308500885, 45.61656333852817], [-61.150469978742855, 45.61656418832583], [-61.15020114347273, 45.6166264418763], [-61.150162093124536, 45.616643811436475], [-61.15011616259167, 45.61666367983865], [-61.149995547086846, 45.616715822279666], [-61.14994367707496, 45.616732984092465], [-61.14982863612911, 45.61675992372587], [-61.14975386842041, 45.61677131385868], [-61.14948186636804, 45.616812812002195], [-61.1493527235357, 45.61683952264839], [-61.14923738605669, 45.616875457925836], [-61.1491989273571, 45.61687483465338], [-61.14912138821906, 45.61689248018858], [-61.149044509221945, 45.616929038566], [-61.1490350769098, 45.61693113594993], [-61.149005754402964, 45.61693741147449], [-61.14885284608687, 45.6169457342672], [-61.148824497048516, 45.616945814803245], [-61.14876304980534, 45.61694607888994], [-61.14866016741803, 45.61695431224266], [-61.14832621505568, 45.617007404791636], [-61.148120517343855, 45.61706077599032], [-61.14800226730496, 45.617060478586986], [-61.14799226209202, 45.617060496353616], [-61.14796662289253, 45.61706008055935], [-61.14777463313285, 45.61708667030286], [-61.147671720740895, 45.61709580238247], [-61.147438431382774, 45.61709507858634], [-61.14726131561279, 45.617094545571426], [-61.14721651958934, 45.61708382765735], [-61.14718496112276, 45.617076204828344], [-61.14715245415736, 45.61706622632996], [-61.14709480152569, 45.6170486390032], [-61.14703607371803, 45.617036434829394], [-61.147005627569484, 45.617030090144866], [-61.14696704286832, 45.61699435999829], [-61.14696724297792, 45.616949358017244], [-61.14695948392218, 45.61681502652665], [-61.146955816701734, 45.61675114960677], [-61.14695626282263, 45.616714252557195], [-61.14695660963782, 45.616688155151294], [-61.146968740014934, 45.616670349887315], [-61.14697559734412, 45.61665686957455], [-61.146982448741774, 45.61664356918605], [-61.14707324456857, 45.61641821602685], [-61.14709967622195, 45.61635563755457], [-61.14711437475939, 45.61631438121087], [-61.147125122253684, 45.61628404203769], [-61.14714481797851, 45.61620011179544], [-61.14716152595088, 45.61612900457145], [-61.14716539542508, 45.616112775456244], [-61.14717248601473, 45.6160883176379], [-61.14717841471826, 45.616067981449966], [-61.14723032144048, 45.615932907772375], [-61.14729344167318, 45.615835100302064], [-61.14733439416041, 45.61577167721725], [-61.14741114638254, 45.615700013844304], [-61.147449833558554, 45.61565473608448], [-61.14747596809211, 45.61560115374571], [-61.14752747439974, 45.615556083904586], [-61.1475661317504, 45.61551170572539], [-61.14760550800076, 45.61548444118425], [-61.14761852678364, 45.61543964711538], [-61.14768275525348, 45.615358779368826], [-61.14768786871294, 45.61534761099799], [-61.1476951813831, 45.61533197777343], [-61.14768256166848, 45.61528676784598], [-61.1476628459868, 45.61528176751576], [-61.1476444003763, 45.61527714782475], [-61.14764084280649, 45.61527222955469], [-61.14763214413536, 45.615259847035624], [-61.14763244042462, 45.61525085079352]]}, "properties": {"OBJECTID": 141355, "FEAT_CODE": "WALK20", "FEAT_DESC": "Lake - Water to the right line", "RIVNAME_1": "Morgans Brook", "RIVNAME_2": " ", "ZVALUE": 57.8, "FID": null, "SHAPE_Length": 3360.1791058869817}}, {"type": "Feature", "id": 196883, "geometry": {"type": "LineString", "coordinates": [[-61.162889596705135, 45.61103098435367], [-61.16276173328324, 45.61103090763034], [-61.162658749183905, 45.61103087099751], [-61.16256951930709, 45.61101809405385], [-61.16240344055407, 45.61099435936772], [-61.16232092990224, 45.61098790107347], [-61.16227424002438, 45.61098417940415], [-61.16173691740483, 45.610982732408424], [-61.161667924297774, 45.61098648239695], [-61.16156989710725, 45.61099174518462], [-61.16142795472059, 45.61101826345772], [-61.16131266603587, 45.61105331163943], [-61.161304912083686, 45.61105903748171], [-61.16129952424152, 45.611063001208535], [-61.16113274402691, 45.611143125525004], [-61.161042209306935, 45.61120557517476], [-61.16097848759095, 45.6112324523243], [-61.16094015356609, 45.61123597549731], [-61.16069676527151, 45.611258518893095], [-61.16059044803931, 45.61125842671141], [-61.16058134111382, 45.6112584600495], [-61.160564106919246, 45.611256022208124], [-61.160452405151936, 45.61124018133828], [-61.16043012894239, 45.61123505195499], [-61.16041421484496, 45.61123146521843], [-61.160210104864134, 45.61115886907696], [-61.1601661829912, 45.61114501994864], [-61.159979076935386, 45.611085838868675], [-61.159934270966914, 45.611067654900985], [-61.1598892145472, 45.61104928685908], [-61.15973810336545, 45.61098753498885], [-61.159646222743795, 45.610949960149156], [-61.15958426800756, 45.610918898216035], [-61.15942919213827, 45.610841150178146], [-61.159362080638644, 45.61080307420173], [-61.159302023810355, 45.61076889233535], [-61.15920402800966, 45.61073400889977], [-61.15914863054718, 45.61071421373041], [-61.15913965619379, 45.61071019861643], [-61.15910945339472, 45.61069648021231], [-61.158833776501204, 45.610651531312485], [-61.15882752501956, 45.61065053041989], [-61.15878907036679, 45.61064991044118], [-61.15878214558483, 45.61064988880671], [-61.158686465737304, 45.61065005636249], [-61.15864370140101, 45.61064396621595], [-61.15862263969187, 45.61064092630372], [-61.158547156229766, 45.61061963683736], [-61.1584942948552, 45.61060465280157], [-61.158463418968644, 45.61059191348839], [-61.15840571604727, 45.61056812031782], [-61.15832808466301, 45.61054976641676], [-61.15817439842397, 45.61050408282844], [-61.1580112566102, 45.61047300824913], [-61.157983215709216, 45.61046769539606], [-61.15780396757149, 45.61045850332319], [-61.15770366316729, 45.6104471641171], [-61.157636579952445, 45.610439601151256], [-61.15748267362902, 45.610439818454026], [-61.15691998819805, 45.61019491111197], [-61.15689464675403, 45.610185501072294], [-61.15688400191499, 45.61017767837752], [-61.1568821234143, 45.61017629790187], [-61.156830821555765, 45.6101763700239], [-61.156805347929854, 45.61013185371934], [-61.15678030130768, 45.61011344735822], [-61.156715489187526, 45.6100952992618], [-61.156588621962335, 45.61004140539477], [-61.15658773649008, 45.61004103105948], [-61.156501244310995, 45.61002307294713], [-61.15649857020785, 45.61002248971696], [-61.15646038137612, 45.61001377229524], [-61.156442708881926, 45.610001245574175], [-61.15639645398012, 45.60996863513559], [-61.15635829468555, 45.60995901805097], [-61.156293188035676, 45.60994986601385], [-61.15621881981749, 45.60994938544512], [-61.15620343227315, 45.609949317032765], [-61.156184009562274, 45.60993541185571], [-61.15615331011906, 45.609913403678064], [-61.156153306140695, 45.60989396133571], [-61.156153207803236, 45.60987739780733], [-61.15614819854321, 45.60987371650777], [-61.156140684654396, 45.609868194558054], [-61.15602486637335, 45.609841121576565], [-61.15593599551104, 45.60981358350883], [-61.155871184020896, 45.60979543494183], [-61.155822829746924, 45.609776021919224], [-61.155782578745736, 45.60975980009362], [-61.15566738026015, 45.60971383454215], [-61.15562675770758, 45.609708947990185], [-61.15558945603862, 45.60970447510012], [-61.15555126757173, 45.60969575737942], [-61.15549996616866, 45.60969582891028], [-61.1554483794586, 45.60968113407958], [-61.15543643675867, 45.60967770080317], [-61.15541452715652, 45.60966924596997], [-61.15529586831781, 45.609623224150525], [-61.15510380548419, 45.60961382083535], [-61.15507380098042, 45.60961756661036], [-61.15503942066502, 45.60962178174802], [-61.154985905843326, 45.60963459878752], [-61.15496186379995, 45.60964033108309], [-61.15487783463992, 45.609656795561996], [-61.15487280022551, 45.609657794348536], [-61.15487009074879, 45.60965829063526], [-61.15482120378356, 45.60966686186253], [-61.154785615029546, 45.609676638052825], [-61.15475649426643, 45.60968471853], [-61.15458990298305, 45.609719831082955], [-61.15451794484028, 45.60973189981736], [-61.154486739399246, 45.60973706619976], [-61.15439735086875, 45.6097644250033], [-61.15424387230685, 45.60979074790986], [-61.15416663966893, 45.60979940078407], [-61.15384614317534, 45.60983472489138], [-61.153750808742544, 45.60984785541148], [-61.15371731364875, 45.6098524445041], [-61.15369656446998, 45.60985552945211], [-61.153601331575636, 45.60986947158387], [-61.153319644598966, 45.60991019223631], [-61.153114241583516, 45.60993990446654]]}, "properties": {"OBJECTID": 196883, "FEAT_CODE": "WARV50", "FEAT_DESC": "River - Single Line", "RIVNAME_1": " ", "RIVNAME_2": " ", "ZVALUE": 9999, "FID": null, "SHAPE_Length": 827.101092360106}}, {"type": "Feature", "id": 197064, "geometry": {"type": "LineString", "coordinates": [[-61.15242417376781, 45.61989920326233], [-61.1524511621157, 45.61988982874594], [-61.15247607556576, 45.61988114073942], [-61.152513845476875, 45.619863749681244], [-61.152540811264544, 45.619858965309554], [-61.15256545166641, 45.61985468337641], [-61.15266833891328, 45.619846446582415], [-61.15281302838409, 45.61984644671772], [-61.152835091068276, 45.61984644353207], [-61.15288607665207, 45.619856269230155], [-61.152956559081105, 45.61987001065529], [-61.152976568721776, 45.619873934695406], [-61.15301841486318, 45.61986912084317], [-61.153052533376204, 45.619865262124634], [-61.15310384402617, 45.6198651918376], [-61.15316059301268, 45.61985575838185], [-61.153207026673975, 45.61984795829443], [-61.15326704918722, 45.61984820883655], [-61.15334810876816, 45.61984843947783], [-61.15342535536575, 45.619839787388], [-61.15350446235689, 45.61982135419144], [-61.15365672865451, 45.619785921652635], [-61.15378431795181, 45.61977151245669], [-61.153809939547415, 45.61976859627321], [-61.1538666883285, 45.619759162463026], [-61.1539131218207, 45.61975136208558], [-61.15393696802672, 45.61974391665377], [-61.1540284624175, 45.6197154221475], [-61.1540924923759, 45.61967955284741], [-61.154169342486234, 45.619643890722216], [-61.154220055977184, 45.61962292786638], [-61.15423435901845, 45.61961703832919], [-61.15439253141955, 45.61956576842134], [-61.15442753573234, 45.61955445274289], [-61.154446967278304, 45.619540815152746], [-61.15450369391182, 45.61950077712764], [-61.15460795521588, 45.6194115514182], [-61.154608608033726, 45.619411201925445], [-61.154709782892965, 45.61935739035126], [-61.154749453702145, 45.61932112708034], [-61.15483941824739, 45.61927667536035], [-61.15490030670126, 45.61924660552493], [-61.1549293826515, 45.61923222356696], [-61.15494728991886, 45.61922594211863], [-61.15503190141812, 45.61919607546013], [-61.15511568091702, 45.619183747329394], [-61.15514790242979, 45.61917904724539], [-61.155309439122135, 45.61914637255806], [-61.15536612671385, 45.61913486677393], [-61.155468645032535, 45.61909871826729], [-61.15557153054964, 45.61909047882822], [-61.15575011373331, 45.61908166155572], [-61.15601945420699, 45.619082410403784], [-61.15609739145592, 45.619091769740294], [-61.15628778264826, 45.619129677662734], [-61.15641725953894, 45.61915544064234], [-61.156545225004436, 45.61916470717143], [-61.156621880451425, 45.6191740454586], [-61.156827091229616, 45.61917465734518], [-61.156955838676666, 45.61912092874429], [-61.156983798465575, 45.61911318902064], [-61.157020558487865, 45.61910307101595], [-61.15714839168996, 45.619077230672396], [-61.15728464208216, 45.619021552533525], [-61.1573031031041, 45.61901401950485], [-61.15761010810479, 45.61896136607545], [-61.157879934286406, 45.61890811211876], [-61.15793537009822, 45.61889955521064], [-61.15799596339665, 45.61889018135836], [-61.158028242006665, 45.61888764163214], [-61.15809884823244, 45.61888193963013], [-61.15822612066949, 45.6188731910142], [-61.158281649324536, 45.618873546466524], [-61.158315890743104, 45.61887373862533], [-61.158334356132, 45.61887781684406], [-61.1583553678649, 45.61888247618514], [-61.158469541895386, 45.61899953065241], [-61.15847571627901, 45.61900683104853], [-61.15850781131577, 45.61904515295494], [-61.158515516815626, 45.61905661851693], [-61.15852004226933, 45.61906335225945], [-61.15851982102459, 45.619152368991124], [-61.158519676810634, 45.61927037031622], [-61.15852335583636, 45.61933820747895], [-61.15853087898839, 45.61947667478671], [-61.1585307530924, 45.61953535954275], [-61.158530791722015, 45.61955768274671], [-61.15865645186861, 45.61998995863388]]}, "properties": {"OBJECTID": 197064, "FEAT_CODE": "WARV50", "FEAT_DESC": "River - Single Line", "RIVNAME_1": " ", "RIVNAME_2": " ", "ZVALUE": 9999, "FID": null, "SHAPE_Length": 624.2352384068223}}, {"type": "Feature", "id": 197902, "geometry": {"type": "LineString", "coordinates": [[-61.14769706173288, 45.615196992552775], [-61.14769649660363, 45.615159629037095], [-61.14769627556808, 45.615142973512974], [-61.147699428406455, 45.61513681392761], [-61.14770998355585, 45.61511619270636], [-61.14777480403999, 45.61501733240981], [-61.14780216540966, 45.61498879280377], [-61.147826605818125, 45.61496326617391], [-61.14787181909592, 45.61493789641621], [-61.147890634115804, 45.614927400300544], [-61.14791656858272, 45.614918819852804], [-61.1479415469908, 45.614900322741015], [-61.14795169077082, 45.61488050491968], [-61.14795525479989, 45.61487354190113], [-61.147954565357274, 45.614855528623195], [-61.14792949001454, 45.614838019971884], [-61.14789844088359, 45.61482275470565], [-61.147891625222975, 45.614819403792445], [-61.14787545890622, 45.61480789029636], [-61.14781517669239, 45.61476505774295], [-61.147801668223515, 45.614746836556336]]}, "properties": {"OBJECTID": 197902, "FEAT_CODE": "WARV50", "FEAT_DESC": "River - Single Line", "RIVNAME_1": " ", "RIVNAME_2": " ", "ZVALUE": 57.8, "FID": null, "SHAPE_Length": 62.25420417761043}}, {"type": "Feature", "id": 198009, "geometry": {"type": "LineString", "coordinates": [[-61.14356797102526, 45.61120638723769], [-61.14356818787394, 45.611044371786384], [-61.14358180250379, 45.61098158572242], [-61.14360823526987, 45.610919008022435], [-61.14361994819122, 45.610902186428376], [-61.14363380701396, 45.61088251937792], [-61.14367216718931, 45.610847138709126], [-61.14378888546545, 45.610730221978564], [-61.14379163961203, 45.61072837652276], [-61.14382694858741, 45.61070383748355], [-61.14385661809844, 45.610683077226895], [-61.14389127126946, 45.61065897756137], [-61.14394346389498, 45.610631922568366], [-61.14396452363142, 45.610627224250884], [-61.14398093322797, 45.61062353048092], [-61.144033664447015, 45.610611245929995], [-61.14413602673078, 45.61058734645919], [-61.144238209731945, 45.610561103708896], [-61.14432757455368, 45.61053465258233], [-61.14433903549777, 45.61052934816963], [-61.14436665201532, 45.61051638533851], [-61.14438234473841, 45.61050331876517], [-61.144431270809015, 45.61046252886745], [-61.1444693631258, 45.610435244526236], [-61.14454739324466, 45.61036360378465], [-61.14459213007226, 45.610317615151764], [-61.14459916397873, 45.61031043857598], [-61.14461261708634, 45.61017474120944], [-61.144599674493136, 45.61013942681739], [-61.144548307617974, 45.61010258803395], [-61.14451002585246, 45.61005786087981], [-61.14440853268616, 45.60998546351321], [-61.14438347246547, 45.60996759427071], [-61.14434287228843, 45.609946502164995], [-61.14419181511659, 45.609868168621055], [-61.144127304358605, 45.60984101721342], [-61.144101583732656, 45.60983150815837], [-61.14407662625484, 45.60982219152088], [-61.144067942161996, 45.60981718982134], [-61.14399986163657, 45.60977773889093], [-61.143958014788026, 45.60977111808683], [-61.14393606890313, 45.60976770105075], [-61.14390417497084, 45.60975872169216], [-61.14387126155327, 45.60974954573356], [-61.14384729989957, 45.60974114533672], [-61.14376856456222, 45.60971367251571], [-61.1437304077322, 45.60970405124691], [-61.14364091998055, 45.609695395791086], [-61.143607551380924, 45.60969224306489], [-61.14353864405953, 45.60968563227377], [-61.14342352060203, 45.60967655990667], [-61.143309099755925, 45.609568487226134], [-61.14331020795368, 45.60937948305458], [-61.14334879974898, 45.60929820086257], [-61.143370579503134, 45.60926390088275], [-61.14340020920907, 45.60921712703872], [-61.143412932816275, 45.60918132966242], [-61.14341441731985, 45.609136348511136], [-61.14341201409397, 45.60913144887046], [-61.14340120848961, 45.60910913059989], [-61.14337544913844, 45.60907360769507], [-61.1432861949678, 45.60901905036516], [-61.14324004616298, 45.60900290824356], [-61.1431834996856, 45.608983176643385], [-61.14315041709307, 45.608975257872785], [-61.14310715753995, 45.60896483334135], [-61.143024463010406, 45.608944676493465], [-61.142992659265815, 45.608936868482544], [-61.14290189109184, 45.608928191624415], [-61.14286624597838, 45.60892797200963], [-61.1428121374239, 45.60892763214421], [-61.14273520149847, 45.608927280151505], [-61.14270336077892, 45.608908940221355], [-61.14267227132123, 45.60889115256402], [-61.14262828807416, 45.60885992453805], [-61.14259583579148, 45.60883680407057], [-61.14257007707397, 45.60880128099233], [-61.14253742312871, 45.60876096520784], [-61.14251832210344, 45.60873743180041], [-61.142504421968965, 45.60870786226416], [-61.14249315756516, 45.60868391625296], [-61.14242679471227, 45.608576984379546], [-61.142392088411626, 45.60852115334862], [-61.14234503944221, 45.608446849385665], [-61.1423408983167, 45.60844021125101], [-61.142335299288625, 45.608431119115195], [-61.14229099012374, 45.608359289982126], [-61.142285352491996, 45.60835136735334], [-61.14226526151762, 45.60832286721613], [-61.142239409797654, 45.608251338313494], [-61.142238062253654, 45.60824942616996], [-61.14213774793579, 45.60810656764729], [-61.142113568678845, 45.60806206909816], [-61.14199312811501, 45.607942285768125], [-61.14198567829183, 45.60793487370366], [-61.141947102889965, 45.60789914195387], [-61.141914777868564, 45.60788772473596], [-61.14189639756258, 45.60788121494879], [-61.14187037228981, 45.607853788322856], [-61.14185077616187, 45.60782196576988], [-61.14178152949869, 45.60770922590494], [-61.14171498883409, 45.60764657591854], [-61.14170566104857, 45.60763778311798], [-61.141691283170196, 45.607622697408814], [-61.141679635979045, 45.60761035645068], [-61.141679272258344, 45.60760972045789], [-61.14166741290545, 45.607592155431604], [-61.141642546827526, 45.60752964348329], [-61.14162993355116, 45.607484432931514], [-61.141617134180954, 45.60736721087194], [-61.14160875812201, 45.60724808055661], [-61.14160582070557, 45.60720500768907], [-61.14159308476032, 45.60712469100028], [-61.14155533837414, 45.60702506507624], [-61.141551048467086, 45.60701905456431], [-61.141491630725234, 45.60693491781066], [-61.141428016222505, 45.60688077626604], [-61.14142740508031, 45.60687986621385], [-61.14136430893599, 45.60679062893301], [-61.141296021452085, 45.60674208192763], [-61.14128787751743, 45.60673627870973], [-61.14124800083954, 45.606701155610885], [-61.14123678339651, 45.606691341897275], [-61.14123384993855, 45.60668697364204], [-61.14122456065798, 45.606673140833365], [-61.14117396832133, 45.606574205794146], [-61.141122484440075, 45.60650225940205], [-61.14101041621492, 45.60635047749264], [-61.140982552033904, 45.60631275951261], [-61.14096529144892, 45.606287905635774], [-61.14094460261731, 45.60625813537495], [-61.14091953325343, 45.60624062525316], [-61.14085502823837, 45.60621347207008], [-61.1408171715781, 45.60619485364526], [-61.140689146218, 45.60614956421946], [-61.14064729258416, 45.6061316007475], [-61.14062592312678, 45.60612243177756], [-61.14051071513397, 45.60607735083892], [-61.14040775939807, 45.60604957131285], [-61.14033142216758, 45.606031226222434], [-61.140239891304795, 45.60599922206983], [-61.140228734248474, 45.60599534994009], [-61.14021036338218, 45.605984699544166], [-61.140011074311325, 45.605868490547195], [-61.13994043883847, 45.60584060692305], [-61.139897149042724, 45.60582342987858], [-61.13969150695229, 45.60575977305529], [-61.13961464255241, 45.60573799849294], [-61.13956318603706, 45.60572347860976], [-61.139543366849566, 45.60571397464931], [-61.139487444524114, 45.60568714053353], [-61.13943002313861, 45.60566298228593], [-61.13942294085223, 45.605659986559665], [-61.139323208053305, 45.60562397758396], [-61.13929494762016, 45.60561379598168], [-61.13912913093415, 45.60558679127624], [-61.13907990987996, 45.605566726942314], [-61.13903929128776, 45.60555022317373], [-61.13901392527225, 45.605541708859306], [-61.138991586641495, 45.60551533175899], [-61.13893740645593, 45.60545135137346], [-61.138911681315506, 45.60541492788898], [-61.13882243727764, 45.60536036719522], [-61.13879736898038, 45.60534285662146], [-61.13874568290079, 45.605315911160126], [-61.13874479762506, 45.605315536689204], [-61.138710984150705, 45.60529878367149], [-61.138707827555486, 45.60529729205357], [-61.13866856439668, 45.60525920769243], [-61.13860594375961, 45.60519841996966], [-61.138506873882214, 45.60509590322483], [-61.13843979415651, 45.60502649171426], [-61.138318920649965, 45.60490471714885], [-61.13828714863254, 45.60487278548645]]}, "properties": {"OBJECTID": 198009, "FEAT_CODE": "WARV50", "FEAT_DESC": "River - Single Line", "RIVNAME_1": " ", "RIVNAME_2": " ", "ZVALUE": 9999, "FID": null, "SHAPE_Length": 994.0536580343947}}, {"type": "Feature", "id": 263854, "geometry": {"type": "LineString", "coordinates": [[-61.143946202228186, 45.62434595951839], [-61.143951734087835, 45.62432993757058], [-61.14395895891565, 45.62430926259856], [-61.143991321425574, 45.62414885004078], [-61.14399882729117, 45.62411188775834], [-61.1440510465972, 45.623967819732115], [-61.144051679657835, 45.62388646065437], [-61.14405224842884, 45.6238148216499], [-61.14410277999701, 45.62376073652877], [-61.144155252125614, 45.62372558509639], [-61.14421379326871, 45.62370088345339], [-61.14421899593366, 45.62369871773767], [-61.144235536497064, 45.62368728517317], [-61.14425837963027, 45.623671454502734], [-61.14434787337118, 45.623563996167924], [-61.144438055098995, 45.62347455101314], [-61.14450367433997, 45.62342971189338], [-61.1445081403633, 45.62342654408178], [-61.14454177560704, 45.623402427723434], [-61.14459173619245, 45.62338505733611], [-61.14459368309369, 45.62338436888392], [-61.144669950472, 45.623366705775176], [-61.14476002408208, 45.62335826793881], [-61.14481193146055, 45.62334020899821], [-61.14497788051703, 45.62328709825816], [-61.145081101414725, 45.623268972583], [-61.145196721747865, 45.623224945192625], [-61.14527290678588, 45.62319809928576], [-61.145299253857424, 45.62318880605928], [-61.145338310265245, 45.623171438275406], [-61.14542841315026, 45.62316210028325], [-61.14547880129367, 45.623155087643084], [-61.14555599352518, 45.6231443697591], [-61.14563354239002, 45.6231267268153], [-61.14574925742221, 45.62311870455052], [-61.145800570946875, 45.62311863759183], [-61.145890050718634, 45.623128191295955], [-61.14629970570993, 45.62319244809058], [-61.14646685992088, 45.62321946397516], [-61.14696708626862, 45.62322128097592], [-61.147024004057165, 45.62323021542762], [-61.14708194161556, 45.623239346417314], [-61.14712040462059, 45.62323997046956], [-61.147160967142995, 45.623258630645246], [-61.14719748625742, 45.62327542499936], [-61.14725046373285, 45.623306617981484], [-61.14726040558501, 45.62331244992504], [-61.14731240856075, 45.623330395544805], [-61.147409135402455, 45.62333025449555], [-61.14741503603784, 45.62333026020538], [-61.14741890605777, 45.623329602901805], [-61.147516944557886, 45.62331301114195], [-61.1475467945914, 45.623318085866934], [-61.147569244002476, 45.62332196041713], [-61.14768234773053, 45.62333090579447], [-61.14768439613117, 45.62333102902914], [-61.147697220121586, 45.62333114701841], [-61.14777417295671, 45.6233315850369], [-61.147854516958795, 45.623322536903245], [-61.14792739511001, 45.6233142677395], [-61.14808163260699, 45.62330506763428], [-61.14812412192118, 45.62329639556137], [-61.148338637440084, 45.6232525284431], [-61.148671937383455, 45.62318142323627], [-61.1488139161723, 45.62315492144559], [-61.14886483619136, 45.62312784362051], [-61.148934270826615, 45.6230955752392], [-61.14894169428917, 45.62309218515915], [-61.14909698842684, 45.62301189261808], [-61.1491270372048, 45.62299923810855], [-61.14916072914033, 45.62298502244809], [-61.149201139174785, 45.62297325592323], [-61.14925139379497, 45.62295858857235], [-61.14930172122548, 45.6229495030221], [-61.14939182319407, 45.62294016188626], [-61.149550357338185, 45.62293679008564], [-61.14972558238903, 45.622932968404925], [-61.14998211982983, 45.62293352405672], [-61.15012955325334, 45.622904948742466], [-61.15021321306762, 45.622888661818656], [-61.15021854956248, 45.622886317976295], [-61.15025226779899, 45.622871292326245], [-61.1503284344697, 45.62281761965731], [-61.150339896449545, 45.62280844422187], [-61.150406179009835, 45.62275497145499], [-61.15048303564552, 45.62271931193082], [-61.150519237998914, 45.62270675671213], [-61.1505349406713, 45.622701250348904], [-61.15068370461678, 45.622678996591624], [-61.15071412762966, 45.62267444865745], [-61.15076663118221, 45.622665487709604], [-61.150920534143495, 45.62263908637023], [-61.15095833406798, 45.62263645801978], [-61.15103496549526, 45.62263103796215], [-61.1512274842943, 45.6226669185078], [-61.151278483948076, 45.62267638510454], [-61.151307401059235, 45.62268252386856], [-61.15145823642736, 45.62271430885597], [-61.15162499461932, 45.6227495017204], [-61.15163433109848, 45.622742542012745], [-61.15163682917599, 45.622740692226415], [-61.15166632788414, 45.62272523782387], [-61.15173994785346, 45.622686554726755], [-61.15175945527945, 45.622682369916724], [-61.15177870628451, 45.6226781809535], [-61.15184138824301, 45.622656152711336], [-61.15193313786559, 45.622623973599495], [-61.15209611024546, 45.62258700620556], [-61.15220325275901, 45.62256263681859], [-61.15221597499771, 45.62256194256054], [-61.15221830049474, 45.622561440124656], [-61.152247509238244, 45.622554801896456], [-61.152331125482604, 45.62253590241421], [-61.15240111201634, 45.622514082054664], [-61.15244647280903, 45.62249996419522], [-61.15252401876376, 45.6224823165224], [-61.15254450924269, 45.622475537180414], [-61.15254995607805, 45.622473735076206], [-61.15292095200835, 45.6224653344169], [-61.1529327501615, 45.62246543522636], [-61.15299790676528, 45.62246567893461], [-61.15321703185778, 45.62239451404316], [-61.15333227807224, 45.62232256914426], [-61.15346182196008, 45.622205850121205], [-61.153463797085095, 45.62220039142415], [-61.15348726281782, 45.62213425317168], [-61.15355277298008, 45.62205340293076], [-61.15360398517302, 45.6220173266748], [-61.15363059978562, 45.62201154625475], [-61.153642742881864, 45.62200895225642], [-61.15371930111336, 45.621982286763995], [-61.15378392463976, 45.62192842516839], [-61.15399002450942, 45.621785039915686], [-61.15408008742168, 45.621659581055226], [-61.15409926042672, 45.62164602935971], [-61.15410634897797, 45.62164110335347], [-61.154196807546484, 45.621542653908676], [-61.1542150623657, 45.62152971742594], [-61.15429923010718, 45.621470500761454], [-61.15437765991313, 45.62142586299659], [-61.15441650367269, 45.62139921759742], [-61.154428841477525, 45.6213906859765], [-61.1546215266558, 45.6212650848613], [-61.15478936269963, 45.62119308815716], [-61.154828870337624, 45.621173564164145], [-61.15487933025627, 45.62114863646558], [-61.15492257646255, 45.62112854276983], [-61.15495618192158, 45.621112973842955], [-61.15498388822896, 45.62110127005852], [-61.15501991775625, 45.621086100316866], [-61.15521290510902, 45.621068515548615], [-61.15553353732439, 45.62107009407647], [-61.15562304524788, 45.62107874050438], [-61.15567406197515, 45.62108766535307], [-61.15570039506066, 45.62110609269784], [-61.155748063439056, 45.62112324439516], [-61.1557764628915, 45.62113342413631], [-61.155827774733986, 45.62113335264312], [-61.15583174026409, 45.621133686710806], [-61.156174475171085, 45.62116145333687], [-61.15636598771636, 45.62118884800123], [-61.15650677839344, 45.62119832161165], [-61.15659625720241, 45.62120786690975], [-61.156674042747404, 45.62121803349208], [-61.15673803514121, 45.621226357209316], [-61.15678905219435, 45.62123528156443], [-61.15687823624437, 45.621253822922434], [-61.15691958633889, 45.62126025093274], [-61.15699437315262, 45.62127189907734], [-61.15702874269412, 45.621276054145916], [-61.15707103154564, 45.62128123710536], [-61.15711874197055, 45.6212814669556], [-61.157147984795444, 45.62128157880146], [-61.15723706624442, 45.62126411406946], [-61.15729412118001, 45.62124145197015], [-61.15741771966638, 45.621192320322066], [-61.15764666104724, 45.62093084331757], [-61.157960088470674, 45.620572797296454], [-61.157986318792176, 45.62055521830001], [-61.15801100183519, 45.62054571527661], [-61.15807617951081, 45.62047475820506], [-61.158121345605444, 45.62044299290989], [-61.158153647067714, 45.62042020117786], [-61.15821472614109, 45.62032946564707], [-61.15825612080698, 45.620267936043426], [-61.158321725454, 45.62022308873024], [-61.15834014844019, 45.62021672505688], [-61.158398279106564, 45.62019642002072], [-61.15842470014658, 45.620133838798665], [-61.15842695915604, 45.620131444945656], [-61.15844997215028, 45.620106343097284], [-61.15851458901614, 45.62005247870397], [-61.15853435877157, 45.62004415648667], [-61.158578321994305, 45.62002560314194], [-61.1586045518663, 45.62000802399491], [-61.15865424589824, 45.61999073315943], [-61.15865645186861, 45.61998995863388]]}, "properties": {"OBJECTID": 263854, "FEAT_CODE": "WARV50", "FEAT_DESC": "River - Single Line", "RIVNAME_1": "Fall Brook", "RIVNAME_2": " ", "ZVALUE": 9999, "FID": null, "SHAPE_Length": 1404.7044409917685}}, {"type": "Feature", "id": 263996, "geometry": {"type": "LineString", "coordinates": [[-61.15865645186861, 45.61998995863388], [-61.15873271048585, 45.61997228598248], [-61.15881054564046, 45.619945637657175], [-61.159040412536065, 45.61993764202964], [-61.15909201783408, 45.61992857275994], [-61.159141271476145, 45.61992864662086], [-61.15920745974001, 45.61992863338437], [-61.15922501633931, 45.61993305685112], [-61.15924562626384, 45.619938249613064], [-61.15927228394325, 45.619946780224396], [-61.15947671864812, 45.62001038211612], [-61.1594965652929, 45.62001538251055], [-61.1595148852759, 45.620019998256254], [-61.15957555788224, 45.62006310090738], [-61.159591352345544, 45.620074336710296], [-61.15959145667624, 45.62011034255109], [-61.159603717647606, 45.62012764211578], [-61.15960531952389, 45.620129648159136], [-61.1596419887393, 45.62017326405571], [-61.15965854658185, 45.62018469217166], [-61.15968087816098, 45.6201999937632], [-61.159756946798026, 45.62022732256501], [-61.15984633929207, 45.620317873282346], [-61.159916558472005, 45.6203593293664], [-61.15992310146158, 45.62036321522662], [-61.159944132157285, 45.620382996325425], [-61.1600002627065, 45.6204355666667], [-61.16007124613081, 45.62049287679705], [-61.16008899200942, 45.62050720432302], [-61.16018935349112, 45.62056048716485], [-61.16024281170944, 45.62058889154887], [-61.16030606065245, 45.620616013461294], [-61.16044695558307, 45.620661488047716], [-61.16066322940808, 45.620763262890115], [-61.16075393319969, 45.6208059484812], [-61.16080561471808, 45.62083378392381], [-61.16092017587327, 45.620860831746306], [-61.16097598569491, 45.62087226169161], [-61.16101064285325, 45.62087939053551], [-61.16126717183141, 45.6208799206901], [-61.16135625146135, 45.62086245271371], [-61.16138667220954, 45.62085007099435], [-61.16144594872728, 45.62082609243006], [-61.16146373418888, 45.6208078366186], [-61.16149771366878, 45.62077291955418], [-61.16149859605455, 45.6207459306432], [-61.16150753461514, 45.620739323762265], [-61.16152357273675, 45.62072743054916], [-61.16162635493216, 45.620683178933795], [-61.161677764799386, 45.62065655332408], [-61.161678548735416, 45.620656115891194], [-61.161739496280894, 45.62063594450882], [-61.16197420873837, 45.620558263816605], [-61.162025220199446, 45.62054774349766], [-61.162063317056784, 45.62053989564573], [-61.16228223568431, 45.62051371521186], [-61.162307876664556, 45.62051412781734], [-61.16238464113406, 45.62055946814007], [-61.16242254407849, 45.62057717999853], [-61.16243590695777, 45.62059611717433], [-61.16244829124079, 45.62061359843639], [-61.1624580083738, 45.62061456488103], [-61.16262727874043, 45.62063178002421], [-61.1626466795564, 45.62063866291534], [-61.16270463150141, 45.62065912751802], [-61.162754500676094, 45.620679642079764], [-61.16279322889781, 45.62069565689403], [-61.162861335938125, 45.62073509695497], [-61.1628700234031, 45.620740097267934], [-61.16287458589611, 45.62074179084979], [-61.16289537059002, 45.6207495060538], [-61.163001953433, 45.6207498703802], [-61.16311340808943, 45.620750312967715], [-61.16314192076304, 45.62074528094182], [-61.16321661897094, 45.62073217072833], [-61.16326779448418, 45.6206969896471], [-61.16329545949308, 45.62065900014826], [-61.16332017466143, 45.62062492365832], [-61.163409947706526, 45.620625467308315], [-61.16344938683589, 45.62063150217974], [-61.163588641808964, 45.62065264370843], [-61.16365482970655, 45.62066837970381], [-61.16374265392385, 45.62068932411305], [-61.163794181586375, 45.6206983435575], [-61.16384468949756, 45.62070716656228], [-61.16394739034689, 45.620743921796794], [-61.16401192336943, 45.620771062297855], [-61.164062060111625, 45.62080697236472], [-61.16411318526441, 45.62085189933706], [-61.16413475498162, 45.62086700778628], [-61.164139521068854, 45.62087032477728], [-61.164254671384825, 45.62087937664586], [-61.16435726545654, 45.62088012564085], [-61.16451050585891, 45.620861886269886], [-61.16465188465649, 45.62085335720821], [-61.164728837526816, 45.62085369378693], [-61.16474107089, 45.6208718924567], [-61.1647410317246, 45.62088881377915], [-61.16474099250594, 45.62095290054055], [-61.16474691440793, 45.62099548060631], [-61.164753441133456, 45.621043110972295], [-61.164765674543965, 45.62106130963963], [-61.164792333628434, 45.62106983898178], [-61.164945251488604, 45.62106149498595], [-61.16498089088234, 45.62105819720255], [-61.16503531885235, 45.62105304104823], [-61.1651003320394, 45.621026182419456], [-61.16515124248167, 45.62099909717119], [-61.16516454230815, 45.62094530462529], [-61.165177440672274, 45.620864502512845], [-61.165184958645405, 45.62083852028841], [-61.16519044689925, 45.62081970628399], [-61.16521641094876, 45.62081022228432], [-61.16524820986666, 45.62080668269536], [-61.165293657297426, 45.620801562159016], [-61.16535749602464, 45.62081068866793], [-61.16540822068752, 45.62082860551103], [-61.16545110441554, 45.62085881780785], [-61.1654985038185, 45.62089216297926], [-61.16558731976989, 45.621000701998256], [-61.165612805063795, 45.62104521644607], [-61.16561515881199, 45.62104777454387], [-61.16563756592543, 45.62107261727989], [-61.16571606053414, 45.62107288794627], [-61.16577865167948, 45.621073083153284], [-61.16581503477643, 45.62106664669089], [-61.165830257033804, 45.62106401083926], [-61.16599786429564, 45.62103789927796], [-61.166164805454066, 45.620992874594805], [-61.166202557654316, 45.62098772013884], [-61.16622923130298, 45.62098400796763], [-61.16627923174358, 45.62098481082189], [-61.16638265945269, 45.62103867750483], [-61.16645873260895, 45.62106600190578], [-61.16650956660877, 45.621119924164574], [-61.166561544664724, 45.621138760720406], [-61.16670100901845, 45.62122830969513], [-61.166727639159326, 45.621237738223854], [-61.16676613054983, 45.62123745600788], [-61.16690692350197, 45.621246916823516], [-61.16695536390713, 45.621240493510896], [-61.167034464163876, 45.62123006175692], [-61.16706718037656, 45.62122986676782], [-61.16711144693779, 45.621229497104935], [-61.167470572839825, 45.62123075978684], [-61.1674814733587, 45.62123084468875], [-61.167547526302904, 45.62123109447415], [-61.167570882835975, 45.62121895779951], [-61.16759971785756, 45.62120402869139], [-61.16760662793368, 45.6211966687033], [-61.16762495661992, 45.62117743053593], [-61.16774047544194, 45.621096474423574], [-61.16776728928356, 45.62106090046906], [-61.16779271145967, 45.620989300030075], [-61.167806440775884, 45.62096161707796], [-61.16797313166212, 45.62084547753576], [-61.16798789462516, 45.62080574975204], [-61.16799983553058, 45.62077389760919], [-61.168004020937126, 45.620767484002556], [-61.16801198954454, 45.620755190399116], [-61.16803821688225, 45.62073760904699], [-61.16806415112547, 45.620729024025344], [-61.16806915408268, 45.62072901426773], [-61.16811546275586, 45.62072894700438], [-61.16815384400251, 45.62069265840141], [-61.16817977820795, 45.62068407335284], [-61.168186852226896, 45.620687427194156], [-61.16821768312089, 45.62070178331664], [-61.16825625471635, 45.62073840614092], [-61.16826225254732, 45.6207472333493], [-61.16826848920919, 45.620756604450314], [-61.16827928047991, 45.62076397836462], [-61.168307383218654, 45.620783331286475], [-61.16835391613467, 45.620800009453575], [-61.168383457008794, 45.62081065441536], [-61.16842901565738, 45.620849369468985], [-61.1684471132723, 45.620864781458714], [-61.16845275655123, 45.62086874241024], [-61.168473450534215, 45.62088320592126], [-61.16848134364532, 45.620885042703925], [-61.16851164868335, 45.62089191945168], [-61.16853475731589, 45.62089526038877], [-61.168554165550816, 45.62089800191646], [-61.16857548809129, 45.62090104417095], [-61.168691225283446, 45.62089209889859], [-61.168794112525134, 45.6208838475684], [-61.168817254790255, 45.620878277960145], [-61.168832896641504, 45.6208745683115], [-61.16885716191608, 45.620862085902765], [-61.16888377590325, 45.62084838100262], [-61.1689477979576, 45.620812503253], [-61.16897376139664, 45.62080301838913], [-61.16901192715119, 45.62079696953072], [-61.16902533673877, 45.620794844253076], [-61.169036496521436, 45.620794843152844], [-61.169166421954706, 45.620795305930294], [-61.16923084715581, 45.62078643759846], [-61.169282341212345, 45.62074135778775], [-61.16931915660953, 45.62069010196913], [-61.16937236863256, 45.62061588629295], [-61.16941476306836, 45.62058632236396], [-61.169436682971465, 45.620571011915196], [-61.16945835100865, 45.620563438317895], [-61.169488580172484, 45.620552941586766], [-61.16948848741959, 45.62053214770182], [-61.16948846951148, 45.620516935660184], [-61.16948685555368, 45.62051528960377], [-61.169462424929655, 45.62048951508397], [-61.16946301063362, 45.62047152239554], [-61.1694757205113, 45.62043572196603], [-61.16948883388253, 45.62042693111753], [-61.169491042655956, 45.62042606641722], [-61.169604459242244, 45.620381978973], [-61.169676259039605, 45.6203159819817], [-61.16968247207536, 45.620310320893], [-61.16974696778746, 45.62022044405244], [-61.16979487054873, 45.62017926690866], [-61.16979843162538, 45.62017626362501], [-61.16980085349942, 45.62017279203261], [-61.169823990956104, 45.620139768974695], [-61.16981182712224, 45.62004056261346], [-61.16981171624497, 45.62000455668093], [-61.16983852824896, 45.619968982205386], [-61.170005504782175, 45.61984384321965], [-61.17004417695888, 45.619798557599765], [-61.1700564120484, 45.6197773311778], [-61.170069999425216, 45.61975396617347], [-61.17011246610626, 45.61970244060361], [-61.17012207732656, 45.619690893254145], [-61.17014559600184, 45.61967767852369], [-61.170186097271355, 45.61965501477088], [-61.17024782996334, 45.619618469532504], [-61.170276343247785, 45.61960155436177], [-61.170314136917106, 45.61958325769222], [-61.17057124605331, 45.61956577415336], [-61.17064808590017, 45.61953010077355], [-61.17070920516053, 45.61948085399314], [-61.170725803570015, 45.6194674382839], [-61.17074752298643, 45.6194424932574], [-61.17076444564253, 45.61942305203956], [-61.170815351959384, 45.61939596419437], [-61.170834499195486, 45.61938699980313], [-61.17085442734784, 45.61937768787479], [-61.1709313783664, 45.61937802024298], [-61.17099503554818, 45.619432145891615], [-61.17099831908648, 45.61943372865556], [-61.17103291128634, 45.619450754560575], [-61.171084221787694, 45.61945067618752], [-61.17112678731869, 45.61939213101063], [-61.17113659084733, 45.61937860642626], [-61.171136186537, 45.61935159683245], [-61.17114948022031, 45.619297803480656], [-61.17117016445812, 45.619277072284525], [-61.17117599847113, 45.61927122502335], [-61.17118970498345, 45.6192678441005], [-61.1712134990721, 45.61926192440204], [-61.17128543833494, 45.61926253631729], [-61.17132891075073, 45.6192628723861], [-61.17132084103359, 45.61923096949877], [-61.17131755319506, 45.61921768532332], [-61.17130509432617, 45.61912747542411], [-61.17129245479085, 45.619082267829874], [-61.171298936666894, 45.61906833000028], [-61.1713048706256, 45.61905546352144], [-61.17132548881096, 45.619048592840606], [-61.171330803609294, 45.61904687773584], [-61.17139551902327, 45.61902901178799], [-61.171401162844035, 45.619029012145866], [-61.17143400892706, 45.6190287279748], [-61.171434258163785, 45.61890271740206], [-61.17142947472541, 45.61880524955438], [-61.1714226334497, 45.61866850421837], [-61.171409672137244, 45.61863319262642], [-61.17137818309892, 45.61859569414833], [-61.171371392383456, 45.61858757448835], [-61.17121814653396, 45.61848790935019], [-61.17116800714492, 45.61845200237311], [-61.171104058305545, 45.618406873182316], [-61.17104498251805, 45.61837361336122], [-61.17103981699063, 45.618370740312415], [-61.171025019930745, 45.61836033215936], [-61.17098839581447, 45.61833481272773], [-61.170975868346744, 45.61832561105221], [-61.170938618634025, 45.618208901036716], [-61.17092627964805, 45.618142635771626], [-61.17091352151945, 45.618073483458126], [-61.170939342467584, 45.618028891799625], [-61.17095601299188, 45.61801718740702], [-61.17101679437182, 45.61797432577953], [-61.17108078251605, 45.61793934638115], [-61.17124712547851, 45.61791230675389], [-61.17128587789769, 45.61790392625722], [-61.171312132130375, 45.6178854444728], [-61.171323542403805, 45.61788166672276], [-61.17133806456781, 45.617876858675565], [-61.17140540443009, 45.61787685680625], [-61.17145350266101, 45.61787690685446], [-61.17146045811536, 45.61787206764802], [-61.17151781217448, 45.61783203121032], [-61.171586705082674, 45.61778425856731], [-61.171595234004165, 45.61777836441919], [-61.17167207074489, 45.61774269029211], [-61.1717486149309, 45.61771601247171], [-61.17182100063068, 45.61769493868653], [-61.171839260951806, 45.617689560343685], [-61.17204435498219, 45.61765413883455], [-61.17209857872044, 45.61764330538601], [-61.1722238089618, 45.61761830659884], [-61.17224974114203, 45.617609720590146]]}, "properties": {"OBJECTID": 263996, "FEAT_CODE": "WARV50", "FEAT_DESC": "River - Single Line", "RIVNAME_1": "Fall Brook", "RIVNAME_2": " ", "ZVALUE": 9999, "FID": null, "SHAPE_Length": 1569.023533786685}}, {"type": "Feature", "id": 272019, "geometry": {"type": "LineString", "coordinates": [[-61.147521194023476, 45.6144227500415], [-61.14744484304335, 45.614404409519224], [-61.14737998179061, 45.61438769550544], [-61.14730367832, 45.61436791549139], [-61.147280400349466, 45.614362047208324], [-61.147265517715184, 45.61435829535278], [-61.14715038399618, 45.614349226591976], [-61.14707304771591, 45.61432186878531], [-61.147002972371254, 45.61428823799519], [-61.146997289789226, 45.6142855354867], [-61.14698395361675, 45.61427766820415], [-61.14692054645878, 45.61424018509845], [-61.14688951053942, 45.61421285836393], [-61.14686944113011, 45.614195250686315], [-61.14686934483712, 45.614159244925474], [-61.14677481686022, 45.614100914367015], [-61.1467675271322, 45.6140963855567], [-61.146760676831924, 45.614082412774685], [-61.14675431557792, 45.6140691680124], [-61.146741993293155, 45.61401496174813], [-61.14674251513461, 45.613952412920035], [-61.1467431867341, 45.61386196326653], [-61.14675561295499, 45.61383516176853], [-61.14678243630896, 45.61379959285171], [-61.14680305097192, 45.613785075645026], [-61.146833645065335, 45.61376351953325], [-61.14696170003044, 45.61369178882558], [-61.14696961286441, 45.6136812959804], [-61.14697511161169, 45.613674004341874], [-61.146996896160594, 45.613651225116186], [-61.14702691286892, 45.61361993844937], [-61.14707841766526, 45.61357486877324], [-61.14711667532847, 45.61353480475236], [-61.14715546346877, 45.61349420926207], [-61.14717844381179, 45.61347405970689], [-61.14720696804557, 45.613449139523645], [-61.147246017025, 45.61343177094453], [-61.147258460785835, 45.61342000142926], [-61.1472844063884, 45.613395489444585], [-61.147291669291846, 45.61338525606417], [-61.147309947318185, 45.613359899596546], [-61.14734961846489, 45.613323638868735], [-61.14750360551702, 45.61324332718387], [-61.14752542898431, 45.613223248802576], [-61.14754196495624, 45.61320794521608], [-61.147561465426314, 45.61318440874704], [-61.14759406150685, 45.61314488280179], [-61.14762466225268, 45.613115315648756], [-61.14765897663009, 45.61308202828109], [-61.1476866817614, 45.61306249532148], [-61.1477101841687, 45.61304595454627], [-61.14776119043687, 45.61303157005709], [-61.147773617829905, 45.613028081186584], [-61.147789253959644, 45.61300115161336], [-61.1477994545185, 45.612983494972994], [-61.14781205426404, 45.61296308691741], [-61.14783873191269, 45.61292022453348], [-61.14785784867518, 45.6129161240605], [-61.147877484105614, 45.61291185197509], [-61.14790301449119, 45.61289993458591], [-61.147916562128835, 45.61289358353135], [-61.14792706587175, 45.61288619299477], [-61.14794150999481, 45.61287598602406], [-61.14794141299095, 45.612839980245546], [-61.1479166643718, 45.61281257572739], [-61.147879656759606, 45.61279523358587], [-61.14787877130468, 45.61279485918344], [-61.147865559494356, 45.61276764175821], [-61.14785970628249, 45.61274675440062], [-61.14785294015244, 45.6127224318371], [-61.14784022388694, 45.61264121613581], [-61.147891993720194, 45.612588049438514], [-61.14792402344239, 45.612565706219385], [-61.14798257460681, 45.61252471086715], [-61.148060108012196, 45.612507066004255], [-61.14811069277745, 45.612489884196656], [-61.148136854737984, 45.612435402020736], [-61.14815026563981, 45.61241761738482], [-61.148162690854065, 45.61239081571183], [-61.148188823098494, 45.61233723314657], [-61.14819342212668, 45.61233388732162], [-61.148201967408575, 45.61232754512831], [-61.14820214390573, 45.61230270508652], [-61.14820246256272, 45.61227354684477], [-61.148202369996625, 45.61212052745559], [-61.14820375363702, 45.61203954041994], [-61.14820380490561, 45.6120146083359], [-61.14820385542586, 45.61195853259773], [-61.14820504466979, 45.61180553398582], [-61.148191803301266, 45.61177921622005], [-61.14819199080652, 45.61175014585979], [-61.14819249742085, 45.61168021589343], [-61.14819283383887, 45.61165051787366], [-61.14819328872086, 45.611617221353455], [-61.148200232283685, 45.611593301133695], [-61.14820630604509, 45.611572427167474], [-61.14821953779858, 45.6115405979733], [-61.148232763613485, 45.61150894870219], [-61.14823842190056, 45.61149679901873], [-61.148245188574265, 45.61148214701241], [-61.148297379944694, 45.611455090012214], [-61.14830827764021, 45.6114513062481], [-61.1483220309022, 45.61144648865734], [-61.14845525680918, 45.61141615492974], [-61.14847709447318, 45.61141119836114], [-61.14854022993963, 45.61140232079085], [-61.14891312454008, 45.61141196608088], [-61.14898907826433, 45.61140329603314], [-61.14902460661981, 45.611407112263294], [-61.1490785400788, 45.61141284697565], [-61.14915728047808, 45.611440316204714], [-61.149181243675976, 45.61144871550844], [-61.14925854317913, 45.61149659370592], [-61.14928431168275, 45.61151249311877], [-61.14934764300704, 45.61157562670047], [-61.14943720314915, 45.61162118316662], [-61.14953901951948, 45.61168404015742], [-61.149622630586435, 45.61170771753311], [-61.149667360703596, 45.611720323667505], [-61.149756527239354, 45.61173887034619], [-61.14977262220069, 45.61174084130974], [-61.14991109729257, 45.611757576423834], [-61.150077332002176, 45.61181157535156], [-61.150115332667696, 45.61181822161648], [-61.150128339410486, 45.611820502547424], [-61.150144368354525, 45.61182058216807], [-61.15023091637084, 45.61182126397612], [-61.150274117385266, 45.611833575073156], [-61.15035797649308, 45.611857525958314], [-61.15051859352772, 45.6119146736348], [-61.15058869867006, 45.611939571741104], [-61.15062433596813, 45.61194788976308], [-61.15070451844966, 45.61196665025369], [-61.150736170296625, 45.61198696511297], [-61.15083138234454, 45.6120479137911], [-61.15088337620792, 45.612065857674], [-61.15097224799632, 45.61209339968082], [-61.151215917600844, 45.612093744248654], [-61.1512389552336, 45.61208349595744], [-61.15125496443113, 45.61207637426073], [-61.15130587310925, 45.612049295122915], [-61.15132035589771, 45.61204178866532], [-61.1513580635863, 45.61202223671156], [-61.151411117089935, 45.61201184419274], [-61.15144713193297, 45.612004776269714], [-61.151485008290756, 45.61199179777227], [-61.15152495923684, 45.61197813275765], [-61.15171832728709, 45.6118738799216], [-61.15180698139283, 45.61182607894795], [-61.15183598406071, 45.611806025914234], [-61.15188441316218, 45.61177242563173], [-61.15207766133794, 45.61162883564444], [-61.152125824908666, 45.61159550099368], [-61.15215509257737, 45.61157518213466], [-61.15217051859464, 45.611562380209655], [-61.15221970530054, 45.611521321168425], [-61.15234804388701, 45.61144058793537], [-61.15243868833989, 45.61141415116563], [-61.152496850511014, 45.6113731471996], [-61.152541094250275, 45.611341999222155], [-61.152670484132976, 45.61119017431183], [-61.15269644570727, 45.61118069310757], [-61.15270100301513, 45.611178606573176], [-61.1527342096244, 45.61116330185948], [-61.152800020929845, 45.611123681613805], [-61.15282448741729, 45.61110895558643], [-61.15284174200712, 45.611091232567325], [-61.15287625115387, 45.61105578652061], [-61.15291186674402, 45.6110022662415], [-61.152954496316475, 45.610938238149394], [-61.15310925471885, 45.61079492397974], [-61.15317386562536, 45.61074106243844], [-61.153198430505135, 45.61068817345305], [-61.15319871049702, 45.610687457896624], [-61.15320018725626, 45.61064247650848], [-61.15320119560855, 45.61040081451219], [-61.153201941657194, 45.610237457439595], [-61.15319971473658, 45.610227160224845], [-61.153165224145525, 45.6100667437251], [-61.1531261735298, 45.60996710059696], [-61.15311781525907, 45.609948243231365], [-61.153114241583516, 45.60993990446654]]}, "properties": {"OBJECTID": 272019, "FEAT_CODE": "WARV50", "FEAT_DESC": "River - Single Line", "RIVNAME_1": "Morgans Brook", "RIVNAME_2": " ", "ZVALUE": 9999, "FID": null, "SHAPE_Length": 982.2099832338671}}, {"type": "Feature", "id": 272020, "geometry": {"type": "LineString", "coordinates": [[-61.153114241583516, 45.60993990446654], [-61.153107103698304, 45.60991512614016], [-61.153101589031, 45.60989559467638], [-61.15307555731277, 45.609868170514304], [-61.15293528616531, 45.60980469470743], [-61.15292246818275, 45.60980448739112], [-61.15281924695061, 45.60978049523571], [-61.15276846362857, 45.60976869252573], [-61.15269197348676, 45.60975863421732], [-61.15262799771272, 45.60975021846583], [-61.152548630857815, 45.60974965464469], [-61.15243566911569, 45.609748907311186], [-61.15243200804384, 45.60974713788112], [-61.152397776611416, 45.609731192267844], [-61.15234945318501, 45.60971087816611], [-61.15233326190089, 45.609704045436715], [-61.152192992023394, 45.60964056873558], [-61.15216272910716, 45.60961703636605], [-61.15206544068507, 45.60954129344371], [-61.15200616547401, 45.60949910943558], [-61.1519889950465, 45.609486950189726], [-61.15198507359306, 45.60948139608832], [-61.151963259598645, 45.60945052951023], [-61.15195139503407, 45.609343224948915], [-61.15179781399397, 45.60921652495737], [-61.151567592819895, 45.609080483349224], [-61.15148879616005, 45.60904698415317], [-61.15143984754522, 45.60902620949107], [-61.151371520017584, 45.608982438450695], [-61.15131298942769, 45.608944946681085], [-61.15129308133739, 45.60893805363523], [-61.15126099827465, 45.608927003027205], [-61.15112073155896, 45.60886352504954], [-61.15106962756503, 45.60881859250084], [-61.15104609583277, 45.6087931885779], [-61.15101884890139, 45.608763764033675], [-61.151014134728705, 45.60874721577421], [-61.15100619824223, 45.60871945403242], [-61.15099200797767, 45.608714183689], [-61.15098085848599, 45.608710042703656], [-61.1507766713631, 45.60860142417091], [-61.150692342535564, 45.608564594460034], [-61.150609784634646, 45.608528513449876], [-61.150507085359266, 45.608492646253325], [-61.15041821944381, 45.60846510395996], [-61.150290673900635, 45.60836582675627], [-61.15026491047491, 45.608330305338924], [-61.15025740631837, 45.60823090212693], [-61.15025327613197, 45.60817709891455], [-61.15025426224762, 45.607952088439596], [-61.150267967166364, 45.607925307247584], [-61.15027388887857, 45.60787391711012], [-61.150280488920906, 45.60781749736633], [-61.15026974196508, 45.607637302128865], [-61.150347563541565, 45.60749364555016], [-61.15035183272159, 45.60748471363722], [-61.15039856683803, 45.6073855588033], [-61.150409410305535, 45.607359991396], [-61.15042499025358, 45.6073229793435], [-61.15052817954243, 45.60718783443687], [-61.150567025543, 45.60709845294705], [-61.150568612994924, 45.60693312919487], [-61.15056978464669, 45.606819464787186], [-61.15056380085274, 45.60680253590048], [-61.150556868570945, 45.60678325137745], [-61.15053209751344, 45.60674486574317], [-61.1504812165792, 45.60666591252072], [-61.1504748225512, 45.60661855340256], [-61.15046780737218, 45.60656668369384], [-61.15046948310758, 45.60647670023255], [-61.150481905822936, 45.606449898243035], [-61.15052078092348, 45.606359617124085], [-61.150649769727345, 45.60618078471242], [-61.15068913688391, 45.60603650513673], [-61.15069777383005, 45.60594150378656], [-61.150703135807944, 45.60588371379384], [-61.15069071235396, 45.60579350200484], [-61.150665442332595, 45.60570398228591], [-61.15065708843791, 45.60568503478675], [-61.150653512423396, 45.605676785911605], [-61.15064388071764, 45.60564989678476], [-61.150627680657735, 45.60560435910235], [-61.15062793352193, 45.60553424492896], [-61.15062807436128, 45.6055143548639], [-61.15062248692824, 45.60548537097301], [-61.15061604565492, 45.60545115263875], [-61.150628763767834, 45.605415354351216], [-61.15064259408199, 45.60539253560181], [-61.15065587622197, 45.605370788101], [-61.15068075051237, 45.60531628443217], [-61.15083687805475, 45.60509198583656], [-61.150849676042135, 45.605077161290545], [-61.150952849403055, 45.60495794757762], [-61.150953145055176, 45.604948951302354], [-61.15097814040307, 45.604914161851916], [-61.15101765197569, 45.604859085002126], [-61.15104645021563, 45.604845149561754], [-61.15105544165219, 45.6048407946054], [-61.15105585276445, 45.60483999116584], [-61.15108127179735, 45.60479620748945], [-61.15112142639664, 45.60470594685894], [-61.15113022821401, 45.60468394674406], [-61.15114656598112, 45.60464334642202], [-61.15117076630477, 45.60460152322788], [-61.15117239595912, 45.60459875928145], [-61.15118543868212, 45.60455306501359], [-61.15121185979812, 45.60449048530784], [-61.15122695251992, 45.6044643565284], [-61.15123768965082, 45.60444589814948], [-61.1512749132461, 45.60438628363589], [-61.15131619460093, 45.604320254031585], [-61.15133671351882, 45.60428899245989], [-61.15139315150726, 45.60420268575557], [-61.15143328821221, 45.604148068928716], [-61.15144550114528, 45.60413152464155], [-61.15150961130462, 45.604014648439936], [-61.151513112099735, 45.604009574498875], [-61.15153517469901, 45.603978157855394], [-61.15171633714532, 45.60377226535775], [-61.15181678732246, 45.60369288148172], [-61.15181902524165, 45.6036911174867], [-61.151857670802784, 45.60364673758745], [-61.151897199421995, 45.603610607938975], [-61.15193627294338, 45.60355709885821], [-61.151950782225974, 45.603525289867555], [-61.15196114514468, 45.60350259486223], [-61.15196730150371, 45.603486942624556], [-61.15197514357994, 45.60346681713321], [-61.151993553184134, 45.60344119197653], [-61.152000676868596, 45.60343122606083], [-61.15201329382246, 45.60335942171404], [-61.15205295473262, 45.60332315913492], [-61.15209159984978, 45.603278779146976], [-61.1520929732013, 45.60308077794753], [-61.15209286927758, 45.602927758162835], [-61.15209336032965, 45.60287375971848], [-61.15214671933665, 45.60269370171265], [-61.15215286555999, 45.60267444887294], [-61.152172447684, 45.60261310842701], [-61.152197714558895, 45.60258561395429], [-61.15222423349911, 45.60255903984101], [-61.152223911741, 45.60254931348417], [-61.15222354271506, 45.60254102653298], [-61.15222491550232, 45.602343025300115], [-61.15221415841333, 45.60204581606967], [-61.152227660981886, 45.601947022814244], [-61.15222904008836, 45.60194407477644], [-61.15227993694406, 45.601838955729455], [-61.15253728554411, 45.601503328983014], [-61.15258939959729, 45.60143531387883]]}, "properties": {"OBJECTID": 272020, "FEAT_CODE": "WARV50", "FEAT_DESC": "River - Single Line", "RIVNAME_1": "Morgans Brook", "RIVNAME_2": " ", "ZVALUE": 9999, "FID": null, "SHAPE_Length": 1114.3564498097753}}, {"type": "Feature", "id": 272148, "geometry": {"type": "LineString", "coordinates": [[-61.13239344511193, 45.624029800341994], [-61.13239340365699, 45.62398470446782], [-61.13239348341015, 45.62391278748444], [-61.13238989912838, 45.623835319947155], [-61.132382974490255, 45.623688489792364], [-61.132382733853035, 45.62367642446663], [-61.13238258883673, 45.623661480372576], [-61.13230648115415, 45.623481115052286], [-61.13224285744548, 45.62342696838444], [-61.13216671178219, 45.62336361583905], [-61.13210308833999, 45.62330946909648], [-61.13202673074204, 45.62329111818114], [-61.132001088935, 45.62329069875956], [-61.13192374819244, 45.623263330655604], [-61.131860211610956, 45.6232451893507], [-61.1318463776368, 45.623236862115206], [-61.131822568687966, 45.62306545290574], [-61.131824016099294, 45.62286745373193], [-61.13188848817443, 45.6227415937386], [-61.131966763906426, 45.62262496053805], [-61.13205666461153, 45.62254452158447], [-61.13209626541804, 45.62247226089283], [-61.13210831507122, 45.622418451742675], [-61.13211739504899, 45.622403838550866], [-61.132147616878854, 45.62235518718093], [-61.13219941056009, 45.62230202805808], [-61.13221984797406, 45.62227760945799], [-61.13229023673316, 45.622193700830174], [-61.132341731322086, 45.62214953778987], [-61.13241774803536, 45.62207769250494], [-61.13241854117658, 45.62207698539232], [-61.1324261357756, 45.62206846859137], [-61.13252245605906, 45.621960771084574], [-61.13253989613257, 45.62194548447285], [-61.13257398012635, 45.62191570831615], [-61.132677085198246, 45.62186248790456], [-61.13276689653051, 45.621746042760755], [-61.13277442829739, 45.621739415127415], [-61.13281842020313, 45.62170097987426], [-61.13283150784045, 45.621673830692444], [-61.132844601439146, 45.62164650158568], [-61.132934798006076, 45.62155706572651], [-61.133076058684885, 45.62146729444995], [-61.133089425309386, 45.62145878195276], [-61.13321879720312, 45.621387088258196], [-61.133501600245644, 45.62125309469378], [-61.133591882792494, 45.621199663880255], [-61.13364340530104, 45.621154600599176], [-61.133684062472966, 45.621123851406274], [-61.133797345349606, 45.62103830254756], [-61.133821535695475, 45.621005123964], [-61.13384976320247, 45.6209662506796], [-61.1338889970057, 45.620889482832304], [-61.133927944437986, 45.62081361039548], [-61.13394529769533, 45.620789321106564], [-61.133953497245486, 45.62077802376456], [-61.134005616122366, 45.62071496797877], [-61.13403875436152, 45.62066339340573], [-61.13406918519051, 45.62061609508647], [-61.13407730754816, 45.620595525400994], [-61.13408319954506, 45.620580319898494], [-61.13417422969806, 45.62042698926879], [-61.134192826840604, 45.62038066771041], [-61.13419939561358, 45.620364393133464], [-61.134200321821666, 45.62031328234615], [-61.134200799997025, 45.62028340669831], [-61.134208120059974, 45.62026768445759], [-61.1342132336692, 45.62025660670998], [-61.134252233062554, 45.6202023375061], [-61.13438037689141, 45.62016752669404], [-61.13446581619064, 45.620167212221844], [-61.13447017804631, 45.62016719346445], [-61.13479080268552, 45.62016883014938], [-61.13493200599802, 45.62008832669699], [-61.13503551985016, 45.620038081162996], [-61.13506107405064, 45.620025626982525], [-61.13516390481786, 45.61998050077106], [-61.13519731514549, 45.619963224272034], [-61.13526700390539, 45.6199272779096], [-61.135281851645246, 45.61991662908814], [-61.13530510712927, 45.61989999683893], [-61.135328150803126, 45.61988975186685], [-61.135344164198706, 45.61988263247664], [-61.13537705855849, 45.61986930795899], [-61.135433876052815, 45.619846292860075], [-61.13546747986285, 45.61983865055645], [-61.135511423293366, 45.619828656759644], [-61.13554988371384, 45.619829284671255], [-61.13567775750485, 45.619802568931306], [-61.13572390125584, 45.619784240002836], [-61.13585843261544, 45.6197308096339], [-61.13588240934671, 45.61971562920674], [-61.135999931516196, 45.61964130863834], [-61.13605871623687, 45.61962471607755], [-61.13606337619962, 45.61962344197883], [-61.13607114876746, 45.619621138557015], [-61.13615404121034, 45.61959701849952], [-61.13633352250673, 45.61956124313686], [-61.13634591028335, 45.619551274115466], [-61.13641127771992, 45.61949860460307], [-61.1364499763457, 45.619453330778576], [-61.136539269321474, 45.61939088043081], [-61.13657883225608, 45.619319517639475], [-61.13657901100836, 45.619290897238216], [-61.13657904074668, 45.619274515824436], [-61.136591711343044, 45.619201814117666], [-61.13659241196238, 45.619200025340874], [-61.136605723721246, 45.61916603858099], [-61.136673883855586, 45.61908713143571], [-61.13668309031798, 45.61907639038667], [-61.13672256313176, 45.61896902189656], [-61.13673579979343, 45.61887922742271], [-61.13677470603908, 45.61878895165127], [-61.13679054288359, 45.61876391709893], [-61.1368261339947, 45.61870788119997], [-61.136833390372104, 45.61867856617177], [-61.136839460203866, 45.61865409234872], [-61.13685359073028, 45.618537309306824], [-61.13686661882346, 45.61849251663188], [-61.13687173174012, 45.61848143875119], [-61.13689151259035, 45.61843801638655], [-61.13689803849167, 45.618411389749234], [-61.13690483866505, 45.618384227523286], [-61.13689273330608, 45.61828501854196], [-61.13689278376409, 45.618264136941185], [-61.13689294151531, 45.6182400167146], [-61.1369190873116, 45.61818643699161], [-61.13692535098753, 45.61817546789197], [-61.13697081250598, 45.618096370272035], [-61.13706198070407, 45.618015948005], [-61.137139136939545, 45.61797130128147], [-61.137357785214306, 45.61783715169349], [-61.1373578127667, 45.61772013855185], [-61.13736823207828, 45.617699876118955], [-61.13737152630606, 45.61769335908485], [-61.13737395302805, 45.6176897982466], [-61.1373882212059, 45.61766950857649], [-61.13739710527283, 45.61765687198987], [-61.13745452444687, 45.61761172311991], [-61.137487974204014, 45.61758544554258], [-61.13756512950879, 45.61754079851345], [-61.1376938908803, 45.6174870918464], [-61.13784769547809, 45.61745179548081], [-61.13796363677935, 45.61739787946538], [-61.13802767401353, 45.61736201927914], [-61.13814272147619, 45.617335091645856], [-61.138425467189116, 45.61731809847992], [-61.138527367256884, 45.6173008572951], [-61.13855084496505, 45.617300699915454], [-61.138565855791214, 45.61730058454531], [-61.138605697583394, 45.617294303138834], [-61.138617431888704, 45.61729242415821], [-61.1386953021649, 45.61726489000475], [-61.138792211911586, 45.61725890766657], [-61.13882254352354, 45.61725706172405], [-61.13884851016591, 45.61724758375834], [-61.13888082424861, 45.61724396989971], [-61.13892575506751, 45.61723894235259], [-61.13911813800503, 45.61723937703803], [-61.13919968282421, 45.6172480866213], [-61.13920760715052, 45.61724893582418], [-61.13921581763424, 45.61724888958453], [-61.13925891523259, 45.61724887172157], [-61.13936200547057, 45.61719564499944], [-61.13950328633743, 45.617151141310714], [-61.13958112624158, 45.61712450616242], [-61.139708992068606, 45.6170977857697], [-61.139773119568, 45.61709793025849], [-61.13984394868625, 45.617139768703375], [-61.13984986080867, 45.617143285399855], [-61.139879870480506, 45.617143414162605], [-61.139926807923, 45.61714363861211], [-61.14003467100876, 45.61714386522407], [-61.14018331815629, 45.61714421586518], [-61.140285636671955, 45.61715308295869], [-61.14042700884896, 45.61714458379789], [-61.1405170729924, 45.61713614915401], [-61.14058770402028, 45.61711416649495], [-61.14063241630469, 45.6171002227821], [-61.140676376934714, 45.617081856301375], [-61.14076117383407, 45.617046512590626], [-61.140863072757, 45.61702926930166], [-61.14104994269249, 45.61702961098205], [-61.14117089045218, 45.6170297794785], [-61.14135012622331, 45.6170398975581], [-61.141367140896115, 45.617045125049756], [-61.141440282846375, 45.6170674678751], [-61.14146535709556, 45.61708497792897], [-61.1414737258431, 45.61708790444768], [-61.141517352441404, 45.61710292608776], [-61.14152825501531, 45.61710292349215], [-61.141581479983515, 45.61710306956109], [-61.14160072456019, 45.61710680312767], [-61.14163246096904, 45.61711290021912], [-61.1416502649305, 45.61710976953963], [-61.14168406621837, 45.61710383881606], [-61.14170583457018, 45.61709330176939], [-61.1417218671867, 45.61708555172174], [-61.14177373991807, 45.61706839368917], [-61.141812135310865, 45.61703211414499], [-61.141833957393835, 45.61699277460059], [-61.14185168985669, 45.616960749368204], [-61.14186086823152, 45.61695081753589], [-61.14187696837295, 45.616933257424655], [-61.14193838305157, 45.616906803471316], [-61.141979758409654, 45.616889024498974], [-61.14209787966318, 45.616889326047676], [-61.14210801302631, 45.61688931088266], [-61.14218436550088, 45.61690765499148], [-61.14228737158994, 45.61693453356838], [-61.14234821339127, 45.61696036615368], [-61.14241512542994, 45.61698881773729], [-61.142459493362864, 45.61699304982052], [-61.14251741436646, 45.6169985824535], [-61.14263255260111, 45.61700765595489], [-61.142663978322574, 45.61700762699527], [-61.14268386050791, 45.61700759030978], [-61.142724355725434, 45.61698538624114], [-61.14274917631753, 45.6169717482684], [-61.14278665007062, 45.61696335665048], [-61.142877401447436, 45.61697293341236], [-61.142941528868995, 45.61697307611958], [-61.14306889260609, 45.61700035007439], [-61.14310717776124, 45.61704507771586], [-61.14311949710121, 45.61709928430069], [-61.143233932441305, 45.617207357269166], [-61.14325345780661, 45.61721424548813], [-61.14326055659062, 45.6172167911861], [-61.14335002650733, 45.61722634673685], [-61.14342720647947, 45.61718079604184], [-61.14346626514282, 45.6171399361919], [-61.14350426254657, 45.61710013920169], [-61.14354331520057, 45.617082771956845], [-61.143812456460836, 45.617011538015724], [-61.143979485347565, 45.617006781853775], [-61.1440949024021, 45.617003526978266], [-61.14420306705806, 45.616986832585305], [-61.14421093151515, 45.616985610227346], [-61.14431312620444, 45.616959367618826], [-61.14450541378664, 45.616923787490244], [-61.14459808089213, 45.61688307816287], [-61.14460823149207, 45.61687865254335], [-61.144763217425684, 45.61680736186681], [-61.14480617413385, 45.61676494469332], [-61.14482685806912, 45.61674448828418], [-61.144904600009404, 45.61668184372901], [-61.144995457978496, 45.616610411122196], [-61.14501956919577, 45.61658325956326], [-61.1450593948505, 45.616538541173576], [-61.14507095480937, 45.61651082569429], [-61.14508585846197, 45.616475063581845], [-61.145149670239995, 45.61636808746762], [-61.14519390604395, 45.61625575278734], [-61.14520286404513, 45.61623303561992], [-61.14524086478023, 45.6161697453687], [-61.1452546597514, 45.61615592778072], [-61.145267393564865, 45.616143173082534], [-61.14530625264852, 45.616116080958086], [-61.145331721482584, 45.616098312468644], [-61.14542109469889, 45.61607186063983], [-61.145442158703624, 45.61606320166108], [-61.145486111067044, 45.61604501321287], [-61.14554413710052, 45.616004550665885], [-61.1455504386994, 45.61600015247057], [-61.14565256517647, 45.61593700325901], [-61.145833185821694, 45.6158661273631], [-61.145909531163376, 45.615826322101356], [-61.14603937853566, 45.61575876203013], [-61.146113425457344, 45.61573809154968], [-61.14616753492497, 45.615723038068985], [-61.14621815281787, 45.61570495753972], [-61.14627876151087, 45.61569117964145], [-61.14629569115529, 45.61568731396124], [-61.14643745995722, 45.615588803318325], [-61.14644176146675, 45.615586712883164], [-61.14652742480152, 45.61554435812904], [-61.14659854441321, 45.61551130838815], [-61.146604273814305, 45.61550870105761], [-61.14675839382258, 45.6154634966455], [-61.146768210542575, 45.61546140568743], [-61.14679714792932, 45.61545512448712], [-61.14688720856227, 45.61544668475922], [-61.14689754990017, 45.61544424226095], [-61.14696477598523, 45.615428141092984], [-61.14700785448207, 45.61541308824486], [-61.14704132818363, 45.61540147995856], [-61.14706393517912, 45.61538879524396], [-61.147105357476015, 45.615365614543734], [-61.14718289508286, 45.615347970350165], [-61.147619621239755, 45.61525064286309], [-61.14763244042462, 45.61525085079352]]}, "properties": {"OBJECTID": 272148, "FEAT_CODE": "WARV50", "FEAT_DESC": "River - Single Line", "RIVNAME_1": "Morgans Brook", "RIVNAME_2": " ", "ZVALUE": 9999, "FID": null, "SHAPE_Length": 1871.5003647639205}}]}