{"type": "FeatureCollection", "features": [{"type": "Feature", "id": 10383, "geometry": {"type": "LineString", "coordinates": [[-60.468388973919296, 47.00281216372877], [-60.46844650196493, 47.00278681623107], [-60.46854377197281, 47.00276423769774], [-60.46867338474011, 47.00273843277217], [-60.46875793909083, 47.002721584367166], [-60.46887074142493, 47.00269935811117], [-60.46903247525841, 47.00266749570078], [-60.469253114766815, 47.00264625908809], [-60.469284887493856, 47.00264590879574], [-60.4693333365473, 47.00264536931196], [-60.46938301444517, 47.00263691954198], [-60.46940935215721, 47.0026324353119], [-60.469746875682226, 47.00259110395973], [-60.47012505097013, 47.00253048472832], [-60.47026135272979, 47.002514266210746], [-60.4704236370593, 47.002494950118646], [-60.470586175143815, 47.00245939555268], [-60.470663044260846, 47.00244258286037], [-60.47093058460473, 47.00241678200956], [-60.47105797160167, 47.002417455320646], [-60.47109505916601, 47.00241765394597], [-60.471202245050414, 47.00239900001675], [-60.471311736332666, 47.00239030522815], [-60.47153634412832, 47.00237246366429], [-60.47162402174049, 47.002370792081436], [-60.471704642072034, 47.002369252494255], [-60.471759797275595, 47.00239078259212], [-60.47176546369301, 47.00239085378153], [-60.471828938846734, 47.002391635134195], [-60.471886101908105, 47.00238512251425], [-60.47205378257897, 47.002366004317444], [-60.4721580650445, 47.0023584085699], [-60.47228998649208, 47.0023505232824], [-60.472363406029686, 47.00235410680622], [-60.47252623122161, 47.00236204975077], [-60.47257593468294, 47.00234244894828], [-60.472593252969844, 47.00233562293877], [-60.47267371537933, 47.002219508284234], [-60.47268277749594, 47.0021899925185], [-60.47268770601172, 47.00217392050655], [-60.47269214702189, 47.00217013085873], [-60.472728826876285, 47.0021388221778], [-60.47274772591296, 47.00212971821793], [-60.4727511850691, 47.00212805773251], [-60.472757608993476, 47.002127965614264], [-60.47280260401881, 47.00212729438691], [-60.47282867635224, 47.002120616664335], [-60.472862897976015, 47.002111851056775], [-60.472968514255285, 47.00210664185909], [-60.47302838512253, 47.00207507123904], [-60.47308503940519, 47.00207040965426], [-60.473233890322, 47.00207144649307], [-60.473267748807054, 47.00207009722136], [-60.473280862441406, 47.00206957681906], [-60.47328711687611, 47.00206610616758], [-60.47331558950644, 47.002050373975024], [-60.47332499977705, 47.00203549881068], [-60.47336082178456, 47.00203407587214], [-60.47337193201563, 47.002033637218176], [-60.47345069218491, 47.00203052543967], [-60.473561702065936, 47.002026145722866], [-60.47370630764259, 47.002015110070545], [-60.473788412882236, 47.002008850131666], [-60.4738552006396, 47.00199935421782], [-60.473952304231005, 47.00198552379698], [-60.47403475051793, 47.00199267126121], [-60.474151907884185, 47.00197927431064], [-60.47422282150513, 47.001960671897734], [-60.47428028233821, 47.00194559726068], [-60.47439007366925, 47.001949757239615], [-60.47452873487474, 47.00193477362794], [-60.47459193404456, 47.001924937108264], [-60.474649673260416, 47.00191595199853], [-60.474660462968686, 47.001905849829846], [-60.474685991911656, 47.001881952911226], [-60.474772135449705, 47.00188099201076], [-60.47482171961863, 47.00190462954061], [-60.47492549987903, 47.001903472733076], [-60.475340549658725, 47.001896170178064], [-60.475567948375485, 47.00190304952472], [-60.47564542644844, 47.001902850744244], [-60.47572462770883, 47.001902653923715], [-60.47596321459473, 47.00188790182094], [-60.47612368814386, 47.00188208174782], [-60.476269947668065, 47.0018912019055], [-60.47630704569754, 47.001908758841225], [-60.476309838023326, 47.00191008033053], [-60.47631486308491, 47.00191175703607], [-60.47633573909595, 47.00191875094446], [-60.47661262011704, 47.0018492619037], [-60.476731793042894, 47.00183299096139], [-60.47682639902454, 47.001822729774474], [-60.476890460893195, 47.001815790802254], [-60.47694302546775, 47.001816949718915], [-60.4769770231366, 47.00183274620236], [-60.47698165739194, 47.001834900228026], [-60.476985476472905, 47.00183704528081], [-60.477047012503974, 47.00187143859944], [-60.47706969200017, 47.001871425633496], [-60.47708647832859, 47.00187140873351], [-60.47711142323437, 47.001854580898346], [-60.47711229348831, 47.001853979127795], [-60.477099955620446, 47.00180871031975], [-60.47710413848647, 47.001803411916846], [-60.477113943719274, 47.00179101997498], [-60.47712228857894, 47.00178728922101], [-60.477154256426566, 47.001773010032096], [-60.47727252523613, 47.001747719233244], [-60.477316338661815, 47.001741404580685], [-60.47739172696422, 47.001730548302625], [-60.47746972495446, 47.00172237731305], [-60.47766691078889, 47.001694532924475], [-60.477772985732415, 47.00167955609342], [-60.47785272148726, 47.001662414782025], [-60.47807786552434, 47.00157468315252], [-60.47812445024506, 47.001568735240966], [-60.47814402349789, 47.00156624178116], [-60.478249192659874, 47.00153976136294], [-60.47825084346282, 47.001504700228935], [-60.47826402687165, 47.00150409079933], [-60.478368307004494, 47.00149648934108], [-60.478394631490495, 47.00149616945673], [-60.47847479003304, 47.001470037666536], [-60.47856719868962, 47.00143517636677], [-60.47859993806066, 47.00141762900651], [-60.47863333867416, 47.001399727231885], [-60.47869929096209, 47.001355688532406], [-60.4786998746482, 47.00135530542021], [-60.47870646534447, 47.001347756171334], [-60.47880834176019, 47.00123080410524], [-60.47883906759693, 47.00118951699661], [-60.47886170535742, 47.00115908491324], [-60.47888845284948, 47.001149774872744], [-60.478953719245936, 47.001132314030485], [-60.47902344030132, 47.00112389664896], [-60.47908603094953, 47.00111633008122], [-60.47923113194106, 47.001107827182324], [-60.47923188563192, 47.001107744791106], [-60.479375299573725, 47.00109120411559], [-60.47945545705148, 47.00106507161584], [-60.47946770292287, 47.001062578530295], [-60.47949530307484, 47.00105694986834], [-60.47969455678879, 47.00095964546359], [-60.4797325507951, 47.00094838706574], [-60.47981330114779, 47.00092446321671], [-60.479920642704066, 47.00090880134106], [-60.479931186230885, 47.000907260648], [-60.48023528910173, 47.000874359750554], [-60.48040578002166, 47.000857415046454], [-60.480504904429246, 47.00084193167996], [-60.48051179565499, 47.000840850485446], [-60.480538419858924, 47.00083974476312], [-60.480696318567325, 47.00083321363861], [-60.480840907915585, 47.000807598648585], [-60.48088101267576, 47.00078977180355], [-60.48096048372191, 47.000754434792306], [-60.48101389345853, 47.000737602721486], [-60.48107917142179, 47.000720149921996], [-60.48113651699567, 47.00071360970199], [-60.48130399127769, 47.00069450041074], [-60.48139514173993, 47.000686607222164], [-60.48155333995716, 47.00067928956317], [-60.48174937111221, 47.00066552373227], [-60.48177770764654, 47.000663528467626], [-60.48206689143946, 47.00063537004744], [-60.4820857526057, 47.00062786560076], [-60.48212991060858, 47.00061027148914], [-60.48221971188878, 47.000595814422965], [-60.4823739418534, 47.0005696446554], [-60.48245106663763, 47.000560128155946]]}, "properties": {"OBJECTID": 10383, "FEAT_CODE": "WACO20", "FEAT_DESC": "Coast - Water to the right line", "RIVNAME_1": " ", "RIVNAME_2": " ", "ZVALUE": 0.4, "FID": null, "SHAPE_Length": 1151.3319661153553}}, {"type": "Feature", "id": 10415, "geometry": {"type": "LineString", "coordinates": [[-60.454521284868804, 47.007920549580376], [-60.45464220319368, 47.00787241969956], [-60.454654044251676, 47.007867706419326], [-60.4546817003892, 47.007858539232146], [-60.45494409190751, 47.00777157351064], [-60.45538407367128, 47.00765343162275], [-60.45543318079721, 47.007640250543744], [-60.45544491353057, 47.00763698367093], [-60.455618507986344, 47.00758857510509], [-60.45579158948961, 47.00751772845478], [-60.455943404273555, 47.007467773263855], [-60.455976015661534, 47.00745703304144], [-60.45604646235178, 47.007430548056675], [-60.456466304078035, 47.007272645076064], [-60.45667927993379, 47.00719278447269], [-60.45690489437939, 47.00709610553905], [-60.45702357723292, 47.00703484739041], [-60.45706490889373, 47.00701971095696], [-60.45716951693287, 47.006981394260485], [-60.457208910022565, 47.00695527147224], [-60.45728947987278, 47.006893166184824], [-60.45729498378526, 47.006885863999585], [-60.457330196140795, 47.00683917472272], [-60.4573700286263, 47.006804071275965], [-60.45741168920546, 47.006772581179625], [-60.45747645181163, 47.006723632602984], [-60.45767915918194, 47.006628873037265], [-60.457702489675945, 47.006617962140545], [-60.45772917609688, 47.00660702679835], [-60.45798156492821, 47.00650356105736], [-60.458057552458854, 47.00647836783153], [-60.45813928660571, 47.00645128633873], [-60.45820564731386, 47.00643100882605], [-60.45828479778441, 47.00640680363657], [-60.458490912142246, 47.00634193320145], [-60.45858930068456, 47.00631098255371], [-60.45864685511043, 47.006290248237235], [-60.45873519423781, 47.006258426341226], [-60.45905201435145, 47.0061799673421], [-60.459259655967124, 47.00611115171506], [-60.45931667566283, 47.00609225006001], [-60.45937593873653, 47.006080966647204], [-60.45954103611171, 47.0060495342852], [-60.45961031437196, 47.006033181453944], [-60.45968740247247, 47.006014986086115], [-60.459705863733205, 47.006011859137246], [-60.45973911222559, 47.006006234626014], [-60.459866629181505, 47.00600240558847], [-60.45996308054074, 47.00599950677944], [-60.46001654398834, 47.00598179475339], [-60.46007531088279, 47.00594851451745], [-60.460109824739305, 47.005928968967275], [-60.46014963647593, 47.00586595706342], [-60.46016034147645, 47.005859103149724], [-60.46019035464857, 47.00583986265896], [-60.46023024911124, 47.005830857752], [-60.46049314620951, 47.00577998699521], [-60.460629503877996, 47.00574202071486], [-60.46065179479524, 47.00573581081622], [-60.4607968676715, 47.00572823059209], [-60.46088550630575, 47.005706969938515], [-60.46090332500937, 47.00570268562052], [-60.460921565674596, 47.00569782570319], [-60.46096861517463, 47.00568524455278], [-60.46100890058116, 47.005640241589795], [-60.461022767969965, 47.0056069186308], [-60.46102374743548, 47.00560457352859], [-60.46102372719525, 47.005599173460624], [-60.46102367645129, 47.00555057576435], [-60.461049011124246, 47.00553926768271], [-60.4610639972199, 47.00553257166093], [-60.461075402394854, 47.00552898196654], [-60.46109070722915, 47.00552416488066], [-60.461315064006655, 47.00548144554977], [-60.461345719083305, 47.00547473711282], [-60.46139349608136, 47.00546428677717], [-60.461409375325516, 47.00545595463988], [-60.46146095230709, 47.00542889474912], [-60.46158346940264, 47.00536038244787], [-60.461620415985294, 47.00533972948589], [-60.46176541595616, 47.00527815022914], [-60.46188544613079, 47.0052160169912], [-60.461894474153226, 47.00521261747568], [-60.46197787117585, 47.00518117843477], [-60.462229794476684, 47.0050841635545], [-60.46231185594064, 47.00505730232821], [-60.46233536129235, 47.00504960713893], [-60.46245414857901, 47.005041441933734], [-60.462547022491485, 47.00502460260166], [-60.46262873017808, 47.005012699247786], [-60.46266493461176, 47.005007418407736], [-60.46280290199623, 47.004972886991126], [-60.462836678394396, 47.00496442948566], [-60.46294317546765, 47.00493799256253], [-60.463262896187594, 47.004835215943054], [-60.46340673198518, 47.004788979718214], [-60.46346602917315, 47.00476609476441], [-60.46372432222766, 47.004666427980375], [-60.463878950847665, 47.00462422809275], [-60.463882922420304, 47.00462314619089], [-60.46417302988713, 47.004553080401756], [-60.464327060092295, 47.00450877879647], [-60.46438508998161, 47.00449208384781], [-60.46455643401995, 47.00445136032949], [-60.4648214861109, 47.00438836024303], [-60.46520358755504, 47.00429243173474], [-60.46533676153582, 47.0042584840441], [-60.465600989621535, 47.00420674010677], [-60.465679857131995, 47.00418058867813], [-60.465735073656134, 47.004155497330224], [-60.46575917938438, 47.00414454796461], [-60.46578673882451, 47.00411816017122], [-60.46578672535675, 47.00410732463818], [-60.465786700900814, 47.00409116123801], [-60.46579325188059, 47.004077825259564], [-60.465799817700194, 47.00406445361191], [-60.46587099024632, 47.00404105644283], [-60.46595882677029, 47.00401217863826], [-60.46621199965105, 47.00388820257678], [-60.466343475513185, 47.0038623065466], [-60.46647663885494, 47.0038004592655], [-60.466493879512605, 47.00379641326296], [-60.46651521708978, 47.003791414030786], [-60.46655595581038, 47.003792315912946], [-60.466599840695935, 47.003802907749915], [-60.46663399694884, 47.003811142355566], [-60.46667346406114, 47.00381111610933], [-60.46668876792514, 47.00380629825409], [-60.46670017237354, 47.00380270798366], [-60.46669928347503, 47.00379368894191], [-60.466695153693905, 47.0037875499489], [-60.46668699246248, 47.00377541812902], [-60.46671370075484, 47.00376700999976], [-60.46672372659652, 47.003760581407526], [-60.46672726752244, 47.00375831095728], [-60.466727274905885, 47.00373701862439], [-60.46672727164206, 47.00373041301862], [-60.46676708298765, 47.00369529683885], [-60.46676878395113, 47.00365933703355], [-60.466793879100194, 47.00362523598841], [-60.466795496254555, 47.00362303094387], [-60.466796877164875, 47.00362164861136], [-60.46687558638314, 47.003542909568274], [-60.4669115826835, 47.00349276994551], [-60.46691207289823, 47.003485743293176], [-60.46691299681396, 47.00347260667279], [-60.4668968836017, 47.003455322201866], [-60.46689784593994, 47.00342857939246], [-60.46689799024888, 47.00342441588086], [-60.466945960030024, 47.00338896726159], [-60.46695757403621, 47.003389566308684], [-60.46698908281086, 47.003391190671024], [-60.46701410546085, 47.00337613962757], [-60.467060478869165, 47.00335413667463], [-60.46717312007901, 47.00332200922257], [-60.46720311276704, 47.00331841633686], [-60.46728431853212, 47.00330870339829], [-60.46738810763383, 47.003311594336566], [-60.4674531137216, 47.00329588016399], [-60.46748487762583, 47.00328821369216]]}, "properties": {"OBJECTID": 10415, "FEAT_CODE": "WACO20", "FEAT_DESC": "Coast - Water to the right line", "RIVNAME_1": " ", "RIVNAME_2": " ", "ZVALUE": 0.4, "FID": null, "SHAPE_Length": 1156.1853765437993}}, {"type": "Feature", "id": 13506, "geometry": {"type": "LineString", "coordinates": [[-60.46239482284536, 46.999009010488024], [-60.46242136273066, 46.998963027245985], [-60.462428312441496, 46.998950996201444], [-60.46242998370109, 46.99894959336102], [-60.46248173120007, 46.99890629291777], [-60.462490373502426, 46.998892130552036], [-60.46250882758634, 46.99886188788579], [-60.462516210865246, 46.99884236997216], [-60.46252234421716, 46.998826190108055], [-60.46251003248079, 46.998780920247945], [-60.462447160829925, 46.9986364361031], [-60.462409407435466, 46.99857260333129], [-60.462392298920456, 46.99855889588382], [-60.462330834374065, 46.9985096652399], [-60.46232054901275, 46.998494372207695], [-60.46231854600995, 46.99849139399462], [-60.46231948986262, 46.99849007401832], [-60.462331223988116, 46.99847367638666], [-60.46238425318259, 46.998464953001765], [-60.4624377082503, 46.998447239662525], [-60.46250341531184, 46.99842079859886], [-60.462624244231115, 46.99831368541615], [-60.46267719416671, 46.998278861955626], [-60.46274378908297, 46.99826143981323], [-60.46278367788002, 46.99825242489789], [-60.462875688211014, 46.9982535649166], [-60.462887862125, 46.998237041987636], [-60.46290241340893, 46.99821725999502], [-60.46294137135791, 46.99820012495157], [-60.46300640202799, 46.998200450738864], [-60.463046577442654, 46.998200657444364], [-60.46310001889651, 46.9981829434943], [-60.46311313545453, 46.99815623614917], [-60.46311170142397, 46.99814846489783], [-60.463101606035394, 46.99809388488282], [-60.46310945767815, 46.998078912996846], [-60.463116079154425, 46.998066307672765], [-60.46315461116288, 46.998058162487766], [-60.46320027136464, 46.99805865271552], [-60.46323349423689, 46.998059011212135], [-60.46332087787542, 46.998067292807015], [-60.46344432589329, 46.998078983546726], [-60.46354815455217, 46.998079710031405], [-60.463562684570455, 46.99807981609858], [-60.463567912480805, 46.99807858206671], [-60.46360124638146, 46.998070762487046], [-60.463655552029785, 46.998035068685596], [-60.46367238352009, 46.998029628137914], [-60.463707649691656, 46.998018224605936], [-60.463734860757725, 46.99802692712495], [-60.463888069222605, 46.99820851017243], [-60.46392308773501, 46.998226232055444], [-60.463979265413435, 46.9982546281242], [-60.46403233130895, 46.99827290290737], [-60.46413668681048, 46.99829140529301], [-60.46420285528623, 46.99828298122416], [-60.464268548172974, 46.998256538834156], [-60.46454754061197, 46.998115139796234], [-60.46474720575975, 46.99800976204165], [-60.46481376215791, 46.997965339723955], [-60.46484047276862, 46.99792903402879], [-60.46484328767765, 46.997758108303806], [-60.464836082088425, 46.99773526125625], [-60.46483186270178, 46.99772185770963], [-60.46481821709379, 46.99770445660262], [-60.464791127864004, 46.99768511978129], [-60.464702429495205, 46.997621806012575], [-60.464701541419046, 46.99761277796499], [-60.46468919631337, 46.99759541465359], [-60.464692040009375, 46.997593416798345], [-60.46470281791023, 46.99758580812538], [-60.464768097347026, 46.997568355662295], [-60.464821378360774, 46.99756901407504], [-60.464860119751265, 46.9975694943544], [-60.464876704227294, 46.99756676596832], [-60.46491314768065, 46.99756076977088], [-60.46495426943345, 46.99752568323075], [-60.464978455448005, 46.997509363180306], [-60.465007259642476, 46.997489959648355], [-60.46504710982705, 46.99745394496978], [-60.46508652968899, 46.997454818175534], [-60.465126842942425, 46.99743681247331], [-60.4651317984133, 46.997434384418035], [-60.4651793649937, 46.997410977751755], [-60.46519293513231, 46.99737438090495], [-60.46518145909497, 46.99731113109305], [-60.46518188450727, 46.99730214114271], [-60.46520770116713, 46.997284714242795]]}, "properties": {"OBJECTID": 13506, "FEAT_CODE": "WACO20", "FEAT_DESC": "Coast - Water to the right line", "RIVNAME_1": " ", "RIVNAME_2": " ", "ZVALUE": 0.4, "FID": null, "SHAPE_Length": 414.60795369298495}}, {"type": "Feature", "id": 13507, "geometry": {"type": "LineString", "coordinates": [[-60.47557257742608, 46.99779190865107], [-60.47557262041001, 46.99781890770259], [-60.47550480179913, 46.9978903065185], [-60.47539930018188, 46.997951874608475], [-60.475291256422686, 46.998095280761795], [-60.47527839023928, 46.99810759602295], [-60.47526370479411, 46.99812167101933], [-60.47519758036059, 46.998157109559436], [-60.47517130030225, 46.99818442778573], [-60.47516828959666, 46.998191650848284], [-60.475156465057104, 46.9982200979452], [-60.47516922432237, 46.99825637692296], [-60.4752272906385, 46.99833831935315], [-60.475271593423535, 46.99840082544668], [-60.47530584005605, 46.9984567741117], [-60.475310676241946, 46.99846468325766], [-60.4753230543077, 46.998509053236916], [-60.475327702677376, 46.9985393666623], [-60.47533410569511, 46.998581291983406], [-60.47532021672018, 46.99865298050561], [-60.475295426739, 46.99875249755452], [-60.475291013131326, 46.99877022792751], [-60.47525121104841, 46.99880534727845], [-60.47523722316395, 46.99882303740701], [-60.4752013128187, 46.99883810201881], [-60.475131210483916, 46.9988674951757], [-60.47509221381733, 46.99888552444547], [-60.474987047768394, 46.99888411298996], [-60.4748918084833, 46.99886131299626], [-60.474829659386735, 46.9988464425864], [-60.47477747925412, 46.99883719174202], [-60.47476432572231, 46.99883690149055], [-60.4746626543806, 46.99885762430035], [-60.474593005248316, 46.99887181819896], [-60.474565396019884, 46.998879047364206], [-60.47452641313685, 46.99888924729647], [-60.47446502671975, 46.99893659714348], [-60.474445875206904, 46.9989513654165], [-60.4743502701252, 46.99899937291664], [-60.47433942459976, 46.99900481215475], [-60.47431644451606, 46.99901234141213], [-60.47423389029472, 46.99903938034755], [-60.474102866896594, 46.999056296046376], [-60.473892493138905, 46.99905434323888], [-60.473786394811555, 46.99904480167068], [-60.4736044772393, 46.998997588727384], [-60.47344656809291, 46.99894280612352], [-60.47334220875923, 46.998896405129045], [-60.47327688847451, 46.9988868634779], [-60.473228452268735, 46.998880790372176], [-60.473198427829125, 46.9988770316485], [-60.47313233865929, 46.998885462673265], [-60.4730533746648, 46.99888462799686], [-60.4729620035434, 46.99887047020616], [-60.47287055447921, 46.99885629262227], [-60.472726362821945, 46.99884590884476], [-60.47247836038854, 46.9988048391109], [-60.472437898892835, 46.998798140858966], [-60.47241868937571, 46.99879795956267], [-60.47229326969189, 46.99879675523782], [-60.47217364927884, 46.998822901965035], [-60.47192218503332, 46.998910931485376], [-60.4718228275352, 46.99893722850049], [-60.47179032581413, 46.99894582480678], [-60.47172423938411, 46.9989700759679], [-60.47155206908796, 46.99903325436367], [-60.47149758819117, 46.99905380209089], [-60.47145964716606, 46.999068109712056], [-60.47127474601613, 46.99911172075123], [-60.47120870410665, 46.9991216456046], [-60.47110251985806, 46.9991376128546], [-60.47107811838897, 46.99914570401002], [-60.47102367593623, 46.999163759536444], [-60.470932631767305, 46.99920118272876], [-60.47091770125577, 46.999207323309356], [-60.47077806232447, 46.99928632042428], [-60.47074470666269, 46.99930519283791], [-60.47063873190583, 46.99934874735169], [-60.47063091399308, 46.99935106738055], [-60.47051999858772, 46.999383920326764], [-60.470307581620254, 46.99948090881297], [-60.470290289088545, 46.9994866461229], [-60.47020066027284, 46.9995163605641], [-60.470015892940545, 46.99961305980259], [-60.46994887386996, 46.999639476167275], [-60.469816613878365, 46.99971035582904], [-60.4697360697719, 46.99977246150657], [-60.46968350500044, 46.99979919730586], [-60.4694973656739, 46.99989677430792], [-60.46933797371996, 46.99998505219389], [-60.469294734834484, 47.00000928523631], [-60.46924471278527, 47.00003787693824], [-60.46911160129978, 47.00012673569107], [-60.46892613566727, 47.000226711496424], [-60.46889832922237, 47.000241701388184], [-60.46888374157961, 47.0002475343093], [-60.46881588517653, 47.00027466043997], [-60.468733142055434, 47.00026941050041], [-60.468687495933004, 47.00024547944644], [-60.46868546814134, 47.000244408664585], [-60.468631761156146, 47.00022181117868]]}, "properties": {"OBJECTID": 13507, "FEAT_CODE": "WACO20", "FEAT_DESC": "Coast - Water to the right line", "RIVNAME_1": " ", "RIVNAME_2": " ", "ZVALUE": 0.4, "FID": null, "SHAPE_Length": 699.5752901589276}}, {"type": "Feature", "id": 13508, "geometry": {"type": "LineString", "coordinates": [[-60.46520770116713, 46.997284714242795], [-60.46526200495741, 46.997249019638346], [-60.46532769605682, 46.997222576601295], [-60.465486711249355, 46.99717030242643], [-60.465510910081214, 46.99715398254733], [-60.46553970075194, 46.997134578581814], [-60.46557993311991, 46.99709047274564], [-60.46560272650211, 46.99705242423115], [-60.465607068094926, 46.997045176894446], [-60.465609192362194, 46.99703836641732], [-60.46563498630234, 46.99695580145185], [-60.465636211162675, 46.99690183233622], [-60.46564985931252, 46.9967709957191], [-60.465653064919564, 46.99674021685794], [-60.46565463552241, 46.99673648990271], [-60.46567973630556, 46.99667691197323], [-60.465704263779315, 46.99665002506658], [-60.46571996820088, 46.996632806075766], [-60.4657742709808, 46.99659711120515], [-60.46593276916719, 46.99649982809227], [-60.466013326911316, 46.996437698371345], [-60.466040008785804, 46.996401409754974], [-60.46605399857137, 46.996383729780476], [-60.46608110380756, 46.996339324093924], [-60.46608160434071, 46.99631761968708], [-60.46608234131851, 46.996285355250265], [-60.466097917737706, 46.99615070953646], [-60.46608465256147, 46.996090227995495], [-60.46607411346012, 46.99604218995445], [-60.46606174745853, 46.995969930139694], [-60.46607693722535, 46.99587126436117], [-60.46614430200851, 46.99578186229165], [-60.46615785407512, 46.99577315398757], [-60.46617264247105, 46.99573413616372], [-60.46618491932792, 46.99570177626171], [-60.46618526417197, 46.99568336217659], [-60.46618577442099, 46.99565588938315], [-60.46619246504636, 46.99562761749862], [-60.46620058922405, 46.995593230781566], [-60.46621731577692, 46.99556579306397], [-60.46622766763406, 46.99554882446282], [-60.46624119431311, 46.9955336990322], [-60.466267940720684, 46.99550381934369], [-60.46640100203886, 46.995415871689985], [-60.46647223181425, 46.99538350304157], [-60.466480310601156, 46.995379830166854], [-60.46653371875579, 46.995363013815926], [-60.466545371225344, 46.995361093937035], [-60.466639756578246, 46.99534556268077], [-60.466783499905404, 46.99533794549722], [-60.46691586831362, 46.995348075095826]]}, "properties": {"OBJECTID": 13508, "FEAT_CODE": "WACO20", "FEAT_DESC": "Coast - Water to the right line", "RIVNAME_1": " ", "RIVNAME_2": " ", "ZVALUE": 0.4, "FID": null, "SHAPE_Length": 284.05329699287427}}, {"type": "Feature", "id": 13509, "geometry": {"type": "LineString", "coordinates": [[-60.474405054809736, 46.996971503480154], [-60.47441819474023, 46.99697179347418], [-60.47444453017323, 46.99699937279222], [-60.47444371513618, 46.99703842106705], [-60.47444248261728, 46.99709832066596], [-60.47444467106174, 46.99710156373967], [-60.47445477487124, 46.99711659068637], [-60.474469607349256, 46.997116414063015], [-60.474481097189546, 46.99711627166135], [-60.47452017037504, 46.997120589720936], [-60.47457268237006, 46.997126392255815], [-60.474799456704126, 46.99713604022003], [-60.474836554675086, 46.997137614775035], [-60.47487894805917, 46.99713930616444], [-60.475138506781114, 46.997149676857454], [-60.475177091975155, 46.997140628862255], [-60.475218249193276, 46.99710463949319], [-60.475269648290805, 46.99711703169035], [-60.47529628396986, 46.997123459918235], [-60.475375166203506, 46.997124300248316], [-60.4753791116977, 46.997130173884834], [-60.47538745878538, 46.99714257017467], [-60.47539205682978, 46.997159437436494], [-60.475399781144766, 46.997187838862516], [-60.47541386695274, 46.997196249040705], [-60.47542833376416, 46.99720159883766], [-60.475439723678015, 46.99720580982952], [-60.47546600367502, 46.9972063895808], [-60.47551813896986, 46.99718865002175], [-60.475531702639465, 46.997179949866684], [-60.47554735513506, 46.997190284456664], [-60.47555847851183, 46.99719763933596], [-60.475579838299204, 46.99723926463519], [-60.47559583675447, 46.997270449387415], [-60.475607748368475, 46.99732471735843], [-60.4756188984837, 46.99742305643488], [-60.47562365669823, 46.99748816383314], [-60.47563009230217, 46.99757629261806], [-60.47562151823886, 46.997596901022156], [-60.475615257545265, 46.99761196284955], [-60.475608510864234, 46.99761724064248], [-60.47560296541977, 46.99762159100035], [-60.47559526730543, 46.99763421828699], [-60.47557588085762, 46.99766599037281], [-60.47557462809895, 46.99771378537876], [-60.47557257742608, 46.99779190865107]]}, "properties": {"OBJECTID": 13509, "FEAT_CODE": "WACO20", "FEAT_DESC": "Coast - Water to the right line", "RIVNAME_1": " ", "RIVNAME_2": " ", "ZVALUE": 0.4, "FID": null, "SHAPE_Length": 179.8392660278034}}, {"type": "Feature", "id": 13510, "geometry": {"type": "LineString", "coordinates": [[-60.472477947007754, 46.99666707478955], [-60.47251740893461, 46.99666704642601], [-60.47258272637486, 46.996676588459444], [-60.47266160783113, 46.99667743064707], [-60.472742410612376, 46.996666265054195], [-60.472846965631206, 46.99665181720281], [-60.47293381025153, 46.99663581724638], [-60.47293852069528, 46.996634949333234], [-60.47297069850771, 46.99663346405161], [-60.47310988983628, 46.99662703429692], [-60.47322817760537, 46.996628746221155], [-60.4733290346048, 46.99666062602962], [-60.47337204998489, 46.99667421988054], [-60.47351501906212, 46.99673857209245], [-60.47358555409767, 46.99678279532386], [-60.47363255590243, 46.99681227097825], [-60.47371025056605, 46.996866173524346], [-60.47372688109495, 46.996895923598224], [-60.47373572449504, 46.99691173272849], [-60.4737473977304, 46.9969199728625], [-60.47377518631802, 46.996939601974155], [-60.47393129675062, 46.99697634571167], [-60.474273146857094, 46.996979391473815], [-60.47431773700775, 46.99697242916616], [-60.47437915642761, 46.99696283247432], [-60.474383209036404, 46.996964199825634], [-60.474405054809736, 46.996971503480154]]}, "properties": {"OBJECTID": 13510, "FEAT_CODE": "WACO20", "FEAT_DESC": "Coast - Water to the right line", "RIVNAME_1": " ", "RIVNAME_2": " ", "ZVALUE": 0.4, "FID": null, "SHAPE_Length": 162.12274451051266}}, {"type": "Feature", "id": 13511, "geometry": {"type": "LineString", "coordinates": [[-60.4706345398783, 46.995453727076956], [-60.47064769253804, 46.99545401778696], [-60.470662428672924, 46.99546757257282], [-60.47068678279111, 46.99548997933533], [-60.47077589889638, 46.99560804088717], [-60.470813702876555, 46.995670972080504], [-60.470819130177546, 46.99568055037117], [-60.47086470032509, 46.995761192965176], [-60.470883588689915, 46.995814958691945], [-60.470890198843534, 46.99583375148009], [-60.470947379616234, 46.99588021004106], [-60.47098015035699, 46.99590683446518], [-60.470993360006624, 46.99593322457442], [-60.47099297630122, 46.995969213583976], [-60.47101840677463, 46.99598777433019], [-60.47102331920505, 46.99598959277269], [-60.47104426167535, 46.9959973450779], [-60.471057444198124, 46.995996727463705], [-60.47107144538095, 46.995979047131], [-60.471071815894334, 46.99594305782984], [-60.47108433320318, 46.995910000773584], [-60.47108533918166, 46.99590735919034], [-60.47109849527359, 46.99589476282277], [-60.47111289164387, 46.995880969947486], [-60.47116065939247, 46.99587299916752], [-60.4712176283581, 46.99586348581537], [-60.47125445300812, 46.995868043287906], [-60.471297398154654, 46.99587334795057], [-60.47149292259202, 46.995910965961514], [-60.47155706277774, 46.9959189526802], [-60.471651148509864, 46.99593066076688], [-60.47172662439855, 46.9959311763783], [-60.471769477061855, 46.99593147516922], [-60.47180810301547, 46.99594942732698], [-60.47182336848909, 46.99598271127922], [-60.47183315062757, 46.99600397692035], [-60.47185862256256, 46.99604953651005], [-60.47186803961296, 46.996055963117676], [-60.47189812519199, 46.99607650737607], [-60.47193669572728, 46.99609535820245], [-60.4719892964923, 46.996095629276155], [-60.472095772003534, 46.996069174380146], [-60.472134766834, 46.996079035140596], [-60.47214663384459, 46.99610629539288], [-60.47213311120389, 46.996141994169356], [-60.472080169407256, 46.99617682217694], [-60.47205257482953, 46.996204110657715], [-60.4720408135247, 46.99622338848115], [-60.472025488547835, 46.99624850016679], [-60.47201947749156, 46.99626438625998], [-60.47201196536292, 46.996284207915906], [-60.47203586426757, 46.99644672454069], [-60.472035015767226, 46.99646470453926], [-60.4719958903862, 46.996497461884005], [-60.47198160689515, 46.99650942149103], [-60.47197640801366, 46.99652314767542], [-60.47196808403239, 46.99654512024164], [-60.471967235506405, 46.99656310023898], [-60.471980416085124, 46.996590398524106], [-60.47200587690608, 46.996608050781106], [-60.47204447413557, 46.996626902158205], [-60.47207509534132, 46.996639727739826], [-60.47211024379375, 46.996654453193585], [-60.472233228864894, 46.99665529797781], [-60.472346930012364, 46.99665609055832], [-60.47242618210304, 46.99666273668975], [-60.472477947007754, 46.99666707478955]]}, "properties": {"OBJECTID": 13511, "FEAT_CODE": "WACO20", "FEAT_DESC": "Coast - Water to the right line", "RIVNAME_1": " ", "RIVNAME_2": " ", "ZVALUE": 0.4, "FID": null, "SHAPE_Length": 277.2599321115754}}, {"type": "Feature", "id": 13512, "geometry": {"type": "LineString", "coordinates": [[-60.46691586831362, 46.995348075095826], [-60.46712622716033, 46.99535003145767], [-60.46725505966128, 46.99538765648563], [-60.467412954175295, 46.995433771997604], [-60.46747743995432, 46.99545389981484], [-60.46753090851026, 46.995470580007876], [-60.46765516186361, 46.99553190659162], [-60.467660727604716, 46.99553464857306], [-60.46772693168471, 46.995553212383975], [-60.467936068972065, 46.995609136467586], [-60.46801110442574, 46.99560142835997], [-60.46801536042411, 46.995600991564], [-60.46808021151261, 46.995592527111114], [-60.46823153075728, 46.995556817688815], [-60.468411421855635, 46.99551436065736], [-60.46849768010728, 46.99549377941647], [-60.46855642679537, 46.9954797710313], [-60.46857207523833, 46.99547484355612], [-60.46858313062125, 46.99547136236925], [-60.468633979149615, 46.995457206228885], [-60.46874172896485, 46.99542717389274], [-60.46909787576893, 46.995322558907986], [-60.46920515756477, 46.99527903472277], [-60.46924330447779, 46.99527897841053], [-60.46944136004461, 46.99526265967672], [-60.46952025242021, 46.99526350427991], [-60.46978236232787, 46.995283698901716], [-60.469819694679984, 46.995287800096335], [-60.4699668646285, 46.995303977022495], [-60.470083918017544, 46.99533176310241], [-60.47021266744304, 46.995347793457555], [-60.47024215477414, 46.9953514601058], [-60.47030196729229, 46.995354699187246], [-60.470438950011946, 46.99536210990263], [-60.4705169804611, 46.995380933511534], [-60.470528066738716, 46.99538821607026], [-60.47052973792417, 46.99538931493574], [-60.47053214407289, 46.995390448045384], [-60.47060823344977, 46.9954261475084], [-60.4706345398783, 46.995453727076956]]}, "properties": {"OBJECTID": 13512, "FEAT_CODE": "WACO20", "FEAT_DESC": "Coast - Water to the right line", "RIVNAME_1": " ", "RIVNAME_2": " ", "ZVALUE": 0.4, "FID": null, "SHAPE_Length": 301.53321799186017}}, {"type": "Feature", "id": 13513, "geometry": {"type": "LineString", "coordinates": [[-60.468539347550674, 47.00024221137015], [-60.46851744203765, 47.00025703472401], [-60.468520235529674, 47.00026055227634], [-60.46854174979116, 47.00028768432018], [-60.46858639971524, 47.00034633095607], [-60.46858514004942, 47.00037187029582], [-60.468567208211056, 47.000400865569205], [-60.4685001874587, 47.000427281049205], [-60.46843872597113, 47.00045046270656], [-60.46840777434907, 47.00046213413059], [-60.46827462160632, 47.00052398389494], [-60.468217972463805, 47.000557504179305], [-60.46816906414108, 47.000586444028336], [-60.46816167959023, 47.00058877347649], [-60.468142357245334, 47.0005948615265], [-60.46808699173586, 47.00059816327043], [-60.46801044014486, 47.000602733115265], [-60.467945144808006, 47.00062018707837], [-60.46787813662556, 47.000646602472614], [-60.46780113700725, 47.000697652998475], [-60.4677980134729, 47.00069972573257], [-60.467744171740996, 47.00075343048953], [-60.46770482728704, 47.000806556083056], [-60.467595520859504, 47.0010039232445], [-60.467556824120415, 47.00105447130163], [-60.467554861979615, 47.00105701969841], [-60.46754744060621, 47.00108099177088], [-60.46752691517052, 47.00114729485887], [-60.467459545543456, 47.00123669758097], [-60.46745827027672, 47.00126366746084], [-60.467481439552245, 47.00130809711303], [-60.467547521625214, 47.0014348306847], [-60.467636692111284, 47.001579893880084], [-60.46762316495347, 47.00161559200798], [-60.46754304006565, 47.00166871504843], [-60.4674370155598, 47.001713165435845], [-60.467410772306145, 47.001739582758304], [-60.46746049032839, 47.00188467290546], [-60.46750337941502, 47.00195607808201], [-60.46753608560652, 47.002010537076444], [-60.46759367588334, 47.00210905866002], [-60.46762615913587, 47.002164619615556], [-60.46765336523902, 47.00220353195061], [-60.46767666662607, 47.00223683226347], [-60.46769178813465, 47.00225477863498], [-60.467715278897856, 47.002282683510636], [-60.46773926903322, 47.00233397078423], [-60.46774036793159, 47.00233632593611], [-60.46774011013044, 47.002346786493945], [-60.46773789503877, 47.002444272604336], [-60.46779166305341, 47.002534619071994], [-60.4678024853378, 47.00255279427467], [-60.46780556945693, 47.002561573903286], [-60.4678152536397, 47.002589074262346], [-60.46786540098874, 47.00262773821724], [-60.467874348916055, 47.002634640731586], [-60.46787525187422, 47.00265811305694], [-60.46787583790665, 47.002673541936545], [-60.46790355058538, 47.00268533233058], [-60.46793920734303, 47.00270105122399], [-60.46797839486246, 47.002703304182], [-60.46803327100728, 47.00270539127723], [-60.468078795723216, 47.00271022324008], [-60.4681019766928, 47.00271268897343], [-60.46816521849443, 47.002734831689516], [-60.4682122083468, 47.00273566429826], [-60.46821874176709, 47.00276358988062], [-60.468218393590604, 47.002796834831294], [-60.46821807941867, 47.002825742840244]]}, "properties": {"OBJECTID": 13513, "FEAT_CODE": "WACO20", "FEAT_DESC": "Coast - Water to the right line", "RIVNAME_1": " ", "RIVNAME_2": " ", "ZVALUE": 0.4, "FID": null, "SHAPE_Length": 369.08254217809093}}, {"type": "Feature", "id": 13514, "geometry": {"type": "LineString", "coordinates": [[-60.467497340927224, 47.00255226943974], [-60.46745655006477, 47.00244037755914], [-60.467266410753304, 47.002322381592464], [-60.46720772585155, 47.0022859582436], [-60.467189063485684, 47.002247198899894], [-60.467179326847166, 47.00222165018683], [-60.46712375862482, 47.0020759354746], [-60.46711009348556, 47.002033596980525], [-60.46708316750935, 47.00195010785216], [-60.467054976654985, 47.00187584206869], [-60.46704100986338, 47.00183904949743], [-60.467027716581235, 47.00181499693632], [-60.46701221701685, 47.00178697181544], [-60.46698737719189, 47.00173753744357], [-60.46691944678143, 47.00167215631988], [-60.46687283131935, 47.00162727056297], [-60.46686832385279, 47.00162494794474], [-60.4668549548954, 47.00161807347916], [-60.466822067415805, 47.00160723920321], [-60.46681941178099, 47.00160637047547], [-60.466802763266855, 47.00158066872673], [-60.46679695326756, 47.001571675739804], [-60.466764771718104, 47.00153979855435], [-60.466608731572705, 47.00148776570699], [-60.4665729479669, 47.0014722505697], [-60.46648791133719, 47.00143536045673], [-60.46646517557377, 47.001425164794114], [-60.46642649198625, 47.001407830531306], [-60.46632396978461, 47.00138074046007], [-60.46630504805445, 47.001366948467336], [-60.466284028679574, 47.001351616133434], [-60.4661589363523, 47.00130332765027], [-60.466155460991025, 47.001301990788505], [-60.466015307873164, 47.00125785036029], [-60.4659140598706, 47.00120522992852], [-60.465871020162005, 47.00115402438644], [-60.46586146898145, 47.001142644667155], [-60.46563005826876, 47.001053843888194], [-60.46558320998767, 47.001034483649086], [-60.46543953083956, 47.00097509148441]]}, "properties": {"OBJECTID": 13514, "FEAT_CODE": "WACO20", "FEAT_DESC": "Coast - Water to the right line", "RIVNAME_1": " ", "RIVNAME_2": " ", "ZVALUE": 0.4, "FID": null, "SHAPE_Length": 250.17650535333783}}, {"type": "Feature", "id": 13515, "geometry": {"type": "LineString", "coordinates": [[-60.46373573831319, 47.00030886326698], [-60.463699309455414, 47.00029561876225], [-60.46366756174869, 47.00028407988453], [-60.4636337445853, 47.00026429670452], [-60.46357029733357, 47.000234092469576], [-60.46351992384334, 47.0002039259947], [-60.46350861662642, 47.00019714182899], [-60.46349007147471, 47.0001840326643], [-60.46344874332008, 47.000154804596015], [-60.463369312539335, 47.00011268177422], [-60.46332730158361, 47.000079541798776], [-60.463333018046164, 47.00007410690141], [-60.46333415556979, 47.00004453318572], [-60.46333368777502, 47.00001719172718], [-60.46333357005218, 47.000010511584534], [-60.46328699182633, 46.999924381050235], [-60.46318848335504, 46.99982458120706], [-60.46283791902153, 46.99946944271569], [-60.462766636108135, 46.9994772216406], [-60.4627434705686, 46.999479740813484], [-60.46271749968323, 46.99946900470286], [-60.46267207376146, 46.99945021475792], [-60.462667866825015, 46.99944766465204], [-60.462537581951814, 46.99936559038904], [-60.4625106223904, 46.99934657088505], [-60.46249939585113, 46.99933864548647], [-60.46248255892161, 46.99931864451635], [-60.462460803277565, 46.99929279287617], [-60.46244051221014, 46.99926490385204], [-60.462434856362854, 46.99925711997172]]}, "properties": {"OBJECTID": 13515, "FEAT_CODE": "WACO20", "FEAT_DESC": "Coast - Water to the right line", "RIVNAME_1": " ", "RIVNAME_2": " ", "ZVALUE": 0.4, "FID": null, "SHAPE_Length": 161.50334388921522}}, {"type": "Feature", "id": 13516, "geometry": {"type": "LineString", "coordinates": [[-60.462434856362854, 46.99925711997172], [-60.4624286327004, 46.999246605689706], [-60.46239710257615, 46.999193287193954], [-60.46238264707877, 46.99915273045316], [-60.462371558074004, 46.99912163470743], [-60.462371713854544, 46.99910751814647], [-60.462371948108036, 46.99908563686715], [-60.46237394901327, 46.999079219687566]]}, "properties": {"OBJECTID": 13516, "FEAT_CODE": "WACO20", "FEAT_DESC": "Coast - Water to the right line", "RIVNAME_1": " ", "RIVNAME_2": " ", "ZVALUE": 0.4, "FID": null, "SHAPE_Length": 20.58710920489745}}, {"type": "Feature", "id": 14226, "geometry": {"type": "LineString", "coordinates": [[-60.46373573831319, 47.00030886326698], [-60.46376691628995, 47.00032910088933], [-60.46377999962787, 47.00033615837613], [-60.463809579143884, 47.00035209485929], [-60.46387117829723, 47.000376885379154], [-60.463884138248055, 47.000382104247926], [-60.463929178793855, 47.00039877931222], [-60.46402443110994, 47.00043404385756], [-60.464182674303956, 47.00049583039461], [-60.46435903008147, 47.000564317599554], [-60.46452684494271, 47.00061844129163], [-60.46474614943765, 47.000703637353205], [-60.46488771290603, 47.00075461411452], [-60.4649046176823, 47.00076070320074], [-60.46496230825718, 47.00078054688363], [-60.465100522257195, 47.0008280924171], [-60.46516123975842, 47.000856804430946], [-60.46525620719882, 47.000901735954194], [-60.46528753233526, 47.00091221210186], [-60.465313768450706, 47.00092098263571], [-60.465401649129376, 47.00095750465067], [-60.46543953083956, 47.00097509148441]]}, "properties": {"OBJECTID": 14226, "FEAT_CODE": "WACO25", "FEAT_DESC": "Coastline Indefinite - Water to the right line", "RIVNAME_1": " ", "RIVNAME_2": " ", "ZVALUE": 0.4, "FID": null, "SHAPE_Length": 149.55826552352778}}, {"type": "Feature", "id": 14227, "geometry": {"type": "LineString", "coordinates": [[-60.46237394901327, 46.999079219687566], [-60.4623806626577, 46.99905773407017], [-60.46238590393947, 46.99904094947295], [-60.462386755753045, 46.99902296961664], [-60.46239482284536, 46.999009010488024]]}, "properties": {"OBJECTID": 14227, "FEAT_CODE": "WACO25", "FEAT_DESC": "Coastline Indefinite - Water to the right line", "RIVNAME_1": " ", "RIVNAME_2": " ", "ZVALUE": 0.4, "FID": null, "SHAPE_Length": 8.019692893914666}}, {"type": "Feature", "id": 14228, "geometry": {"type": "LineString", "coordinates": [[-60.467585522832934, 47.00284569230497], [-60.46757323661724, 47.00277390246613], [-60.46756173850576, 47.00273747057314], [-60.4675356308357, 47.002654737619196], [-60.46751818579024, 47.002608031833155], [-60.467497340927224, 47.00255226943974]]}, "properties": {"OBJECTID": 14228, "FEAT_CODE": "WACO25", "FEAT_DESC": "Coastline Indefinite - Water to the right line", "RIVNAME_1": " ", "RIVNAME_2": " ", "ZVALUE": 0.4, "FID": null, "SHAPE_Length": 33.3479656496877}}, {"type": "Feature", "id": 14229, "geometry": {"type": "LineString", "coordinates": [[-60.468631761156146, 47.00022181117868], [-60.46861147363287, 47.000221605398444], [-60.468591988540396, 47.000221399365984], [-60.46855709631249, 47.000231561762305], [-60.468539347550674, 47.00024221137015]]}, "properties": {"OBJECTID": 14229, "FEAT_CODE": "WACO25", "FEAT_DESC": "Coastline Indefinite - Water to the right line", "RIVNAME_1": " ", "RIVNAME_2": " ", "ZVALUE": 0.4, "FID": null, "SHAPE_Length": 7.705452452380653}}, {"type": "Feature", "id": 14273, "geometry": {"type": "LineString", "coordinates": [[-60.46748487762583, 47.00328821369216], [-60.46749944346522, 47.00328481029522], [-60.467537141930556, 47.00327599722961], [-60.46757139694753, 47.003266837970024], [-60.46757679318362, 47.003265391494686], [-60.46760284043355, 47.003258435426346], [-60.467624237972124, 47.00319763225409], [-60.467616289399885, 47.00310449292382], [-60.46760008830832, 47.0029900224648], [-60.467595704463456, 47.00291330486079], [-60.46759501591924, 47.00290115847983], [-60.467585522832934, 47.00284569230497]]}, "properties": {"OBJECTID": 14273, "FEAT_CODE": "WACO25", "FEAT_DESC": "Coastline Indefinite - Water to the right line", "RIVNAME_1": " ", "RIVNAME_2": " ", "ZVALUE": 0.4, "FID": null, "SHAPE_Length": 55.772781955177}}, {"type": "Feature", "id": 14274, "geometry": {"type": "LineString", "coordinates": [[-60.46821807941867, 47.002825742840244], [-60.468219301745314, 47.002831331489936], [-60.468225177787986, 47.002858414586434], [-60.468227477929446, 47.002865691963514], [-60.46823068109058, 47.00287585111645], [-60.46823654332001, 47.0028801295161], [-60.46825513460474, 47.0028936978879], [-60.46826228979148, 47.00289427915352], [-60.468274961325235, 47.00289532443305], [-60.468291367936644, 47.00289666832669], [-60.46832577645942, 47.00288035774261], [-60.46834152067063, 47.00287289459566], [-60.468388973919296, 47.00281216372877]]}, "properties": {"OBJECTID": 14274, "FEAT_CODE": "WACO25", "FEAT_DESC": "Coastline Indefinite - Water to the right line", "RIVNAME_1": " ", "RIVNAME_2": " ", "ZVALUE": 0.4, "FID": null, "SHAPE_Length": 23.4470917337236}}, {"type": "Feature", "id": 174569, "geometry": {"type": "LineString", "coordinates": [[-60.47918014365537, 46.988455704809226], [-60.47914256729188, 46.98849154052048], [-60.47912973445583, 46.98850377596302], [-60.47904837192583, 46.98858387794844], [-60.47902197275929, 46.988610519500924], [-60.47899544476086, 46.98864660755581], [-60.478992618646664, 46.988790535339874], [-60.47900031633873, 46.98883293899924], [-60.47900411006011, 46.98885377513943], [-60.47901606591652, 46.988907143852366], [-60.47901008006082, 46.98925799669673], [-60.479046200803374, 46.989384774704035], [-60.47905066834576, 46.989404707748434], [-60.479058157221694, 46.98943813442109], [-60.479161324686714, 46.98956549843174], [-60.47920040350156, 46.9896014568425], [-60.479356121670136, 46.9897020801905], [-60.47945844171215, 46.98981952594502], [-60.47951066198364, 46.98988367176484], [-60.47952340890255, 46.98991995902408], [-60.47952162316747, 46.98998867492443], [-60.47952012953202, 46.99004586905737], [-60.47954005831546, 46.99008073960601], [-60.479545647316804, 46.990090537033595], [-60.47965251424938, 46.9902030520995], [-60.47970103551914, 46.99025413926019], [-60.47970335924201, 46.990257583201846], [-60.47971331497664, 46.99027240845033], [-60.47975247892355, 46.990299585150815], [-60.47976554615588, 46.990308656324245], [-60.47977589330086, 46.990317397610134], [-60.4798300565003, 46.99036318234403], [-60.47984234958707, 46.99038144282061], [-60.47984242255734, 46.990382128380105], [-60.4798432405731, 46.99039046181756], [-60.47989335773766, 46.99047165995136], [-60.47990433171583, 46.990495596975094], [-60.479918398185404, 46.990526207641366], [-60.47991845024342, 46.990560613398195], [-60.47991848882274, 46.990580205887], [-60.479943584764726, 46.99063385485501], [-60.47996724444583, 46.99067218225081], [-60.47999368915736, 46.99071505265968], [-60.48001219938165, 46.99073703177638], [-60.480032304242435, 46.990760899876406], [-60.48011042251507, 46.99083371513903], [-60.480149503293475, 46.99086966425828], [-60.48018922150623, 46.990894018206845], [-60.4802530497004, 46.99093314902892], [-60.48030522646421, 46.99097029538922], [-60.48031709664263, 46.990997554874085], [-60.48031667386193, 46.99100654493934], [-60.48035341757585, 46.99105751648054], [-60.480394457929414, 46.99111445020322], [-60.480421104258824, 46.991148010596085], [-60.48044536710376, 46.99117855771081], [-60.48049674058173, 46.99123279410483], [-60.48050740009823, 46.99124273011725], [-60.48057485931515, 46.9913056270503], [-60.48069032404978, 46.99142335205338], [-60.4807443844925, 46.99151415794413], [-60.480754928941245, 46.99153185785877], [-60.48078722420263, 46.99161451711018], [-60.480804235689966, 46.9916580345979], [-60.48082930385602, 46.99171258268517], [-60.48084987649454, 46.99178721739703], [-60.48085401112765, 46.991802220376194], [-60.48086719562824, 46.99182950873236], [-60.480885495870375, 46.99185093411787], [-60.48098313018749, 46.991965251513], [-60.48100799366339, 46.99200094136654], [-60.48102132431311, 46.992020088488715], [-60.48104642198515, 46.9920737372367], [-60.4810299970425, 46.992227264958906], [-60.48102184145891, 46.992248827921024], [-60.48100297880761, 46.992298665207315], [-60.480966610508176, 46.9923549296718], [-60.48092211416428, 46.99242377631198], [-60.48089494872132, 46.99244207699811], [-60.480749068254866, 46.992467663599264], [-60.48071054273654, 46.99247581484567], [-60.480617640441274, 46.992493568199684], [-60.480442896781305, 46.992538866546234], [-60.480419249647326, 46.99254499643722], [-60.48040966276602, 46.9925472061901], [-60.48034079994502, 46.9925630677737], [-60.48032500012751, 46.99257321315946], [-60.48028655222568, 46.992597888819496], [-60.480247184923655, 46.992651900174344], [-60.48015234605625, 46.99279471078079], [-60.480128568742614, 46.99287798936082], [-60.480124002820475, 46.992893970697175], [-60.48006824544335, 46.99307273034572], [-60.48001400132061, 46.993135422394715], [-60.47997251770714, 46.99323441090545], [-60.4799179828132, 46.99335920116713], [-60.47991778018007, 46.99337077889574], [-60.479916381803505, 46.99344915962321], [-60.479915912040745, 46.99347564342714], [-60.47991558087143, 46.993494147840785], [-60.4798617590207, 46.993547849743514], [-60.47980835954229, 46.99359257055084], [-60.479715542473365, 46.99363642322836], [-60.47956970330978, 46.99368900735386], [-60.47947726654864, 46.99372476878054], [-60.47941072737792, 46.99376919999287], [-60.47938275707279, 46.99380458139654], [-60.479315416691264, 46.99389399176062], [-60.47930243468533, 46.99392474463639], [-60.479247333034316, 46.994055380678724], [-60.47919265034673, 46.99412707104438], [-60.47918744664391, 46.99413479486899], [-60.47913891385611, 46.994206881660425], [-60.47912264100966, 46.994234052268155], [-60.47911179130783, 46.9942521899786], [-60.4790974729805, 46.994332859899195], [-60.4790842130657, 46.99441004337844], [-60.47906668845396, 46.99451216915633], [-60.47904910892462, 46.99477366356512], [-60.47904170231113, 46.994818695238806], [-60.47903435371636, 46.9948633322176], [-60.479041737743415, 46.99487859582527], [-60.479047551110355, 46.994890621056356], [-60.479109995227255, 46.99501710587292], [-60.479148264308606, 46.99509802527414], [-60.479173755273436, 46.995143583642246], [-60.479172909205865, 46.995161563743835], [-60.47918655935716, 46.99517895423267], [-60.479250228717405, 46.99525146074046], [-60.47926416260685, 46.995261145010254], [-60.47927697575335, 46.99527004864448], [-60.47928931419121, 46.995315317271064], [-60.47929628215887, 46.99533551235001], [-60.47933910208172, 46.99545949491121], [-60.47933787755421, 46.99551347315189], [-60.47933461508736, 46.99566639056015], [-60.47932071922393, 46.995738079428904], [-60.479304285189116, 46.99586370859822], [-60.47928869970963, 46.995999255759465], [-60.479283905712286, 46.99603908035874], [-60.479273579471865, 46.99612491385924], [-60.4792584142778, 46.99622357286067], [-60.47919064743654, 46.99632197310403], [-60.47917518738702, 46.9963357705576], [-60.4791110096862, 46.99639311370419], [-60.479076353745036, 46.99642769979439], [-60.479057183588665, 46.99644682412243], [-60.47904772467676, 46.99645719900767], [-60.47901696263147, 46.996490934924644], [-60.4789995258921, 46.99654729181605], [-60.47898902458902, 46.996581213077], [-60.47898739011293, 46.996644172643656], [-60.47898105442199, 46.996652186497435], [-60.47897340403767, 46.996661863269566], [-60.47893402903753, 46.996687993943006], [-60.47892177069085, 46.99669664226274], [-60.478920423299, 46.996697602509805], [-60.47889418900803, 46.996724004663015], [-60.47886621632051, 46.99675939487773], [-60.47885312340208, 46.9968140025724], [-60.47886465787144, 46.99687635232089], [-60.47883748942461, 46.996894652448724], [-60.478732113757296, 46.996964847775736], [-60.47873157038674, 46.996965213777685], [-60.47871658219913, 46.996978760583204], [-60.47869172958697, 46.997001233409115], [-60.478677788305426, 46.99704591408785], [-60.478667398479864, 46.99709953738863], [-60.478662139996544, 46.997126581621465], [-60.478623158901165, 46.99714461243639], [-60.47854347465129, 46.9971887535126], [-60.47853033462586, 46.99718846399094], [-60.47839758016186, 46.99721433682643], [-60.4782665627956, 46.99723124841941], [-60.478173270548446, 46.99725709063809], [-60.47813089905948, 46.99726890000442], [-60.478014660829814, 46.997301291932224], [-60.47788275242392, 46.99730918408185], [-60.47783703291088, 46.997311641203666], [-60.477752200320644, 46.997316206036125], [-60.4776329645445, 46.99730637847237], [-60.477567365664925, 46.99730557151272], [-60.477540941899456, 46.99730525005746], [-60.47747013960948, 46.99731969026719], [-60.47736961444289, 46.99734017976138], [-60.477291477822874, 46.99733942024095], [-60.47722497650145, 46.997338782177785], [-60.477119361163545, 46.99734725307572], [-60.47709306792394, 46.99734667341288], [-60.477054509157334, 46.99735572263672], [-60.47702738220232, 46.99737312331352], [-60.47698711517042, 46.99739023428381], [-60.476789551009105, 46.99745157377659], [-60.47673029000927, 46.99746672696813], [-60.47661779956314, 46.99749548337548], [-60.47657844908532, 46.997511003525645], [-60.47655078628364, 46.997521903729755], [-60.47654385528567, 46.99752634957148], [-60.476537222685735, 46.997530604006684], [-60.47653811318371, 46.99753962301075], [-60.47652418608168, 46.99755296794354], [-60.47651056245435, 46.997566013588155], [-60.476512974848816, 46.99756925256065], [-60.476524169533995, 46.99758431237608], [-60.47660223586478, 46.99763013070336], [-60.476622147097494, 46.99764416779798], [-60.47664044121167, 46.997657071308566], [-60.47665501890338, 46.997672358695795], [-60.47666676499247, 46.997684649850775], [-60.47667205104553, 46.9976925058636], [-60.47667905771796, 46.997702928637686], [-60.47667740772253, 46.99776587882758], [-60.47663883544654, 46.99777492761387], [-60.47658627484834, 46.99777376863299], [-60.47653380923257, 46.99777338566799], [-60.47640218571915, 46.997772409018346], [-60.47626448616206, 46.997764989663146], [-60.47620405288268, 46.99776174002137], [-60.476125226077336, 46.997787899591195], [-60.476051663574786, 46.997822652616776], [-60.47603238556297, 46.99783174876406], [-60.47601812869538, 46.99783812985102], [-60.4759920886561, 46.99784975866243], [-60.475984134862756, 46.997857763659965], [-60.47596585151403, 46.99787617808083], [-60.47592643180981, 46.99790320667121], [-60.475859418110986, 46.99792961761244], [-60.475832290057284, 46.99794702698128], [-60.47581961661651, 46.99796474617499], [-60.47580605321191, 46.99797343737016], [-60.47574962092621, 46.997978789141946], [-60.475713563074976, 46.99798220547929], [-60.47568728269258, 46.99798162577758], [-60.47564909075361, 46.99795468515005], [-60.47563633122454, 46.9979184062192], [-60.47558851584848, 46.99782353304613], [-60.47557257742608, 46.99779190865107]]}, "properties": {"OBJECTID": 174569, "FEAT_CODE": "WARV50", "FEAT_DESC": "River - Single Line", "RIVNAME_1": " ", "RIVNAME_2": " ", "ZVALUE": 9999, "FID": null, "SHAPE_Length": 1407.6275634354395}}, {"type": "Feature", "id": 174570, "geometry": {"type": "LineString", "coordinates": [[-60.47383892977083, 46.99427719517413], [-60.4738631733243, 46.99434882539114], [-60.47386243892774, 46.99444780228187], [-60.47385584530811, 46.9944788485563], [-60.47384722221764, 46.994519461360326], [-60.47377904082743, 46.994632068299], [-60.473711715336115, 46.994743254191164], [-60.47364310522558, 46.99485964031822], [-60.47365631606699, 46.99491391920194], [-60.47367632272869, 46.99499144049919], [-60.47367966932721, 46.99500442847857], [-60.473685672884365, 46.99503359298892], [-60.47369251139459, 46.995066807650005], [-60.47367767580786, 46.995130375679594], [-60.47362694158346, 46.99521354376802], [-60.473623519311396, 46.995219173817524], [-60.47361298893329, 46.9952296595934], [-60.47356967632926, 46.995272872300795], [-60.47350270601146, 46.99532629893639], [-60.47343492993814, 46.99542469560293], [-60.47339652022517, 46.99546657659231], [-60.47332815843172, 46.99554112992643], [-60.473293385050845, 46.99559347644326], [-60.47323328320266, 46.99568392499846], [-60.47320578684133, 46.9957373141033], [-60.473205316239124, 46.995763743865794], [-60.47320498016118, 46.99578230214849], [-60.47319965475273, 46.99580485397848], [-60.47319018659408, 46.99584496210189], [-60.47318345935294, 46.99587297259442], [-60.47317707546098, 46.995899559767764], [-60.47312873331825, 46.99597882972471], [-60.47312291688997, 46.995988366617], [-60.473068576007954, 46.99601690062526], [-60.47305547939013, 46.99602378393067], [-60.47293636225043, 46.99605306534251], [-60.47284388697585, 46.99607579847632], [-60.47280936760692, 46.99609430381843], [-60.47277776358018, 46.9961112356471], [-60.4727641573421, 46.99612083447422], [-60.47276441709438, 46.99612341403081], [-60.47276506032946, 46.996129853787174], [-60.47273707126412, 46.99616523315451], [-60.47272397312851, 46.99619194200325], [-60.472723782077935, 46.996202404052696], [-60.47272316644534, 46.99623692104388], [-60.472732555976116, 46.99627543872933], [-60.47274740845243, 46.996336449495416], [-60.47274660178178, 46.99638142853553], [-60.47273265532837, 46.9964261173919], [-60.47266487638411, 46.99652451353113], [-60.47257939383132, 46.99658970692808], [-60.472477947007754, 46.99666707478955]]}, "properties": {"OBJECTID": 174570, "FEAT_CODE": "WARV50", "FEAT_DESC": "River - Single Line", "RIVNAME_1": " ", "RIVNAME_2": " ", "ZVALUE": 9999, "FID": null, "SHAPE_Length": 304.1270142159209}}, {"type": "Feature", "id": 174572, "geometry": {"type": "LineString", "coordinates": [[-60.47354556229376, 46.98694252532382], [-60.47354513886149, 46.986951506358544], [-60.473576766797734, 46.986996148615], [-60.4735833638683, 46.98700545563329], [-60.473661425693216, 46.98705127598923], [-60.47369984514926, 46.98706930398231], [-60.473739911477935, 46.987088106268274], [-60.473961723399064, 46.98715329865792], [-60.474029271484504, 46.987184190686826], [-60.47404025192296, 46.987189229734426], [-60.47424896920231, 46.98728113966338], [-60.47429314502036, 46.9873070699735], [-60.474327032430935, 46.98732695059181], [-60.47439153407148, 46.987381470538466], [-60.474436751157924, 46.98743916459215], [-60.47451930929849, 46.98754447950622], [-60.47456092845305, 46.98758531925826], [-60.474648780017624, 46.98767152821713], [-60.47470709787292, 46.987720817866595], [-60.47471328239355, 46.98772604799368], [-60.47472505803906, 46.98773040257119], [-60.474739134061714, 46.98773561785496], [-60.47501443319126, 46.9878100879346], [-60.475105592181265, 46.98782919813725], [-60.47526383824072, 46.98784798853467], [-60.4753278748329, 46.987884498923165], [-60.47534563366989, 46.98790310546643], [-60.47535419332952, 46.987912077704806], [-60.47544416777192, 46.988012164925536], [-60.475482862957335, 46.98808410468371], [-60.475507444307624, 46.98812064448606], [-60.475597081807614, 46.98825581273092], [-60.47560363357189, 46.988263858716884], [-60.47564929551195, 46.988319969201], [-60.47572737581919, 46.9883512365377], [-60.475739651366005, 46.98835615099898], [-60.475805002670846, 46.98839269011552], [-60.47582398051303, 46.98840608583202], [-60.475882644944626, 46.98844749905943], [-60.47594802667958, 46.9885110369027], [-60.47614155432115, 46.98867459433435], [-60.476167463311256, 46.98871116327076], [-60.476217494818286, 46.988788725417606], [-60.476243443053846, 46.9888289309505], [-60.476276566146744, 46.98889467295862], [-60.47630718865262, 46.98895542814998], [-60.47634503837983, 46.98904535671262], [-60.47635658338886, 46.98913559610212], [-60.47635099304141, 46.98940284434608], [-60.47634925308356, 46.989486419196034], [-60.47633493175483, 46.989567097766404], [-60.47625284702604, 46.989746174995005], [-60.476223271144185, 46.98989941208297], [-60.47618017570851, 46.99006045043262], [-60.476138394896495, 46.99024941582621], [-60.47608988677823, 46.99034358637971], [-60.47608338759883, 46.99035619515501], [-60.47601476274077, 46.99047257342261], [-60.47599319493659, 46.99049208533684], [-60.475974937876074, 46.99050860148249], [-60.475868211669386, 46.99062413027819], [-60.4757996122588, 46.99074050897582], [-60.47570514689859, 46.99087521575559], [-60.475610680271004, 46.99098202436117], [-60.4754489131721, 46.991205240026524], [-60.475391214076176, 46.99126721473262], [-60.47538241698974, 46.991276667987286], [-60.47534173113458, 46.99133066658351], [-60.4753241108112, 46.99135710498531], [-60.47528794959357, 46.99141137437277], [-60.47528667870259, 46.991438344462075], [-60.47529825149896, 46.99152768460698], [-60.47533605837282, 46.991618521462144], [-60.47532252595962, 46.991654220413736], [-60.47529499092832, 46.99168061105955], [-60.47524058713333, 46.99171729814844], [-60.47518904872438, 46.99175206856834], [-60.475108509477074, 46.99181418715619], [-60.47505827584095, 46.99184805936979], [-60.47505553158448, 46.99184991568666], [-60.47505420501552, 46.991850714359344], [-60.47492287449277, 46.991929782875296], [-60.474868582491574, 46.99196548232275], [-60.47465545353415, 46.9921344671768], [-60.47462327787631, 46.99216665884232], [-60.47457536630526, 46.99221459411483], [-60.47454309448795, 46.99226751819638], [-60.47452121442633, 46.99230339280399], [-60.47449239436086, 46.99238465108562], [-60.474490826882445, 46.99250160836914], [-60.474488750522625, 46.99257355754546], [-60.474525879598616, 46.992762463883984], [-60.47438478854697, 46.99388607170176], [-60.474375155043646, 46.993905720706046], [-60.47435859509825, 46.99393948984697], [-60.474396317390905, 46.99397631987647], [-60.474422575989564, 46.99401275290295], [-60.474474093433194, 46.99408422896837], [-60.47450251920609, 46.99410956857983], [-60.47452584568667, 46.99413035895786], [-60.474537755489294, 46.994156728973635], [-60.47455139168195, 46.99419195647248], [-60.47456238134958, 46.99422026804254], [-60.47457839368565, 46.99425949870033], [-60.47458832119275, 46.99428383610277], [-60.47459862144885, 46.994400155318466], [-60.474607479249286, 46.99443267653992], [-60.47462328962968, 46.994490702422254], [-60.47463811390239, 46.994511611127564], [-60.47466152165341, 46.99454463341658], [-60.47467279610958, 46.994552117711905], [-60.47467555114631, 46.9945539423857], [-60.47473840909826, 46.99467142138841], [-60.47477536990776, 46.994780229459614], [-60.47478651842227, 46.994906466676], [-60.47476931164737, 46.995037108834744], [-60.47475579121378, 46.99513977229394], [-60.47475541006373, 46.99517576136934], [-60.47474952928654, 46.9951992279515], [-60.47472624983102, 46.995292109722364], [-60.47467170072165, 46.99544479522249], [-60.47465648475188, 46.995516454412645], [-60.47464369041012, 46.9956812745322], [-60.4746397441821, 46.995732060891534], [-60.474639204295606, 46.995749651746834], [-60.47463724349079, 46.99581300904354], [-60.474623722743715, 46.995876606202174], [-60.47459989145991, 46.9959228680218], [-60.47456870621615, 46.995983384538356], [-60.47454157930848, 46.99602868267866], [-60.474541419127725, 46.99603793949596], [-60.47453996900748, 46.996118640846305], [-60.47449889698696, 46.996180730029614], [-60.474489380486915, 46.99620012063858], [-60.474485799717606, 46.996207439096814], [-60.474417176547895, 46.996323816377355], [-60.474403189111946, 46.99636940446645], [-60.474410645740676, 46.996378919377996], [-60.4744168371351, 46.99638681347722], [-60.47443647694605, 46.996421930491955], [-60.474442311884225, 46.99643236354465], [-60.47444635982101, 46.99644722084653], [-60.474454646441565, 46.99647763261088], [-60.47445321183262, 46.99655744336022], [-60.47445303595012, 46.996567590767846], [-60.47445091629191, 46.996612549837046], [-60.474422221193386, 46.996746898098166], [-60.47442201397511, 46.99678449289132], [-60.474421882187286, 46.99680988620386], [-60.47441214987419, 46.996903318854635], [-60.474405054809736, 46.996971503480154]]}, "properties": {"OBJECTID": 174572, "FEAT_CODE": "WARV50", "FEAT_DESC": "River - Single Line", "RIVNAME_1": " ", "RIVNAME_2": " ", "ZVALUE": 9999, "FID": null, "SHAPE_Length": 1267.7423966640208}}, {"type": "Feature", "id": 174719, "geometry": {"type": "LineString", "coordinates": [[-60.46592140402224, 46.99424895860221], [-60.46600141977161, 46.99425994581445], [-60.46606276086456, 46.9942683776097], [-60.466206894894746, 46.994301662977406], [-60.46638257496763, 46.99431898875282], [-60.46654648633585, 46.99434431514294], [-60.46668639047979, 46.99441059696711], [-60.46669039133021, 46.9944124944102], [-60.46671357762045, 46.99442951254778], [-60.46673511108922, 46.99444532417319], [-60.46674943735923, 46.994455837606104], [-60.466779297759324, 46.99447774614507], [-60.466793628788686, 46.99450290166276], [-60.46682095609295, 46.99455084330815], [-60.46683972680183, 46.99466903365345], [-60.46686418579163, 46.994801559922855], [-60.46688604887484, 46.994893576528746], [-60.46689748876323, 46.99494176943133], [-60.46690883456432, 46.99502394189158], [-60.46690441066677, 46.99504044781432], [-60.4668944721418, 46.99507761122546], [-60.46690551118382, 46.995149859582526], [-60.466905062081025, 46.99519162474151], [-60.4669047383332, 46.995221837477246], [-60.46691586831362, 46.995348075095826]]}, "properties": {"OBJECTID": 174719, "FEAT_CODE": "WARV50", "FEAT_DESC": "River - Single Line", "RIVNAME_1": " ", "RIVNAME_2": " ", "ZVALUE": 9999, "FID": null, "SHAPE_Length": 170.02077548398938}}, {"type": "Feature", "id": 174720, "geometry": {"type": "LineString", "coordinates": [[-60.4695792579174, 46.98875105921312], [-60.46957927860684, 46.98876733055356], [-60.46957929806033, 46.98877805824724], [-60.469578913654026, 46.98881404727553], [-60.469616724882975, 46.988876979103175], [-60.46961587579575, 46.98889495909204], [-60.46961485748403, 46.98895049875908], [-60.46961424479424, 46.98898491684629], [-60.46961089725968, 46.989204517732944], [-60.46960985583215, 46.989272800010596], [-60.46959059032943, 46.98956935359105], [-60.469602535003325, 46.98965061214396], [-60.46961316589769, 46.989731841644215], [-60.469612741340896, 46.98974083163728], [-60.4696460119381, 46.9898620510245], [-60.46964977129147, 46.98987574121407], [-60.46967115138688, 46.98992151684551], [-60.46968799243119, 46.989957580769406], [-60.469699680097136, 46.98997605394577], [-60.46973939432114, 46.99003881181229], [-60.4697911806723, 46.990084053809916], [-60.46983380350282, 46.99010666672166], [-60.46984250233776, 46.99011128674873], [-60.46985110130148, 46.990119414325285], [-60.46988153269742, 46.99014814722609], [-60.46989471075914, 46.99017544572837], [-60.4699571695935, 46.99032890717401], [-60.469956745085526, 46.99033789716852], [-60.4700208746489, 46.99042840885384], [-60.47003716701815, 46.99044490493994], [-60.470047220870235, 46.990455089526705], [-60.47006153660554, 46.99046553932303], [-60.470085362273316, 46.99048293089857], [-60.470158961020964, 46.990517468719865], [-60.47016385042938, 46.9905197636604], [-60.47024233869456, 46.99055659637024], [-60.47025130355513, 46.99055864842395], [-60.47028137205647, 46.990565549697564], [-60.470320404583, 46.99057452099178], [-60.47038571419533, 46.990584064138176], [-60.47054303414408, 46.9905947501317], [-60.47062190698209, 46.99059558456343], [-60.47066225384971, 46.99060457579239], [-60.47072712604604, 46.9906231084545], [-60.470780547718874, 46.99065296120458], [-60.470792489230064, 46.99065965968901], [-60.4707987597782, 46.99067086751497], [-60.47084342706772, 46.990750770281856], [-60.470848976331965, 46.9907544116846], [-60.47085617037199, 46.9907591513652], [-60.470907463934104, 46.990787283136626], [-60.47091406729721, 46.990790047894556], [-60.470973239071895, 46.990814834992214], [-60.47100916853156, 46.990819336775644], [-60.471051700635215, 46.990824668415364], [-60.471117462757356, 46.99085221989983], [-60.47116925105625, 46.99089746130539], [-60.47118110339331, 46.9909247213583], [-60.4711701330976, 46.99096571408588], [-60.47116674607339, 46.990978400356916], [-60.47112698822316, 46.991040517414724], [-60.471046508635965, 46.991132224431794], [-60.471032469883085, 46.991148221055916], [-60.471002440374775, 46.99120680032069], [-60.47094990022901, 46.991309276021006], [-60.47094584141602, 46.991321146493696], [-60.47092243124409, 46.99138967234864], [-60.47090810114288, 46.99147035004815], [-60.47092085524224, 46.991506647432146], [-60.47102192675511, 46.99170594949741], [-60.47103073330421, 46.9917303074477], [-60.47103472426517, 46.99174132988997], [-60.47104639247647, 46.99178085203587], [-60.471095955431764, 46.99194876879781], [-60.471134604485556, 46.99202161791411], [-60.47117198220375, 46.99209353898424], [-60.4711809954119, 46.99210794817696], [-60.47122334585589, 46.99217566841572], [-60.47128704220902, 46.992275169158624], [-60.471312554462536, 46.99231982985366], [-60.471428000125776, 46.99243757282598], [-60.47148325713748, 46.99252472882002], [-60.4714916547269, 46.9925379724643], [-60.47154366141022, 46.99257639698192], [-60.471700088774234, 46.99269196736931], [-60.47171051975117, 46.992710619550046], [-60.471725559135486, 46.99273752698005], [-60.47172063271508, 46.992953403160904], [-60.47173155439077, 46.99300318602144], [-60.4717325400298, 46.99300766248849], [-60.47177038459829, 46.993097592414124], [-60.4717711604303, 46.99310233422677], [-60.47179381633043, 46.9932421000969], [-60.47178049102227, 46.99329425406249], [-60.471766389071696, 46.99334948665293], [-60.47171090302073, 46.993466152600064], [-60.47169742194634, 46.99352885038089], [-60.47165181684949, 46.99379872397537], [-60.47161123668668, 46.99390581988635], [-60.47160736791922, 46.99391282591557], [-60.471556598263376, 46.994004505730736], [-60.47150195920801, 46.994103200533615], [-60.471419769390586, 46.99422826667517], [-60.471406246794544, 46.994263965376156], [-60.47140593203656, 46.994292927406974], [-60.47140548005313, 46.99433594342801], [-60.47140339937853, 46.99440789244628], [-60.47138949333418, 46.99447958016796], [-60.471387043246935, 46.994484115710904], [-60.471375081050134, 46.99450625983147], [-60.4713568763737, 46.99453665343022], [-60.47134795227196, 46.99455155718754], [-60.47133485387785, 46.99457826587834], [-60.471301103571385, 46.99461727033638], [-60.471280597681265, 46.99464096253543], [-60.4712348287572, 46.99470720348169], [-60.471132364868886, 46.994855471754335], [-60.47111427971404, 46.99489586625901], [-60.47110442937045, 46.99491785003403], [-60.471104470159, 46.99494484905612], [-60.47110698755093, 46.99494975534959], [-60.47114180727716, 46.99501766914081], [-60.47115464637947, 46.995080048540146], [-60.471147057043375, 46.99509871651702], [-60.47113976698731, 46.99511661716089], [-60.471113953276884, 46.99513404546265], [-60.471081277610104, 46.99516141941382], [-60.47106055816555, 46.99517876229497], [-60.47104698117213, 46.995187461628106], [-60.470980008933196, 46.99524087775134], [-60.47084729670015, 46.99529374087462], [-60.470675084200735, 46.995423233399805], [-60.4706345398783, 46.995453727076956]]}, "properties": {"OBJECTID": 174720, "FEAT_CODE": "WARV50", "FEAT_DESC": "River - Single Line", "RIVNAME_1": " ", "RIVNAME_2": " ", "ZVALUE": 9999, "FID": null, "SHAPE_Length": 856.4120169552486}}, {"type": "Feature", "id": 175150, "geometry": {"type": "LineString", "coordinates": [[-60.46296001408997, 46.98977981962686], [-60.46295926952388, 46.989812209901444], [-60.46295878699305, 46.989833788725754], [-60.4629725370083, 46.98986698631506], [-60.46298474047609, 46.9898964598681], [-60.463035626971696, 46.98996058370013], [-60.46315631894812, 46.990078145462164], [-60.46326821142405, 46.99018712460486], [-60.4633271656317, 46.99025642180163], [-60.46334546753841, 46.99027793105303], [-60.46339680984667, 46.990332165501066], [-60.46341075430973, 46.990357096911346], [-60.46342227202985, 46.990377726819354], [-60.463427950657966, 46.99040362692585], [-60.4634341704378, 46.990431986859356], [-60.463419792408786, 46.99048566445133], [-60.46341003856122, 46.99050556186575], [-60.463406691176615, 46.99051237219447], [-60.463218056852114, 46.99069087817943], [-60.463147100271925, 46.990754235740205], [-60.46313840702602, 46.99076200747654], [-60.46296593164026, 46.99087697564862], [-60.462911633000175, 46.99091266929442], [-60.462866231208196, 46.99095795552258], [-60.46285779670638, 46.990966371930355], [-60.46279085862546, 46.99104678220032], [-60.462763767116925, 46.99109117844495], [-60.46272182831262, 46.99119914110032], [-60.46270854762672, 46.991244068532495], [-60.462679542776186, 46.99134219364175], [-60.46253089598758, 46.99159268922627], [-60.462422406437334, 46.99174506390349], [-60.46240841632025, 46.99176275243708]]}, "properties": {"OBJECTID": 175150, "FEAT_CODE": "WARV50", "FEAT_DESC": "River - Single Line", "RIVNAME_1": " ", "RIVNAME_2": " ", "ZVALUE": 9999, "FID": null, "SHAPE_Length": 252.88252049704693}}, {"type": "Feature", "id": 175287, "geometry": {"type": "LineString", "coordinates": [[-60.45884813663358, 46.9895985812913], [-60.45892618869999, 46.989644420501826], [-60.45905687073896, 46.9897175175097], [-60.459134484133095, 46.98977233722225], [-60.459212153454146, 46.98982625818439], [-60.459238806764255, 46.98984190593911], [-60.45929023244209, 46.98987209774076], [-60.45939413596585, 46.98992749197568], [-60.45943404088203, 46.98994547674932], [-60.459695324779574, 46.990037671346904], [-60.45975681633179, 46.990044471999944], [-60.459786920905344, 46.990047804084284], [-60.45980470480863, 46.990056073312644], [-60.45982552537615, 46.99006575985298], [-60.45991668225286, 46.990084882120925], [-60.46006045639913, 46.990131270418345], [-60.46012252927865, 46.99014412236432], [-60.460152940427456, 46.99015042195409], [-60.460219438269895, 46.99016370503572], [-60.460244140188074, 46.990168644973224], [-60.460290071653475, 46.990183802401695], [-60.46041377815294, 46.99022460622818], [-60.460457040969914, 46.9902397403626], [-60.46057032093835, 46.990279376694936], [-60.46082584215823, 46.990376408473075], [-60.460910103012736, 46.99040840803821], [-60.4611047767174, 46.990518920060495], [-60.46133941306016, 46.990646517192715], [-60.46138845691403, 46.99066706185892], [-60.46140518287953, 46.99067407445139], [-60.461442894307886, 46.990710899564434], [-60.461543957654705, 46.99080716701763], [-60.46158509528904, 46.99084635392804], [-60.46159558678158, 46.990861426635625], [-60.4616232685377, 46.990901196990094], [-60.461700550231896, 46.991067491938345], [-60.46171159118081, 46.991091234228634], [-60.461737001358394, 46.991125932511814], [-60.461751120726014, 46.991145216390485], [-60.46177371261399, 46.99117777329576], [-60.46181391016618, 46.991235702981925], [-60.461957774740725, 46.991336087172854], [-60.462112576453, 46.991427714357435], [-60.46213397864154, 46.99144485586081], [-60.46219113920582, 46.99149065246365], [-60.46224245199225, 46.99154578670446], [-60.46230738447714, 46.99159133263041], [-60.462375047399405, 46.99170613531466], [-60.46240841632025, 46.99176275243708]]}, "properties": {"OBJECTID": 175287, "FEAT_CODE": "WARV50", "FEAT_DESC": "River - Single Line", "RIVNAME_1": " ", "RIVNAME_2": " ", "ZVALUE": 9999, "FID": null, "SHAPE_Length": 376.73158109111944}}, {"type": "Feature", "id": 175288, "geometry": {"type": "LineString", "coordinates": [[-60.46240841632025, 46.99176275243708], [-60.46235378677126, 46.99188843229615], [-60.462313605433025, 46.991959536301984], [-60.4622851930009, 46.992031801220016], [-60.46225732166613, 46.99214817509882], [-60.46224511074036, 46.99221104396439], [-60.46224166444363, 46.99222882231034], [-60.462239680779426, 46.992381767799586], [-60.46224237703681, 46.992428138407774], [-60.46224909610018, 46.99254396545484], [-60.46229928420232, 46.99270616734779], [-60.46233582897136, 46.99285096784344], [-60.462357610800154, 46.99305753667444], [-60.46240811000569, 46.9931576496826], [-60.46248500840289, 46.993283555314555], [-60.462559723313674, 46.99345529131292], [-60.46259836164083, 46.993528143092306], [-60.46261144947433, 46.99354534312511], [-60.4626875250002, 46.99364532115253], [-60.462726589825806, 46.99370917396371], [-60.46272637030752, 46.99373074960769], [-60.46272620064409, 46.99374516285124], [-60.4627457679298, 46.99377774247956], [-60.46276399383138, 46.99380809651497], [-60.46278252776642, 46.993860829832954], [-60.46278949361902, 46.99388065691919], [-60.462835688330536, 46.99393588437674], [-60.46286542693086, 46.99397143430296], [-60.462890220588484, 46.99399697527208], [-60.46291809917873, 46.99402569841492], [-60.46292764752063, 46.99403376656275], [-60.46298259672711, 46.99408022466757], [-60.46300150721185, 46.99411334765006], [-60.46300810277739, 46.99412488708459], [-60.463006436578986, 46.99418784579473], [-60.46300465309487, 46.99419162199198], [-60.46299329158759, 46.99421545244743], [-60.462972863810826, 46.99424630840439], [-60.462952207902376, 46.994277537273845], [-60.46288441496153, 46.99437590937782], [-60.46284328759326, 46.994438911132484], [-60.462855648544, 46.994511180211894], [-60.46289390480033, 46.99459212284648], [-60.462918266468144, 46.994633457136516], [-60.46299495652, 46.99476355148055], [-60.463032566233906, 46.99480871620455], [-60.4630857939374, 46.99487265787552], [-60.46313631502922, 46.99494487294286], [-60.46318767454007, 46.994999107818266], [-60.46320466737325, 46.995012461616106], [-60.46330434204998, 46.99509078787777], [-60.46334779380322, 46.99511508644804], [-60.4633696926065, 46.99512733405353], [-60.463438285380384, 46.99518652249523], [-60.46353776339494, 46.99527234967058], [-60.46356403371463, 46.995298391183866], [-60.4636018369641, 46.99533587453669], [-60.463619844886985, 46.99535474039011], [-60.463628153240805, 46.99536344694745], [-60.46362772759675, 46.99537243689004], [-60.4636400026021, 46.995390707707315], [-60.46370415052421, 46.99550823042076], [-60.46371459315455, 46.99553131128161], [-60.46371606922126, 46.99553458377168], [-60.46372839448879, 46.99557985382176], [-60.46374160767035, 46.99563415192469], [-60.463730405042554, 46.99576992020993], [-60.463723083578714, 46.995858716774315], [-60.463748122418444, 46.99591327696872], [-60.463799946583364, 46.99598551160744], [-60.46382537407983, 46.99600408289445], [-60.46385215896582, 46.99602176632203], [-60.463857796953306, 46.99602492406127]]}, "properties": {"OBJECTID": 175288, "FEAT_CODE": "WARV50", "FEAT_DESC": "River - Single Line", "RIVNAME_1": " ", "RIVNAME_2": " ", "ZVALUE": 9999, "FID": null, "SHAPE_Length": 512.5841661850097}}, {"type": "Feature", "id": 175289, "geometry": {"type": "LineString", "coordinates": [[-60.463857796953306, 46.99602492406127], [-60.463917511018906, 46.996058312208625], [-60.46406007826451, 46.996158664885954], [-60.46407870934081, 46.996174934654064], [-60.464111865416704, 46.99620390943213], [-60.46415004487997, 46.99625875172821], [-60.464237921340754, 46.996430787182206], [-60.46427618095692, 46.99651172939674], [-60.46427415588689, 46.99662369974223], [-60.46427373957312, 46.99664666592097], [-60.46427519071743, 46.996656579389374], [-60.464285677718976, 46.99672791582274], [-60.4642963383845, 46.99683615353763], [-60.46430729122858, 46.99685346804558], [-60.46434773816905, 46.99691738688405], [-60.46436048978828, 46.99695366692743], [-60.46441100132978, 46.997025881187994], [-60.46444962473654, 46.99707080690204], [-60.46445805024537, 46.997078436066694], [-60.46454046959343, 46.99715294112702], [-60.464618524720564, 46.99719876742455], [-60.46471035884771, 46.99722499232176], [-60.46474831990093, 46.99723584062898], [-60.464805261779134, 46.99725891659916], [-60.46483995384807, 46.99727296822757], [-60.46520770116713, 46.997284714242795]]}, "properties": {"OBJECTID": 175289, "FEAT_CODE": "WARV50", "FEAT_DESC": "River - Single Line", "RIVNAME_1": " ", "RIVNAME_2": " ", "ZVALUE": 9999, "FID": null, "SHAPE_Length": 195.19052388624735}}, {"type": "Feature", "id": 181042, "geometry": {"type": "LineString", "coordinates": [[-60.45585241691341, 46.998954379974], [-60.45589670556153, 46.99896963759868], [-60.45590548056313, 46.99897265848439], [-60.45594408998829, 46.99899061563684], [-60.45597891826577, 46.99900038927998], [-60.45601029394925, 46.99900918622177], [-60.45606382756476, 46.99901701783134], [-60.45607561089782, 46.9990187376743], [-60.45610089111902, 46.99901905666769], [-60.45625965974749, 46.99902102905691], [-60.4563644270672, 46.99903055731803], [-60.45660109283541, 46.99903311774213], [-60.45661858286797, 46.99902989771427], [-60.456692683288566, 46.99901625465185], [-60.45675841409389, 46.999016815536315], [-60.45677158389098, 46.99901620828393], [-60.45680871488974, 46.99901821239206], [-60.45696967667431, 46.99902691007113], [-60.456985337355675, 46.99902454027317], [-60.45702137676537, 46.999019059572824], [-60.45711749273189, 46.99900523050347], [-60.45714057800453, 46.9990019097425], [-60.45724621215442, 46.998993457706504], [-60.45731149558043, 46.998976009582215], [-60.45736533681834, 46.99895020775295], [-60.457485750303086, 46.99885209012196], [-60.4576044565251, 46.99878993193517], [-60.45762473224643, 46.998774300508266], [-60.457685013250405, 46.99872782604252], [-60.45770926972216, 46.99871174307412], [-60.45772439985751, 46.9987017029204], [-60.45777828329068, 46.99867500189685], [-60.45787120319796, 46.99865726746064], [-60.45794462019812, 46.998648306080426], [-60.4580021868832, 46.998641278409835], [-60.45814728339441, 46.99863280218267], [-60.458357641012256, 46.998634774617834], [-60.458402023683995, 46.99863918911261], [-60.458462391656205, 46.99864520052472], [-60.458565553716156, 46.998661107672646], [-60.45864652970931, 46.998673588235626], [-60.45878986400417, 46.99870197849412], [-60.45894743156968, 46.9987286957596], [-60.45900079719915, 46.99877889131871], [-60.45914462925003, 46.998848653307554], [-60.45916227875063, 46.998908342058066], [-60.45920778167337, 46.998906616540545], [-60.45927842562058, 46.998904261270845], [-60.45929958393912, 46.9989138293928], [-60.45931597759454, 46.99892123987022], [-60.45935362449319, 46.9989248474946], [-60.45939120640797, 46.998936481105595], [-60.45946190741926, 46.99892876336234], [-60.45948400715255, 46.9989082224453], [-60.45953241879955, 46.998895645131974], [-60.459592510475, 46.99888003331554], [-60.45964628459833, 46.998882801937754], [-60.45970631810056, 46.99888588946949], [-60.45973996055054, 46.99890819876778], [-60.45975331341348, 46.998918430481964], [-60.45977510782052, 46.998935113141435], [-60.459799311374496, 46.998944820762524], [-60.459846427504, 46.998963721367176], [-60.45998516793547, 46.99897334345023], [-60.46010699540436, 46.99898178904313], [-60.46014857895767, 46.9989966969979], [-60.460164681989056, 46.99900247201623], [-60.46029535282915, 46.99904856907222], [-60.460348418172494, 46.99906684555274], [-60.46037384628557, 46.99908540861304], [-60.46038825271845, 46.99909866942426], [-60.46041291890439, 46.99912137327733], [-60.460437202797905, 46.99913910098709], [-60.460451061152696, 46.99914921784543], [-60.460520523249244, 46.99916291746016], [-60.460543590255796, 46.999167470058644], [-60.46066019104129, 46.99920515503059], [-60.46075229413476, 46.99923239699422], [-60.46081807400037, 46.99925995475093], [-60.46086191924499, 46.999265454286906], [-60.46089653258031, 46.99926979503708], [-60.46090617746378, 46.99927223188056], [-60.46093552749732, 46.99927965961489], [-60.46095853470296, 46.99927964812043], [-60.46097499119123, 46.99927963526996], [-60.46113232191282, 46.99929031637547], [-60.46134228221785, 46.99930128286728], [-60.46143297110963, 46.999324236204814], [-60.46161719748237, 46.99937082680586], [-60.46170883606779, 46.999394007974814]]}, "properties": {"OBJECTID": 181042, "FEAT_CODE": "WARV50", "FEAT_DESC": "River - Single Line", "RIVNAME_1": " ", "RIVNAME_2": " ", "ZVALUE": 9999, "FID": null, "SHAPE_Length": 491.6985495862194}}, {"type": "Feature", "id": 181043, "geometry": {"type": "LineString", "coordinates": [[-60.46170883606779, 46.999394007974814], [-60.4617499253461, 46.999331923748834], [-60.46175704909362, 46.999321498493664], [-60.46176264632184, 46.99931330722139], [-60.461782290452376, 46.999300711839496], [-60.46180334547707, 46.99928721181296], [-60.461842347154956, 46.999269178176085], [-60.46186333153343, 46.99926938261596], [-60.461986976389746, 46.99927058601809], [-60.46237935884598, 46.99925878713511], [-60.462434856362854, 46.99925711997172]]}, "properties": {"OBJECTID": 181043, "FEAT_CODE": "WARV50", "FEAT_DESC": "River - Single Line", "RIVNAME_1": " ", "RIVNAME_2": " ", "ZVALUE": 9999, "FID": null, "SHAPE_Length": 62.785898962902095}}, {"type": "Feature", "id": 181044, "geometry": {"type": "LineString", "coordinates": [[-60.448519882317456, 46.990043725801804], [-60.448558884666696, 46.9900526948674], [-60.44867679701054, 46.990090421436506], [-60.44877574419389, 46.990107989405125], [-60.44878111723552, 46.99010894613696], [-60.44884642193592, 46.990118501494464], [-60.44904325173744, 46.9901831853164], [-60.44913205021987, 46.9902153037385], [-60.4491466866299, 46.99022058866549], [-60.44924277395676, 46.99024629992264], [-60.44935576937997, 46.99027654568763], [-60.44961787926737, 46.990350782994156], [-60.449748546008166, 46.99039689215912], [-60.449942823914704, 46.990515513888525], [-60.45007433789814, 46.99057064094731], [-60.45020366549305, 46.99061671974771], [-60.450328722898774, 46.99064668434543], [-60.450360998068064, 46.99065442297964], [-60.450517929375906, 46.99070111644313], [-60.450622295174156, 46.990746638637916], [-60.45073553892534, 46.99081040228697], [-60.4508169909006, 46.99085626878616], [-60.450882358269965, 46.990919820702366], [-60.45090374859455, 46.990940725800726], [-60.45092006205849, 46.99095665813544], [-60.45094601497085, 46.99101933202751], [-60.450947744128776, 46.99102721801162], [-60.45095790080239, 46.991073593117], [-60.45097105662722, 46.991100884329704], [-60.45099146189093, 46.99111540490109], [-60.45102195477055, 46.991137115693874], [-60.451101285579924, 46.99115598157094], [-60.45117887452297, 46.99118381698298], [-60.45118373308796, 46.99118702098857], [-60.45120565276626, 46.991201503257095], [-60.45121706725492, 46.991237755043485], [-60.451216569755985, 46.991265354084526], [-60.451216255902025, 46.99128273391127], [-60.45125530485588, 46.99134659935435], [-60.45127752204644, 46.99136229415284], [-60.45133292547604, 46.991401424528945], [-60.45139909182669, 46.991438805718396], [-60.4514622871457, 46.99147450081213], [-60.4515377659024, 46.99150081308238], [-60.45156708287112, 46.991511032320155], [-60.45169858306977, 46.99153915902192], [-60.451773672700554, 46.99155291732449], [-60.45185504675467, 46.991567832446], [-60.45205099892002, 46.99162350111926], [-60.4521553678439, 46.99166902196895], [-60.45223341693721, 46.99171486567803], [-60.452285619410425, 46.991779014611055], [-60.452284336931605, 46.99180598421832], [-60.45228358187259, 46.99183873417452], [-60.45228311542462, 46.99185905340391], [-60.45233573201205, 46.991914221144796], [-60.45242564941867, 46.991959420006644], [-60.45262405125361, 46.99202557251249], [-60.45264835316611, 46.99203367296938], [-60.452803982081186, 46.99210733243388], [-60.452870778305055, 46.99213869719403], [-60.452960938421235, 46.99218102122987], [-60.45318321430139, 46.992236364910255], [-60.4532748314377, 46.992273501480106], [-60.45335288280752, 46.992319335466846], [-60.45339148663722, 46.992337293390115], [-60.453416941100166, 46.99238285677419], [-60.45340255248006, 46.992436532885854], [-60.45337801268002, 46.99245307661291], [-60.453349559892345, 46.99247225106862], [-60.453331386583976, 46.99249597398608], [-60.45330889392493, 46.99252534238314], [-60.45330849845802, 46.99256133112285], [-60.45336065756578, 46.992598489430314], [-60.453465016379056, 46.99264400884422], [-60.45351979072964, 46.9926701470328], [-60.45354219501108, 46.99268082389119], [-60.45356928317396, 46.99269672562234], [-60.453620247196376, 46.9927266577085], [-60.4537112575984, 46.99280619452166], [-60.45377558541204, 46.992862405118245], [-60.45385117019187, 46.99289789757798], [-60.45385405216956, 46.992899248613384], [-60.45402326394998, 46.99296421822686], [-60.45408817863791, 46.99300975043332], [-60.454114531126194, 46.99303643492744], [-60.45415269809052, 46.99309128034516], [-60.45421596847572, 46.993226778734964], [-60.45423500661948, 46.99326014001218], [-60.45424146675773, 46.99327144296295], [-60.45424505420901, 46.99327344863881], [-60.454306808320105, 46.99330800315314], [-60.454488307354126, 46.993391226176506], [-60.454503599314066, 46.993401843628995], [-60.45454051037378, 46.99342749397436], [-60.454709790629686, 46.99354644238336], [-60.45472149097787, 46.99355265121727], [-60.454761107164856, 46.993573690978245], [-60.45481399869, 46.99359990365313], [-60.45485234331608, 46.99361891723786], [-60.4549431102672, 46.99367402331068], [-60.45500077673901, 46.993699676139634], [-60.45504745611496, 46.99372044091294], [-60.45507493833907, 46.99373582008217], [-60.455112786069755, 46.99375699137938], [-60.455169504636686, 46.993796788070576], [-60.45517768907648, 46.99380253169617], [-60.45524176441571, 46.99386605233531], [-60.45527200193436, 46.993901237372775], [-60.45528040283054, 46.993911008528244], [-60.45531781744474, 46.99395902428227], [-60.45542173226977, 46.99409234798747], [-60.45544972273812, 46.99413137074372], [-60.45547352982198, 46.99416459486481], [-60.45547788827842, 46.99418858513673], [-60.45549647143475, 46.99429108732999], [-60.455509216892345, 46.99432735925687], [-60.45559537599336, 46.9944773058208], [-60.4556234155124, 46.99452610295044], [-60.45563260922428, 46.994536908636434], [-60.455700638555385, 46.9946169047947], [-60.45572615184225, 46.994661569010866], [-60.4557480097091, 46.99470067132645], [-60.45575160976262, 46.994707122928716], [-60.45578985488493, 46.99478807672097], [-60.455930728626356, 46.994951397624355], [-60.45612469642445, 46.99515999559457], [-60.45616328065269, 46.99520585020952], [-60.45625279791595, 46.99535771577296], [-60.45626432479863, 46.99537728466932], [-60.456264358096526, 46.99540428354985], [-60.45627352489304, 46.99542535687656], [-60.45627621682555, 46.9954315452919], [-60.456308519133465, 46.995465660016805], [-60.45632756970834, 46.995485783117324], [-60.45637977641805, 46.995522041137654], [-60.4564705345691, 46.99557715477273], [-60.45668011965938, 46.99565110819704], [-60.45684934359738, 46.99571607383691], [-60.456887076436026, 46.995733336250716], [-60.45692787289997, 46.99575200764161], [-60.45696903536025, 46.995774052918996], [-60.4569804643681, 46.995780174493326], [-60.45704148469648, 46.995797864360355], [-60.45720231964034, 46.995844500307214], [-60.45741454394011, 46.995936329790396], [-60.457436905755095, 46.995946005999734], [-60.45758113252933, 46.9959834170158], [-60.45762007274076, 46.99598910581079], [-60.457646446553674, 46.995992958520205], [-60.457699047300814, 46.99599322717089], [-60.45781020091719, 46.99599417560688], [-60.45783052784407, 46.99599434818688], [-60.457833114111, 46.99599472961793], [-60.457895841505355, 46.99600389853991], [-60.45821277864964, 46.996069182596244], [-60.45826317705163, 46.99607955336845], [-60.45835481265929, 46.99608878815514], [-60.45864318730367, 46.99610959166141], [-60.45876111530487, 46.9961194100125], [-60.45878639547803, 46.99611970141672], [-60.45893201492385, 46.99612140511993]]}, "properties": {"OBJECTID": 181044, "FEAT_CODE": "WARV50", "FEAT_DESC": "River - Single Line", "RIVNAME_1": " ", "RIVNAME_2": " ", "ZVALUE": 9999, "FID": null, "SHAPE_Length": 1126.0219294328974}}, {"type": "Feature", "id": 181196, "geometry": {"type": "LineString", "coordinates": [[-60.45981220843306, 47.00091511471355], [-60.45982097960447, 47.000873849304504], [-60.459827446017485, 47.00084345797269], [-60.45983013610775, 47.00068716260291], [-60.459831925630134, 47.00058258462846], [-60.45983328558363, 47.00053116540656], [-60.459833596494526, 47.00051961711435], [-60.459833744034086, 47.000511790935754], [-60.45983523192933, 47.00042965969666], [-60.45984338282807, 47.00039925175655], [-60.45984961661395, 47.00037598276073], [-60.4598890110503, 47.00032196101862], [-60.45992849681161, 47.000301238966756], [-60.45995646204152, 47.00028656075298], [-60.459982281832175, 47.00026913510112], [-60.4600996648289, 47.00022684257653], [-60.46012815738416, 47.000216576717634], [-60.46019429403019, 47.000181147140744], [-60.460222295414894, 47.00016709062117], [-60.46030074745843, 47.00012771360024], [-60.46032186650481, 47.000110381534455], [-60.46035412654023, 47.00008391036653], [-60.460384407641094, 47.000050069783526], [-60.46039440847199, 47.000038898518696], [-60.460423367609536, 47.00001074318946], [-60.460436199266034, 46.99999757388608], [-60.46044825668449, 46.99998519734308], [-60.46050430364063, 46.99993422674775], [-60.460555483932765, 46.999887683813704], [-60.46062243691489, 46.99980727524258], [-60.460742420798745, 46.99971813504447], [-60.460845263397914, 46.9996612011148], [-60.460901824763745, 46.99962988736831], [-60.46091205256645, 46.99962391373199], [-60.461008702966595, 46.99956745422236], [-60.461062116538635, 46.999550649540694], [-60.46115375863665, 46.99955988220447], [-60.461180039497734, 46.99956046525644], [-60.46121107424628, 46.99955594313095], [-60.461297926753375, 46.999543281941115], [-60.461398611361524, 46.99951381972223], [-60.4614179801336, 46.999508147811234], [-60.461535398545095, 46.99950085316054], [-60.461625512586366, 46.99947099427459], [-60.46164231127125, 46.999465427306156], [-60.46165587771925, 46.99945672885399], [-60.46169526964445, 46.99940270643382], [-60.46170883606779, 46.999394007974814]]}, "properties": {"OBJECTID": 181196, "FEAT_CODE": "WARV50", "FEAT_DESC": "River - Single Line", "RIVNAME_1": " ", "RIVNAME_2": " ", "ZVALUE": 9999, "FID": null, "SHAPE_Length": 248.25709397558833}}, {"type": "Feature", "id": 295114, "geometry": {"type": "LineString", "coordinates": [[-60.45893201492385, 46.99612140511993], [-60.4589346796722, 46.996078816239034], [-60.45896083160496, 46.99602329482126], [-60.4590299755482, 46.99600007284747], [-60.45905262059206, 46.99600017969041], [-60.45909666199821, 46.99600037463681], [-60.459181342859225, 46.99600399171695], [-60.45928955517226, 46.99601038102765], [-60.45933211280182, 46.99600553028696], [-60.45939789353602, 46.99599802733028], [-60.45948384842315, 46.99600972691415], [-60.45956490287947, 46.996020750684785], [-60.45965607143385, 46.996027355240635], [-60.45975476378532, 46.99603451371024], [-60.459859548280576, 46.9960432922197], [-60.45997136786981, 46.996052667754235], [-60.46023146750176, 46.99602815774564], [-60.46023962813712, 46.9960310926704], [-60.460358615033805, 46.99607378960042], [-60.4604775897495, 46.99608400738319], [-60.46052345330926, 46.99608794096022], [-60.46075362428233, 46.996094884382394], [-60.46087307564072, 46.99612501895134], [-60.46097663041139, 46.996151146947014], [-60.4610849929517, 46.996176301590125], [-60.461171404848244, 46.996176706824926], [-60.46120675349515, 46.99617687009246], [-60.46130364171056, 46.996159103921336], [-60.46138820881654, 46.99616707254], [-60.46152138942204, 46.99618007020212], [-60.46163889234073, 46.99619665268318], [-60.46171770660894, 46.9962077782235], [-60.46179198250175, 46.99621946900151], [-60.46186158426107, 46.99623042610481], [-60.461970077103054, 46.99625561879441], [-60.461992253172426, 46.99625896342826], [-60.46209050602658, 46.99626208741025], [-60.46217975793731, 46.99623086806322], [-60.46228620169389, 46.99618575688051], [-60.46262167255814, 46.99617229917771], [-60.46269243559069, 46.996172626262364], [-60.462758887093, 46.99618483587888], [-60.46278535826677, 46.99618969748985], [-60.46295040791717, 46.99620385003304], [-60.46307814308516, 46.996197691474556], [-60.463183795705795, 46.99619260014242], [-60.46328089855611, 46.99617750986972], [-60.46335956534141, 46.996177867754454], [-60.46344618786887, 46.99616215805656], [-60.46351979087557, 46.99613889721968], [-60.46359864493369, 46.99610974113879], [-60.46372055127546, 46.99611028319703], [-60.463778613691645, 46.99606548423282], [-60.46379763021748, 46.99605444048548], [-60.46383271454178, 46.99603406950718], [-60.463857796953306, 46.99602492406127]]}, "properties": {"OBJECTID": 295114, "FEAT_CODE": "WARV55", "FEAT_DESC": "River - Single Line Indefinite", "RIVNAME_1": " ", "RIVNAME_2": " ", "ZVALUE": 9999, "FID": null, "SHAPE_Length": 397.8712258089159}}]}