{"type": "FeatureCollection", "features": [{"type": "Feature", "id": 141321, "geometry": {"type": "LineString", "coordinates": [[-60.40778072951909, 46.715650563106294], [-60.407752949093485, 46.715708746781345], [-60.40772545974705, 46.71576631606449], [-60.40770362210752, 46.715799876113], [-60.40768449565756, 46.715829285731026], [-60.407678049907815, 46.71583300050889], [-60.407592985923344, 46.71588210979217], [-60.407460913226686, 46.715934914172536], [-60.40742772820091, 46.715940947655874], [-60.40736851234065, 46.71595171882973], [-60.4072883257876, 46.71597140126801], [-60.407224187047504, 46.71598714561633], [-60.40714573308697, 46.71601326606336], [-60.40706196264837, 46.716047383689315], [-60.40703896835845, 46.7160567440418], [-60.40697358511319, 46.7160831607404], [-60.406950352194215, 46.716102685387725], [-60.40692041041962, 46.716127862746625], [-60.406866374617444, 46.71619052671268], [-60.406810795379876, 46.71626955320741], [-60.40677229195808, 46.716324289570494], [-60.40674734493525, 46.7163522710749], [-60.40673218825584, 46.716369278895], [-60.406680349530795, 46.71638610284421], [-60.406457512488686, 46.71636664963127], [-60.40641875675485, 46.716356770910615], [-60.406411547127796, 46.71636140426708], [-60.406405241701485, 46.71636546414645], [-60.40636513861021, 46.716437452622074], [-60.40635123264501, 46.71648213600606], [-60.40633286008358, 46.71651790732321], [-60.406323811545626, 46.716535512612424], [-60.40625714819152, 46.71661589839792], [-60.406253155761455, 46.71661729280433], [-60.406230531987234, 46.71662519443799], [-60.40609930402596, 46.71663302663088], [-60.40590309598539, 46.71660426761984], [-60.40578541416286, 46.71660248900568], [-60.4057204466835, 46.71659292439877], [-60.40570289670056, 46.71659516318862], [-60.40565461736288, 46.71660133071347], [-60.40557616178648, 46.71662745004767], [-60.405536488040774, 46.7166634489528], [-60.405482449670124, 46.71672612120632], [-60.405452102234044, 46.71678974493074], [-60.4054140731707, 46.71686947491876]]}, "properties": {"OBJECTID": 141321, "FEAT_CODE": "WALK20", "FEAT_DESC": "Lake - Water to the right line", "RIVNAME_1": "Warren Brook", "RIVNAME_2": " ", "ZVALUE": 14.1, "FID": null, "SHAPE_Length": 259.73563705784}}, {"type": "Feature", "id": 141322, "geometry": {"type": "LineString", "coordinates": [[-60.4054140731707, 46.71686947491876], [-60.40539336321224, 46.71686175123508], [-60.40538834957697, 46.71685988252964], [-60.40524237846414, 46.7169573677849], [-60.40521623663216, 46.71698377388701], [-60.40517569991158, 46.71703775259499], [-60.40510903422849, 46.71711813765777], [-60.40508161401661, 46.717159733306204], [-60.405068122238035, 46.71718020759105], [-60.405028843850026, 46.717258685132784], [-60.40502758547381, 46.717261185508875], [-60.40501278924654, 46.71729684877168], [-60.405019893224654, 46.71737870974761], [-60.405023744072786, 46.7174230939227], [-60.4050337793766, 46.71756741671056], [-60.40502077848377, 46.71759402196097], [-60.404992910896816, 46.71762938860414], [-60.40484735534211, 46.71774488228942], [-60.40475580867831, 46.71781198585026], [-60.40470088022569, 46.71785225514101], [-60.40463520057868, 46.71790223413189], [-60.40451481537245, 46.71799382830826], [-60.40446712135904, 46.71803658361837], [-60.4044355075011, 46.718064926286154], [-60.404302171231976, 46.718198696124595], [-60.40429854441905, 46.718201466724246], [-60.40420842802123, 46.71827036626206], [-60.40415572386614, 46.71830516893065], [-60.404126525535304, 46.71831670980514], [-60.40408902937595, 46.71833155421549], [-60.40405545103213, 46.71833892775637], [-60.404011015062814, 46.718348682739496], [-60.40380083683873, 46.718365510746395], [-60.403744180756654, 46.71837031732441], [-60.4037088491833, 46.718373322078165], [-60.40363080902096, 46.718363450494316], [-60.40362583922041, 46.71836230268763], [-60.40359197006283, 46.71835446890539], [-60.40351480608414, 46.71832661762745], [-60.403435877792525, 46.718307716991184], [-60.4033717849278, 46.71828017140536], [-60.40311103512781, 46.71820587029131], [-60.40299229364024, 46.71817485154192], [-60.40296755775684, 46.71816839495544], [-60.402877754655854, 46.71813125645615], [-60.40276815662523, 46.71807960169504], [-60.40256679884449, 46.717984697806756], [-60.4024756892013, 46.71794752931282], [-60.40240733772839, 46.717921758399946], [-60.40225461885737, 46.71786420978475], [-60.40223465960115, 46.71785720456321], [-60.40215038211961, 46.71782764280692], [-60.402007806659334, 46.71779921350252], [-60.4019079961516, 46.71777075664123], [-60.40187742857574, 46.7177620343838], [-60.401806990844904, 46.717728763913414], [-60.401799377539994, 46.717725171030985], [-60.40151419388236, 46.71758729481938], [-60.401502600747385, 46.71758128954754], [-60.40137247210098, 46.717513876337115], [-60.40128087595044, 46.71748659555974], [-60.40122906918373, 46.71746892170058], [-60.40103497462951, 46.71740270037635], [-60.40093073920823, 46.71736614130835], [-60.40077464100584, 46.717292386333376], [-60.40061941748687, 46.71722766878135], [-60.40047640183803, 46.71718121903789], [-60.400359971651746, 46.7171533729934], [-60.400151557833716, 46.71710633611446], [-60.400000527451034, 46.71706330346299], [-60.399955340453054, 46.71705057640007], [-60.39985196881997, 46.717023026738964], [-60.39979071003694, 46.717000835426575], [-60.39972209480343, 46.716975974874906], [-60.39966753373411, 46.71696498749315], [-60.3996313623196, 46.716957712163925], [-60.39955288228316, 46.71692982826742], [-60.399358405496095, 46.71686510734621], [-60.39913734456604, 46.71678178196233], [-60.39906388563956, 46.71675180698483], [-60.39904622631699, 46.71674461051951], [-60.398850453557586, 46.71670686752626], [-60.39874989442084, 46.716673917983265], [-60.39870874840869, 46.71666043636756], [-60.398538676100245, 46.71660526893461], [-60.398410536891376, 46.71657306863795], [-60.398278803902286, 46.71653995845694], [-60.39820920658822, 46.716523300427404], [-60.39808346530629, 46.71649321526398], [-60.39799769429457, 46.71646214948396], [-60.39795356802512, 46.71644616084889], [-60.397894078295515, 46.716429930607916], [-60.39778437183511, 46.71640001198134], [-60.39770632606737, 46.71636313693238], [-60.39755022826718, 46.71626722012382], [-60.397513141523625, 46.716244443704824], [-60.397479326936164, 46.716226817605865], [-60.397460805331626, 46.71621715333552], [-60.39745617784532, 46.71620236941469], [-60.39744946451768, 46.71618089620102], [-60.397425447177085, 46.716027353694344], [-60.397426312189964, 46.71600937386183], [-60.39742693870002, 46.715969969173635], [-60.39742759058449, 46.7159284051204], [-60.39744199645864, 46.71585416996773], [-60.39744324679072, 46.71584776359514], [-60.39745716337507, 46.7157760822359], [-60.39747715252875, 46.71574979886694], [-60.39751164237513, 46.71570442401781], [-60.39753625874776, 46.7156850407624], [-60.39759052307654, 46.715642320848694], [-60.397601434251236, 46.71562848453103], [-60.39760445871686, 46.71562463846331], [-60.39760243423345, 46.715615313639645], [-60.397597153731624, 46.715590984116766]]}, "properties": {"OBJECTID": 141322, "FEAT_CODE": "WALK20", "FEAT_DESC": "Lake - Water to the right line", "RIVNAME_1": "Warren Brook", "RIVNAME_2": " ", "ZVALUE": 14.1, "FID": null, "SHAPE_Length": 843.4164180745578}}, {"type": "Feature", "id": 141323, "geometry": {"type": "LineString", "coordinates": [[-60.397597153731624, 46.715590984116766], [-60.397592986940786, 46.715571791802084], [-60.39759267578915, 46.71557037175886], [-60.397591110470316, 46.71556455829078], [-60.3975804473389, 46.71552509467389], [-60.39755601116351, 46.71549123045966], [-60.39755469866569, 46.715489409638295], [-60.39752942230677, 46.71547083488966], [-60.39743830738788, 46.71543366222458], [-60.39733364619647, 46.71540608091844], [-60.39728263102556, 46.71537882052764], [-60.39727110869899, 46.71536456365336], [-60.3972307490078, 46.7153146413664], [-60.397195266278175, 46.7152792116847], [-60.39716708645909, 46.71525109402232], [-60.39710919201243, 46.715203643507266], [-60.39709028407903, 46.71518814753589], [-60.39708427666876, 46.715180019010354], [-60.39707678461172, 46.71516984074509], [-60.39705192805096, 46.71514227568372], [-60.3970522176977, 46.71512700968264], [-60.397052783768814, 46.715097296357655], [-60.39704141526714, 46.71498004069741], [-60.397032932499854, 46.71496733794482], [-60.39702920984782, 46.71496176335538], [-60.39695283497184, 46.71483582817553], [-60.39693996707386, 46.71482044266646], [-60.39691447929943, 46.71478995628212], [-60.39679891210698, 46.714717127417984], [-60.39672130245525, 46.71467125284592], [-60.39662975639254, 46.714643078473216], [-60.396461441389285, 46.71460594743939], [-60.396264609231835, 46.714556701162415], [-60.396200261293245, 46.714540602406196], [-60.39612180902387, 46.714539707047365], [-60.396078621114576, 46.71455129631569], [-60.39605685485785, 46.714557136518984], [-60.39603917037348, 46.71456271867261], [-60.3960302813017, 46.71456553118147], [-60.39599016131855, 46.71458351710823], [-60.395982866354494, 46.714591540776205], [-60.39595009343443, 46.7146276035167], [-60.39586904870217, 46.7147346550917], [-60.39585913571926, 46.71474405909537], [-60.395803237918535, 46.714797054721146], [-60.395794228641556, 46.71479747053763], [-60.39579012416719, 46.71479765605935], [-60.39575025550729, 46.7148000870373], [-60.39567201383894, 46.714804866016465], [-60.39558723025506, 46.71480773199866], [-60.395449210266705, 46.71481238234255], [-60.39543417680475, 46.714808557032704], [-60.395410431231156, 46.714802508345386], [-60.395380359916146, 46.714791959690096], [-60.39530623134152, 46.71476593591798], [-60.39526782386705, 46.71475840127363], [-60.39525435619909, 46.71475575457467], [-60.39512313216763, 46.714763565240425], [-60.395006285611714, 46.714771703272554], [-60.39494002421792, 46.714789093331866], [-60.394650144321545, 46.714858087389736], [-60.39461133072715, 46.714876102596484], [-60.39453158190614, 46.71495618346542], [-60.39450970584328, 46.714970273654345], [-60.39449107147146, 46.71498225975641], [-60.39442309386561, 46.715089608033416], [-60.39441072814502, 46.71510347390678], [-60.39434286813693, 46.71517957764145], [-60.394262260414266, 46.715304637559235], [-60.39419470656868, 46.71537600530682], [-60.3941488183438, 46.7154121196638], [-60.39411583597318, 46.715438097372406], [-60.394049568304325, 46.715482486058114], [-60.393969802047245, 46.715508567565806], [-60.39394088760634, 46.71551230051904], [-60.393839450030455, 46.7155253963948], [-60.393607382843506, 46.71551735342355], [-60.39346061839957, 46.71551226231726], [-60.39334448073581, 46.71551135205095], [-60.39315977750315, 46.715509904643376], [-60.392786124402555, 46.7155229046894], [-60.39275346186528, 46.71552404095489], [-60.39250196571169, 46.71553631521611], [-60.39245179769629, 46.71553876219422], [-60.39228262379323, 46.71554659523331], [-60.39224097784749, 46.715552764359366], [-60.392229894449294, 46.71555440156328], [-60.39215014033206, 46.71558048207917], [-60.3920847438627, 46.71557989068471], [-60.39204295966604, 46.71557372691143], [-60.391954817749664, 46.71556072802797], [-60.39191614704073, 46.71555132330334], [-60.39187721753396, 46.71554185866454], [-60.391797140555624, 46.71552143879792], [-60.39173373747003, 46.71550528707889], [-60.391606270686445, 46.71545439295646], [-60.39152576496972, 46.715422245428364], [-60.39146670810525, 46.715399271881104], [-60.391383208897416, 46.715366794974834], [-60.39121247369001, 46.715286267138424], [-60.39118872849162, 46.71527506071744], [-60.391072778054664, 46.715210317090914], [-60.3909959483541, 46.71518335591771], [-60.390968554352696, 46.71517374015937], [-60.3905652641282, 46.71507094078149], [-60.390519515589425, 46.71505989811359], [-60.390408759146666, 46.71503317033486], [-60.39031722244988, 46.71503198140214], [-60.390185997276255, 46.715039786372486], [-60.39009067337869, 46.71505525938707], [-60.3899235526687, 46.71508239528365], [-60.38987371354654, 46.71509918525925], [-60.38981847408376, 46.715117795898294], [-60.38969595897544, 46.715175855801554], [-60.389633676703816, 46.71520537529945], [-60.38958382093667, 46.7152330814823], [-60.3894750197907, 46.71529355114533], [-60.38944840152974, 46.715302843234916], [-60.389406629293916, 46.7153097284261], [-60.38939564219331, 46.71531153854898], [-60.38921257345294, 46.715336158386314], [-60.38915236031177, 46.715335809646554], [-60.389107922387474, 46.71533556905353], [-60.389076904222556, 46.715325951093995], [-60.38892614451559, 46.71527922002889], [-60.38884762932052, 46.715252227923116], [-60.388811655416916, 46.71525175749041], [-60.38875609234107, 46.71525103773362], [-60.38871564684605, 46.715245074305244], [-60.3886911303356, 46.71524145455147], [-60.388627326180846, 46.71521032533774], [-60.38848401862783, 46.715140427472015], [-60.38834190056816, 46.71507598344865], [-60.388223238248166, 46.71503117246017], [-60.38814657157428, 46.71500222414063], [-60.38801749369275, 46.714911078251085], [-60.38791333405628, 46.71490059930483], [-60.3876521819277, 46.71486222563794], [-60.387562036669316, 46.71484767463186], [-60.38753531621049, 46.71484336529658], [-60.3874450909026, 46.714788205428526], [-60.387342603124466, 46.71468865747904], [-60.38725192608169, 46.714615496603926], [-60.38723399349206, 46.71460154223656], [-60.3871232979113, 46.714515360201815], [-60.38710928102492, 46.71450540118208], [-60.387085346143145, 46.714488393720465], [-60.38699463114056, 46.71441874167865], [-60.386942775491, 46.71437893877044], [-60.38687746809536, 46.71432587778966], [-60.386762705513696, 46.7142326276452], [-60.38649191809557, 46.71406253553683], [-60.38641477023665, 46.71401407255345], [-60.38639677052266, 46.713997182594305], [-60.38633716574264, 46.71394120971255], [-60.38630105870562, 46.713898013550654], [-60.38629881982882, 46.713895334446754], [-60.38627878581114, 46.71387397008696], [-60.38622291400652, 46.71381440156114], [-60.38614703081704, 46.713678570561186], [-60.38607606435509, 46.71355960046139], [-60.38603326308017, 46.71348787492695], [-60.385969599048515, 46.71339732194924], [-60.38596611294692, 46.71339500131822], [-60.385942977284884, 46.713379613840424], [-60.38586625121017, 46.71334276082046], [-60.38580041945933, 46.713324156334274], [-60.385796204322105, 46.71332365498452], [-60.38563130430574, 46.71330409057065], [-60.385578980827574, 46.713303794317284], [-60.38555369661454, 46.71328521671992], [-60.38548827410477, 46.71322457449333], [-60.38547605129892, 46.71321324332463], [-60.385334356180756, 46.713085806811485], [-60.38532657272382, 46.71308008498841], [-60.385296436680214, 46.71305794048644], [-60.38523139240738, 46.713023595081275], [-60.38519310281634, 46.713003388061836], [-60.38513473931884, 46.712970509328535], [-60.38506317916061, 46.71293020998122], [-60.38467341879944, 46.71279170000543], [-60.38457689208209, 46.71276362702472], [-60.3844785844267, 46.712735045240265], [-60.38443980098958, 46.71272722835281], [-60.38438787773278, 46.712716770967184], [-60.38429629869519, 46.7127157292257], [-60.38423095256574, 46.712714981480225], [-60.38402212365907, 46.71267689633416], [-60.38391796591484, 46.71263942346261], [-60.38386694724292, 46.71261215696479], [-60.38378891672746, 46.71257527269661]]}, "properties": {"OBJECTID": 141323, "FEAT_CODE": "WALK20", "FEAT_DESC": "Lake - Water to the right line", "RIVNAME_1": "Warren Brook", "RIVNAME_2": " ", "ZVALUE": 14.1, "FID": null, "SHAPE_Length": 1330.6328096766927}}, {"type": "Feature", "id": 141416, "geometry": {"type": "LineString", "coordinates": [[-60.38378891672746, 46.71257527269661], [-60.383844233242634, 46.71245954121734], [-60.38389611828042, 46.71244182869793], [-60.38390378482853, 46.71243210434028], [-60.38391005745672, 46.71242414804719], [-60.383885219124046, 46.71236958119699], [-60.383858598555136, 46.71235187262406], [-60.38384984584792, 46.7123486124615], [-60.383832893742145, 46.71234228478821], [-60.38379368446854, 46.712341387760546], [-60.38367553497801, 46.71234948438538], [-60.38363671697072, 46.71234049646272], [-60.383593521392115, 46.7123219226111], [-60.38357262897299, 46.712312930810896], [-60.38350766613744, 46.71224934602563], [-60.38349359149007, 46.712237360285904], [-60.38344357565434, 46.71219478093315], [-60.38328838868791, 46.712130031526854], [-60.383267195076435, 46.71212267073637], [-60.38323562947672, 46.71211171568567], [-60.38319195471909, 46.712080873028334], [-60.38310657943331, 46.712020573807195], [-60.38309296861953, 46.71199602595226], [-60.383081307259445, 46.71197499661909], [-60.383069014440885, 46.711885329582344], [-60.38305906091482, 46.71181249164969], [-60.38307763366465, 46.71166574342357], [-60.383090853877256, 46.71156121662611], [-60.383096342392044, 46.71149264697331], [-60.38310738898907, 46.71135460927997], [-60.383125228797475, 46.71112102346776], [-60.38314053395766, 46.711055891371444], [-60.38315488452144, 46.71099480532468], [-60.383195810776066, 46.71087875382994], [-60.38319841912876, 46.71087108271384], [-60.38322330619158, 46.71079746709119], [-60.38329129911026, 46.710690143723106], [-60.38341286926293, 46.71050302130594], [-60.38348129430305, 46.710359690620436], [-60.383512164255286, 46.71031196017455], [-60.383602906051955, 46.71017167797022], [-60.383642533016854, 46.71013657653376], [-60.383734981212065, 46.71010142361101], [-60.383827815685855, 46.71006612645468], [-60.383933322655686, 46.710021741369374], [-60.38406558839446, 46.70999542787873], [-60.38410374077768, 46.709987840854424], [-60.3841302935421, 46.70998149143538], [-60.38424802032396, 46.70995334218797], [-60.38445942731595, 46.70988347965791], [-60.38452437925915, 46.70986605672469], [-60.384643388546515, 46.709812989033864], [-60.384722281461016, 46.70980489360112], [-60.38479842963453, 46.70979863429526], [-60.384919318133946, 46.709788700205344], [-60.3850753754955, 46.70978146915218], [-60.38511540667561, 46.70978183555296], [-60.38514075163911, 46.709782064114016], [-60.38532298494539, 46.709828529927776], [-60.38540231589918, 46.70983844358587], [-60.38550691270631, 46.7098399350786], [-60.385610249835636, 46.70986749701576], [-60.385672210567115, 46.70988868606539], [-60.38593459851819, 46.70997840930121], [-60.386245405724054, 46.71012591021063], [-60.38628701557679, 46.71014668776625], [-60.38655713120502, 46.71028152204751], [-60.386601776274105, 46.71030691373872], [-60.38668574381556, 46.71035466850552], [-60.3868413642236, 46.71041042344791], [-60.386867768442215, 46.71041798364454], [-60.38703623638972, 46.71046617510215], [-60.38717552355076, 46.71050686874793], [-60.38738716453622, 46.710568690798574], [-60.38758435303008, 46.710603047981024], [-60.38771412545049, 46.710625659058344], [-60.388130436391805, 46.71067476744238], [-60.38827670551029, 46.71069119383393], [-60.38839200317604, 46.71070414078897], [-60.388535420013774, 46.710714606859206], [-60.3887298950985, 46.71071683391484], [-60.38877079923028, 46.71071729096447], [-60.38885914371323, 46.710730251962595], [-60.388966976113025, 46.710746069797764], [-60.38956751686264, 46.71075136551851], [-60.389673202527916, 46.710752293061624], [-60.38996003628727, 46.71077323980353], [-60.3899802755917, 46.71077353975178], [-60.39007770465015, 46.71077502545203], [-60.39037938593249, 46.71075941095342], [-60.39074685693272, 46.71074723177198], [-60.39079742848451, 46.71074555074034], [-60.39081368290924, 46.71074573261908], [-60.39087588851172, 46.71074644094848], [-60.3910729207381, 46.710703237526474], [-60.391126542255066, 46.71067656157627], [-60.39123156793742, 46.71064205853047], [-60.39128432242806, 46.710633362264474], [-60.39153236166551, 46.71061742097217], [-60.3916977286642, 46.71058157596418], [-60.39176904761647, 46.71056612109426], [-60.39182180195676, 46.71055742457688], [-60.3920184064574, 46.710550208845376], [-60.39209643900303, 46.71053308892927], [-60.39216753549732, 46.71051220187711], [-60.392215870422284, 46.71049801353223], [-60.392264247458115, 46.71047507835211], [-60.39230825898029, 46.710454221545994], [-60.39238757800937, 46.71041013146196], [-60.39242638947697, 46.71039210795772], [-60.39251675497527, 46.710372641045524], [-60.39258504156137, 46.71035792650254], [-60.39283432724569, 46.71028893017165], [-60.393071054373884, 46.71023671956213], [-60.393142000547606, 46.7102308850904], [-60.3932680907417, 46.71022051175919], [-60.39334567628274, 46.71021238056991], [-60.39342216216876, 46.71022082883533], [-60.39343807885151, 46.71022258660176], [-60.39345073260637, 46.710224449987294], [-60.39356797975108, 46.71024174704204], [-60.393750655433166, 46.71027920969783], [-60.39436273717972, 46.710393055453835], [-60.39446035488158, 46.71040881534694], [-60.39447958252477, 46.71041191737473], [-60.394636082138376, 46.71042268286889], [-60.394656890709015, 46.71042990677999], [-60.394688830742595, 46.71044099320061], [-60.39488324905042, 46.71050661184887], [-60.394894559000456, 46.71051138738469], [-60.39494863485704, 46.71053420071627], [-60.39499274723608, 46.710547643289466], [-60.39513043388843, 46.71058964072266], [-60.39526037107719, 46.71063579936141], [-60.3953761666253, 46.710680834772155], [-60.39540294520842, 46.71069124544504], [-60.395897306049996, 46.710831200868135], [-60.39603946993573, 46.710867737300816], [-60.396091582669435, 46.71088378256022], [-60.39613100893232, 46.710895921017425], [-60.39615600817143, 46.71090769496041], [-60.39624741943405, 46.71095077028804], [-60.396300152432865, 46.71096997049305], [-60.39640062123557, 46.71099557638406], [-60.396482400044164, 46.71101641878418], [-60.39665022818203, 46.71106343849294], [-60.39669613636176, 46.71107954921919], [-60.39675444814618, 46.711100010185895], [-60.39691009103455, 46.71118275118016], [-60.39727159064657, 46.711419573580834], [-60.39741329102855, 46.711492996782], [-60.397466011914894, 46.7115121961692], [-60.39766089972666, 46.71156793000445], [-60.39776169372167, 46.71160830170625], [-60.397958712784515, 46.71168720392482], [-60.398114781570634, 46.71173395389439], [-60.398189606766756, 46.711744890106516], [-60.39824600800704, 46.71175313915606], [-60.398295790428776, 46.711766250460954], [-60.39838813277231, 46.71179057173672], [-60.3984191650979, 46.71179444564563], [-60.39846745630034, 46.71180047613459], [-60.398689785325274, 46.71180283389602], [-60.39892348554612, 46.71184054895051], [-60.39920656258013, 46.7119085367571], [-60.39927531086154, 46.711925048898046], [-60.39940524187813, 46.71197120265509], [-60.39948326957417, 46.71200807616795], [-60.399677310300234, 46.71208178681233], [-60.39992237382146, 46.712236755128686], [-60.3999616074976, 46.71226464646296], [-60.39997573145538, 46.71227295938169], [-60.39999977993447, 46.712287122796944], [-60.40003921748947, 46.71231050085857], [-60.40018049000402, 46.71241990992537], [-60.40027166880327, 46.71248319019047], [-60.400329778865185, 46.71250818061492], [-60.40033576590917, 46.71251074665597], [-60.400459374899846, 46.71259838838516], [-60.40051671879721, 46.71263905688263], [-60.40059435905859, 46.7126840296074], [-60.40063270568936, 46.71270289178225], [-60.40066549800537, 46.71271426588719], [-60.40068547213439, 46.71272119073354], [-60.400721665908556, 46.71272576631964], [-60.40076351664592, 46.71273106445861], [-60.400893388982375, 46.71272321660291], [-60.400932625206295, 46.71272410837114], [-60.40099889367608, 46.71273371428858], [-60.40101566924335, 46.71273967540545], [-60.40110181334767, 46.71277024343821], [-60.40113659999856, 46.71278096075028], [-60.40119335790074, 46.71279843220106], [-60.40140218806354, 46.71283647694633], [-60.40159708493098, 46.71289220423801], [-60.401700436644774, 46.712919751900735], [-60.4018312213422, 46.71297492203831], [-60.40191279412449, 46.71301868724241], [-60.40193456818315, 46.713030368637604], [-60.40208940451787, 46.71313018373905], [-60.402118045081934, 46.71314846491994], [-60.402204932163905, 46.71320391533402], [-60.40229271306521, 46.71327127466931], [-60.402347531950355, 46.71331334284125], [-60.402415461021874, 46.71336114464054], [-60.40243739516158, 46.71337658247511], [-60.40252807866118, 46.713422741124134], [-60.40270990862849, 46.71347816970154], [-60.4028918686344, 46.713537983824644], [-60.40302163390786, 46.71358064676812], [-60.40307221691189, 46.71359840003818], [-60.4031258632056, 46.713617212822875], [-60.40320717134266, 46.71363545676408], [-60.40329543096222, 46.71365526245922], [-60.40346463678586, 46.71370140340886], [-60.403554878039536, 46.71372954267612], [-60.40358530114733, 46.71374559601867], [-60.403658244263156, 46.713784106165335], [-60.40367174609689, 46.71380240323094], [-60.40381245767801, 46.713894830471936], [-60.40383919674996, 46.71391240206546], [-60.40384739994575, 46.71391678218614], [-60.40389022706899, 46.71393965987223], [-60.40407292298393, 46.713977106408066], [-60.40439861735067, 46.71403398902848], [-60.40468591980144, 46.71407291787449], [-60.40479248949683, 46.714103289683415], [-60.404816292029366, 46.714110075691664], [-60.40484874817643, 46.71412085597558], [-60.404985000166505, 46.71416610281907], [-60.405101884273776, 46.714211953987785], [-60.40527179210788, 46.71427599069769], [-60.40532294411814, 46.71429527683556], [-60.40539511068402, 46.714306912966876], [-60.4054398025659, 46.7143141187996], [-60.40571316203625, 46.71437071922504], [-60.405736061946165, 46.71437723257058], [-60.40584354879944, 46.71440787619421], [-60.40592159801818, 46.71444473676437], [-60.40611565701208, 46.7145454450879], [-60.40629574149091, 46.714664726614814], [-60.40639826526606, 46.7147642492849], [-60.40644931179877, 46.71481850557898], [-60.40675937160727, 46.71503792245404], [-60.40685010432853, 46.71508318778456], [-60.40696693588553, 46.715129935813714], [-60.40704415341052, 46.71515688601736], [-60.40705969905249, 46.715166697248115], [-60.407160999736675, 46.715230633450666], [-60.40741959892019, 46.715349902394905], [-60.40752384822243, 46.715386455864625], [-60.40761849919535, 46.71545374181183], [-60.407640251833726, 46.71546919252178], [-60.407665589521876, 46.715513865706036], [-60.4077129204901, 46.71557006214181], [-60.40778072951909, 46.715650563106294]]}, "properties": {"OBJECTID": 141416, "FEAT_CODE": "WALK20", "FEAT_DESC": "Lake - Water to the right line", "RIVNAME_1": "Warren Brook", "RIVNAME_2": " ", "ZVALUE": 14.1, "FID": null, "SHAPE_Length": 2399.7053546562624}}, {"type": "Feature", "id": 190997, "geometry": {"type": "LineString", "coordinates": [[-60.4055440183943, 46.72223481710486], [-60.40554574801103, 46.722207218118115], [-60.40554833719814, 46.72219416422612], [-60.40555549455674, 46.72215817461687], [-60.405546300105655, 46.72214442140021], [-60.40552626375153, 46.72211442965673], [-60.40551547556711, 46.72210280021952], [-60.405483919341926, 46.72206879421655], [-60.405440606796354, 46.72203543045157], [-60.40542354369187, 46.72202229967743], [-60.40536715247346, 46.72196776873451], [-60.40536546916936, 46.72191938389266], [-60.40536526310269, 46.72191331338664], [-60.40525934146308, 46.721884657841976], [-60.40517543639823, 46.72184880698048], [-60.40513425078878, 46.72182376212764], [-60.40508388941889, 46.72179685309723], [-60.40502732666503, 46.72175300079312], [-60.404975884715455, 46.72173306899911], [-60.40492782214057, 46.72171443783444], [-60.404847497121025, 46.72170271530023], [-60.404771873392626, 46.72169747122281], [-60.40475538675476, 46.72169633209609], [-60.40471392454236, 46.72169151224945], [-60.40470868015856, 46.72169089824469], [-60.404663765474346, 46.72164703111313], [-60.404648497826415, 46.72161748942754], [-60.404634568786506, 46.72158977806954], [-60.40463491390128, 46.7215591327554], [-60.40463519168773, 46.7215334357753], [-60.40459924263259, 46.721502632734996], [-60.40458500172542, 46.72149042086091], [-60.40454368094847, 46.72147038558529], [-60.40451655624693, 46.72145722431008], [-60.40447550251012, 46.72141335473343], [-60.404446597577646, 46.72138956933056], [-60.40441887615297, 46.72136675575611], [-60.4043649694328, 46.72130493690393], [-60.40430807462699, 46.72128247810645], [-60.404230049574394, 46.72128501794522], [-60.40420421464807, 46.72127334383079], [-60.40416171323164, 46.721238378030236], [-60.40415950221629, 46.72123263999964], [-60.40415033269822, 46.721208834512616], [-60.40414683899706, 46.721173926174615], [-60.404100302236394, 46.72114969544976], [-60.404081219233674, 46.72114021751785], [-60.40405506745164, 46.72112724021252], [-60.403998183058796, 46.721099390645264], [-60.40397777918675, 46.72107653608141], [-60.40394939156451, 46.721044707517386], [-60.40394278426012, 46.72100978248796], [-60.40393958322031, 46.72099277229], [-60.403908020957374, 46.720966559489064], [-60.40390608337512, 46.7209649405466], [-60.40390391912619, 46.720963136463396], [-60.403867405871146, 46.72093265337081], [-60.40384132079081, 46.72090084105201], [-60.40382251529705, 46.72087795074802], [-60.40381520845874, 46.72083497305171], [-60.40381572476123, 46.72078932003773], [-60.40380770486763, 46.72077564734049], [-60.40378893176003, 46.72074363201831], [-60.4037322889281, 46.72072711848618], [-60.40371758894313, 46.72072284285915], [-60.40370386051416, 46.72072204519215], [-60.403652573910655, 46.720719080852916], [-60.40361382465388, 46.72069483773761], [-60.40361076615623, 46.72069176238019], [-60.403579097449764, 46.7206598682268], [-60.4035591281035, 46.72063369354367], [-60.40354833118039, 46.72061953478794], [-60.40349153284015, 46.72057818729138], [-60.40343436347534, 46.720566377525046], [-60.403327701544875, 46.720556215853804], [-60.40328235381696, 46.72053367674424], [-60.40324018470928, 46.720515799668014], [-60.4032292066233, 46.72051114050533], [-60.40316981732157, 46.72049160340892], [-60.40315528584106, 46.72048681854966], [-60.403134656197075, 46.72046540766486], [-60.403102470886864, 46.72043201668702], [-60.403013968079335, 46.72042549799991], [-60.402948090795626, 46.72044978623542], [-60.40293675378894, 46.72045396564921], [-60.40284686324395, 46.72045917799238], [-60.4027741409593, 46.720433884035714], [-60.40260449494067, 46.72034389436934], [-60.4025306722915, 46.72030881953292], [-60.402506919344134, 46.72029740831418], [-60.40248016143575, 46.72028453387403], [-60.40239898523503, 46.72020911702908], [-60.40233804888318, 46.720175756736445], [-60.40227552901809, 46.720175641523795], [-60.402248515495614, 46.720146021683185], [-60.40223951679419, 46.72012985170674], [-60.40221406179147, 46.720084130705416], [-60.402150697120895, 46.720067004700695], [-60.40214395394586, 46.72006517756197], [-60.40206539032953, 46.72010266772167], [-60.402033907493426, 46.720121418963316], [-60.40197244827441, 46.72012837448645], [-60.401960972623286, 46.72012835676918], [-60.40191384083587, 46.72012826696243], [-60.401839820685765, 46.72010930574616], [-60.40176194953388, 46.720084974130835], [-60.40172182206838, 46.72009407913697], [-60.40170318060945, 46.72009830845989], [-60.40164472255432, 46.72008474056195], [-60.401592753503536, 46.72003089318761], [-60.40159176833764, 46.720029880830005], [-60.40159620099115, 46.71998419080641], [-60.40160042382653, 46.71995730549819], [-60.40157343073642, 46.71992645299393], [-60.40155799865752, 46.71990882281911], [-60.40148775382408, 46.71990062986305], [-60.40142925797166, 46.71988976092079], [-60.40139792272521, 46.719895087710306], [-60.40134671801031, 46.719929932155814], [-60.401334843046335, 46.719940678005734], [-60.40131116062262, 46.71996212623709], [-60.401278745092995, 46.71996624047789], [-60.4012485411676, 46.71997008097686], [-60.40120175662957, 46.719959226062855], [-60.40117871751703, 46.71992425143559], [-60.40117798300087, 46.71991829490638], [-60.401175153512625, 46.71989466025169], [-60.401175476845204, 46.71986777633751], [-60.40116451636498, 46.71984723281111], [-60.40115252588669, 46.71982470392994], [-60.40109835830489, 46.719800559547565], [-60.40108362515108, 46.71979398788894], [-60.40106461121087, 46.719748233012915], [-60.401065331721746, 46.71968639408327], [-60.40104589408339, 46.71965572216054], [-60.40103461807648, 46.71963793437424], [-60.40102765692492, 46.71963247531475], [-60.40100364444202, 46.71961367808451], [-60.400933187634465, 46.71962161652627], [-60.40088642960714, 46.71961076208416], [-60.40087491216643, 46.71960426348516], [-60.400824294207766, 46.719575699770814], [-60.40079599149339, 46.71957211356626], [-60.400751195975474, 46.71956644253347], [-60.400719192153645, 46.71955409642384], [-60.40068114964153, 46.71953942610655], [-60.40060704276415, 46.7195258349683], [-60.4005620723722, 46.7195164519876], [-60.40052904778599, 46.719509554471834], [-60.4005212687036, 46.71950477876945], [-60.40046306315295, 46.71946909460799], [-60.400447923792086, 46.71946716650558], [-60.400420129229275, 46.71946362775788], [-60.40038186074548, 46.71946509776203], [-60.400353647596816, 46.71946618435591], [-60.400331380457324, 46.71945164754413], [-60.40025758450163, 46.71941117198165], [-60.400246810009484, 46.71940882109582], [-60.40022154360457, 46.71940332382908], [-60.40013035574335, 46.7193694006066], [-60.399999918490394, 46.71932087832364], [-60.39989940740616, 46.71928572597163], [-60.39988348730144, 46.71927717422292], [-60.39981147689214, 46.719238493919576], [-60.399715698167476, 46.71919391826675], [-60.3996854362977, 46.71915814011485], [-60.399665562815265, 46.71913464884592], [-60.3996811114678, 46.719122888732684], [-60.399701072596386, 46.719107809043635], [-60.39972129144847, 46.719096623105294], [-60.399764067969805, 46.719072963434314], [-60.39976301235732, 46.7190633456934], [-60.39976054249399, 46.71904068215003], [-60.39972506955582, 46.719006054483955], [-60.39972189502792, 46.71900294938329], [-60.39966069136956, 46.71896241776597], [-60.39964039971144, 46.71894898770867], [-60.39962696864287, 46.718938476576554], [-60.399578403958884, 46.71890043725307], [-60.39957882902564, 46.71886546487134], [-60.399575789781125, 46.718860634889836], [-60.399561044797, 46.71883717022362], [-60.399553310489736, 46.718835005401516], [-60.39942994429578, 46.71880057487453], [-60.39933796595997, 46.7187613501803], [-60.39931326536471, 46.718748719772925], [-60.39927718566432, 46.71873025972621], [-60.399257655380744, 46.71873039154708], [-60.39913383391429, 46.71873129238398], [-60.39910047670255, 46.7186948586902], [-60.39911404187828, 46.71866121113528], [-60.399121349143485, 46.7186417758615], [-60.39912616623801, 46.71862895277075], [-60.399126275173636, 46.71861988349482], [-60.39912655427318, 46.71859666147356], [-60.399125349289505, 46.71858579836233], [-60.39912430826842, 46.718576423939794], [-60.39906198716076, 46.718552075141965], [-60.39888433839879, 46.718472283598054], [-60.39883977315966, 46.71845613233419], [-60.39879473208811, 46.718439808233754], [-60.3987447682196, 46.71842299414748], [-60.39871815130713, 46.71841402791923], [-60.39869277581073, 46.71839829510792], [-60.39864183397995, 46.718366717129975], [-60.39857233952664, 46.718334537092886], [-60.39854841544574, 46.718323454141384], [-60.39845870789021, 46.71829635806264], [-60.398326116128175, 46.718255713621886], [-60.39820486057102, 46.71825008400321], [-60.39814398399511, 46.718252577841014], [-60.39807952812999, 46.71825521520179], [-60.397975372443696, 46.718240128673166], [-60.397915832172906, 46.71820641077575], [-60.397870405665266, 46.71818069979234], [-60.39781217325711, 46.718140198784326], [-60.39775316146735, 46.718100939976814], [-60.397722869620324, 46.7180807841902], [-60.39770104669764, 46.71806574398194], [-60.397662049268035, 46.71803886525032], [-60.39761539081511, 46.718011839164355], [-60.39759598012702, 46.71799833879033], [-60.3975859703746, 46.7179926121468], [-60.39752989810612, 46.71796052992514], [-60.3974286441588, 46.71791724069493], [-60.397342900449516, 46.71788475309386], [-60.39730174822945, 46.71782896297499], [-60.39729410758166, 46.71781860135177], [-60.39727901184538, 46.717772809003144], [-60.397187637304654, 46.71766617012243], [-60.397160677047026, 46.71765157086548], [-60.39715002821498, 46.71764580263793], [-60.39707190808439, 46.71762948091915], [-60.397054805313026, 46.71762023587035], [-60.39703689896334, 46.71761055853914], [-60.39701297510463, 46.71758942253902], [-60.39699554083982, 46.717574014101466], [-60.39698018798228, 46.717553694172516], [-60.39696087237943, 46.71752816317708], [-60.39694579207163, 46.71751985512413], [-60.39684807065045, 46.717465999069404], [-60.39679390288409, 46.7174120364243], [-60.39678255667094, 46.71737970300072], [-60.39682580667588, 46.717366323927116], [-60.39684963245675, 46.71733946202536], [-60.396831294117526, 46.71730586247035], [-60.3968304871417, 46.71730441313904], [-60.39677984143706, 46.71728276779456], [-60.396697758867, 46.71726912754129], [-60.39666666637485, 46.71726236288324], [-60.39663527585197, 46.71725553743331], [-60.39661019297478, 46.717250061540106], [-60.39656621766434, 46.71724044763694], [-60.396485535368726, 46.71721457243882], [-60.39645857901998, 46.717196094207246], [-60.39645181455075, 46.7171914583209], [-60.396410406586625, 46.717154876533634], [-60.396360909714225, 46.71713981798201], [-60.3962917755255, 46.71712739921679], [-60.39624232920821, 46.71710694190947], [-60.396161533146575, 46.7170864277469], [-60.39605181085915, 46.71708618830377], [-60.396015045256306, 46.71708582811258], [-60.39599317479437, 46.71705194999603], [-60.395994765370794, 46.717020811050624], [-60.395989565129646, 46.71699754525586], [-60.39598478378202, 46.71697617894882], [-60.39593143734409, 46.71695030483833], [-60.395889714056636, 46.71693523410299], [-60.39588241088178, 46.71692575304457], [-60.39586775528511, 46.71690672680652], [-60.395868358150906, 46.71689556283436], [-60.39586930845487, 46.71687826893842], [-60.39582522390539, 46.71686631232337], [-60.39582360950881, 46.7168658705703], [-60.39581878977708, 46.71686432985095], [-60.39577285003241, 46.71684959504122], [-60.39572447547549, 46.71683297781282], [-60.395690602271124, 46.716815214853874], [-60.39568400990807, 46.71679803717666], [-60.39567655720212, 46.71677861696515], [-60.395677325610905, 46.71676455884126], [-60.39567811176425, 46.716750132131324], [-60.395640402349464, 46.71672426300629], [-60.395599021835004, 46.71672300560089], [-60.395586700701244, 46.71672262599497], [-60.395576037242066, 46.716720430190385], [-60.39555266243162, 46.716715631947245], [-60.395516778000236, 46.71669452921862], [-60.39550203003082, 46.71668585055209], [-60.39544980640112, 46.71665840882918], [-60.39541481114403, 46.71663405940712], [-60.3953706411151, 46.71658773958634], [-60.395313281727525, 46.716561791782354], [-60.39525049216351, 46.71656165757075], [-60.39522796398941, 46.71656237739834], [-60.395216300157685, 46.71656275070451], [-60.395192434113454, 46.71654859044768], [-60.39518630147054, 46.7165449678506], [-60.39518574453256, 46.716544577174666], [-60.39516021619297, 46.716527166132735], [-60.39512411982557, 46.71649335079101], [-60.395117421275806, 46.7164870783699]]}, "properties": {"OBJECTID": 190997, "FEAT_CODE": "WARV50", "FEAT_DESC": "River - Single Line", "RIVNAME_1": " ", "RIVNAME_2": " ", "ZVALUE": 9999, "FID": null, "SHAPE_Length": 1167.4970057177213}}, {"type": "Feature", "id": 191000, "geometry": {"type": "LineString", "coordinates": [[-60.39456879852922, 46.71808425002698], [-60.39457199070888, 46.718025311341805], [-60.39456547057642, 46.718017234003554], [-60.39452290560151, 46.71796447960745], [-60.394477453766974, 46.71792792198321], [-60.39442808986876, 46.71788863827616], [-60.394324247985146, 46.71788527324813], [-60.394292016478005, 46.71788422383704], [-60.394280954305394, 46.71788541173625], [-60.39420672838034, 46.717893386140624], [-60.394141663687705, 46.717854068530634], [-60.39414342859843, 46.71780140616169], [-60.39414406026317, 46.71778910888573], [-60.394144875552556, 46.7177729998964], [-60.39414828959729, 46.71774423346628], [-60.39415048971784, 46.717725726098315], [-60.394144762229196, 46.71764605571693], [-60.39414960295953, 46.717573276976466], [-60.39416682456363, 46.717530335567496], [-60.39416805974186, 46.717527240797146], [-60.39417784369486, 46.717514828082166], [-60.39420106227725, 46.71748538796247], [-60.39421018636983, 46.71747825206692], [-60.39423388739257, 46.71745971264209], [-60.39428058075066, 46.717433813329755], [-60.39431403138563, 46.71741525304934], [-60.39440243710178, 46.71736824571701], [-60.39441785364579, 46.71736005621004], [-60.39446079252534, 46.71731701673539], [-60.394494505991624, 46.71728321679867], [-60.39450601685265, 46.717238480267646], [-60.39450804961652, 46.7172305077968], [-60.39450857211401, 46.71719004778421], [-60.39450435559372, 46.71714691486589], [-60.394502618392394, 46.7171291907583], [-60.39451735470157, 46.71709763136379], [-60.39453604372266, 46.717057630253294], [-60.39464789691907, 46.7169916184735], [-60.394665469735514, 46.71693349339494], [-60.39463409515671, 46.716899992469536], [-60.39460074105455, 46.71686439449011], [-60.39465797459798, 46.71677395489229], [-60.394702680548896, 46.716742844266214], [-60.39471508607062, 46.71673848301667], [-60.39479846474753, 46.71670915337467], [-60.39483428827536, 46.71666875058425], [-60.394875212348175, 46.716646607493146], [-60.39490662458954, 46.71662960255975], [-60.39491846392166, 46.716627487329724], [-60.39498136856051, 46.71661626664827], [-60.39503768521866, 46.716601367956066], [-60.39506323816272, 46.7165351178188], [-60.39508731247158, 46.7164946813039], [-60.395117421275806, 46.7164870783699]]}, "properties": {"OBJECTID": 191000, "FEAT_CODE": "WARV50", "FEAT_DESC": "River - Single Line", "RIVNAME_1": " ", "RIVNAME_2": " ", "ZVALUE": 9999, "FID": null, "SHAPE_Length": 237.37528560756536}}, {"type": "Feature", "id": 191001, "geometry": {"type": "LineString", "coordinates": [[-60.395117421275806, 46.7164870783699], [-60.39513572808065, 46.71648244650926], [-60.395176434171454, 46.71646210729674], [-60.39529991421269, 46.71641764414862], [-60.395311723018, 46.71640039958624], [-60.39532391199888, 46.716382596697], [-60.39538838679626, 46.7163460952307], [-60.3954247280777, 46.71636884636297], [-60.39542734492538, 46.7163704809224], [-60.39548312769044, 46.71640145062675], [-60.39548692213521, 46.71640145604942], [-60.39550276652827, 46.71640149292121], [-60.395579170515916, 46.71635421133369], [-60.39558403945628, 46.71634766240002], [-60.39558717377973, 46.71634344089771], [-60.395621172180824, 46.716325981680626], [-60.395663489150834, 46.716304248019725], [-60.3956941711474, 46.71628718124067], [-60.395750506370284, 46.71625584905892], [-60.395822986538334, 46.71621124087666], [-60.39588047954214, 46.716107198936406], [-60.3959096635433, 46.71606633862044], [-60.395932463648045, 46.716034413683275], [-60.395946656994404, 46.71602742908288], [-60.39602855814743, 46.71598716618951], [-60.39616308615106, 46.71590914158135], [-60.39633305625191, 46.71582116005771], [-60.396373891405666, 46.71580002237881], [-60.39643152320486, 46.71577517220955], [-60.3964896763914, 46.715750090888015], [-60.39674580621461, 46.715685849716834], [-60.39692834533127, 46.71564146028186], [-60.39726263282903, 46.715609812203226], [-60.39730027579506, 46.71560769003063], [-60.397597153731624, 46.715590984116766]]}, "properties": {"OBJECTID": 191001, "FEAT_CODE": "WARV50", "FEAT_DESC": "River - Single Line", "RIVNAME_1": " ", "RIVNAME_2": " ", "ZVALUE": 9999, "FID": null, "SHAPE_Length": 231.80021197747422}}, {"type": "Feature", "id": 191002, "geometry": {"type": "LineString", "coordinates": [[-60.39667133989888, 46.71911445728648], [-60.39666950345727, 46.71909279806612], [-60.396667926421124, 46.7190741776688], [-60.39660219655257, 46.71902033872572], [-60.39654442263238, 46.718992879160574], [-60.396528431153214, 46.718985279291495], [-60.396520975130876, 46.71897978168982], [-60.396475494638985, 46.71894622113792], [-60.39644507619683, 46.71894092972992], [-60.39642871205418, 46.71893808223336], [-60.396382868793935, 46.71892837173886], [-60.39633255613562, 46.71891772248946], [-60.39623633539296, 46.718900070115026], [-60.39619894556702, 46.71888274923218], [-60.396178067850784, 46.718873085110964], [-60.39615001694513, 46.71885259294418], [-60.39610066555046, 46.71881654116765], [-60.396086516943605, 46.71880001944091], [-60.39607873565505, 46.718790950500086], [-60.396080816558936, 46.718782790104704], [-60.396082847861315, 46.71877484457399], [-60.39605196412348, 46.71874524312307], [-60.396043822161005, 46.71874176381569], [-60.39600147124803, 46.71872366391872], [-60.395981969747325, 46.718710422196416], [-60.39597165506665, 46.71870341950262], [-60.395962448067216, 46.71869270713212], [-60.39593698422863, 46.71866305807178], [-60.39590251518243, 46.718609264588224], [-60.39590097405162, 46.7186078435314], [-60.39586892412364, 46.71857827847186], [-60.39580381382093, 46.7185281790702], [-60.395795409956406, 46.71852171486111], [-60.395752965881535, 46.71847864742307], [-60.395739406717354, 46.718464020024726], [-60.39571171396377, 46.718434194156494], [-60.395652701902485, 46.71837240786364], [-60.3956499978704, 46.71836959235635], [-60.39563883400703, 46.71836229130013], [-60.39557366425203, 46.71831968720848], [-60.395547387933256, 46.71829604939225], [-60.39553617441971, 46.718285975269794], [-60.39551818208111, 46.71825498431716], [-60.39547206513357, 46.71819308662675], [-60.395462898617104, 46.718172025415534], [-60.39545039913999, 46.71814327449789], [-60.39545062897126, 46.71812464123435], [-60.39545087525099, 46.7181056663546], [-60.395408156634815, 46.71808407495328], [-60.39535084397232, 46.71807179887397], [-60.39531198434653, 46.718067898857385], [-60.39530904149686, 46.71806759783448], [-60.395306754459234, 46.71806753674285], [-60.39525777368332, 46.71806593510974], [-60.39518257163177, 46.71806265621693], [-60.39512823048433, 46.718081064887436], [-60.39511965570746, 46.7180835874928], [-60.39510581068203, 46.7180876730026], [-60.39507288164165, 46.71808860586956], [-60.39506389267607, 46.718088860096685], [-60.39502040964975, 46.718084503673154], [-60.39499692292457, 46.71808446364116], [-60.39495198123373, 46.71810305934532], [-60.39494308485945, 46.71810546661434], [-60.39491776068951, 46.718112332521834], [-60.39486346579978, 46.71811999640941], [-60.394862004415536, 46.71811990911923], [-60.394813182656094, 46.71811690695586], [-60.394761192569, 46.718102798888204], [-60.394736805856624, 46.71809617747584], [-60.394660790546624, 46.71808777684901], [-60.394626656918604, 46.71808627920821], [-60.394595409090634, 46.71808518029616], [-60.39456879852922, 46.71808425002698]]}, "properties": {"OBJECTID": 191002, "FEAT_CODE": "WARV50", "FEAT_DESC": "River - Single Line", "RIVNAME_1": " ", "RIVNAME_2": " ", "ZVALUE": 9999, "FID": null, "SHAPE_Length": 224.45996858289436}}, {"type": "Feature", "id": 191130, "geometry": {"type": "LineString", "coordinates": [[-60.39600815041942, 46.72265831055674], [-60.39599240424772, 46.72264695430865], [-60.39598351346611, 46.72264053302982], [-60.39595372013022, 46.72262330406269], [-60.39591595223853, 46.72260318457047], [-60.3958658337723, 46.722576474994334], [-60.395812879622945, 46.722540440076045], [-60.39581098526552, 46.722535753065046], [-60.39580002471439, 46.72250872020482], [-60.3958061104074, 46.72242717704112], [-60.395783981909325, 46.722295069742955], [-60.39578184541951, 46.72224567544747], [-60.39578629370473, 46.72220275793018], [-60.39578616264008, 46.72220031601259], [-60.395784084825245, 46.72216138976478], [-60.39577964790846, 46.722144279192264], [-60.395774039175556, 46.722122696056374], [-60.39572955160148, 46.72210624836927], [-60.3957053143107, 46.722097299639195], [-60.39564428893522, 46.722079962311014], [-60.39561257383718, 46.722070582269595], [-60.3955727432471, 46.72205879445458], [-60.395533149171634, 46.722049432945695], [-60.39546497209572, 46.72203331860424], [-60.39543525950287, 46.722027467025605], [-60.39537659910392, 46.7220159162603], [-60.395338856614885, 46.72200397792782], [-60.39528290664938, 46.72195054999988], [-60.3952716966198, 46.721939845955035], [-60.395219132292, 46.72186611966917], [-60.39514726925421, 46.72177356727352], [-60.39509969961424, 46.72174096657596], [-60.39507098168898, 46.72172125993935], [-60.39501405544604, 46.721682407237665], [-60.39498597447233, 46.72165790022066], [-60.39495725369197, 46.72163282063714], [-60.394955083938065, 46.72158331756482], [-60.39491841859436, 46.72152701684419], [-60.394914043973536, 46.7215203023703], [-60.394855736298254, 46.7215101363324], [-60.39481384488469, 46.72150283717901], [-60.394731400054496, 46.721512352649135], [-60.394709371015125, 46.721514892700945], [-60.39461270683168, 46.721524291132646], [-60.39449656896633, 46.72152827793315], [-60.39447560306024, 46.7215247763282], [-60.394408004880745, 46.72151350740962], [-60.394343340698036, 46.72146116742766], [-60.394313799209606, 46.72141157165013], [-60.3942698878581, 46.721347329825974], [-60.394245300321366, 46.72129921487252], [-60.39424330951258, 46.721233516302455], [-60.39422591439386, 46.72119800289177], [-60.394217681173444, 46.72118120174019], [-60.39414523167122, 46.721123419386174], [-60.394075263181854, 46.72109372775725], [-60.394043028143074, 46.72102942792554], [-60.393958854529366, 46.72096891234946], [-60.39389713953979, 46.72090427365314], [-60.39391322186244, 46.72086925311935], [-60.393922360363035, 46.720849337925], [-60.39397996022483, 46.72079052319075], [-60.39405197934358, 46.720746409620965], [-60.39417615338177, 46.72068233503605], [-60.394211956900506, 46.72063399421541], [-60.39421786225669, 46.72059344988455], [-60.3942228891879, 46.720558915372976], [-60.39420446110615, 46.720505189912366], [-60.394197529386965, 46.720485007506866], [-60.394173205451565, 46.72046239484428], [-60.39412795240902, 46.720420315778505], [-60.3941064436147, 46.720382188673945], [-60.3940983903548, 46.720367902544], [-60.39409346108336, 46.72031539364192], [-60.39409245540999, 46.720304760013384], [-60.39408924771843, 46.72029908907002], [-60.39404759877516, 46.72022539496025], [-60.39404697332875, 46.72013407818613], [-60.39402653350212, 46.72007621196037], [-60.393998925536515, 46.71999818492273], [-60.39399039446391, 46.719972089215574], [-60.39397735541612, 46.71993227414662], [-60.39396527446005, 46.71981933989149], [-60.39398580918664, 46.7197440479009], [-60.3940005337155, 46.71967690327706], [-60.39402145860884, 46.71965407975013], [-60.394117072507846, 46.71960720090554], [-60.39416583945206, 46.71955215368471], [-60.39417318684473, 46.71953681452864], [-60.394187055113875, 46.71950780933561], [-60.39419482125692, 46.71950007551451], [-60.39423969663638, 46.719455451301485], [-60.39427772400577, 46.719407107128916], [-60.39436575580646, 46.7193440267441], [-60.39444571082541, 46.719302460679586], [-60.39454570784243, 46.71922324622042], [-60.3945590385832, 46.71918692093238], [-60.394559342013295, 46.719162691500706], [-60.3945599877125, 46.71911152459518], [-60.39455000812826, 46.71905899063811], [-60.39448939575639, 46.718984801620984], [-60.39446356439385, 46.71896822950467], [-60.394428340345925, 46.718945620530874], [-60.39434088543036, 46.718822887124524], [-60.394300229165886, 46.718719093520285], [-60.39430546050079, 46.71865015758131], [-60.39430625648883, 46.718639610003166], [-60.39430714075006, 46.71862994641264], [-60.3943120680785, 46.71857628513395], [-60.39435696646291, 46.718521113679536], [-60.39443034081901, 46.71846998393497], [-60.39452076037011, 46.71840130598302], [-60.3945960623033, 46.71835416194352], [-60.39460879913398, 46.71834619035122], [-60.39462894507702, 46.7183031175083], [-60.39461051806658, 46.71826513269628], [-60.39459947129005, 46.71824236362176], [-60.39456685977508, 46.71811961090369], [-60.39456764192938, 46.71810527410977], [-60.39456879852922, 46.71808425002698]]}, "properties": {"OBJECTID": 191130, "FEAT_CODE": "WARV50", "FEAT_DESC": "River - Single Line", "RIVNAME_1": " ", "RIVNAME_2": " ", "ZVALUE": 9999, "FID": null, "SHAPE_Length": 645.1031073810727}}, {"type": "Feature", "id": 282122, "geometry": {"type": "LineString", "coordinates": [[-60.40958551922281, 46.72027066838216], [-60.4095761409116, 46.720274127843105], [-60.40951748137931, 46.72026964016344], [-60.40943111460598, 46.72026304883992], [-60.40934902821488, 46.72023320906944], [-60.409274338251954, 46.72019402406802], [-60.409186933653466, 46.7201481791408], [-60.409001148789024, 46.71999823702284], [-60.408992417705505, 46.719991190392946], [-60.40895992437599, 46.7199600620301], [-60.40883703095704, 46.71984237771829], [-60.40876466885819, 46.71974915662768], [-60.40871317303558, 46.71968283157774], [-60.408467344884926, 46.719555449341605], [-60.408341151084414, 46.7195077797492], [-60.40824460957077, 46.71947132075724], [-60.40814277478321, 46.71945493715405], [-60.40805927505485, 46.719445619846226], [-60.407970333780014, 46.71943571115198], [-60.407829433356696, 46.71940303422513], [-60.40775954935795, 46.71937010399081], [-60.40768997270319, 46.71933731567665], [-60.40761081096301, 46.71930001715262], [-60.40754897771419, 46.719210786854006], [-60.40745487181135, 46.71915356598027], [-60.40742424055031, 46.71913494404309], [-60.407284239018104, 46.71901856213011], [-60.40722899025452, 46.71893667173794], [-60.40721858108752, 46.718921235154355], [-60.407168499809835, 46.718834737022185], [-60.407110056440985, 46.718794109998306], [-60.4070828169232, 46.71877516888177], [-60.40704061137937, 46.71868598734273], [-60.407084874170636, 46.71858347581029], [-60.40708701015367, 46.718573858507405], [-60.40711373443405, 46.71845394876389], [-60.407245684533066, 46.7182220199348], [-60.40726695477637, 46.71817111359435], [-60.40729630878964, 46.71810088806133], [-60.40730205757444, 46.71808714977886], [-60.40724429978588, 46.71798445806625], [-60.40722845194454, 46.71796510027693], [-60.407151365798036, 46.71787089804359], [-60.407087464821, 46.71781529766523], [-60.40702699281732, 46.717762690920345], [-60.40698835425196, 46.71773096365352], [-60.406875345379234, 46.71763820562284], [-60.40672056606254, 46.71756295874832], [-60.40668020878076, 46.71754334206745], [-60.4066172334807, 46.717513213716735], [-60.40650457445333, 46.717459306185], [-60.40629758920296, 46.71737251602612], [-60.40609883213716, 46.717325088055844], [-60.40604750260945, 46.71728515281882], [-60.40597016193558, 46.7172249720694], [-60.4059025478088, 46.71719090420024], [-60.405863681219415, 46.717171321043615], [-60.405788733395994, 46.71713355884038], [-60.4054140731707, 46.71686947491876]]}, "properties": {"OBJECTID": 282122, "FEAT_CODE": "WARV50", "FEAT_DESC": "River - Single Line", "RIVNAME_1": "Warren Brook", "RIVNAME_2": " ", "ZVALUE": 9999, "FID": null, "SHAPE_Length": 548.7340457072595}}, {"type": "Feature", "id": 295909, "geometry": {"type": "LineString", "coordinates": [[-60.402018775689285, 46.72187493772623], [-60.40195319460935, 46.72183471290853], [-60.40188885351143, 46.72181716859566], [-60.40186132695221, 46.72180965840237], [-60.401753634606564, 46.7218086426036], [-60.401661461481204, 46.72180765532825], [-60.40164130994939, 46.72180762044824], [-60.40157984792961, 46.72180751089578], [-60.40156994652463, 46.72180304703423], [-60.40154226626759, 46.72179056540932], [-60.401485408664705, 46.72175754034379], [-60.40142858877256, 46.72172182518111], [-60.40138144709894, 46.72167996709077], [-60.401364239544044, 46.72166469048361], [-60.401328257047076, 46.721656682018526], [-60.4012877429227, 46.721647661588584], [-60.40126676782283, 46.72162255262097], [-60.40126087720566, 46.721615506950045], [-60.40123063777772, 46.72159201439564], [-60.40120799266055, 46.7215744272566], [-60.40120586155725, 46.721573568849344], [-60.40118582091433, 46.72156550863088], [-60.40115382364821, 46.72156144256962], [-60.401136381566445, 46.72155921923649], [-60.40111837715688, 46.721526212972684], [-60.40111986528992, 46.72148788985308], [-60.40111026994707, 46.721465892391976], [-60.40110195951365, 46.72144684005031], [-60.40105281282443, 46.72141376501116], [-60.40100703364492, 46.72138931624741], [-60.40099584371103, 46.721383347092015], [-60.40093470771302, 46.721377007773036], [-60.40088140487779, 46.7213653386061], [-60.40084267243873, 46.72134920370903], [-60.400780460601126, 46.72134373983036], [-60.40077319823666, 46.72134372776023], [-60.40072597390803, 46.72134363536264], [-60.40066863673293, 46.721342665099954], [-60.400628042206506, 46.721339681440384], [-60.40061909677704, 46.72133901912088], [-60.40058368741342, 46.721371099340686], [-60.400579994454, 46.72140709540066], [-60.40057928569763, 46.721413946100434], [-60.400533557920106, 46.721415660592086], [-60.400503540225394, 46.72141560823632], [-60.40050241472662, 46.72141560965149], [-60.400425543321, 46.72141728214068], [-60.400393748603015, 46.72147080987957], [-60.40037431508286, 46.721468091172326], [-60.40035608824087, 46.721448435361346], [-60.400337973451435, 46.721431077031234], [-60.40032527519361, 46.7214189176916], [-60.400274834494205, 46.72140542335822], [-60.40023723330807, 46.72137501336748], [-60.400195006456464, 46.7213240417687], [-60.40013334624744, 46.721270351408904], [-60.400103741334256, 46.72125953562946], [-60.40005966889141, 46.72124342305756], [-60.400004671519135, 46.72120467070041], [-60.399999988270366, 46.721201369311395], [-60.39995382796938, 46.72114484534184], [-60.39989985699107, 46.72107875702324], [-60.39987235296116, 46.721040575705196], [-60.39984421373892, 46.721001452963286], [-60.3997761249835, 46.720946482270726], [-60.39971633248669, 46.720898872982175], [-60.39970032577044, 46.72088612535696], [-60.399698676971354, 46.72088612386493], [-60.39969642642868, 46.7208861176899], [-60.39964006106815, 46.72082847056652], [-60.39958809364128, 46.72079094787045], [-60.39955643779292, 46.720768088640206], [-60.39943776964582, 46.7207022658396], [-60.3993344514177, 46.72065523249086], [-60.39926311701423, 46.72063539470948], [-60.399203701499886, 46.72061887886863], [-60.39915476282362, 46.720588048673314], [-60.39909300422736, 46.720534265506416], [-60.39906143072814, 46.72047269107205], [-60.39905398684595, 46.72045795116763], [-60.39903231192332, 46.72041504235242], [-60.39897444030513, 46.72036125752817], [-60.398955897811845, 46.72035144903899], [-60.39889302282089, 46.72031816880629], [-60.39879975968541, 46.720288472207386], [-60.39869758720189, 46.72025356000672], [-60.39862161335154, 46.720195790322244], [-60.39853746818233, 46.720167524888275], [-60.39852474265469, 46.720158667633825], [-60.39847554863377, 46.72012445642697], [-60.39846565816742, 46.720102092032185], [-60.398456547426115, 46.72008147332741], [-60.398425533885785, 46.72006459522815], [-60.39839974877191, 46.72005056299174], [-60.398350437372, 46.720043825308785], [-60.39826630466846, 46.72001286003084], [-60.39821730375871, 46.71997926508808], [-60.398167979377796, 46.71997252703071], [-60.39813277377524, 46.71996363525331], [-60.39812515884386, 46.719961707044774], [-60.39811760825449, 46.719940214833926], [-60.39810669439944, 46.719875744271356], [-60.39807083324927, 46.71985763081054], [-60.39806401123004, 46.719854181680766], [-60.39797599041611, 46.71981781786646], [-60.39793740601992, 46.71978014893154], [-60.397915962722536, 46.71972510449886], [-60.3978864170789, 46.71969132211378], [-60.39787360298721, 46.719676693927646], [-60.397863812932954, 46.719663673508705], [-60.39783519389251, 46.71962559231204], [-60.39779555904533, 46.719610578806964], [-60.397749691297285, 46.71959320051571], [-60.39766788855879, 46.71957693041317], [-60.39760292877259, 46.71956743337133], [-60.39749394223691, 46.7195403748005], [-60.397427953391166, 46.71953839603452], [-60.397337337695305, 46.719572296755025], [-60.39730491202563, 46.71957362871329], [-60.39727483353306, 46.71957486108759], [-60.39724046831986, 46.71955694340674], [-60.397228276904, 46.71955059109471], [-60.39720546503137, 46.71949952926668], [-60.39714340892829, 46.71946450274769], [-60.39709504070537, 46.71944769726223], [-60.3970812045978, 46.719442891455934], [-60.39702302395571, 46.71941054501131], [-60.39695807275635, 46.719387008178636], [-60.39693360990729, 46.71937814456651], [-60.39687906627935, 46.71936730025419], [-60.3968523068703, 46.719321593346855], [-60.3968294088634, 46.71927858426152], [-60.396820255143886, 46.71927029410882], [-60.39679078821925, 46.719243596035454], [-60.39677447991851, 46.719219465437746], [-60.39675626659691, 46.71919250154693], [-60.39670997166799, 46.71914676388], [-60.39667551652633, 46.71911794527535], [-60.39667133989888, 46.71911445728648]]}, "properties": {"OBJECTID": 295909, "FEAT_CODE": "WARV55", "FEAT_DESC": "River - Single Line Indefinite", "RIVNAME_1": " ", "RIVNAME_2": " ", "ZVALUE": 9999, "FID": null, "SHAPE_Length": 575.9220957102095}}]}