{"type": "FeatureCollection", "features": [{"type": "Feature", "id": 17780, "geometry": {"type": "LineString", "coordinates": [[-60.337063320458796, 46.684157999975405], [-60.33706330058911, 46.68418499898732], [-60.3370209790585, 46.68430101108507], [-60.33701424254232, 46.6843058311002], [-60.33700878075755, 46.68430972682109], [-60.33695648654079, 46.68430940889811], [-60.336890278705944, 46.68429976707496], [-60.33687053605124, 46.68429223339869], [-60.33672210896966, 46.68423555140127], [-60.336694483538714, 46.6842284910775], [-60.336683363184726, 46.68422565811157], [-60.33665293275336, 46.68422564230503], [-60.33664413197859, 46.684225635309865], [-60.3366145320808, 46.68423824759309], [-60.33660406031058, 46.68424270158531], [-60.336564366407785, 46.68427867627853], [-60.336551283789255, 46.68430537101724], [-60.336549515283906, 46.68434132912265], [-60.33657063221375, 46.68438553315257], [-60.33657560006153, 46.68439593566877], [-60.33663918842058, 46.68443251613428], [-60.33665873414982, 46.68444139523723], [-60.33667884225803, 46.6844505394309], [-60.33686047301787, 46.684506968838114], [-60.33689991523009, 46.68451281036598], [-60.33692537484322, 46.68451658026069], [-60.337134508314016, 46.684518750835615], [-60.33715451098511, 46.6845233925775], [-60.33717329815609, 46.684527754014475], [-60.33717409501768, 46.684528303561265], [-60.33721251022787, 46.68455476666149], [-60.33723113215789, 46.68457844686368], [-60.33726297265991, 46.68461894056226], [-60.33729257548874, 46.68464643139648], [-60.33730174327711, 46.684654933722236], [-60.33732743907446, 46.68466454091299], [-60.33738122303652, 46.68467765510599], [-60.337404961787115, 46.68468344578117], [-60.33762720275544, 46.684685020687], [-60.337676863885264, 46.684674531204855], [-60.337746136159446, 46.68465989039494]]}, "properties": {"OBJECTID": 17780, "FEAT_CODE": "WACOIS10", "FEAT_DESC": "Coastal Island - Water to the right line", "RIVNAME_1": " ", "RIVNAME_2": " ", "ZVALUE": 0.5, "FID": null, "SHAPE_Length": 171.68368852736975}}, {"type": "Feature", "id": 17781, "geometry": {"type": "LineString", "coordinates": [[-60.345783549668816, 46.68476754239405], [-60.345888535970396, 46.68476007952565], [-60.34599268517042, 46.68476969678991], [-60.3461229598373, 46.68477992031872], [-60.346317000196535, 46.68478241675627], [-60.34638434629232, 46.68478328669899], [-60.34641919199089, 46.68477940645572], [-60.34668546459453, 46.684749775200544], [-60.3467399898183, 46.68467814187451], [-60.34680752242463, 46.68458071086001], [-60.34683465683605, 46.68454417121045], [-60.34686072798121, 46.68450904685467], [-60.34688367396451, 46.684480320851335], [-60.34696800408548, 46.68437474765842], [-60.34704369688969, 46.6843186800138], [-60.34707521979495, 46.68429532786449], [-60.34711410816191, 46.684258835856454], [-60.347208153598885, 46.6841706235457], [-60.347301440072386, 46.68408188056013], [-60.34734202225704, 46.68400092365591], [-60.34736861275934, 46.68391059733092], [-60.347384380323156, 46.683857009188344], [-60.347400994789986, 46.683731397122905], [-60.34738972345064, 46.68364112843595], [-60.3473734507746, 46.68360143971622], [-60.347364023837194, 46.68357844247733], [-60.347378876970005, 46.683488788835334], [-60.3473707004011, 46.683442934057425], [-60.34736759054591, 46.68342552825718], [-60.34736465474463, 46.68341871928447], [-60.34735584910629, 46.683398256407514], [-60.347346518160094, 46.68339492600323], [-60.34732885840534, 46.68338863043413], [-60.347315751982315, 46.68338922636067], [-60.347291728469635, 46.68339431192395], [-60.347277443780484, 46.68339733746248], [-60.34721163438237, 46.68340571051068], [-60.347158901738084, 46.68338739644292], [-60.34710750415445, 46.68334209586068], [-60.34699256896637, 46.68325933079402], [-60.34697812106595, 46.68324806979111], [-60.346864089254765, 46.68315915167532], [-60.34681269125112, 46.68311386894771], [-60.34678705856474, 46.68307732888854], [-60.3467874628697, 46.68306827544903], [-60.34681360202757, 46.68304189150406], [-60.34683201903527, 46.68301163844695], [-60.34684062283891, 46.68299751036626], [-60.3468390023837, 46.68299722077145], [-60.346788770043084, 46.682988207362925], [-60.34674958317916, 46.68298729807715], [-60.34664545029188, 46.682977681870966], [-60.34661518161183, 46.68296663868866], [-60.34659276274548, 46.682958459603576], [-60.3464903938506, 46.682885885432825], [-60.34642637507314, 46.682831300823715], [-60.34638808446633, 46.68278541309979], [-60.34635663682048, 46.682751995928015], [-60.34631101891352, 46.68270352617664], [-60.34625032615202, 46.68266060142818], [-60.34624656003665, 46.682657931073436], [-60.34622797950474, 46.6826536209232], [-60.3462077698776, 46.68264893096736], [-60.34614285533679, 46.682639324521304], [-60.34607699250436, 46.68260824045051], [-60.34602654441366, 46.68258442598833], [-60.34600042004827, 46.682583819629265], [-60.3459679129293, 46.682612323539836], [-60.345959427292115, 46.6826197674302], [-60.34595891767512, 46.68265978681424], [-60.34595851541197, 46.682691744848476], [-60.34597066575072, 46.68276402545195], [-60.34596978467084, 46.682782004647024]]}, "properties": {"OBJECTID": 17781, "FEAT_CODE": "WACOIS10", "FEAT_DESC": "Coastal Island - Water to the right line", "RIVNAME_1": " ", "RIVNAME_2": " ", "ZVALUE": 0.5, "FID": null, "SHAPE_Length": 412.8916209945042}}, {"type": "Feature", "id": 17782, "geometry": {"type": "LineString", "coordinates": [[-60.337746136159446, 46.68465989039494], [-60.33777560355603, 46.68466008148379], [-60.33779841767252, 46.68466020765963], [-60.33780850620474, 46.68466727341005], [-60.33785026390791, 46.684696514062004], [-60.33788648524854, 46.68470696016882], [-60.33791473731598, 46.6847151147705], [-60.337963372017036, 46.68472231292058], [-60.33804456803901, 46.684734337007804], [-60.33807204696316, 46.6847441205393], [-60.33812295551229, 46.68476226134294], [-60.338231289016676, 46.68483066194765], [-60.338238405068694, 46.684835147513915], [-60.33828969837303, 46.684864087987535], [-60.33830328829724, 46.684871757188915], [-60.33831629134586, 46.68489030251393], [-60.338328952508014, 46.68490835388858], [-60.338366820699974, 46.68498933379337], [-60.33836812291341, 46.68499077707767], [-60.33839162056927, 46.68501691053526], [-60.338443473683355, 46.68502621735508], [-60.33844445275583, 46.685038758898706], [-60.3384546923019, 46.68517047565679], [-60.338466291744446, 46.68524951210213], [-60.338477212563525, 46.68532399683875], [-60.33847588709612, 46.68535096545523], [-60.3384637018414, 46.68535968164908], [-60.33843840536128, 46.68538477832804], [-60.33835646592739, 46.68546608338195], [-60.33830284499897, 46.68549273466429], [-60.33823746749126, 46.68551911224731], [-60.33815816270478, 46.68553616575622], [-60.338130424861276, 46.68553589803256], [-60.33809280446365, 46.68553554423687], [-60.33797470889054, 46.68554359473349], [-60.337964956214265, 46.685569332172335], [-60.337961184715816, 46.68557927917109], [-60.337972440997554, 46.68566953945336], [-60.33797659784256, 46.685685007924796], [-60.33798460057611, 46.68571482164986], [-60.33802158494918, 46.68581378072904], [-60.338059428471844, 46.68586866066609], [-60.33813741356162, 46.68593167492208], [-60.338167561739695, 46.68594836043056], [-60.33818833954899, 46.685959859898205], [-60.33830597486057, 46.68598779775348], [-60.33832934792269, 46.685996252668446], [-60.33838307103326, 46.68601569184158], [-60.338513769511195, 46.68604393355436], [-60.338644045006944, 46.68605417462831], [-60.33865801760034, 46.686057523777585], [-60.33872288998655, 46.68607310036759], [-60.33877473110494, 46.6860824067537], [-60.33882748191964, 46.68607373464427], [-60.338891110784395, 46.68604968298199], [-60.33891942748059, 46.68603897520909], [-60.33898524706044, 46.68600360770281], [-60.33903798470541, 46.68599493518984], [-60.339182207016805, 46.685987491567765], [-60.339260187072135, 46.68599740598723], [-60.33940352601417, 46.686007941173436], [-60.33947384837328, 46.686019333232935], [-60.339520297918064, 46.68602684886446], [-60.339572575317064, 46.68603446407292], [-60.339586521007966, 46.68603649850858], [-60.33974115659043, 46.686083295389864], [-60.339937196527785, 46.6861391551183], [-60.34006658989107, 46.686167364688934], [-60.34015849812134, 46.68618660231642], [-60.34017541310967, 46.686186761789116], [-60.34022385722352, 46.686187222671386], [-60.34040600677285, 46.68617975974025], [-60.34052452679368, 46.686189716241145], [-60.34079226363731, 46.68626256872297], [-60.340835548577346, 46.68627434813564], [-60.34083829682842, 46.686275375028764], [-60.34086123317105, 46.68628394526515], [-60.3409914922868, 46.68632117373906], [-60.34099757320227, 46.686322512122324], [-60.341160984849196, 46.68635841437548], [-60.34119347693213, 46.68636254483503], [-60.341238965857244, 46.686368327463065], [-60.34126463230531, 46.68640493254034], [-60.34126330861649, 46.68643189222318], [-60.34127593879967, 46.686494284657805], [-60.34127880073445, 46.68649859011816], [-60.34128811912685, 46.68651256751177], [-60.34136609994143, 46.68652248950702], [-60.34144452301804, 46.6865234039119], [-60.34156350303249, 46.6864973707463], [-60.34158763936944, 46.686489760059], [-60.341590070514364, 46.68648898859732], [-60.341606585862216, 46.68649515944614], [-60.34161575534941, 46.68649858556183], [-60.34173251114089, 46.68654449906986], [-60.34178893266353, 46.68654470375283], [-60.34182433752652, 46.68654491482633], [-60.34188851765055, 46.686563434460844], [-60.341952032833206, 46.68659550133044], [-60.34201741073986, 46.68662852044572], [-60.34213504963758, 46.68665645442856], [-60.34213784882025, 46.68666230637743], [-60.342148095371726, 46.68668375712488], [-60.342141940517685, 46.686701775696456], [-60.342132826057686, 46.68672840129991], [-60.34211028199804, 46.6867483338676], [-60.342093177974775, 46.68676347898097], [-60.3420770133059, 46.68677440701184], [-60.3420404225582, 46.68679915195012], [-60.342040412573205, 46.68680921351623], [-60.342040405112186, 46.68682615100306], [-60.34209093646581, 46.686862433891946], [-60.34211706281104, 46.686863041185866], [-60.342247765891145, 46.68689126971859], [-60.342312667397294, 46.6869278775167], [-60.34239019099356, 46.6869737784599], [-60.342464089643634, 46.687011468264664], [-60.3424807779363, 46.687019982958375], [-60.34250998626231, 46.68702841063525], [-60.34254525578181, 46.687038581138516], [-60.342702587925146, 46.68703053776366], [-60.342781452493256, 46.687022470689236], [-60.34287339729223, 46.68698770805969], [-60.34291307214895, 46.68697873020676], [-60.343030261012636, 46.68696255369286], [-60.3431871518256, 46.68696349921497], [-60.343217780483826, 46.68696803579108], [-60.34325207092032, 46.68697310742938], [-60.34330341166748, 46.68698384909917], [-60.34334398174992, 46.686992342544876], [-60.3435252183587, 46.68705685197123], [-60.343628869692076, 46.68710335906734], [-60.34365421430399, 46.687107907768784], [-60.34368072579311, 46.68711266356831], [-60.34371138513184, 46.68711284481227], [-60.34373300982762, 46.68711297816827], [-60.34382584919209, 46.68706023591759], [-60.34391777690756, 46.68705247150728], [-60.344061119795604, 46.687063000927814], [-60.34411745047484, 46.687063202348845], [-60.34415265067367, 46.687063326947495], [-60.344223874716164, 46.68704598259781], [-60.344257217056544, 46.687037856179494], [-60.34428426895021, 46.687019593855204], [-60.34436491353032, 46.68694855930146], [-60.34437800931283, 46.68689486453616], [-60.344367607608156, 46.68681362459435], [-60.344337272269165, 46.68672710679172], [-60.34432974549813, 46.68670564741153], [-60.34430673793766, 46.686588115414686], [-60.34430760537887, 46.68652029492674], [-60.344307652305005, 46.68651613810029], [-60.34434816746724, 46.68646308015325], [-60.34444193407119, 46.686364459859476], [-60.344603265517826, 46.68616840153228], [-60.34464251438808, 46.686141422548616], [-60.344677705724955, 46.68613424792778], [-60.34468214383051, 46.686133352009456], [-60.344721834316324, 46.686097365434854], [-60.344733299840875, 46.68607770608248], [-60.344763243832304, 46.68602631946926], [-60.34477315270865, 46.685945056201135], [-60.34477855851185, 46.685900686622844], [-60.34478249292176, 46.68589005919923], [-60.344792121514224, 46.685864120310065], [-60.344770424500254, 46.685666502431864], [-60.34478616419599, 46.68555887008783], [-60.34481635554948, 46.685467224007425], [-60.344827648874336, 46.685432935938145], [-60.344842696112096, 46.68540370293645], [-60.3448551128965, 46.68537957474905], [-60.344882604942484, 46.68535231368211], [-60.34489426468166, 46.68534842650664], [-60.344907878153606, 46.68534390070937], [-60.34493538222723, 46.68534039943406], [-60.3449736640936, 46.68533552843943], [-60.34505252591134, 46.68532745973803], [-60.34511876559565, 46.68531009809992], [-60.345171601990494, 46.68527003367816], [-60.34522470969926, 46.68522976853525], [-60.3452736342381, 46.685176662502414], [-60.34533106675083, 46.68511433116099], [-60.345383644939446, 46.68507365765836], [-60.345411265934075, 46.685052294340025], [-60.34558255172717, 46.68499957185182], [-60.34566186920528, 46.68495551402754], [-60.34570151365463, 46.68492043502366], [-60.34571793706304, 46.68489806471491], [-60.34572813937907, 46.684884153822814], [-60.34574400506469, 46.6848291372153], [-60.34575649898331, 46.68478581410288], [-60.34575694003016, 46.684776815520486], [-60.34576379157567, 46.68477443661321], [-60.345783549668816, 46.68476754239405]]}, "properties": {"OBJECTID": 17782, "FEAT_CODE": "WACOIS10", "FEAT_DESC": "Coastal Island - Water to the right line", "RIVNAME_1": " ", "RIVNAME_2": " ", "ZVALUE": 0.5, "FID": null, "SHAPE_Length": 1052.2240839301382}}, {"type": "Feature", "id": 17819, "geometry": {"type": "LineString", "coordinates": [[-60.34596978467084, 46.682782004647024], [-60.345893090286694, 46.68278088146628], [-60.345865242782445, 46.68278047807506], [-60.34582558694679, 46.682762457922614], [-60.345709304632614, 46.6827336592181], [-60.345684017316806, 46.68271597255366], [-60.345684945099755, 46.682616996036614], [-60.345672323499635, 46.68260770322307], [-60.345638434309755, 46.68260730352485], [-60.34559390633485, 46.6826067828442], [-60.34558909612093, 46.682574721806624], [-60.345583062743565, 46.68253453253289], [-60.345583072561915, 46.682517523094766], [-60.34558307832812, 46.68250753342472], [-60.34554428839584, 46.68249853309779], [-60.34549110141496, 46.68251619800035], [-60.34545772134465, 46.68253822862759], [-60.345438409995, 46.68255096504742], [-60.345371260721976, 46.68264031333778], [-60.345291065187595, 46.68270235022702], [-60.34527452091329, 46.68271412488186], [-60.34526532162399, 46.682720652169664], [-60.34513417074437, 46.682728406948925], [-60.34510804632846, 46.68272780038471], [-60.345067934259376, 46.68274576866835], [-60.34500212255398, 46.68278113985902], [-60.344962174686074, 46.68279815793694], [-60.344935930035916, 46.68279760254057], [-60.344884959235266, 46.682770319504435], [-60.344859768728035, 46.68274692901685], [-60.34484618520002, 46.68273431983999], [-60.34480789602058, 46.68268843161515], [-60.34470552964201, 46.6826158648925], [-60.34466587476885, 46.682597835358116], [-60.34463370164997, 46.682587773402894], [-60.34457571780031, 46.68256964218336], [-60.34453140950278, 46.68255424048149], [-60.34452300040563, 46.68255131824623], [-60.344432856654954, 46.68252312526509], [-60.344387493544865, 46.682490833339855], [-60.344355765215674, 46.6824682358815], [-60.34426608192704, 46.682377054693944], [-60.344261929403906, 46.682358265613644], [-60.34425431442923, 46.68232368242172], [-60.34430797798673, 46.68221603092111], [-60.344309316619146, 46.682162063065824], [-60.3443263975355, 46.682134011331456], [-60.3443363385461, 46.68211769153682], [-60.34433189206382, 46.682101163586886], [-60.34432417430204, 46.68207240989737], [-60.34428588601627, 46.68202652151174], [-60.344247537474, 46.68200853116935], [-60.344235121451376, 46.682004120874815], [-60.34419612693707, 46.68199023743126], [-60.34415695393906, 46.681989327575785], [-60.34411681276, 46.68203429432413], [-60.34410139904025, 46.68203048037415], [-60.34407676131028, 46.68202436421275], [-60.343954906528396, 46.68193832139043], [-60.34392256274438, 46.68191548451695], [-60.34389456498468, 46.681915221150895], [-60.34385720866226, 46.681914866382115], [-60.34381714089966, 46.68193193527466], [-60.343814352421724, 46.68193573142384], [-60.34379051501133, 46.68196822504032], [-60.343766853294774, 46.682037397018846], [-60.343763035787745, 46.68204857611791], [-60.34373689523354, 46.68207496833818], [-60.343735525594354, 46.6820754315112], [-60.34371028572681, 46.68208425899137], [-60.343619248735365, 46.68207403526208], [-60.34350073698198, 46.682064082137956], [-60.343464980727035, 46.68205376560938], [-60.34343626463443, 46.68204548459798], [-60.343397960469254, 46.68202659501817], [-60.343386864585945, 46.68201526743779], [-60.34337180900849, 46.68199988793528], [-60.34337269092614, 46.68198190877561], [-60.343385813699534, 46.68195431420733], [-60.34346558589785, 46.68187426916164], [-60.34361291636142, 46.68174989445485], [-60.343625113035266, 46.68174117797669], [-60.34362555394819, 46.68173218839462], [-60.34361616263219, 46.68171810148993], [-60.34361337382578, 46.68171390578195], [-60.34360973968478, 46.68171148140064], [-60.3435867814823, 46.6816961883298], [-60.343440881680685, 46.68169435569454], [-60.34341819424586, 46.68169407158913], [-60.34341732899852, 46.68168505166135], [-60.3434056065566, 46.6816307803583], [-60.34339184166775, 46.681604019065816], [-60.3433685981227, 46.68155882190104], [-60.34332894403284, 46.681540800914675], [-60.3432505285225, 46.68153987896087], [-60.343239980787274, 46.68153230802862], [-60.343148210936235, 46.68146640297109], [-60.343070253356686, 46.681429492230684], [-60.34302778357907, 46.68142915336907], [-60.34295260830199, 46.68142855849762], [-60.34291735185217, 46.6814219253384], [-60.34284895086349, 46.68140905905755], [-60.342628063436145, 46.68135351778025], [-60.34256140389422, 46.68135286856284], [-60.3425492071443, 46.68136158492631], [-60.34252131952147, 46.68139692709425], [-60.34250730979804, 46.681469509081865], [-60.342493352666054, 46.68148718435174], [-60.34244110514355, 46.68148597003605], [-60.34239645309142, 46.681460281708915], [-60.34237751609718, 46.68144939277168], [-60.34233832073046, 46.681395382797554], [-60.34231307926685, 46.681376796462075], [-60.342302345340066, 46.68137675396945], [-60.34222155807625, 46.681376469168214], [-60.34214849008016, 46.68138089965216], [-60.34210351614568, 46.68138362517878], [-60.342037721600605, 46.68139199558866], [-60.34201197761165, 46.68141029679252], [-60.341977392662976, 46.68144434016699], [-60.34195838970308, 46.68146304105505], [-60.34193133902471, 46.68148132086516], [-60.34185543603555, 46.681499814985955], [-60.341826782486365, 46.68150678972711], [-60.34179904264596, 46.68151406469711], [-60.34176054653611, 46.68152414954237], [-60.34166900760454, 46.68155082087248], [-60.341629380701406, 46.681558899422505], [-60.341593592671515, 46.681546313610525], [-60.341525243125936, 46.68152227894821], [-60.341492396447514, 46.68150811452204], [-60.34146123953466, 46.68149469136054], [-60.34138236983573, 46.68150275738996], [-60.341372460992424, 46.68150402096925], [-60.34131657505173, 46.681511127379295], [-60.34129045130347, 46.68151051995552], [-60.34125166285546, 46.68150151820007], [-60.34115371252339, 46.6814552764411], [-60.341135359503106, 46.681446614833725], [-60.34111826491889, 46.68143975545218], [-60.341018659183334, 46.68139980196073], [-60.34097616327439, 46.68138641197968], [-60.34090147357407, 46.681362877491495], [-60.34077209110732, 46.6813346690733], [-60.34065358161873, 46.68132471304055], [-60.34063967618163, 46.681329339538976], [-60.34062832275287, 46.68133312540693], [-60.340583705933426, 46.68134482246837], [-60.340495850974705, 46.681367834613546], [-60.34044598048265, 46.681375737497305], [-60.3403917350425, 46.681384321584005], [-60.34025970358127, 46.68141005893153], [-60.34010369421668, 46.681418120677066], [-60.340051005361204, 46.68142589482811], [-60.339945520931906, 46.6814702400212], [-60.339916263090046, 46.68147620124471], [-60.33990588079539, 46.68147831766588], [-60.33984009891202, 46.68148668710516], [-60.339800850754905, 46.68151367346945], [-60.33976078207812, 46.681530740920905], [-60.33974971963211, 46.681545639258005], [-60.33970757036727, 46.681602401521026], [-60.339676607304476, 46.681656121090825], [-60.339666114218986, 46.68167433560291], [-60.33965215065679, 46.68171900985847], [-60.33963084233114, 46.6817572043474], [-60.33961200053206, 46.68179097430619], [-60.339572206482394, 46.6818426434151], [-60.339557526321435, 46.681861705478234], [-60.33954263527027, 46.68192525777559], [-60.339542606334895, 46.68192744406022], [-60.33954220022587, 46.68198735545658], [-60.33956376842701, 46.68202985947621], [-60.339579160070855, 46.68206020501424], [-60.339578978587106, 46.68207401552525], [-60.33957869991268, 46.68209619361346], [-60.33951198376073, 46.6821765397385], [-60.33949892174525, 46.682176235818076], [-60.339486301336194, 46.68216694234496], [-60.339439398204476, 46.68213944551827], [-60.339331228618434, 46.68207603574254], [-60.33911615093401, 46.68194138838726], [-60.33911174872684, 46.68193863099487], [-60.339107274961385, 46.68193546694486], [-60.33904729697274, 46.681893031971015], [-60.33890489017414, 46.68181051938126], [-60.3388530404689, 46.68180120383867], [-60.338774624350414, 46.68180028779777], [-60.33871496879737, 46.68180452425566], [-60.33866963004923, 46.68180774393054], [-60.33856504035657, 46.68183410902146], [-60.33855675289424, 46.68184947682537], [-60.338550653164944, 46.68186077362925], [-60.3385614681738, 46.68196002345518], [-60.33853968840597, 46.68195989450481], [-60.338509202309695, 46.6819597068973], [-60.33844362214401, 46.68194346570188], [-60.338392899794236, 46.68193090025482], [-60.33828875768585, 46.68192127620318], [-60.33824961817557, 46.68192075209295], [-60.33819727948012, 46.681920055704055], [-60.33809367134178, 46.68193708339323], [-60.33809181237633, 46.68193739110998], [-60.33801336368784, 46.68196347327032], [-60.33790749243016, 46.68201589842354], [-60.337907050564425, 46.68202488796345], [-60.33791914355107, 46.6820430431625], [-60.33799161492185, 46.68208163866535], [-60.33802373003408, 46.682098703011576], [-60.33802936789278, 46.682102659189994], [-60.33804901449388, 46.6821163913145], [-60.33806073162634, 46.68217066305364], [-60.338059071979636, 46.68217596131418], [-60.33804676660217, 46.682215337079526], [-60.33803324340193, 46.68225102156246], [-60.33792687203075, 46.682313343899466], [-60.337875784308636, 46.68234172792952], [-60.33784755245777, 46.682357396324605], [-60.33770460728384, 46.68240449421395], [-60.337689374354184, 46.682409512437275], [-60.33768567131925, 46.68241115418475], [-60.33761049637246, 46.682444575152985], [-60.337452715992235, 46.682488591355124], [-60.33734364365174, 46.68253640553437], [-60.33733376669701, 46.68254073844727], [-60.337281012918915, 46.68257640027424], [-60.337266163173425, 46.68263905325504], [-60.337226490677715, 46.682648029200664], [-60.33716113595572, 46.68264740722081], [-60.33708062107917, 46.68263436337637], [-60.33704437266054, 46.68262848828842], [-60.336995343579304, 46.68262802142514], [-60.33697901796876, 46.68262786620498], [-60.3369495662544, 46.682640410027915], [-60.33693894760579, 46.682644932628804], [-60.336912759288694, 46.68267222216431], [-60.336901959115956, 46.68269320121724], [-60.33688527594985, 46.68272558102981], [-60.33687850845872, 46.68274725699158], [-60.336871322861015, 46.682770255189354], [-60.3368711687249, 46.682783229349546], [-60.336870860876715, 46.682806243736245], [-60.33689610106444, 46.68282483124437], [-60.33697494028463, 46.682843767078246], [-60.33701284485592, 46.68287074935229], [-60.337064695224235, 46.682880065742694], [-60.3371047463485, 46.68288998930652], [-60.33712298044091, 46.68289016195437], [-60.33716879514486, 46.682890580905585], [-60.337201310323515, 46.682897916985176], [-60.33720889005501, 46.682899614469676], [-60.33720754429821, 46.68295358208849], [-60.33721881873265, 46.68301684342635], [-60.337224426977535, 46.68302858380397], [-60.3372318611662, 46.683044146629754], [-60.33729541564465, 46.683107725428975], [-60.33730365721191, 46.68312495401927], [-60.33730847119932, 46.68313502892868], [-60.33729907572121, 46.68315244079795], [-60.337294083022044, 46.6831616933529], [-60.337281429978944, 46.683179398355186], [-60.337215645677645, 46.68318776623071], [-60.33717668023357, 46.68318022594436], [-60.33702004146819, 46.683149911572876], [-60.336954244106884, 46.68315827899368], [-60.336927677611435, 46.6831666600886], [-60.33691907278023, 46.68317277755954], [-60.336901931075445, 46.683184960083246], [-60.33689837431849, 46.683189476156606], [-60.33688798473898, 46.68320263492109], [-60.33688754268584, 46.68321162445166], [-60.336912565206326, 46.68324634357328], [-60.33691324939279, 46.68324732248947], [-60.3370017209956, 46.683274627483954], [-60.33700470944513, 46.68327555206648], [-60.33702009572183, 46.68327912333966], [-60.33704349838203, 46.68328455527224], [-60.337042614324574, 46.6833025343354], [-60.33704325568212, 46.68330491622622], [-60.337066931046344, 46.683393098904325], [-60.33706469041698, 46.68348839987706], [-60.337063335264496, 46.68354601220077], [-60.33707710902803, 46.683560570698795], [-60.33708944006111, 46.68357361962455], [-60.33712822966676, 46.68358261381633], [-60.337149812247276, 46.68358650036919], [-60.33718008073363, 46.683591930167886], [-60.33721926773045, 46.68359284273985], [-60.33724630082966, 46.683601572111556], [-60.33727154106675, 46.68362016853436], [-60.33727473179419, 46.68362495874531], [-60.33728371986075, 46.68363844279228], [-60.33726975376799, 46.68368311669183], [-60.33726434544931, 46.68369736346934], [-60.337242705514576, 46.68375448541886], [-60.337189065994195, 46.683808135224524], [-60.33710840445787, 46.683879155358824], [-60.33705521977719, 46.68392381586863], [-60.337036004315244, 46.68393667910209], [-60.3369889595251, 46.68396817183152], [-60.33696281476873, 46.68399456240709], [-60.33695210249128, 46.68401880144533], [-60.336934857106584, 46.68405781903699], [-60.336960122609796, 46.68410249760858], [-60.33697799765304, 46.68411184173788], [-60.33701239673298, 46.684129814537386], [-60.33705070003251, 46.68414870623536], [-60.33705751506217, 46.68415372485514], [-60.337063320458796, 46.684157999975405]]}, "properties": {"OBJECTID": 17819, "FEAT_CODE": "WACOIS10", "FEAT_DESC": "Coastal Island - Water to the right line", "RIVNAME_1": " ", "RIVNAME_2": " ", "ZVALUE": 0.5, "FID": null, "SHAPE_Length": 1329.3762826399097}}, {"type": "Feature", "id": 21281, "geometry": {"type": "LineString", "coordinates": [[-60.34388766326777, 46.68052060084409], [-60.34390941083616, 46.680513375169724], [-60.34396609367907, 46.68049452323088], [-60.34401928236914, 46.680449859597594], [-60.3440201640243, 46.6804318804236], [-60.344006677876315, 46.68041356751276], [-60.34392836935579, 46.68038889796278], [-60.343889492200766, 46.68037664610302], [-60.34383811099564, 46.68038445237423], [-60.34378493866119, 46.680402116823636], [-60.343771419718166, 46.6804378020831], [-60.34377009711107, 46.6804647708386], [-60.34379445228878, 46.68049396506093], [-60.343808383905554, 46.680510659376345], [-60.34384051120985, 46.68051789456074], [-60.34384847828008, 46.68051969060138], [-60.34388766326777, 46.68052060084409]]}, "properties": {"OBJECTID": 21281, "FEAT_CODE": "WACOIS10", "FEAT_DESC": "Coastal Island - Water to the right line", "RIVNAME_1": " ", "RIVNAME_2": " ", "ZVALUE": 0.5, "FID": null, "SHAPE_Length": 54.984133649313605}}, {"type": "Feature", "id": 21282, "geometry": {"type": "LineString", "coordinates": [[-60.33186228229376, 46.68588621989919], [-60.33208851406173, 46.68575380130202], [-60.332192241625556, 46.685745421665146], [-60.33234952663122, 46.68573829144134], [-60.332384295874036, 46.685722722920765], [-60.33238964498657, 46.685720327762766], [-60.33241117760935, 46.68570612439512], [-60.332442361202055, 46.68568555830114], [-60.33244249560921, 46.685679378557], [-60.33244331334878, 46.685639681406386], [-60.33243486796324, 46.68562767661172], [-60.33243109195054, 46.68562229662297], [-60.33240454580027, 46.68560367766704], [-60.33238382783491, 46.68559630045902], [-60.33235313613788, 46.68558537862514], [-60.33227560099904, 46.68556647003866], [-60.33227553370843, 46.68556358852465], [-60.33227518043277, 46.685548460576136], [-60.33230220084711, 46.685504091850625], [-60.33231389805279, 46.68548857905718], [-60.33231620662943, 46.68548551897745], [-60.33230356472885, 46.68545012471872], [-60.332300580913504, 46.68544565419047], [-60.332291387701254, 46.68543184097234], [-60.332256595313304, 46.68541974346162], [-60.332238671968135, 46.68541351140663], [-60.33218642109584, 46.68541229233067], [-60.33216278675092, 46.685428543579086], [-60.332147153244485, 46.685439275607365], [-60.33210928422951, 46.68545963163759], [-60.33208134313487, 46.685474639405676], [-60.332040207979105, 46.685468648715855], [-60.33201512181341, 46.685464994444295], [-60.33195377679754, 46.68546440905216], [-60.331884405512206, 46.685463753339505], [-60.33188034849867, 46.68543196128727], [-60.331874023230114, 46.68538250364823], [-60.33184747739108, 46.68536388456865], [-60.33179158568021, 46.68534366272143], [-60.33177038524979, 46.6853359951485], [-60.33175488004868, 46.68533589432722], [-60.33166579555043, 46.68533534545646], [-60.33158689644115, 46.685370403525184], [-60.331559831222414, 46.68541567102056], [-60.33157070074636, 46.68548702330392], [-60.33156979216593, 46.68553200122842], [-60.33155576347152, 46.68557757295247], [-60.33152918539311, 46.68561295199998], [-60.33152037965088, 46.68561861438464], [-60.33151567965274, 46.68562163663872], [-60.33149214934317, 46.68562462443379], [-60.33144987855877, 46.685630000807876], [-60.33141027799923, 46.685640371389034], [-60.331383634442325, 46.68564735442519], [-60.33138383683004, 46.68565625097619], [-60.331384054711194, 46.68566536388455], [-60.331396231477164, 46.685683647721675], [-60.33140219597267, 46.685688403833396], [-60.33148682815692, 46.6857559606999], [-60.33154671324357, 46.68578432173167], [-60.331564783593436, 46.68579287928039], [-60.33162925597561, 46.68581148351311], [-60.3317193885069, 46.68586668580508], [-60.33179692386031, 46.685885594772856], [-60.33183500156811, 46.68588596131327], [-60.33186228229376, 46.68588621989919]]}, "properties": {"OBJECTID": 21282, "FEAT_CODE": "WACOIS10", "FEAT_DESC": "Coastal Island - Water to the right line", "RIVNAME_1": " ", "RIVNAME_2": " ", "ZVALUE": 0.5, "FID": null, "SHAPE_Length": 244.96259286066737}}, {"type": "Feature", "id": 21509, "geometry": {"type": "LineString", "coordinates": [[-60.33627132780355, 46.687577476117575], [-60.33627645889018, 46.687592274356994], [-60.3362965288329, 46.687650070754046], [-60.33632671066828, 46.68768788010719], [-60.33634703710744, 46.68771334611341], [-60.33638495772344, 46.68774032894357], [-60.33641237763991, 46.68774096767481], [-60.33646379076963, 46.6877592649558], [-60.336503467163105, 46.687750289362334], [-60.3365231587029, 46.68774160422789], [-60.33654223517379, 46.687733192757385], [-60.3365954372107, 46.68768853290351], [-60.336597226071326, 46.68762557582554], [-60.33663910925328, 46.68751855353977], [-60.33665307699111, 46.68747387977541], [-60.336653570006106, 46.68743700099257], [-60.33662786801412, 46.687428293494726], [-60.336614791700114, 46.68742798891478], [-60.336470565331, 46.68743542920908], [-60.33644442576639, 46.68743482031596], [-60.336311928718764, 46.68749653255942], [-60.33627221908249, 46.68753250677507], [-60.33627132780355, 46.687577476117575]]}, "properties": {"OBJECTID": 21509, "FEAT_CODE": "WACOIS10", "FEAT_DESC": "Coastal Island - Water to the right line", "RIVNAME_1": " ", "RIVNAME_2": " ", "ZVALUE": 0.5, "FID": null, "SHAPE_Length": 107.18883122161999}}]}