{"type": "FeatureCollection", "features": [{"type": "Feature", "id": 2804, "geometry": {"type": "LineString", "coordinates": [[-60.74475996790947, 46.101494014509356], [-60.74467427868601, 46.10150694868456], [-60.74457263962626, 46.10153375261862], [-60.744211857029896, 46.10161438389976], [-60.74415008140258, 46.10162818587025], [-60.74398408829233, 46.10166316002876], [-60.7439410256442, 46.1016721111504], [-60.7438903941721, 46.101682640874294], [-60.74380584081485, 46.10169753192404], [-60.74372301433367, 46.101719882381765], [-60.74366818446194, 46.10173468530691], [-60.74360205176263, 46.10175696035224], [-60.74351884902781, 46.101789158716734], [-60.743480829982204, 46.10180513962248], [-60.743339152262806, 46.10186472329121], [-60.74326547282171, 46.101904192929], [-60.74325846190041, 46.10190795163289], [-60.74321464338312, 46.10192938916603], [-60.743036397704785, 46.10201661050092], [-60.74300079775116, 46.10203544717464], [-60.742970143826106, 46.10205166341599], [-60.74278295177253, 46.102134252392204], [-60.74257025038514, 46.10222809159744], [-60.74249143785092, 46.1022382978719], [-60.742398941350196, 46.10225027678775], [-60.74225084289343, 46.10229657357775], [-60.74220589444575, 46.10231461322734], [-60.74216364255392, 46.10233157209493], [-60.74208613758421, 46.10235379252145], [-60.74190872680793, 46.102404657803284], [-60.74188067533068, 46.10241574993446], [-60.74181099959664, 46.10244331817696], [-60.74158224150319, 46.10252916078603], [-60.74150286530813, 46.102562333367544], [-60.74122520055576, 46.10269623384779], [-60.74109911115121, 46.10275704097607], [-60.74106967970418, 46.10276991471192], [-60.74100661322656, 46.102797523139365], [-60.74096048005532, 46.10282237020908], [-60.740890070074, 46.10286028288048], [-60.740829121859285, 46.10289525945678], [-60.74062398211253, 46.10298849752396], [-60.7405617952433, 46.10301894923985], [-60.740361529411956, 46.103106882959786], [-60.740287421664874, 46.10314375907487], [-60.74027380497723, 46.10315084310801], [-60.74020415064432, 46.10318702421604], [-60.7398969368268, 46.10334346811559], [-60.73982141929421, 46.10338253014725]]}, "properties": {"OBJECTID": 2804, "FEAT_CODE": "WACO20", "FEAT_DESC": "Coast - Water to the right line", "RIVNAME_1": " ", "RIVNAME_2": " ", "ZVALUE": 0.2, "FID": null, "SHAPE_Length": 439.77598741840103}}, {"type": "Feature", "id": 2920, "geometry": {"type": "LineString", "coordinates": [[-60.752354244963946, 46.09599851306127], [-60.752349926925554, 46.09598857261708], [-60.75233734372589, 46.095952809283624], [-60.75233716992813, 46.09595231083962], [-60.7523118512399, 46.095906810472165], [-60.75223584863327, 46.09583511165676], [-60.752196506449074, 46.09581633670238], [-60.75205460322418, 46.09580634429335], [-60.75198993262933, 46.09580596283835], [-60.751974897280725, 46.09580856513293], [-60.75188700552465, 46.09582374749411], [-60.7517436397185, 46.095849727717535], [-60.75166567615799, 46.095858093935185], [-60.75162652981464, 46.09586632398787], [-60.75161626522801, 46.0958772735367], [-60.75160083547459, 46.09589371071192], [-60.75157821627328, 46.09590305804591], [-60.75153635966998, 46.095920352183974], [-60.75136767467902, 46.095963843528615], [-60.751321479268704, 46.095971709722946], [-60.751314924493116, 46.09597319178714], [-60.751223289373556, 46.09599928950662], [-60.75119412583478, 46.096005087777115], [-60.751119600124916, 46.09601989361062]]}, "properties": {"OBJECTID": 2920, "FEAT_CODE": "WACO20", "FEAT_DESC": "Coast - Water to the right line", "RIVNAME_1": " ", "RIVNAME_2": " ", "ZVALUE": 0.2, "FID": null, "SHAPE_Length": 112.81774177617231}}, {"type": "Feature", "id": 2921, "geometry": {"type": "LineString", "coordinates": [[-60.749995623672696, 46.09627168281259], [-60.74996108383438, 46.0962776538991], [-60.7499537747143, 46.09627891401823], [-60.749953631208356, 46.09628720960654], [-60.749952884606806, 46.09633289918575], [-60.74993957873738, 46.096341637578824], [-60.74991063626084, 46.0963664758262], [-60.74988729706125, 46.09638651017919], [-60.74985450658881, 46.096408941508216], [-60.749822088293335, 46.09643112814555], [-60.749757050675974, 46.09643974764756], [-60.7496399623391, 46.09651934545191], [-60.749609671711184, 46.09653566064317], [-60.749573839094005, 46.096554953814206], [-60.749574753216166, 46.096563963269595], [-60.74956609264148, 46.096581262545044], [-60.749547995701256, 46.09661743889165], [-60.74945489400391, 46.09674341128921], [-60.74942264852784, 46.09676547521059], [-60.74938968446444, 46.09678802899207], [-60.74932001399638, 46.096821776237995], [-60.749298620628615, 46.096832137318685], [-60.7492861377949, 46.09683781369585], [-60.749220850201645, 46.096867498019236], [-60.749187885629624, 46.09689006073269], [-60.74915563996208, 46.096912124574665], [-60.74912925796887, 46.0969423773362], [-60.749116284229075, 46.096957251482266], [-60.74911355352579, 46.0969629939709], [-60.749103551512675, 46.096984001967684], [-60.74911453290619, 46.09702410831407], [-60.74911594085333, 46.09702924830852], [-60.74911885026797, 46.09703564194596], [-60.74915275674204, 46.09711007764604], [-60.74919886237257, 46.097225219692426], [-60.749203254904664, 46.09723617877298], [-60.74920513572718, 46.097239554994026], [-60.7492285715758, 46.09728167978406], [-60.7493163874522, 46.097444517843094], [-60.74934137484332, 46.09749811274395], [-60.749364810898996, 46.097540237508156], [-60.749366691741116, 46.09754361372675], [-60.749393143473874, 46.0975612356703], [-60.74944375437872, 46.097589234018834], [-60.74945635257114, 46.09759757359494], [-60.74946793742282, 46.097630491432305], [-60.749469095078354, 46.09763383540221], [-60.749470587030984, 46.097642316212784], [-60.74948170528034, 46.097706087392815], [-60.74948060712979, 46.097733067104144], [-60.74945530020924, 46.09775056947988], [-60.749416414067845, 46.0977638081493], [-60.749402822231936, 46.09776843664098], [-60.74938952885117, 46.097777175214695], [-60.74937798482323, 46.097828754378355], [-60.7493752951808, 46.09784079799483], [-60.74937527253082, 46.097855657287816], [-60.74937518285932, 46.09793890966218], [-60.749359679710686, 46.09806550156242], [-60.74934817880317, 46.0981627408398], [-60.749345871541465, 46.09818223535782], [-60.74934406407921, 46.09829020511737], [-60.74934507653865, 46.09829139512096], [-60.74938235829971, 46.09833506169896], [-60.74938126007661, 46.09836204140547], [-60.74936449019179, 46.098379900946], [-60.749355550143, 46.09838943631039], [-60.74934225660193, 46.098398174874866], [-60.749319959041664, 46.0983979966228]]}, "properties": {"OBJECTID": 2921, "FEAT_CODE": "WACO20", "FEAT_DESC": "Coast - Water to the right line", "RIVNAME_1": " ", "RIVNAME_2": " ", "ZVALUE": 0.2, "FID": null, "SHAPE_Length": 281.85688936859174}}, {"type": "Feature", "id": 2922, "geometry": {"type": "LineString", "coordinates": [[-60.75036880744219, 46.096210151383076], [-60.75029871304468, 46.096216511511905]]}, "properties": {"OBJECTID": 2922, "FEAT_CODE": "WACO20", "FEAT_DESC": "Coast - Water to the right line", "RIVNAME_1": " ", "RIVNAME_2": " ", "ZVALUE": 0.2, "FID": null, "SHAPE_Length": 5.4660775701284345}}, {"type": "Feature", "id": 2923, "geometry": {"type": "LineString", "coordinates": [[-60.75059051830813, 46.09614644649957], [-60.750563069891655, 46.09615619357381], [-60.750550113430904, 46.09616079871088]]}, "properties": {"OBJECTID": 2923, "FEAT_CODE": "WACO20", "FEAT_DESC": "Coast - Water to the right line", "RIVNAME_1": " ", "RIVNAME_2": " ", "ZVALUE": 0.2, "FID": null, "SHAPE_Length": 3.5080726006368947}}, {"type": "Feature", "id": 2924, "geometry": {"type": "LineString", "coordinates": [[-60.7534623012365, 46.09638813761797], [-60.75339111795641, 46.096472566126664], [-60.75331245042448, 46.096561923663316], [-60.75327958079121, 46.096610851737594], [-60.75325874606713, 46.09664187157454], [-60.75319925190408, 46.09670096856285], [-60.75314145659385, 46.09675837084476], [-60.75303620305379, 46.09686520622007], [-60.753008406593, 46.09687969927267], [-60.752984654632606, 46.096892084757556], [-60.752880616389675, 46.0969368497993], [-60.752841469441535, 46.09694508025629], [-60.752802298859294, 46.09695421027983], [-60.75271213774202, 46.09694433639287], [-60.75263434214861, 46.096916704784036], [-60.75257003541092, 46.09690733936935], [-60.75253120450412, 46.09690747553368], [-60.75253142040551, 46.09689834432596], [-60.7524929706776, 46.096861730144994], [-60.752442296115845, 46.09677161979994], [-60.752431013067444, 46.09672073430422], [-60.75243026964686, 46.09671738051249], [-60.75239271803967, 46.09665453865709], [-60.75234240902494, 46.096555444007635], [-60.75227807604663, 46.0964830837696], [-60.752227598103865, 46.09641997853848], [-60.75223083966306, 46.09640547958906], [-60.75224182844294, 46.09635634632842], [-60.752241354064594, 46.09634096422816], [-60.752241253617385, 46.09633834312119], [-60.75233431141167, 46.09621327663478], [-60.7523597866415, 46.0961597661327], [-60.75236001524016, 46.096143002793006], [-60.75236145788293, 46.096037491905506]]}, "properties": {"OBJECTID": 2924, "FEAT_CODE": "WACO20", "FEAT_DESC": "Coast - Water to the right line", "RIVNAME_1": " ", "RIVNAME_2": " ", "ZVALUE": 0.2, "FID": null, "SHAPE_Length": 209.5414359816367}}, {"type": "Feature", "id": 2925, "geometry": {"type": "LineString", "coordinates": [[-60.75363329720611, 46.09594414163754], [-60.75364940214731, 46.09593909403225], [-60.75366563983674, 46.09593523709409], [-60.753669141152535, 46.09593439689233], [-60.75368258032734, 46.09593127696633], [-60.75370832343545, 46.095925275801676], [-60.75378555617948, 46.09593489471898], [-60.75382672597204, 46.09594754874942]]}, "properties": {"OBJECTID": 2925, "FEAT_CODE": "WACO20", "FEAT_DESC": "Coast - Water to the right line", "RIVNAME_1": " ", "RIVNAME_2": " ", "ZVALUE": 0.2, "FID": null, "SHAPE_Length": 15.721554244990063}}, {"type": "Feature", "id": 2926, "geometry": {"type": "LineString", "coordinates": [[-60.75355987251142, 46.09546438700512], [-60.75355976121813, 46.09547413230402], [-60.75353739952961, 46.09548925437808]]}, "properties": {"OBJECTID": 2926, "FEAT_CODE": "WACO20", "FEAT_DESC": "Coast - Water to the right line", "RIVNAME_1": " ", "RIVNAME_2": " ", "ZVALUE": 0.2, "FID": null, "SHAPE_Length": 3.494696422969544}}, {"type": "Feature", "id": 2927, "geometry": {"type": "LineString", "coordinates": [[-60.7534961248579, 46.09512986483666], [-60.7535089587659, 46.09514991818941], [-60.75351863756875, 46.09515846992775], [-60.75353218035759, 46.0951645775184], [-60.75354127660993, 46.09516868057782], [-60.75355510755092, 46.09517661192274], [-60.75355891300853, 46.09517879285561], [-60.753564281785536, 46.09518166156101], [-60.75359128715045, 46.09519617026738], [-60.753620343434804, 46.09521401345866], [-60.75358848189529, 46.09527668713854], [-60.753575387052656, 46.095291397403564], [-60.75356262932699, 46.09530927345385], [-60.75355989996853, 46.09531181191566], [-60.75354913093788, 46.095321815672776], [-60.75352181592638, 46.09535728036763], [-60.75351097194906, 46.09539332994988], [-60.75350835498941, 46.09540201792801], [-60.75350843928161, 46.095404719720506], [-60.75350891693743, 46.09542002987802], [-60.753513348185905, 46.095420819047405], [-60.75352524240998, 46.09542292502339]]}, "properties": {"OBJECTID": 2927, "FEAT_CODE": "WACO20", "FEAT_DESC": "Coast - Water to the right line", "RIVNAME_1": " ", "RIVNAME_2": " ", "ZVALUE": 0.2, "FID": null, "SHAPE_Length": 39.7920989008012}}, {"type": "Feature", "id": 2928, "geometry": {"type": "LineString", "coordinates": [[-60.75448480640629, 46.094531753813456], [-60.7544783612126, 46.094549340019924], [-60.75447687616844, 46.0945534150368], [-60.75447029237427, 46.0945667683066], [-60.754450087878254, 46.09460779125617], [-60.7544370840653, 46.094621225346174], [-60.754424431676966, 46.0946342883232], [-60.75419094095568, 46.09471340287297], [-60.754164000906194, 46.09473200824983], [-60.754112409153905, 46.09476766188928], [-60.75407109680255, 46.09479166399193], [-60.75402098705791, 46.0948207673948], [-60.75399821580461, 46.09483260534431], [-60.75397648949212, 46.09484387880304], [-60.75392620269558, 46.09487287967847]]}, "properties": {"OBJECTID": 2928, "FEAT_CODE": "WACO20", "FEAT_DESC": "Coast - Water to the right line", "RIVNAME_1": " ", "RIVNAME_2": " ", "ZVALUE": 0.2, "FID": null, "SHAPE_Length": 59.62107913996747}}, {"type": "Feature", "id": 2929, "geometry": {"type": "LineString", "coordinates": [[-60.75417085635818, 46.09326483536219], [-60.75398869788526, 46.09335396803129], [-60.753846111545926, 46.09342495948141], [-60.75381989357681, 46.09343344446687], [-60.7536503079615, 46.09353182424136], [-60.75358265520852, 46.093565748776136], [-60.75340336072997, 46.09365566586118], [-60.753207372316716, 46.093735515867934], [-60.75316910583762, 46.09375365525064], [-60.75312923002168, 46.09377988137768], [-60.75310779624369, 46.09379828878397], [-60.75307695301504, 46.09382476454142], [-60.752998289277954, 46.09391411296632], [-60.752978806349624, 46.09392780647898], [-60.75295966973163, 46.093941254787005], [-60.75292291237314, 46.093970323316526], [-60.752880808973714, 46.094003606899115], [-60.752789583273575, 46.09408371664314], [-60.75273677133892, 46.094173582386865], [-60.75271589015877, 46.094215311758965], [-60.752710018098846, 46.09422705884735], [-60.75270960193313, 46.094252260926574], [-60.75270731738346, 46.09438901385307], [-60.7527192831264, 46.09441386546167], [-60.752720427223636, 46.09441627308636], [-60.75272241720312, 46.09441983140691], [-60.75274575854177, 46.09446177362221], [-60.75279623574644, 46.094524869629275], [-60.75285865404074, 46.094598785017915], [-60.75287276255315, 46.09461547934526], [-60.75289793396811, 46.09463308430221], [-60.75294908072653, 46.09467907455099], [-60.75298847148667, 46.09469695916068], [-60.75305167945287, 46.094733304089175], [-60.753102875169546, 46.09477841318674], [-60.753154412770414, 46.094815428578826], [-60.7531799501435, 46.094824031218685], [-60.75320580346511, 46.09482453966055], [-60.75332258188751, 46.09481603565812], [-60.7534907144815, 46.09481754181653], [-60.75349832541698, 46.09481203019257], [-60.7535040301119, 46.094807903155655], [-60.75360244626219, 46.09476639316042], [-60.75360801397382, 46.0947640455141], [-60.75367265574748, 46.09470141333055], [-60.75368667836781, 46.094674687692404], [-60.753697893579, 46.094631085010306], [-60.75370051721347, 46.094620957085986], [-60.75369908522955, 46.094615762671474]]}, "properties": {"OBJECTID": 2929, "FEAT_CODE": "WACO20", "FEAT_DESC": "Coast - Water to the right line", "RIVNAME_1": " ", "RIVNAME_2": " ", "ZVALUE": 0.2, "FID": null, "SHAPE_Length": 292.2071105004442}}, {"type": "Feature", "id": 2930, "geometry": {"type": "LineString", "coordinates": [[-60.75364832147539, 46.094519566772895], [-60.75359587893148, 46.09450832910176], [-60.753572036917554, 46.094503216063735], [-60.75356402398672, 46.0945090708059], [-60.7535600372759, 46.09451198956476], [-60.75353381874358, 46.09452047447285], [-60.75354528394115, 46.0945567017221], [-60.75354592872325, 46.0945573894345], [-60.753571333769365, 46.09458421529878], [-60.75358404611594, 46.09461936001105], [-60.75357047089111, 46.094637300993355], [-60.75355530065413, 46.09465469758523], [-60.753531120394, 46.0946824295341], [-60.75351751127923, 46.094685600103496], [-60.75349192568074, 46.094691559320424], [-60.75333674595362, 46.094690307883994], [-60.75329829491398, 46.09468145132622], [-60.75319574513361, 46.094626331927444], [-60.75313197536226, 46.094571975126655], [-60.7531327399959, 46.094526411879386], [-60.75313287519963, 46.094517990115996], [-60.75314650519007, 46.094437254113046], [-60.75314915380956, 46.094430015837276], [-60.753159600744105, 46.09440150985443], [-60.753238265313286, 46.09431215234013], [-60.75326503302648, 46.09429365179676], [-60.75331679728643, 46.09425789392466], [-60.75336923378862, 46.094240933191145], [-60.75339512374344, 46.09424053326532], [-60.75354994979488, 46.09425077812142], [-60.75360278845736, 46.09422391569128], [-60.7536803560924, 46.09416153765751], [-60.753719879181986, 46.0941443138563], [-60.75380719428543, 46.09412923575265], [-60.7538227893204, 46.09412653621534], [-60.75405557598737, 46.0941284126388], [-60.754083133249274, 46.094129323398484], [-60.75413295119582, 46.0941309597728], [-60.754166174323835, 46.09414334946328]]}, "properties": {"OBJECTID": 2930, "FEAT_CODE": "WACO20", "FEAT_DESC": "Coast - Water to the right line", "RIVNAME_1": " ", "RIVNAME_2": " ", "ZVALUE": 0.2, "FID": null, "SHAPE_Length": 176.62188355467322}}, {"type": "Feature", "id": 10235, "geometry": {"type": "LineString", "coordinates": [[-60.75568064674053, 46.09351771586695], [-60.75551339179945, 46.09346312750354], [-60.755462051371104, 46.09345311840009], [-60.7553718718084, 46.09344414628446], [-60.75521666959, 46.093442896957], [-60.75510062445882, 46.09343341639895], [-60.75500990613912, 46.09340553246078], [-60.75479094727425, 46.09334991801495], [-60.75470019237573, 46.093322942156696], [-60.75459820592669, 46.093285835981874], [-60.75454626703505, 46.0932587138434], [-60.75449525564689, 46.09324061036394], [-60.754352065862605, 46.093230595511336], [-60.75431328696719, 46.09322983325545], [-60.754249546368435, 46.09323848081022], [-60.75419215510386, 46.09325770266851], [-60.75417085635818, 46.09326483536219]]}, "properties": {"OBJECTID": 10235, "FEAT_CODE": "WACO20", "FEAT_DESC": "Coast - Water to the right line", "RIVNAME_1": " ", "RIVNAME_2": " ", "ZVALUE": 0.2, "FID": null, "SHAPE_Length": 124.0732385558947}}, {"type": "Feature", "id": 10467, "geometry": {"type": "LineString", "coordinates": [[-60.75852929394214, 46.09323072376594], [-60.758516732130666, 46.09322147685459], [-60.75849124362775, 46.09321198532099], [-60.758452415620226, 46.09321211455262], [-60.758406470847206, 46.09321994352844], [-60.75840032222788, 46.0932209929464], [-60.758370356228205, 46.09323260059717], [-60.7583096358518, 46.093256115421724], [-60.75812961442096, 46.0932939760465], [-60.75810217473434, 46.0932997469057], [-60.75809079798921, 46.09330147675239], [-60.75793425807504, 46.09332525312694], [-60.757868860589795, 46.09334287063776], [-60.75772560987762, 46.09338825660406], [-60.757673595864446, 46.093404741605994], [-60.757606141285976, 46.09341916843325], [-60.757426953421074, 46.09345750333432], [-60.757194553101115, 46.09350964407816], [-60.756994481161406, 46.09354902638872], [-60.75697417675007, 46.0935530199682], [-60.75689585267148, 46.093570374128745], [-60.756714408081955, 46.093578530090745], [-60.75670243600471, 46.09358122015823], [-60.75663738945893, 46.093595909707425], [-60.75623645206884, 46.09359343636431], [-60.75601565317926, 46.09358279939479], [-60.75596391110327, 46.093582683125625], [-60.755899607587764, 46.093573319640875], [-60.75575880419219, 46.09353635207431], [-60.75568064674053, 46.09351771586695]]}, "properties": {"OBJECTID": 10467, "FEAT_CODE": "WACO20", "FEAT_DESC": "Coast - Water to the right line", "RIVNAME_1": " ", "RIVNAME_2": " ", "ZVALUE": 0.2, "FID": null, "SHAPE_Length": 229.34821377547155}}, {"type": "Feature", "id": 10533, "geometry": {"type": "LineString", "coordinates": [[-60.74864706434348, 46.099742275765465], [-60.74863856240286, 46.09976137817861], [-60.74862767074189, 46.099797543345154], [-60.748625096328446, 46.099806115039655], [-60.74853275599946, 46.099913200704854], [-60.74843822038618, 46.099978237952556], [-60.748390326392155, 46.10001119872829], [-60.74833711338381, 46.100047051800765], [-60.7483238063498, 46.100055789979336], [-60.74830877798404, 46.10006104706012], [-60.7482726315219, 46.10007368230199], [-60.74820546711331, 46.100102005980226], [-60.74816863346313, 46.100117534788424], [-60.74807806523366, 46.10011754971679], [-60.748012462876595, 46.10010815620487], [-60.74796148376878, 46.10008915942185], [-60.74791027538464, 46.10004402980418]]}, "properties": {"OBJECTID": 10533, "FEAT_CODE": "WACO20", "FEAT_DESC": "Coast - Water to the right line", "RIVNAME_1": " ", "RIVNAME_2": " ", "ZVALUE": 0.2, "FID": null, "SHAPE_Length": 80.69116147948675}}, {"type": "Feature", "id": 10534, "geometry": {"type": "LineString", "coordinates": [[-60.74475996790947, 46.101494014509356], [-60.74494562782513, 46.10146598874108], [-60.74496640566805, 46.10146285268725], [-60.74497351662166, 46.10146076093503], [-60.74506671907336, 46.101433331104985], [-60.74523285341555, 46.10140469447258], [-60.745262562088044, 46.101399574516485], [-60.74558003279445, 46.10135615713162], [-60.74564135690171, 46.1013527769925]]}, "properties": {"OBJECTID": 10534, "FEAT_CODE": "WACO20", "FEAT_DESC": "Coast - Water to the right line", "RIVNAME_1": " ", "RIVNAME_2": " ", "ZVALUE": 0.2, "FID": null, "SHAPE_Length": 70.1283300730366}}, {"type": "Feature", "id": 10535, "geometry": {"type": "LineString", "coordinates": [[-60.74728440541011, 46.10034116190442], [-60.74726964516678, 46.10038206589684], [-60.74725158811138, 46.10043148230351], [-60.74722230858967, 46.10051181895534], [-60.747091215630896, 46.10065855129216], [-60.74702617604743, 46.10068931029499], [-60.746969709635955, 46.10071606212428], [-60.74692168677461, 46.100738813236944], [-60.7468536490427, 46.10076789293429], [-60.746799081789455, 46.100791216962755], [-60.7466650464969, 46.100848516365346], [-60.746592176308496, 46.1008796517002], [-60.746547854154954, 46.10089857845602], [-60.746427716007865, 46.100957420755094], [-60.74629424202304, 46.10102283119379], [-60.74622473674566, 46.10108662328059], [-60.74611108713875, 46.101148464388515], [-60.74609643141814, 46.10115155042203], [-60.74596661668826, 46.10117891578764], [-60.74584757653822, 46.10122031827693], [-60.74580582225098, 46.10126700777691], [-60.74576748382398, 46.101309885469426], [-60.74575173088849, 46.101327503527074]]}, "properties": {"OBJECTID": 10535, "FEAT_CODE": "WACO20", "FEAT_DESC": "Coast - Water to the right line", "RIVNAME_1": " ", "RIVNAME_2": " ", "ZVALUE": 0.2, "FID": null, "SHAPE_Length": 168.58020206840976}}, {"type": "Feature", "id": 10536, "geometry": {"type": "LineString", "coordinates": [[-60.74760899347243, 46.100293712014], [-60.74756322440932, 46.10031546377954]]}, "properties": {"OBJECTID": 10536, "FEAT_CODE": "WACO20", "FEAT_DESC": "Coast - Water to the right line", "RIVNAME_1": " ", "RIVNAME_2": " ", "ZVALUE": 0.2, "FID": null, "SHAPE_Length": 4.2859363047257055}}, {"type": "Feature", "id": 10537, "geometry": {"type": "LineString", "coordinates": [[-60.74767476832259, 46.10026711637898], [-60.74766004885604, 46.100255260617985]]}, "properties": {"OBJECTID": 10537, "FEAT_CODE": "WACO20", "FEAT_DESC": "Coast - Water to the right line", "RIVNAME_1": " ", "RIVNAME_2": " ", "ZVALUE": 0.2, "FID": null, "SHAPE_Length": 1.7412208360645234}}, {"type": "Feature", "id": 10538, "geometry": {"type": "LineString", "coordinates": [[-60.74911414316943, 46.098975460675184], [-60.749084741147904, 46.099027750013384], [-60.74907529826547, 46.09904454780868], [-60.74906575530633, 46.09905935453281], [-60.74903524521752, 46.09910676178518], [-60.749011047034266, 46.099134510411815], [-60.74899588775759, 46.09915188860488], [-60.74887879246175, 46.099231485468884], [-60.74890354927641, 46.0992589746143], [-60.74894257609113, 46.0992858448797], [-60.74898044201724, 46.09934059364049], [-60.74898047068539, 46.099344338390814], [-60.74898063632811, 46.09936759880646], [-60.748963689193495, 46.099396156323635], [-60.74895424294168, 46.099412080998526], [-60.74892924578856, 46.09944228898693], [-60.74888756510342, 46.099492671253984], [-60.748869116379296, 46.09951171269974], [-60.74886190392738, 46.09951916696034], [-60.74882130690554, 46.099542614221036], [-60.74878687064787, 46.099562510682716]]}, "properties": {"OBJECTID": 10538, "FEAT_CODE": "WACO20", "FEAT_DESC": "Coast - Water to the right line", "RIVNAME_1": " ", "RIVNAME_2": " ", "ZVALUE": 0.2, "FID": null, "SHAPE_Length": 78.73083481012274}}, {"type": "Feature", "id": 10539, "geometry": {"type": "LineString", "coordinates": [[-60.74926691624541, 46.09876407087829], [-60.74926570930964, 46.09877051842185], [-60.749259815616924, 46.09880247090271], [-60.749233594402, 46.098810954768524], [-60.74919983072586, 46.0988454903321], [-60.74918094364028, 46.098864820208064], [-60.74916995339591, 46.09888212755303], [-60.749140854601734, 46.09892792455805], [-60.749133823599614, 46.09894045866293], [-60.74913228843322, 46.09894320955522]]}, "properties": {"OBJECTID": 10539, "FEAT_CODE": "WACO20", "FEAT_DESC": "Coast - Water to the right line", "RIVNAME_1": " ", "RIVNAME_2": " ", "ZVALUE": 0.2, "FID": null, "SHAPE_Length": 23.271547739277924}}, {"type": "Feature", "id": 10540, "geometry": {"type": "LineString", "coordinates": [[-60.749134728462955, 46.09844661298216], [-60.74913472246583, 46.09844739590288], [-60.749134629745, 46.098457618583865], [-60.74913406002064, 46.098522779595434], [-60.74919819629458, 46.098568145370876], [-60.74923628320424, 46.09858599657498], [-60.74926233267377, 46.098613511111914], [-60.74927308644231, 46.098730728774996], [-60.749272072712714, 46.09873624407851], [-60.749271195352016, 46.098740952028365]]}, "properties": {"OBJECTID": 10540, "FEAT_CODE": "WACO20", "FEAT_DESC": "Coast - Water to the right line", "RIVNAME_1": " ", "RIVNAME_2": " ", "ZVALUE": 0.2, "FID": null, "SHAPE_Length": 36.95254583665821}}, {"type": "Feature", "id": 10541, "geometry": {"type": "LineString", "coordinates": [[-60.749203544052115, 46.09839705322768], [-60.749187053852204, 46.09839691735824], [-60.749160832821474, 46.098405401211224], [-60.749156113753536, 46.09841199556995], [-60.74915209498979, 46.09841759567557]]}, "properties": {"OBJECTID": 10541, "FEAT_CODE": "WACO20", "FEAT_DESC": "Coast - Water to the right line", "RIVNAME_1": " ", "RIVNAME_2": " ", "ZVALUE": 0.2, "FID": null, "SHAPE_Length": 5.025719598067973}}, {"type": "Feature", "id": 14332, "geometry": {"type": "LineString", "coordinates": [[-60.74756322440932, 46.10031546377954], [-60.74754780682884, 46.10031248667992], [-60.74748943123222, 46.10027464993535], [-60.747448601158275, 46.10025996622715], [-60.74744732595812, 46.10025950906322], [-60.74740463809961, 46.1002586673962], [-60.7473905630176, 46.1002630701088], [-60.74735174444522, 46.10027522935196], [-60.74731904499805, 46.100293755546005], [-60.74730475575488, 46.100301826206795], [-60.74728440541011, 46.10034116190442]]}, "properties": {"OBJECTID": 14332, "FEAT_CODE": "WACO25", "FEAT_DESC": "Coastline Indefinite - Water to the right line", "RIVNAME_1": " ", "RIVNAME_2": " ", "ZVALUE": 0.2, "FID": null, "SHAPE_Length": 28.18900881557787}}, {"type": "Feature", "id": 14333, "geometry": {"type": "LineString", "coordinates": [[-60.74767476832259, 46.10026711637898], [-60.74760899347243, 46.100293712014]]}, "properties": {"OBJECTID": 14333, "FEAT_CODE": "WACO25", "FEAT_DESC": "Coastline Indefinite - Water to the right line", "RIVNAME_1": " ", "RIVNAME_2": " ", "ZVALUE": 0.2, "FID": null, "SHAPE_Length": 5.8824995534785325}}, {"type": "Feature", "id": 14334, "geometry": {"type": "LineString", "coordinates": [[-60.74791027538464, 46.10004402980418], [-60.74789546115807, 46.10003704144599], [-60.74785859944907, 46.10003293062993], [-60.74782522933595, 46.10003870811851], [-60.74781959673201, 46.10004040617072], [-60.74779563922771, 46.100047611265616], [-60.747770349737884, 46.100057976254604], [-60.7477570003229, 46.10006616450456], [-60.747732889088425, 46.1000809539309], [-60.747689502849546, 46.100105515859276], [-60.747678788757334, 46.10012015537049], [-60.74763594635767, 46.1001786866791], [-60.74764191524697, 46.100211925992795], [-60.747644202898954, 46.10022468872231], [-60.74764970886112, 46.10023530979117], [-60.74766004885604, 46.100255260617985]]}, "properties": {"OBJECTID": 14334, "FEAT_CODE": "WACO25", "FEAT_DESC": "Coastline Indefinite - Water to the right line", "RIVNAME_1": " ", "RIVNAME_2": " ", "ZVALUE": 0.2, "FID": null, "SHAPE_Length": 37.77029590824619}}, {"type": "Feature", "id": 14335, "geometry": {"type": "LineString", "coordinates": [[-60.74878687064787, 46.099562510682716], [-60.74875057409252, 46.099582973506294], [-60.7487240792894, 46.09960038930604], [-60.748715463840384, 46.099609570997565], [-60.748698475886684, 46.099627687153514], [-60.74868142179217, 46.09966680904326], [-60.748665725255215, 46.099698010288925], [-60.74866092717332, 46.0997094003065], [-60.74864706434348, 46.099742275765465]]}, "properties": {"OBJECTID": 14335, "FEAT_CODE": "WACO25", "FEAT_DESC": "Coastline Indefinite - Water to the right line", "RIVNAME_1": " ", "RIVNAME_2": " ", "ZVALUE": 0.2, "FID": null, "SHAPE_Length": 23.399401485035394}}, {"type": "Feature", "id": 14336, "geometry": {"type": "LineString", "coordinates": [[-60.74913228843322, 46.09894320955522], [-60.74912920736915, 46.09894865712561], [-60.74911414316943, 46.098975460675184]]}, "properties": {"OBJECTID": 14336, "FEAT_CODE": "WACO25", "FEAT_DESC": "Coastline Indefinite - Water to the right line", "RIVNAME_1": " ", "RIVNAME_2": " ", "ZVALUE": 0.2, "FID": null, "SHAPE_Length": 3.849511605585303}}, {"type": "Feature", "id": 14337, "geometry": {"type": "LineString", "coordinates": [[-60.749271195352016, 46.098740952028365], [-60.74926691624541, 46.09876407087829]]}, "properties": {"OBJECTID": 14337, "FEAT_CODE": "WACO25", "FEAT_DESC": "Coastline Indefinite - Water to the right line", "RIVNAME_1": " ", "RIVNAME_2": " ", "ZVALUE": 0.2, "FID": null, "SHAPE_Length": 2.5908778451508963}}, {"type": "Feature", "id": 14338, "geometry": {"type": "LineString", "coordinates": [[-60.74915209498979, 46.09841759567557], [-60.74913476957135, 46.09844178955248], [-60.74913473079892, 46.098445919993765], [-60.749134728462955, 46.09844661298216]]}, "properties": {"OBJECTID": 14338, "FEAT_CODE": "WACO25", "FEAT_DESC": "Coastline Indefinite - Water to the right line", "RIVNAME_1": " ", "RIVNAME_2": " ", "ZVALUE": 0.2, "FID": null, "SHAPE_Length": 3.5405058718441027}}, {"type": "Feature", "id": 14339, "geometry": {"type": "LineString", "coordinates": [[-60.749319959041664, 46.0983979966228], [-60.749203544052115, 46.09839705322768]]}, "properties": {"OBJECTID": 14339, "FEAT_CODE": "WACO25", "FEAT_DESC": "Coastline Indefinite - Water to the right line", "RIVNAME_1": " ", "RIVNAME_2": " ", "ZVALUE": 0.2, "FID": null, "SHAPE_Length": 9.002249774532059}}, {"type": "Feature", "id": 15874, "geometry": {"type": "LineString", "coordinates": [[-60.75353739952961, 46.09548925437808], [-60.75352151657521, 46.095488204027724], [-60.753320791896485, 46.09547495043516], [-60.7532998259289, 46.09549361008547], [-60.753287067647605, 46.09550799391909], [-60.75328319006715, 46.095512363886506], [-60.753285114659974, 46.09553600091449], [-60.75329171008808, 46.095559306775684], [-60.75331098960254, 46.09562736929844], [-60.75333405048984, 46.095716675236154], [-60.753341049979085, 46.09573990803568], [-60.75334655509438, 46.095770626823196], [-60.753349304044804, 46.09578575663441], [-60.75361723111604, 46.09593517630494], [-60.75363329720611, 46.09594414163754]]}, "properties": {"OBJECTID": 15874, "FEAT_CODE": "WACO25", "FEAT_DESC": "Coastline Indefinite - Water to the right line", "RIVNAME_1": " ", "RIVNAME_2": " ", "ZVALUE": 0.2, "FID": null, "SHAPE_Length": 80.8945009231565}}, {"type": "Feature", "id": 15875, "geometry": {"type": "LineString", "coordinates": [[-60.75382672597204, 46.09594754874942], [-60.7538762779475, 46.0959627796826], [-60.75390143772601, 46.09598037518416], [-60.753898774734246, 46.09598764919493], [-60.753888355162864, 46.09601611977475], [-60.7538751717899, 46.09603873972693], [-60.7538618917068, 46.09606151078378], [-60.75383533337223, 46.09607898052809], [-60.753704570626944, 46.09617720558973], [-60.753640279162894, 46.09623085321947], [-60.75360036556233, 46.09625796980516], [-60.75358707319891, 46.09626670888829], [-60.75348218685905, 46.09636455145163], [-60.753477306731654, 46.09637035078349], [-60.7534623012365, 46.09638813761797]]}, "properties": {"OBJECTID": 15875, "FEAT_CODE": "WACO25", "FEAT_DESC": "Coastline Indefinite - Water to the right line", "RIVNAME_1": " ", "RIVNAME_2": " ", "ZVALUE": 0.2, "FID": null, "SHAPE_Length": 64.29636569709844}}, {"type": "Feature", "id": 15876, "geometry": {"type": "LineString", "coordinates": [[-60.75029871304468, 46.096216511511905], [-60.75026273034254, 46.09621979014404], [-60.75019914367353, 46.09622614335523], [-60.75010498909726, 46.096249274416884], [-60.75005670286218, 46.096261140125975], [-60.749995623672696, 46.09627168281259]]}, "properties": {"OBJECTID": 15876, "FEAT_CODE": "WACO25", "FEAT_DESC": "Coastline Indefinite - Water to the right line", "RIVNAME_1": " ", "RIVNAME_2": " ", "ZVALUE": 0.2, "FID": null, "SHAPE_Length": 24.321015916210012}}, {"type": "Feature", "id": 15877, "geometry": {"type": "LineString", "coordinates": [[-60.750550113430904, 46.09616079871088], [-60.75054996903932, 46.09616084987057], [-60.75054911561674, 46.09616115708329], [-60.75053570012497, 46.0961659151887], [-60.750380676102466, 46.096209071023885], [-60.75036880744219, 46.096210151383076]]}, "properties": {"OBJECTID": 15877, "FEAT_CODE": "WACO25", "FEAT_DESC": "Coastline Indefinite - Water to the right line", "RIVNAME_1": " ", "RIVNAME_2": " ", "ZVALUE": 0.2, "FID": null, "SHAPE_Length": 15.08842772056943}}, {"type": "Feature", "id": 15878, "geometry": {"type": "LineString", "coordinates": [[-60.751119600124916, 46.09601989361062], [-60.75105367380626, 46.09603224954491], [-60.75104203203545, 46.096034432495294], [-60.75099645055732, 46.096042787667365], [-60.75099426774353, 46.09604365374275], [-60.750951702678414, 46.096060546700585], [-60.750942269442966, 46.09606154905684], [-60.75084540497952, 46.09607180174099], [-60.75077576473178, 46.096083859387655], [-60.75077166055556, 46.09608457062601], [-60.750664609656305, 46.096120381897265], [-60.75062533372849, 46.0961343333414], [-60.75059051830813, 46.09614644649957]]}, "properties": {"OBJECTID": 15878, "FEAT_CODE": "WACO25", "FEAT_DESC": "Coastline Indefinite - Water to the right line", "RIVNAME_1": " ", "RIVNAME_2": " ", "ZVALUE": 0.2, "FID": null, "SHAPE_Length": 43.63663710616297}}, {"type": "Feature", "id": 15879, "geometry": {"type": "LineString", "coordinates": [[-60.75236145788293, 46.096037491905506], [-60.75236175753684, 46.0960157977171], [-60.752354244963946, 46.09599851306127]]}, "properties": {"OBJECTID": 15879, "FEAT_CODE": "WACO25", "FEAT_DESC": "Coastline Indefinite - Water to the right line", "RIVNAME_1": " ", "RIVNAME_2": " ", "ZVALUE": 0.2, "FID": null, "SHAPE_Length": 4.418517568930454}}, {"type": "Feature", "id": 15880, "geometry": {"type": "LineString", "coordinates": [[-60.75352524240998, 46.09542292502339], [-60.753552395762306, 46.09542774316362], [-60.75356029532803, 46.095429140556455], [-60.75356007361212, 46.09544892818635], [-60.75355987251142, 46.09546438700512]]}, "properties": {"OBJECTID": 15880, "FEAT_CODE": "WACO25", "FEAT_DESC": "Coastline Indefinite - Water to the right line", "RIVNAME_1": " ", "RIVNAME_2": " ", "ZVALUE": 0.2, "FID": null, "SHAPE_Length": 6.7149969442997826}}, {"type": "Feature", "id": 15881, "geometry": {"type": "LineString", "coordinates": [[-60.75392620269558, 46.09487287967847], [-60.75388562374324, 46.09489538405676], [-60.75386671059396, 46.094905875760304], [-60.753826287360866, 46.09492900421006], [-60.753779481089865, 46.094955760334955], [-60.75356675746672, 46.095084100356104], [-60.7534961248579, 46.09512986483666]]}, "properties": {"OBJECTID": 15881, "FEAT_CODE": "WACO25", "FEAT_DESC": "Coastline Indefinite - Water to the right line", "RIVNAME_1": " ", "RIVNAME_2": " ", "ZVALUE": 0.2, "FID": null, "SHAPE_Length": 43.85216466031655}}, {"type": "Feature", "id": 15882, "geometry": {"type": "LineString", "coordinates": [[-60.75450147170841, 46.094402663884324], [-60.7545046944879, 46.09440995459013], [-60.754504723462155, 46.09447295831736], [-60.75448997089844, 46.09451767061114], [-60.75448480640629, 46.094531753813456]]}, "properties": {"OBJECTID": 15882, "FEAT_CODE": "WACO25", "FEAT_DESC": "Coastline Indefinite - Water to the right line", "RIVNAME_1": " ", "RIVNAME_2": " ", "ZVALUE": 0.2, "FID": null, "SHAPE_Length": 14.56518053380755}}, {"type": "Feature", "id": 15883, "geometry": {"type": "LineString", "coordinates": [[-60.754166174323835, 46.09414334946328], [-60.754206228560065, 46.09415827654763], [-60.75429423847529, 46.094219742568995], [-60.754354736052996, 46.09426199179929], [-60.75442426642733, 46.09431086286592], [-60.75443847937916, 46.09432085371648], [-60.75448378357209, 46.094362606232885], [-60.75449407857691, 46.09438593074096], [-60.75450147170841, 46.094402663884324]]}, "properties": {"OBJECTID": 15883, "FEAT_CODE": "WACO25", "FEAT_DESC": "Coastline Indefinite - Water to the right line", "RIVNAME_1": " ", "RIVNAME_2": " ", "ZVALUE": 0.2, "FID": null, "SHAPE_Length": 39.46356895923602}}, {"type": "Feature", "id": 17422, "geometry": {"type": "LineString", "coordinates": [[-60.74197771320534, 46.09819243542766], [-60.74198628748094, 46.0981963220797], [-60.74206388830512, 46.09819695574995], [-60.74224442312202, 46.09817982263231], [-60.742309794305854, 46.09816311359669], [-60.7423881791615, 46.098144861597504], [-60.7424914305259, 46.09811900050725], [-60.74256253674306, 46.09809269316704], [-60.74263461493678, 46.09806602696876], [-60.74264810801875, 46.09806288240522], [-60.74267380078834, 46.09805690073446], [-60.7428290021003, 46.09805816708121], [-60.74290623563852, 46.09806779337143], [-60.7429446742883, 46.09807665317999], [-60.74308641853258, 46.09812265556081], [-60.7431377478869, 46.09813267000242], [-60.74317657955663, 46.098132537047775], [-60.74321576537332, 46.098123410626854], [-60.74324235419884, 46.098105934954646], [-60.74324631596185, 46.09809762479495], [-60.74325509000584, 46.09807918518419], [-60.743255554072746, 46.09804055542411], [-60.743255632606115, 46.09803419365804], [-60.743242500829076, 46.0980069329135], [-60.74319260316605, 46.09796184504918], [-60.74314051098957, 46.09790681331733], [-60.74310296930189, 46.09784396859869], [-60.74304029160209, 46.097699623256794], [-60.74298926442018, 46.097618511188934], [-60.74296559693057, 46.09750103777314], [-60.74295410955885, 46.0974018058815], [-60.74295594233047, 46.09729383669116], [-60.742980871011326, 46.097285328730244], [-60.742983412063, 46.097159372630074], [-60.74302474442447, 46.09697117972097], [-60.74303241842313, 46.09695559853663], [-60.743051545084455, 46.096916806429086], [-60.74318197432698, 46.096827578415976], [-60.7431814924814, 46.09681212412444], [-60.74318141611575, 46.0968095574875], [-60.74322166508077, 46.09677435975939], [-60.743240431677336, 46.09676118478972], [-60.74326029131519, 46.096747221367664], [-60.743428766785456, 46.09667674550801], [-60.74349380553329, 46.09666812963291], [-60.74364938292016, 46.09666040184721], [-60.74380460415405, 46.096660767221536], [-60.743920663735345, 46.0966443292405], [-60.74392171779451, 46.096644179047075], [-60.74395336638301, 46.09663774767265], [-60.74405086928073, 46.09661792796224], [-60.7441189900679, 46.09659718598022], [-60.744167460555296, 46.09658242827458], [-60.74422064769046, 46.09656431650592], [-60.74434981097468, 46.096520325427676], [-60.74444888341203, 46.09649849326384], [-60.74446601161972, 46.09649470921786], [-60.74484164195239, 46.09645173107931], [-60.74494547406853, 46.09644388013372], [-60.74499758537287, 46.09643500823145], [-60.74517921387946, 46.096390890712186], [-60.745259777779324, 46.09636511936926], [-60.74542565091543, 46.09631205007826], [-60.74548600853492, 46.09629162210223], [-60.74563423253112, 46.09624146238373], [-60.74577648308961, 46.096179466021994], [-60.74599876052285, 46.09609024695061], [-60.746128606298086, 46.09604690635699], [-60.746361417221564, 46.09598489573899], [-60.746465588959154, 46.09596804966004], [-60.74664573060728, 46.095930191794224], [-60.74667309440751, 46.09592444019219], [-60.74672293053719, 46.09590725121374], [-60.74677674284047, 46.095888682561004], [-60.746824909949936, 46.095861335113284], [-60.74685488018692, 46.09584432130535], [-60.74687327972204, 46.0958372678062], [-60.747062532024664, 46.095764712212734], [-60.747115375200686, 46.09573785287449], [-60.74724542881859, 46.09565761325941], [-60.74736325100616, 46.0955600404667], [-60.74744250100037, 46.09552581725373], [-60.74750679096787, 46.095498058370666], [-60.74755348394729, 46.09547798091665], [-60.74761081733246, 46.09545330698172], [-60.74764059400279, 46.095439763325096], [-60.74768858709049, 46.09541793835852], [-60.74781863913092, 46.095337698057605], [-60.74811935337207, 46.09513301521975], [-60.74815853665817, 46.09512387805162], [-60.74826141324318, 46.09510701380686], [-60.7482876827345, 46.09509762206788], [-60.748429949108875, 46.09509863487073], [-60.74864944643247, 46.095109260857335], [-60.7488175662379, 46.095110782647076], [-60.748830672580716, 46.095106306665805], [-60.748870042205056, 46.09509290671125], [-60.74888854439845, 46.09507378530444], [-60.7488957012425, 46.09506641094641], [-60.748912706147806, 46.09504625198241], [-60.74894871462194, 46.09500355230603], [-60.74897515074859, 46.09497321964122], [-60.748988069038475, 46.094958425418945], [-60.74901072123364, 46.09493396748855], [-60.749054374930516, 46.094886828181856], [-60.74906747460657, 46.09487329758748], [-60.74908003378179, 46.09486033237135], [-60.74909331356468, 46.09485159356291], [-60.74921118068957, 46.09475311069764], [-60.74926564524995, 46.09472673232862], [-60.74930224110528, 46.09470900236453], [-60.7493240768206, 46.09469760594303], [-60.74935378954445, 46.09468211648172], [-60.74947130013468, 46.094655629938984], [-60.74954010641501, 46.09463573526724], [-60.749561628192204, 46.094629507876085], [-60.749588213345284, 46.094612030649365], [-60.74971533609387, 46.09455660773254], [-60.749730455393895, 46.094550029189236], [-60.74977014165631, 46.09452279246541], [-60.74982227064645, 46.09448703435933], [-60.7498545251856, 46.094445952542785], [-60.74992734366298, 46.09435319699547], [-60.749958309401975, 46.09432661649607], [-60.7499796233221, 46.094308324326235], [-60.75002782736903, 46.09428094925072], [-60.7500577562656, 46.0942639517871], [-60.75009317724853, 46.09423979010908], [-60.750162875611004, 46.094192227238345], [-60.750274694969164, 46.09412529676359], [-60.75037105326689, 46.09406762021462], [-60.75051439055487, 46.093978637984335], [-60.75055001309335, 46.09394951188279], [-60.75057996163473, 46.09392502629204], [-60.750580693646484, 46.09390703079898], [-60.75058318900469, 46.09388384976232], [-60.7505952420037, 46.093772319453535], [-60.75058392422017, 46.09372138806309], [-60.75058313472734, 46.09371789834367], [-60.75057041265777, 46.09368272609663], [-60.75048113527169, 46.09355586194367], [-60.75046967227636, 46.09351963442144], [-60.750469154124815, 46.09351774312414], [-60.7504572825003, 46.09347438819581], [-60.75047055023694, 46.09340264581522], [-60.75048457403724, 46.09337592058682], [-60.7505056918336, 46.093278159451], [-60.750511670320726, 46.09325044776467], [-60.750514547953294, 46.09305249444249], [-60.75050267025082, 46.09289925285299], [-60.750503136044514, 46.09287380874024], [-60.750505742639106, 46.09272831371888], [-60.75048838105827, 46.09268349162245], [-60.75048114593604, 46.092664817225895], [-60.75045975706497, 46.092634406558], [-60.750379652229434, 46.09252061156512], [-60.75032844787579, 46.09247550105472], [-60.75028947456336, 46.0924477322382]]}, "properties": {"OBJECTID": 17422, "FEAT_CODE": "WACOIS10", "FEAT_DESC": "Coastal Island - Water to the right line", "RIVNAME_1": " ", "RIVNAME_2": " ", "ZVALUE": 0.2, "FID": null, "SHAPE_Length": 1113.597779140307}}, {"type": "Feature", "id": 18000, "geometry": {"type": "LineString", "coordinates": [[-60.75028947456336, 46.0924477322382], [-60.75023847830511, 46.09242962714894], [-60.75019908969219, 46.09241175062333], [-60.750160677353136, 46.09240199371918], [-60.74990274149029, 46.09238251315823], [-60.74983807459437, 46.092382139551376], [-60.74977304176608, 46.09239075915525], [-60.74959127179496, 46.09240697979044], [-60.74944953593542, 46.09242488883163], [-60.749307104569226, 46.09245988485948], [-60.74911223661968, 46.092511848514235], [-60.74894354996893, 46.09255622729846], [-60.748709500326655, 46.092617318735144], [-60.74859292025155, 46.09265282328824], [-60.74835902897172, 46.09267791530785], [-60.74830273658223, 46.092699342976445], [-60.74824209529426, 46.092722412988564], [-60.74823401561678, 46.09272831104522], [-60.74823009522515, 46.09273118592375], [-60.74813774505603, 46.09277525898858], [-60.74793470047139, 46.09286594143016], [-60.74791770343624, 46.09287352677445], [-60.74788070933556, 46.092895019638235], [-60.74782627877819, 46.092926627286424], [-60.747735586492084, 46.09296174125394], [-60.74752701994628, 46.09303233309885], [-60.74730568362377, 46.09313057417753], [-60.747228283261734, 46.09315694937714], [-60.747084922450185, 46.09318292385076], [-60.7469288286826, 46.09323564839766], [-60.74674740523848, 46.09330677411292], [-60.74663085915434, 46.093341377287075], [-60.746527202543696, 46.09337713463135], [-60.746460901511426, 46.0934050873113], [-60.74642320266584, 46.093420994519654], [-60.74633082621404, 46.09346596564857], [-60.746293127657005, 46.09348186381916], [-60.746226839310204, 46.0935098166133], [-60.746057643946706, 46.09359828332327], [-60.745966192603035, 46.09365228186273], [-60.74588804517137, 46.093696633321606], [-60.74581267188979, 46.09373100395765], [-60.74577072751971, 46.09375013034798], [-60.74574028565558, 46.09376191430602], [-60.74568003261916, 46.09378524263], [-60.745625818090716, 46.093811498220234], [-60.74558898389857, 46.09382934831195], [-60.74553105663087, 46.093863531996945], [-60.74549750586784, 46.093883345948576], [-60.745328674889706, 46.09396281831316], [-60.745274320870095, 46.09399439025153], [-60.74523724598253, 46.09401591666488], [-60.745081670698326, 46.09408754987059], [-60.745031359374124, 46.09411388221752], [-60.74496402175573, 46.09414913093598], [-60.744927802271945, 46.09416902705], [-60.74489917857801, 46.094184752869], [-60.74483574155254, 46.09420429171004], [-60.74475638612319, 46.094228736545304], [-60.74458750344094, 46.09430910683714], [-60.744531164751145, 46.09434237632759], [-60.744482779963775, 46.094370942577335], [-60.74444323019657, 46.094389062702255], [-60.74431354253485, 46.09446030591305], [-60.74426073597702, 46.09448626463705], [-60.744157076107136, 46.09452201076309], [-60.744117549522265, 46.094539240187935], [-60.743988253851626, 46.09460149031551], [-60.743961984273206, 46.09461087206416], [-60.743900952230526, 46.09464691070603], [-60.74385725916676, 46.09467271619772], [-60.7437667170785, 46.09473572238066], [-60.7436972613419, 46.09479494172896], [-60.743609898484706, 46.094869432150354], [-60.743309169468034, 46.095074102844755], [-60.74322660724219, 46.09514252248764], [-60.743125724670826, 46.09522618694571], [-60.743020808929806, 46.0953240283536], [-60.74298658432429, 46.095359039018064], [-60.74296815603948, 46.09537788191645], [-60.74292786963299, 46.09541782206001], [-60.74282394684286, 46.09552079515916], [-60.74269349504755, 46.09567307049915], [-60.74258786960741, 46.09578888938607], [-60.74253635257655, 46.09588049508568], [-60.74252229100243, 46.09590549950115], [-60.742503862372985, 46.095924342316714], [-60.742469636692725, 46.095959361803246], [-60.742376924518986, 46.09607542666063], [-60.742303468005666, 46.096175518148435], [-60.74227143869165, 46.09621915840905], [-60.742265760602834, 46.09623053077436], [-60.74224467435632, 46.09627263219671], [-60.74221321655012, 46.09630480815922], [-60.74219201941775, 46.09632649435627], [-60.74215794885916, 46.09636657506717], [-60.74210096558511, 46.09643360030737], [-60.742074792144315, 46.09645168695721], [-60.742049044834914, 46.09646947600773], [-60.74199193931914, 46.09653917191083], [-60.7419169692543, 46.09663067380128], [-60.74186415640482, 46.09670264159396], [-60.74182518017644, 46.09675575689825], [-60.74180966566895, 46.09678021047867], [-60.74178508372474, 46.096818876548504], [-60.74175350974303, 46.09686085157709], [-60.74173173030476, 46.09688981654236], [-60.74167999929428, 46.096952706176545], [-60.74166597030574, 46.09697943021367], [-60.74165302109772, 46.097043068440605], [-60.74163899170437, 46.09706980146656], [-60.74163499340169, 46.09735774584213], [-60.74164723720704, 46.097438082877815], [-60.741671283394766, 46.09760956675718], [-60.74169513893671, 46.09775404550953]]}, "properties": {"OBJECTID": 18000, "FEAT_CODE": "WACOIS10", "FEAT_DESC": "Coastal Island - Water to the right line", "RIVNAME_1": " ", "RIVNAME_2": " ", "ZVALUE": 0.2, "FID": null, "SHAPE_Length": 967.1641470770766}}, {"type": "Feature", "id": 18001, "geometry": {"type": "LineString", "coordinates": [[-60.74169513893671, 46.09775404550953], [-60.74176333354245, 46.09791021022843], [-60.74176967524193, 46.09792472729982], [-60.741774759138075, 46.09793361222866], [-60.741857837172766, 46.09807857750291]]}, "properties": {"OBJECTID": 18001, "FEAT_CODE": "WACOIS10", "FEAT_DESC": "Coastal Island - Water to the right line", "RIVNAME_1": " ", "RIVNAME_2": " ", "ZVALUE": 0.2, "FID": null, "SHAPE_Length": 38.23674311055484}}, {"type": "Feature", "id": 18002, "geometry": {"type": "LineString", "coordinates": [[-60.741857837172766, 46.09807857750291], [-60.74189662065595, 46.098142347220055], [-60.74194691053345, 46.09817844295411], [-60.74197771320534, 46.09819243542766]]}, "properties": {"OBJECTID": 18002, "FEAT_CODE": "WACOIS10", "FEAT_DESC": "Coastal Island - Water to the right line", "RIVNAME_1": " ", "RIVNAME_2": " ", "ZVALUE": 0.2, "FID": null, "SHAPE_Length": 16.128251870747157}}, {"type": "Feature", "id": 25521, "geometry": {"type": "LineString", "coordinates": [[-60.74564135690171, 46.1013527769925], [-60.745677425054765, 46.10141158656252], [-60.745679463130045, 46.10141491193994], [-60.74566582016127, 46.10149564672926], [-60.74565281779956, 46.101510537910535], [-60.74562645821957, 46.10154077228896], [-60.7456131633286, 46.101549510390285], [-60.745522442419855, 46.101584622011536], [-60.74536647372292, 46.10160224512976], [-60.74523659041693, 46.10164648414367], [-60.74514695660673, 46.10165461559063], [-60.74483600492989, 46.10169708040075], [-60.74475581449078, 46.10171603647141], [-60.744576018880345, 46.10175855141122], [-60.74445849090582, 46.101785032567555], [-60.74439437212823, 46.101802667601056], [-60.74438037224287, 46.101807431444726], [-60.744341888706224, 46.101820532324766], [-60.74431949005154, 46.10182977456629], [-60.74427740290342, 46.10184716048969], [-60.74419906295021, 46.10186451462518], [-60.744173206498274, 46.10186400408645], [-60.74408286410377, 46.10189012159415], [-60.744056647043045, 46.10189622823489], [-60.74404367572498, 46.101899248260686], [-60.74403001314539, 46.101916988361076], [-60.74401059200064, 46.10193062755107], [-60.743991371008896, 46.101944117682585], [-60.74399063701513, 46.10196210407551], [-60.74397663771664, 46.10205182306664], [-60.74397729266959, 46.10205479714582], [-60.74398865645228, 46.102106072059726], [-60.74402712770523, 46.10217793524052], [-60.744049437551, 46.102235555595016], [-60.744051708200494, 46.10224142371861], [-60.74405374253566, 46.10224483905531], [-60.74408495487282, 46.102297054918175], [-60.744089253776266, 46.10230426815508], [-60.744140286656624, 46.10238537977871], [-60.744152481051636, 46.10240362144827], [-60.74419186169975, 46.10242149986944], [-60.74421735107954, 46.102431012599006], [-60.74430788665695, 46.10243189112792], [-60.74433619725366, 46.10241633929729], [-60.74437274044613, 46.10239626076921], [-60.744425224045514, 46.10237840503602], [-60.74446437601647, 46.102370177564225], [-60.7445420194823, 46.102369910338325], [-60.744539700233915, 46.102507625327846], [-60.74453929354223, 46.102531864491304], [-60.744536503903326, 46.102539666804574], [-60.74452615363435, 46.102568506896915], [-60.744525786716515, 46.10257750009572]]}, "properties": {"OBJECTID": 25521, "FEAT_CODE": "WACORV20", "FEAT_DESC": "Coast River - Water to the right line", "RIVNAME_1": "Mile Brook", "RIVNAME_2": " ", "ZVALUE": 0.2, "FID": null, "SHAPE_Length": 268.5218954044821}}, {"type": "Feature", "id": 25522, "geometry": {"type": "LineString", "coordinates": [[-60.744525786716515, 46.10257750009572], [-60.744603622598525, 46.10260423795369], [-60.74465574057298, 46.102604861805744], [-60.74472001491807, 46.10260563560209], [-60.74480285662596, 46.102586740892946], [-60.74482538594263, 46.102581596337785], [-60.74483623913592, 46.10257911944155], [-60.74488529056934, 46.10256420189609], [-60.744952855217456, 46.102543628455926], [-60.74501857698935, 46.102515260220024], [-60.745096415832855, 46.102481658834016], [-60.745118749256164, 46.102472433154134], [-60.74516090201042, 46.102455030215744], [-60.745393722780406, 46.10245692492694], [-60.74545876809994, 46.102448308059934], [-60.74551125178416, 46.10243044282913], [-60.74552291298062, 46.10241989041456], [-60.74555021105568, 46.10239520985493], [-60.74556959247941, 46.102381587621274], [-60.745588853137455, 46.10236807100659], [-60.745718737894194, 46.10232383162315], [-60.74574569473736, 46.1022973621959], [-60.74581482044367, 46.102221988350784], [-60.74587704010035, 46.10215414658229], [-60.74591530260491, 46.102135991576105], [-60.74596811549218, 46.10211004123211], [-60.746000378803906, 46.10208796964926], [-60.74603333379422, 46.10206543467988], [-60.746036701724776, 46.10205423257102], [-60.74604680294111, 46.10202068919603], [-60.74606712876092, 46.10197945414945], [-60.74607360329142, 46.10196631522998], [-60.74607374119328, 46.101958172549665], [-60.74607451041353, 46.10191233046809], [-60.7460231084075, 46.10184021286771], [-60.7459977691661, 46.10179464772728], [-60.745984988494456, 46.10175935684792], [-60.746000514005495, 46.10163275690386], [-60.74600129573835, 46.10158660905224], [-60.74600142118118, 46.10157877214083], [-60.74600629961501, 46.10157177603893], [-60.74601378986542, 46.10156101527763], [-60.74600159502397, 46.10154277379645], [-60.745950019565505, 46.10150665451109], [-60.74591156510303, 46.1014977954113], [-60.74588570879205, 46.10149728526306], [-60.74583376676162, 46.10147015913592], [-60.74580864385517, 46.10145166255334], [-60.74577000967215, 46.10141579852832], [-60.74575948633829, 46.10139749999721], [-60.74575173088849, 46.101327503527074]]}, "properties": {"OBJECTID": 25522, "FEAT_CODE": "WACORV20", "FEAT_DESC": "Coast River - Water to the right line", "RIVNAME_1": "Mile Brook", "RIVNAME_2": " ", "ZVALUE": 0.2, "FID": null, "SHAPE_Length": 234.08344143312306}}, {"type": "Feature", "id": 60260, "geometry": {"type": "LineString", "coordinates": [[-60.74971608220277, 46.09750999411567], [-60.74971644821199, 46.09750100087677], [-60.74973048668289, 46.09741037286215], [-60.74973091777104, 46.097372759479434], [-60.74973098738634, 46.09736628052787], [-60.74978383087281, 46.09733941996632], [-60.749810087900684, 46.09733003663388], [-60.74996528806802, 46.097331284256434], [-60.75009370630322, 46.09732302179407], [-60.750171306202674, 46.097323649935504], [-60.75019808743226, 46.0973331777782], [-60.75021652514631, 46.09735730204599], [-60.750274248077034, 46.0974327734361], [-60.750375738464655, 46.09751398487259], [-60.750452436030045, 46.097568597741926], [-60.7505298655037, 46.097605224074556], [-60.75065904085314, 46.097641969121234], [-60.75073683641542, 46.09766960207281], [-60.750761996290734, 46.097687189263745], [-60.75078731408462, 46.09773269894645], [-60.750824864533, 46.09779554129869], [-60.75082379872227, 46.097848775963435], [-60.75082359643464, 46.09785851946549]]}, "properties": {"OBJECTID": 60260, "FEAT_CODE": "WALK20", "FEAT_DESC": "Lake - Water to the right line", "RIVNAME_1": " ", "RIVNAME_2": " ", "ZVALUE": 1.6, "FID": null, "SHAPE_Length": 134.19592501212674}}, {"type": "Feature", "id": 60261, "geometry": {"type": "LineString", "coordinates": [[-60.75082359643464, 46.09785851946549], [-60.7508207511067, 46.097866446846076], [-60.75081046189335, 46.09789516271818], [-60.75080847361055, 46.09802545905103], [-60.7508081208686, 46.09804812423287], [-60.750744374211266, 46.09805676971332], [-60.75065384623413, 46.09805587842812], [-60.75062706421066, 46.09804635967882], [-60.750614502689885, 46.09803711190976], [-60.750588782082886, 46.09800150375216], [-60.7505250111616, 46.09794714550134], [-60.75047436241515, 46.09792005593508], [-60.75026779378267, 46.09784577589311], [-60.750266082508546, 46.09784363609004], [-60.75021730368944, 46.0977826785454], [-60.75010270379897, 46.09767420745842], [-60.75007721478741, 46.09766471404294], [-60.749986639758, 46.09760172721106], [-60.74992305175872, 46.097574373565685], [-60.749729936179044, 46.0975192674418], [-60.74971608220277, 46.09750999411567]]}, "properties": {"OBJECTID": 60261, "FEAT_CODE": "WALK20", "FEAT_DESC": "Lake - Water to the right line", "RIVNAME_1": " ", "RIVNAME_2": " ", "ZVALUE": 1.6, "FID": null, "SHAPE_Length": 130.64685323987436}}, {"type": "Feature", "id": 117138, "geometry": {"type": "LineString", "coordinates": [[-60.74942439410875, 46.09425058562016], [-60.74946244157149, 46.094269336032546], [-60.7494626070003, 46.09429229044517], [-60.74946263619359, 46.094296341223874], [-60.749463834396146, 46.09429964099207], [-60.749475427919116, 46.094331694973164], [-60.74947527236331, 46.09436253645923], [-60.749475269464874, 46.094367693661326], [-60.7494720769052, 46.09437843131392], [-60.74946175601489, 46.09441332976614], [-60.7494348049051, 46.09443980020702], [-60.7494073778362, 46.09446461418251], [-60.74939585385756, 46.09447503469937], [-60.74933007313607, 46.0945016492234], [-60.74928717255578, 46.094525213289195], [-60.74926524554849, 46.094537264938324], [-60.74908270948287, 46.09463537379051]]}, "properties": {"OBJECTID": 117138, "FEAT_CODE": "WALK20", "FEAT_DESC": "Lake - Water to the right line", "RIVNAME_1": " ", "RIVNAME_2": " ", "ZVALUE": 1.5, "FID": null, "SHAPE_Length": 58.49485194565526}}, {"type": "Feature", "id": 117139, "geometry": {"type": "LineString", "coordinates": [[-60.74908270948287, 46.09463537379051], [-60.74901878507388, 46.09461701344783], [-60.74900622458637, 46.09460776551591], [-60.74901671685256, 46.09457915279771], [-60.74901932284392, 46.094572021782675], [-60.74902005501373, 46.094554035304185], [-60.749045885385534, 46.094491541070624], [-60.74905877732022, 46.09447675532065], [-60.749085239343785, 46.09444641413818], [-60.74912299072838, 46.09441554833636], [-60.749150812350464, 46.094392803305894], [-60.74926829939858, 46.09430331334076], [-60.74932146954675, 46.09426835901312], [-60.749351348346515, 46.09425418688959], [-60.749359725407764, 46.094250202709446], [-60.74938557839344, 46.0942507120105], [-60.74942439410875, 46.09425058562016]]}, "properties": {"OBJECTID": 117139, "FEAT_CODE": "WALK20", "FEAT_DESC": "Lake - Water to the right line", "RIVNAME_1": " ", "RIVNAME_2": " ", "ZVALUE": 1.5, "FID": null, "SHAPE_Length": 61.4920406302713}}, {"type": "Feature", "id": 117140, "geometry": {"type": "LineString", "coordinates": [[-60.74246723891222, 46.097013078242824], [-60.742719140395444, 46.09690195880829], [-60.74276516840754, 46.09692518034265], [-60.74277631064736, 46.096930809758014], [-60.74275820661054, 46.09702567682952], [-60.74273302950159, 46.09713534489484], [-60.74275275030236, 46.09718214985809], [-60.74277466411205, 46.09723418240545], [-60.74276943091835, 46.09727648913055], [-60.74276789450513, 46.09728877139022], [-60.74281108592832, 46.09740050128689], [-60.74279254954785, 46.09743496679749], [-60.74275844454049, 46.09749838516699], [-60.74260576398431, 46.09755900161946], [-60.74254707975997, 46.09758433038086], [-60.74245760470851, 46.09762294737182], [-60.74237563877558, 46.0977175154686], [-60.74234654287117, 46.09775107920274], [-60.7422656877144, 46.09787134745177], [-60.74220491059636, 46.097962490964264], [-60.7421509979414, 46.09801542819306], [-60.74213012732066, 46.098024349189565], [-60.742091599452024, 46.09804080560664], [-60.742077753929415, 46.09804529320627], [-60.742069942377476, 46.09804775795153], [-60.741988640004465, 46.09804336094178]]}, "properties": {"OBJECTID": 117140, "FEAT_CODE": "WALK20", "FEAT_DESC": "Lake - Water to the right line", "RIVNAME_1": " ", "RIVNAME_2": " ", "ZVALUE": 1, "FID": null, "SHAPE_Length": 183.90359624963767}}, {"type": "Feature", "id": 117141, "geometry": {"type": "LineString", "coordinates": [[-60.741988640004465, 46.09804336094178], [-60.7419431116908, 46.09794389716922], [-60.74191417673586, 46.09788069114226], [-60.74189191134986, 46.09777962603629], [-60.74185418780668, 46.09765791436816], [-60.741825104471424, 46.097508382067964], [-60.74180002939665, 46.097394390758254], [-60.74178816775292, 46.09727238020763], [-60.74179718480619, 46.09719731467615], [-60.74183977800411, 46.09717000316453], [-60.741868142058564, 46.097151824861925], [-60.74198751070093, 46.0971212425398], [-60.74212702410359, 46.09708968115265], [-60.74216900591835, 46.09708018732746], [-60.74218287814839, 46.0970772573222], [-60.742314774877954, 46.09704940637179], [-60.742419147989324, 46.09702453956181], [-60.74246723891222, 46.097013078242824]]}, "properties": {"OBJECTID": 117141, "FEAT_CODE": "WALK20", "FEAT_DESC": "Lake - Water to the right line", "RIVNAME_1": " ", "RIVNAME_2": " ", "ZVALUE": 1, "FID": null, "SHAPE_Length": 152.03038504264129}}, {"type": "Feature", "id": 194506, "geometry": {"type": "LineString", "coordinates": [[-60.741988640004465, 46.09804336094178], [-60.741857837172766, 46.09807857750291]]}, "properties": {"OBJECTID": 194506, "FEAT_CODE": "WARV50", "FEAT_DESC": "River - Single Line", "RIVNAME_1": " ", "RIVNAME_2": " ", "ZVALUE": 9999, "FID": null, "SHAPE_Length": 10.845275514732837}}, {"type": "Feature", "id": 312126, "geometry": {"type": "LineString", "coordinates": [[-60.75369908522955, 46.094615762671474], [-60.75369442151849, 46.09459872312424], [-60.7536881116406, 46.09457571091201], [-60.75366478136554, 46.09453379611011], [-60.75366256594883, 46.094530053364515], [-60.75364832147539, 46.094519566772895]]}, "properties": {"OBJECTID": 312126, "FEAT_CODE": "WACO25", "FEAT_DESC": "Coastline Indefinite - Water to the right line", "RIVNAME_1": " ", "RIVNAME_2": " ", "ZVALUE": 0.2, "FID": null, "SHAPE_Length": 11.581466480758765}}]}