{"type": "FeatureCollection", "features": [{"type": "Feature", "id": 16599, "geometry": {"type": "LineString", "coordinates": [[-60.36979748928919, 46.38808737273932], [-60.369744481275035, 46.38814677793016], [-60.36969204061489, 46.388182471678306], [-60.369533459963186, 46.38826161424567], [-60.369520821453655, 46.388275876624284], [-60.36949357850669, 46.38830660617008], [-60.36943945732452, 46.38843136290682], [-60.36943664510652, 46.38855614867588], [-60.369432558219714, 46.388737210228435], [-60.36943669218771, 46.38874915862471], [-60.369445121274055, 46.38877349113484], [-60.36945724863685, 46.38879177965092], [-60.36947391580157, 46.388800317467926], [-60.36950124573643, 46.38881432082545], [-60.36947340813581, 46.38885633190272], [-60.36937787440269, 46.38884957873099], [-60.36934630749484, 46.38884200294119], [-60.36931375057111, 46.38883418834826], [-60.369254185892125, 46.38882974809999], [-60.36922217430472, 46.38882736414316], [-60.36914368218242, 46.38885030766976], [-60.36906110415159, 46.388870583024875], [-60.36895128057226, 46.38890485634069], [-60.368881993874105, 46.38896032227048], [-60.36888389242948, 46.38900929096067], [-60.36891766582703, 46.389060514550486], [-60.36883830705105, 46.38911283250153], [-60.3688247803266, 46.38912175524561], [-60.36880007854725, 46.38920105410127], [-60.36880649040064, 46.389263545974856], [-60.368884423115254, 46.389327720539384], [-60.36899581118227, 46.389334236119744], [-60.36906367753358, 46.38929046465767], [-60.36910810670956, 46.38926182290766], [-60.36928159032649, 46.389232047982475], [-60.369422294767496, 46.389175534739366], [-60.36953888241616, 46.38911122106328], [-60.369576112652155, 46.38904806874097], [-60.36958957207043, 46.38895693671702], [-60.369591826844406, 46.38894168831048], [-60.369746729592904, 46.388841418594126], [-60.369838675437066, 46.388754235004754], [-60.36986922814353, 46.38872527358646], [-60.36988975888405, 46.388689961384095], [-60.36992508012399, 46.38862916805855], [-60.37002070693577, 46.38851896557448], [-60.37005428982873, 46.388480263645455], [-60.37013767158868, 46.38837829343181], [-60.370197254770545, 46.388315763303986], [-60.37021397917322, 46.38829821080775], [-60.37018664523893, 46.38823638956889], [-60.370250176636205, 46.38817911637352], [-60.37028961864508, 46.38815272644657], [-60.370290492073806, 46.38815214353325], [-60.37030062709203, 46.388148020665774], [-60.37035549231843, 46.38812573869788], [-60.370388034781165, 46.38810813615229], [-60.37042092451996, 46.388090343584366], [-60.37043604792482, 46.388085534472474], [-60.37044732800868, 46.38808194195014], [-60.37047691861833, 46.38806784452882], [-60.370539188673575, 46.38803816370354], [-60.37055641198102, 46.38801509652532], [-60.37057950063966, 46.38798419013932], [-60.37065853324283, 46.38790123585666], [-60.37067264112561, 46.38788643114791], [-60.37077882941105, 46.38778807225427], [-60.37108167380234, 46.387575435003676], [-60.37121426693846, 46.38749568349127], [-60.371240015761586, 46.38747815843114], [-60.37126671894982, 46.38745998930486], [-60.3713602895839, 46.387353230462864], [-60.371453427147046, 46.38725547976383], [-60.37148189726885, 46.38722949407032], [-60.37149286096462, 46.387219486038425], [-60.371730286205754, 46.38706924363569], [-60.37178272447799, 46.38703354889561], [-60.37179914617734, 46.38701632221089], [-60.371808747362756, 46.38700624681258], [-60.37185123831044, 46.38692310831877], [-60.37186329728645, 46.38689949916517], [-60.37189104709966, 46.386836236051764], [-60.37191166067091, 46.3868278629293], [-60.37195604502025, 46.38680983025149], [-60.3719917115484, 46.386801083268935], [-60.372060018051236, 46.38678432068834], [-60.37215234161293, 46.386757643132476], [-60.372205776041945, 46.38675834083849], [-60.372243326820666, 46.38675883529062], [-60.3722510135543, 46.38676452015249], [-60.37225588684376, 46.38676812428033], [-60.372307033526475, 46.38678640068976], [-60.372397595414576, 46.386850584261616], [-60.372413943453566, 46.38685438921892], [-60.372436195567545, 46.386859562948906], [-60.37246216606842, 46.386860160075116], [-60.37247165335568, 46.38685380807745], [-60.37254145045144, 46.386807081876384], [-60.3725674724208, 46.38677978859964], [-60.37258132319603, 46.38673510614059], [-60.372583672630135, 46.38663659916846], [-60.37258390499483, 46.38662715432008], [-60.37257305836022, 46.38650091139682], [-60.37256169853268, 46.38644874616896], [-60.37254961327482, 46.38639327019412], [-60.37255065485297, 46.38634963425876], [-60.372552181667366, 46.38628532706105], [-60.37259095249534, 46.386258506897136], [-60.37263485821876, 46.386252325191165], [-60.37270903967779, 46.38624212342299], [-60.372723293493586, 46.38623888704847], [-60.372748488823845, 46.38623313916091], [-60.37332046466807, 46.38623908723948], [-60.37332280110675, 46.38624487405808], [-60.373332597874004, 46.38626919272178], [-60.37334799195678, 46.386289076944685], [-60.373357642932525, 46.386301530015444], [-60.37336197916053, 46.3863019626883], [-60.373381550865524, 46.38630390656273], [-60.3733969463506, 46.38629910331248], [-60.37343650484868, 46.38628675525816], [-60.37348865739796, 46.386257245292406], [-60.37349091684081, 46.38625596519514], [-60.3735456640891, 46.386233363976594], [-60.37356612326965, 46.38619432338767], [-60.37357159045239, 46.38618392782565], [-60.3735539809946, 46.38613784718864], [-60.37354200247408, 46.38613351280566], [-60.373517737955666, 46.38612474696731], [-60.37351296461981, 46.38611092998377], [-60.3734999214794, 46.38607322545354], [-60.37351654053802, 46.38605268198995], [-60.37353786019432, 46.38602633343806], [-60.37358089287305, 46.38600934008508], [-60.373591967138665, 46.38601354567989], [-60.37362922538243, 46.3860277132307], [-60.37365041849781, 46.38604031453762], [-60.373673911370226, 46.386054318720404], [-60.37371624601811, 46.38601826488931], [-60.37379020827069, 46.385979013794014], [-60.37381238463469, 46.38593508052252], [-60.37384341135273, 46.38588965859642], [-60.37386507755975, 46.38585798083909], [-60.373870587071025, 46.38582122470144], [-60.37387777823379, 46.385773274980224], [-60.37387397676531, 46.38573893292849], [-60.37387175418202, 46.3857188474475], [-60.37383227352533, 46.385703836886954], [-60.373823409294985, 46.38570046511878], [-60.37379361847619, 46.385699537502475], [-60.373704129104524, 46.38569675192003], [-60.37363021667648, 46.38569269522751], [-60.373622698990594, 46.38565855576571], [-60.37361847164431, 46.38563932422363], [-60.373632364382736, 46.38559374257849], [-60.373658760959124, 46.38555834849543], [-60.37375417307152, 46.38547294243263], [-60.37377834915975, 46.38545129457244], [-60.37396247549614, 46.38535472376459], [-60.374054777763526, 46.38530104363372], [-60.37422676935506, 46.385159192646356], [-60.37437685023303, 46.385057905823], [-60.374449887687156, 46.38500861584705], [-60.37445107852421, 46.38500846320291], [-60.37455942860775, 46.384994365158846], [-60.3746330021818, 46.38494419636455], [-60.37470547800414, 46.38486404069471], [-60.37475980149471, 46.3848388461059], [-60.37481477660253, 46.38481335145366], [-60.374851418831106, 46.38483736865863], [-60.37486009776824, 46.38483701001525], [-60.3749585051216, 46.384833069405], [-60.375058753719586, 46.38475250744297], [-60.37506141005133, 46.38461062656801], [-60.37507343553185, 46.38451093775183], [-60.37507656930756, 46.3844849182014], [-60.3751233039124, 46.38435328395833], [-60.375166682797065, 46.38428727395882], [-60.37517218236856, 46.38427890410366], [-60.375242418671384, 46.384245137598235], [-60.37526773856539, 46.38423595394623], [-60.375328635746094, 46.38421387113036], [-60.37539399852614, 46.384155620101986], [-60.37553211912172, 46.38407203043286], [-60.375564935040074, 46.38405216464352], [-60.375596373266525, 46.38402739810657], [-60.3756884311819, 46.38395486465593], [-60.37601956105806, 46.38367168136819], [-60.37608284186584, 46.38359660579552], [-60.376175591890565, 46.383486548072945], [-60.376445412130394, 46.38337070931789], [-60.3764703515315, 46.38340037946024], [-60.37649464413541, 46.38339687806918], [-60.37653357785383, 46.38339126473739], [-60.37657633715658, 46.383366073811416], [-60.376634082540505, 46.38331610737551], [-60.376639374253756, 46.383299857516235], [-60.37664835876843, 46.38327222619309], [-60.37665008607126, 46.38321285562682], [-60.376650120114135, 46.38321214539373], [-60.376642209639925, 46.383194035434414], [-60.376624083312244, 46.38315246148282], [-60.3767558133587, 46.38302004162924], [-60.376781158891546, 46.38299456789574], [-60.3768241099167, 46.38294338874365], [-60.376929598367504, 46.382817674477124], [-60.37696779978522, 46.3828029090012], [-60.37698835098825, 46.382794974539436], [-60.37707787669114, 46.38274453129753], [-60.377127799912, 46.38269738213618], [-60.377086376496315, 46.38265156547018], [-60.37706942146215, 46.382615940591904], [-60.377060559882416, 46.382597322820246], [-60.37706409004978, 46.38258010548955], [-60.377070659902074, 46.38254803561899], [-60.37713667146905, 46.382520399108074], [-60.377145005879754, 46.38251690931993], [-60.37719339731897, 46.38245775472579], [-60.37722866465932, 46.38241465224007], [-60.37724197903827, 46.382396255429555], [-60.377300518803985, 46.38231529224575], [-60.37736230467573, 46.38226021606036], [-60.37736593172527, 46.382256987231436], [-60.3774401555705, 46.38224712537545], [-60.37750432757796, 46.38223859883064], [-60.377563951215336, 46.38220638738859], [-60.37766018207975, 46.38215439652271], [-60.37774695138099, 46.38213674918111], [-60.377823506774064, 46.38205921418022], [-60.37785434020454, 46.38206195570907], [-60.377875420524624, 46.38206387043118], [-60.37795483126446, 46.38206273143219], [-60.37804784836123, 46.38199854325159], [-60.37804668998516, 46.38196680002018], [-60.378046067096214, 46.38194939737021], [-60.37804089655783, 46.38191670706721], [-60.37804028995751, 46.381900321811784], [-60.37808337634113, 46.38187124974406], [-60.37810235260559, 46.38185844584766], [-60.378125083713535, 46.381828069730915], [-60.378111551821064, 46.38182278216584], [-60.378065480090115, 46.381804768779546], [-60.37814602277443, 46.38164370431534], [-60.378191065998614, 46.38159115061553], [-60.378199743566775, 46.381581035486064], [-60.378220259061045, 46.38155835767846], [-60.37846614105519, 46.38128654073098], [-60.37869180217001, 46.381082012827825], [-60.37871374342681, 46.38106974484996], [-60.37877065452976, 46.38103792056607], [-60.378927902375096, 46.380958725586844], [-60.379070875471285, 46.38093320412441], [-60.37915014610307, 46.38088012100698], [-60.379154363816724, 46.380688828765365], [-60.37915570421029, 46.380628243247294], [-60.379168729971845, 46.3806006413995], [-60.37927440980839, 46.380539163669425], [-60.3792926756717, 46.380526514286274], [-60.37931341611122, 46.38051215761202], [-60.37949835611083, 46.380370595585866], [-60.379597634939685, 46.38027058497633], [-60.37960493111566, 46.380263237121895], [-60.37960726227808, 46.38026126553342], [-60.379763458268556, 46.38013007820106], [-60.379843156534534, 46.38006799521771], [-60.3799354060372, 46.3799882085688], [-60.379975694565445, 46.379907230557215], [-60.38002899418132, 46.379853551391065], [-60.38004696263891, 46.37982944682978], [-60.38005538375347, 46.37981815565416], [-60.38007223575929, 46.37979210845295], [-60.380096110374176, 46.37975518801796], [-60.380150198033945, 46.379630425377684], [-60.380204774633164, 46.379549783840034], [-60.38036462463306, 46.37936173525683], [-60.38049669441189, 46.37923786002003], [-60.380549549634814, 46.37919317060994], [-60.380642235190116, 46.379131393756914], [-60.38064584668322, 46.37912956849598], [-60.380747523782496, 46.37907799686116], [-60.38079493717897, 46.37902500143871], [-60.38082719705113, 46.37898893004938], [-60.380846430255126, 46.37895713218618], [-60.38085404182204, 46.37894454436993], [-60.380880499401094, 46.378908249979595], [-60.380918837743806, 46.37887423491605], [-60.380960611753245, 46.378837175513574], [-60.38102558684289, 46.378783772458966], [-60.381044110308125, 46.37876327153347], [-60.38106539527702, 46.37873968382519], [-60.38110812025799, 46.37868464578483], [-60.381108949869045, 46.37865480217087], [-60.38110985810344, 46.37862168428988], [-60.38110751066936, 46.378556046118085], [-60.38110806544331, 46.37854961469661], [-60.38111031937712, 46.37852316079367], [-60.38128039464813, 46.37835093357256], [-60.38132140622828, 46.37830941047186], [-60.3814354730984, 46.3781627111295], [-60.38149620193875, 46.37815319443035], [-60.3815699028755, 46.37814162587886], [-60.38170318262759, 46.3779754760708], [-60.381868652411306, 46.37781980179825], [-60.38194616476, 46.37779378501885], [-60.38197081319937, 46.37778550251664], [-60.382050494817975, 46.37765838223249], [-60.38205740588273, 46.3776473803208], [-60.38205673586732, 46.3776442599062], [-60.38204077792333, 46.37756898575084], [-60.3820466631862, 46.37756039939119], [-60.382051974596735, 46.37755266390325], [-60.382146829991974, 46.377391033424054], [-60.38217034526034, 46.377344987123614], [-60.3821740898039, 46.37733765674582], [-60.38217709587215, 46.37733217249052], [-60.38222822233688, 46.377238994672894], [-60.382322001899404, 46.37712893748964], [-60.38233429059363, 46.37711452166772], [-60.38237458245758, 46.37706897661431], [-60.382547376678794, 46.37687369727892], [-60.38265307903635, 46.37678431633657], [-60.382672287433664, 46.37676496485511], [-60.38270635991607, 46.376730635479404], [-60.38271977446623, 46.376708442235795], [-60.3827331890052, 46.376686248990325], [-60.382757546501274, 46.37661440930845], [-60.38276045094913, 46.37660588064563], [-60.38276131101922, 46.37658789096177], [-60.382748308612626, 46.37658759317288], [-60.382731827680175, 46.37658362463848], [-60.38266988985848, 46.376568696785824], [-60.38261746879628, 46.37660439693848], [-60.38254991833566, 46.37671175206401], [-60.38250555343756, 46.37676606907661], [-60.38246980843455, 46.3768098102834], [-60.382432207468725, 46.37685184393201], [-60.382390127267, 46.3768988960762], [-60.382272844530924, 46.37698922653177], [-60.38220516367577, 46.3770413622953], [-60.382152794017266, 46.37710316396322], [-60.38203281993393, 46.3772462186338], [-60.381925877808094, 46.37738867171837], [-60.38187220180345, 46.3774549344225], [-60.38184572276584, 46.37748762847965], [-60.381827279596145, 46.37751815758855], [-60.38179206184903, 46.37757640996626], [-60.38168496842696, 46.377685567653096], [-60.381599379064404, 46.377738804767375], [-60.381543488115554, 46.37778556715508], [-60.38150283662796, 46.377819574429914], [-60.381474597049994, 46.37784284986237], [-60.38144874039853, 46.37786415484754], [-60.38138602317542, 46.37788969129671], [-60.381367996269994, 46.37794195632653], [-60.38129167215522, 46.37800863579808], [-60.38122144218048, 46.378069973756304], [-60.38118722995742, 46.37811425369309], [-60.38118567557362, 46.378114398076185], [-60.38111192186378, 46.37812081706198], [-60.38105425308479, 46.3781579712656], [-60.38103805827872, 46.378168400348265], [-60.38101174046376, 46.37819335774244], [-60.38097651351282, 46.37822676913238], [-60.380974594557124, 46.37828427236367], [-60.38094400918342, 46.378319059146165], [-60.38093139811091, 46.37833340442756], [-60.38090985933495, 46.37834544805252], [-60.38085256440904, 46.37837749861465], [-60.38075988885239, 46.378466276438246], [-60.38064204181782, 46.37851038530665], [-60.380580002230715, 46.37853532483218], [-60.38051077537837, 46.3785631686409], [-60.3804569742387, 46.37856703849599], [-60.38040638322686, 46.37857067590541], [-60.380081421141135, 46.37856773540076], [-60.37997702936938, 46.37857523328118], [-60.37987303201819, 46.378601658507115], [-60.37984247456803, 46.378618184251046], [-60.379807617739885, 46.378637050460576], [-60.37978077731546, 46.37865443542943], [-60.37974091190622, 46.378699422330214], [-60.37970066703669, 46.37877950125353], [-60.37968506777988, 46.37888804585955], [-60.37970716034537, 46.378999731759414], [-60.37972066949849, 46.379067965937004], [-60.37972725871733, 46.379111785936864], [-60.37973151563252, 46.3791402161374], [-60.37970512112875, 46.37920261225503], [-60.37965490377872, 46.37930165989783], [-60.379650551631116, 46.37931026328671], [-60.379637712196924, 46.379327465248004], [-60.379583852622936, 46.379399635782285], [-60.379463858853065, 46.3795156867151], [-60.379305755124506, 46.37961286318698], [-60.37919751996852, 46.379670169261466], [-60.37912164054031, 46.379710342920546], [-60.37900382758496, 46.379780542424776], [-60.378571907389905, 46.379893037931126], [-60.37841589788318, 46.37994616028915], [-60.378258214503624, 46.3800073442016], [-60.37822594897014, 46.38002909543551], [-60.37819236644889, 46.380051734464566], [-60.37814533251048, 46.380077187935925], [-60.378126948920595, 46.3800871343791], [-60.37796798822035, 46.38022929027616], [-60.37780815101899, 46.38038942621413], [-60.377770919264236, 46.38042090957039], [-60.37775530540472, 46.38043411457475], [-60.37762446878457, 46.38050491382873], [-60.37760967026744, 46.380509785349005], [-60.37754519175336, 46.38053099518161], [-60.37732461474662, 46.38052054203583], [-60.377272653574764, 46.38051934951409], [-60.37723320926393, 46.38052833544789], [-60.37720539580588, 46.380547263510884], [-60.37718078085792, 46.3805640329305], [-60.377127964659245, 46.380607821657335], [-60.37712372268881, 46.38061574346383], [-60.37711368192546, 46.38063449440574], [-60.37710022431843, 46.38067108629691], [-60.377084238073884, 46.38081472237957], [-60.37708985189211, 46.380895681910914], [-60.377094232518594, 46.380958954769554], [-60.377074616741844, 46.3810070875566], [-60.377039718672876, 46.38109270636082], [-60.37702710955864, 46.38111131734234], [-60.37668918608431, 46.38110716069376], [-60.376639453248636, 46.381169083348965], [-60.376581311050046, 46.38124148715477], [-60.37644704236324, 46.381465209447136], [-60.376444720830115, 46.38146833321605], [-60.37642063666204, 46.38150060397782], [-60.37641891916952, 46.38156356585486], [-60.3764247444768, 46.38165691452447], [-60.37642848097248, 46.381716788545454], [-60.37641548365534, 46.381743490714044], [-60.37638861674424, 46.38178877485293], [-60.376336229655884, 46.3818235728749], [-60.3762443535399, 46.3818682644577], [-60.376061543000596, 46.38191086805478], [-60.37603980459888, 46.381910746924426], [-60.376009537461535, 46.3819105739608], [-60.37594067178761, 46.38188625821088], [-60.37590595142688, 46.38187399471599], [-60.37580284561501, 46.38185452675861], [-60.37580112695212, 46.38191749759808], [-60.37581326185052, 46.38196276818681], [-60.37583329353825, 46.38199143476087], [-60.37585098966592, 46.38201673563153], [-60.37588910548112, 46.38206261180507], [-60.3758970557177, 46.38206849148026], [-60.375901665097366, 46.38207190039124], [-60.37590090239595, 46.38212008787504], [-60.37590038396883, 46.382152872648994], [-60.375891388719666, 46.38219537197891], [-60.37588524411128, 46.382224526488734], [-60.37587019179894, 46.38223983217161], [-60.375859268702364, 46.38225093058193], [-60.37576652937324, 46.382313602329944], [-60.375764249144964, 46.38231586301545], [-60.375713279258036, 46.38236638061898], [-60.37566084807737, 46.38240207733626], [-60.37563443512508, 46.38241047995848], [-60.37558276639162, 46.382409932400314], [-60.375491438393475, 46.38240898702137], [-60.37530615937708, 46.382605795904844], [-60.375239328379394, 46.38267680243335], [-60.3752231990843, 46.3827037115341], [-60.37518559574794, 46.38276647015386], [-60.375183677225785, 46.38285501491432], [-60.37518345118347, 46.38286542293703], [-60.37518692572594, 46.38287975003625], [-60.375207331420796, 46.382964073453174], [-60.37517041462114, 46.38301413957314], [-60.37515447375678, 46.38303576088228], [-60.37506177448836, 46.38311843138694], [-60.37495475469619, 46.383213877134295], [-60.37490578474885, 46.38325411710183], [-60.374889754960826, 46.38326728515718], [-60.374718643565366, 46.383310155350145], [-60.3746593478602, 46.383333300653945], [-60.37462719489228, 46.38334585526433], [-60.37446466575185, 46.3834201888843], [-60.37433864955662, 46.38347782884218], [-60.37407649814408, 46.38357440744315], [-60.373985536118575, 46.383600217822575], [-60.3739578134888, 46.3836190931777], [-60.3739331026278, 46.383635913691755], [-60.3737728299571, 46.383832034680125], [-60.37373123496432, 46.38393998101269], [-60.37372779012534, 46.38411990553605], [-60.373711693430565, 46.38414448412169], [-60.37368710894053, 46.384181971909406], [-60.373600092682125, 46.38424098434062], [-60.37351638337399, 46.384297750662306], [-60.373489106701896, 46.384324124305685], [-60.37345484952861, 46.38438809327716], [-60.37340767894804, 46.384476155933505], [-60.3733829173942, 46.3845609535524], [-60.373365655887646, 46.38462009302267], [-60.373324551713964, 46.38474515082857], [-60.37331972774405, 46.384753257117815], [-60.373297654711465, 46.38479043353774], [-60.373270809613004, 46.384807807863744], [-60.37310183640827, 46.38480573286476], [-60.373089249344375, 46.38481679275892], [-60.37297012423641, 46.38492151656702], [-60.37288009260774, 46.384920571907806], [-60.37282713415435, 46.38492002045867], [-60.37278307613335, 46.38496299148719], [-60.37268113544033, 46.385062466940326], [-60.372587528719336, 46.38517011707405], [-60.372494832289135, 46.38528588822476], [-60.37242897273216, 46.38533028388867], [-60.37237566906707, 46.38535695884834], [-60.37234837754438, 46.38538957800321], [-60.372323224407644, 46.3854196452678], [-60.37230860428627, 46.38543891149618], [-60.37228297186222, 46.385472729807766], [-60.37225483928493, 46.385571075938664], [-60.37224094131472, 46.38558965674915], [-60.37220110768798, 46.38563374170892], [-60.37204293017374, 46.38573180642249], [-60.37200395972925, 46.38575791079706], [-60.37199128301796, 46.38577489062838], [-60.37197754900556, 46.385793304173525], [-60.371976253819696, 46.3858202749373], [-60.371993994625036, 46.38584165334141], [-60.37201436884018, 46.38586615236363], [-60.37204673004949, 46.38589480611496], [-60.37206551861245, 46.385911429504866], [-60.372070019828726, 46.38592088420409], [-60.37207851414075, 46.38593872889592], [-60.37207697148077, 46.38598737540938], [-60.37207592786135, 46.386019671066364], [-60.37203652948573, 46.386081766341064], [-60.371996648182304, 46.38609974960188], [-60.37187530375438, 46.38609242295103], [-60.371828060133424, 46.386089572418385], [-60.37172494762237, 46.386070109648095], [-60.37165951533654, 46.3860784959622], [-60.37157319935813, 46.386131753832366], [-60.37148795535625, 46.3861843522798], [-60.37147269174995, 46.386198050486655], [-60.371407764071805, 46.38625630927466], [-60.37139047218419, 46.38626809777891], [-60.37138221638071, 46.38627372199834], [-60.37138135271373, 46.38629170249744], [-60.37139916636644, 46.386324017890104], [-60.37140647592631, 46.38633728128766], [-60.37143207375686, 46.386372979788426], [-60.371431642361976, 46.38638196104794], [-60.371425880835915, 46.38639008169176], [-60.371419086244146, 46.386399672603496], [-60.37132590290071, 46.386471330701674], [-60.371293949335644, 46.386488614055445], [-60.37126047324424, 46.386506726395226], [-60.37116819644339, 46.386559504834835], [-60.37110190281247, 46.38661288092728], [-60.37099534520573, 46.38674633234542], [-60.37092862268458, 46.38683569919799], [-60.37078218186069, 46.38698713324442], [-60.37077142153477, 46.38699642587294], [-60.37063699292477, 46.38711249537831], [-60.370583301114664, 46.38717426127782], [-60.37058279811195, 46.38720124124914], [-60.37058244040325, 46.387219242382145], [-60.37058714050293, 46.38722374261444], [-60.370599711929366, 46.38723576810377], [-60.37063342962049, 46.38723321383085], [-60.37068888148916, 46.38722901756438], [-60.37071841272291, 46.387215332722135], [-60.370743501441105, 46.38720369670494], [-60.37078318517405, 46.38720311568789], [-60.37079840992272, 46.38721108011726], [-60.37082372128247, 46.3872243167064], [-60.37083371231911, 46.387282741740385], [-60.37083394590847, 46.387284106141884], [-60.37083399455499, 46.38728525928429], [-60.37083615428299, 46.38734128110057], [-60.370789563927545, 46.387369207790066], [-60.370738706881, 46.38738902613355], [-60.37071772981183, 46.387462885000545], [-60.370710146207976, 46.38751379554832], [-60.3707051185847, 46.387547511555326], [-60.37068736235506, 46.38760224713321], [-60.37065266143557, 46.38764095952812], [-60.37063787434205, 46.3876574496415], [-60.37061459803913, 46.3876714223824], [-60.37054296329931, 46.387667011094834], [-60.37051234662574, 46.38759392717039], [-60.37049630264616, 46.387547252074214], [-60.37048997993742, 46.38752888122421], [-60.37046563211198, 46.38749748636626], [-60.37043567532308, 46.38745885229697], [-60.370415710490164, 46.387456421862744], [-60.37035974744135, 46.387446349946885], [-60.370337066671866, 46.387445765041505], [-60.370292171977916, 46.38744462396032], [-60.37025760679652, 46.38747509519368], [-60.370254800080076, 46.38750508221216], [-60.37025995112249, 46.38752591016351], [-60.370264210512275, 46.38754309952332], [-60.370308781366646, 46.38756694962098], [-60.37031598045582, 46.3875770964815], [-60.37032980474493, 46.38759661197999], [-60.37033085069631, 46.38762383459605], [-60.37029361300268, 46.38765064427003], [-60.37027290651721, 46.38766554009373], [-60.370274818020164, 46.38771453606554], [-60.37026472587941, 46.387733195209975], [-60.370259971847325, 46.38774199599131], [-60.37025159189279, 46.38774803127994], [-60.37024453223869, 46.38775311593065], [-60.37015421483594, 46.38776586983083], [-60.370089382258584, 46.387817208912296], [-60.37004950159076, 46.387862201050254], [-60.369970213723676, 46.38791526843801], [-60.36990967595837, 46.38797087334221], [-60.36986410594713, 46.388012728415966], [-60.36981142846907, 46.388071754237735], [-60.36979748928919, 46.38808737273932]]}, "properties": {"OBJECTID": 16599, "FEAT_CODE": "WACOIS10", "FEAT_DESC": "Coastal Island - Water to the right line", "RIVNAME_1": " ", "RIVNAME_2": " ", "ZVALUE": 0.4, "FID": null, "SHAPE_Length": 4107.56564102758}}, {"type": "Feature", "id": 17008, "geometry": {"type": "LineString", "coordinates": [[-60.383033614297794, 46.376003714543465], [-60.38301807441508, 46.376013249886654], [-60.382928478118956, 46.37606824128106], [-60.38287314997391, 46.37609077969853], [-60.38286573680736, 46.37609379599279], [-60.382796384489374, 46.37615781008394], [-60.382759827086275, 46.37618945452152], [-60.382757778446184, 46.376191234641205], [-60.38274206837456, 46.376213303315375], [-60.382708502553925, 46.37626043357926], [-60.38269404398263, 46.37630174631788], [-60.382647783518415, 46.376343500707655], [-60.38265378813434, 46.37635498747545], [-60.382673362189514, 46.37639244457353], [-60.38267891026583, 46.37639471368822], [-60.38277021242937, 46.3764321665201], [-60.382796906781834, 46.37641643353683], [-60.382813070739125, 46.3764069035164], [-60.382905476541545, 46.37643296927338], [-60.38296448174391, 46.37645402197075], [-60.382994080708464, 46.3764645730152], [-60.38307378018198, 46.37646891819905], [-60.38317994659891, 46.376434538559906], [-60.38327277633258, 46.376359244577614], [-60.38330467915191, 46.37633139047991], [-60.38334610955952, 46.376295186349175], [-60.383355527515874, 46.376279336654996], [-60.3833723967501, 46.376250967304394], [-60.38333953710095, 46.37622130629228], [-60.3833381068354, 46.376180223671504], [-60.3832921040838, 46.37611512495414], [-60.38326024114617, 46.3760983480142], [-60.38321103912858, 46.3760724348399], [-60.38318546053827, 46.376023482094695], [-60.3831610294698, 46.37600737931837], [-60.38311852574117, 46.37601190513186], [-60.38310159975769, 46.376013713581855], [-60.383061627704805, 46.376008802146586], [-60.383033614297794, 46.376003714543465]]}, "properties": {"OBJECTID": 17008, "FEAT_CODE": "WACOIS10", "FEAT_DESC": "Coastal Island - Water to the right line", "RIVNAME_1": " ", "RIVNAME_2": " ", "ZVALUE": 0.4, "FID": null, "SHAPE_Length": 166.89878062538446}}, {"type": "Feature", "id": 21624, "geometry": {"type": "LineString", "coordinates": [[-60.37767640281977, 46.3800962460139], [-60.37760508792865, 46.38021211598714], [-60.377579882213155, 46.38028356607833], [-60.37758177679046, 46.380335495637674], [-60.37758867312599, 46.38034002798429], [-60.37760621019568, 46.380351554650716], [-60.37765806733363, 46.38035627270726], [-60.37771368762125, 46.38035546097469], [-60.377780221687225, 46.380327170065016], [-60.377782162459724, 46.3802953449331], [-60.3777827212626, 46.3802861235627], [-60.37777927397277, 46.380268773100646], [-60.377772965584434, 46.38023703768852], [-60.37774483934945, 46.38023047017395], [-60.37772886656726, 46.380226737585524], [-60.37772707517131, 46.38017753745272], [-60.377726231746145, 46.38015415361105], [-60.377725373677464, 46.38013107543967], [-60.37772516732633, 46.380125067579215], [-60.37772497381159, 46.38012014903605], [-60.377699424211904, 46.380107574508095], [-60.37767640281977, 46.3800962460139]]}, "properties": {"OBJECTID": 21624, "FEAT_CODE": "WACOIS10", "FEAT_DESC": "Coastal Island - Water to the right line", "RIVNAME_1": " ", "RIVNAME_2": " ", "ZVALUE": 0.4, "FID": null, "SHAPE_Length": 74.95238615866111}}, {"type": "Feature", "id": 117284, "geometry": {"type": "LineString", "coordinates": [[-60.36985205729307, 46.38817681241604], [-60.369854885523715, 46.38817560848278], [-60.36985747514446, 46.38817449805979], [-60.36989447094502, 46.388156251133765], [-60.3699093703977, 46.388130124509445], [-60.36993788180332, 46.388098434037296], [-60.36995682634574, 46.388075010554445], [-60.36999805681027, 46.388059039096184], [-60.3700115886764, 46.38805378840479], [-60.37001557044571, 46.388051314988786], [-60.370040657525536, 46.388035665008005], [-60.3700548952259, 46.38799840791187], [-60.37005688762148, 46.387993215658426], [-60.37006152266448, 46.387988786235276], [-60.37010470725771, 46.387947578201455], [-60.37012486020571, 46.387934460706084], [-60.370166698572355, 46.38790718994904], [-60.37019843089325, 46.38790671415843], [-60.37020028900626, 46.38791676511875], [-60.370200938568274, 46.3879202991373], [-60.37017578761249, 46.38793700970477], [-60.37016257161075, 46.38795490393837], [-60.37019666956358, 46.387963932777076], [-60.37021141894193, 46.387972048347585], [-60.37023520262774, 46.387985141908324], [-60.370262097018916, 46.38801334634846], [-60.37024408170063, 46.388030428137164], [-60.3702314635215, 46.38804237801581], [-60.37017905389624, 46.38807310460181], [-60.37013009769351, 46.38809015836041], [-60.370055499238795, 46.388111680087015], [-60.370051607712035, 46.388111734532565], [-60.370043589938064, 46.38811185602188], [-60.370011645962556, 46.38812241610128], [-60.370000504002775, 46.38812611076138], [-60.36999230888067, 46.38813614636475], [-60.369970167404624, 46.388163303355064], [-60.369967786495636, 46.388204181381965], [-60.369967125419684, 46.38823823185138], [-60.369980236650655, 46.388243357691515], [-60.36999734439716, 46.38825003353491], [-60.37001305560725, 46.38824571501628], [-60.370032206906465, 46.38822773238868], [-60.370071348548855, 46.38821354886955], [-60.370081514584754, 46.38820769870067], [-60.37010046915146, 46.388196785676094], [-60.3701362109586, 46.388188392012005], [-60.37014374872219, 46.38818662143699], [-60.37014423908042, 46.388199421978], [-60.37014470506261, 46.38821110593563]]}, "properties": {"OBJECTID": 117284, "FEAT_CODE": "WALK20", "FEAT_DESC": "Lake - Water to the right line", "RIVNAME_1": " ", "RIVNAME_2": " ", "ZVALUE": 1.275, "FID": null, "SHAPE_Length": 115.40253550685792}}, {"type": "Feature", "id": 117285, "geometry": {"type": "LineString", "coordinates": [[-60.37014470506261, 46.38821110593563], [-60.37012299239776, 46.388265876376835], [-60.370124989872394, 46.38827519253021], [-60.37013025827318, 46.38829980326167], [-60.3701234865847, 46.3883132376988], [-60.370119201888514, 46.38832174326834], [-60.37007462884743, 46.38834961708685], [-60.370025051729016, 46.38835035718437], [-60.370005914155605, 46.38835560487118], [-60.36999363011154, 46.3883589762409], [-60.36998155450112, 46.38837154159038], [-60.369963099205, 46.3883907372512], [-60.369903798095805, 46.388397058622196], [-60.36986893585704, 46.38841935073508], [-60.369869394866384, 46.388431178536], [-60.3698700987923, 46.38844927609919], [-60.36982547341118, 46.388475798588715], [-60.36981254196592, 46.388500485466096], [-60.369808614793534, 46.38850777522796], [-60.36980515784384, 46.388514211794835], [-60.36980050159202, 46.38854830531338], [-60.36976788885075, 46.38857737230338], [-60.36972991198637, 46.388563798970885], [-60.36972763568833, 46.3885629905639], [-60.36971665847365, 46.38853592637196], [-60.36970249694181, 46.38853857948392], [-60.36967725813629, 46.38854330867908], [-60.369637844364576, 46.38855069966356], [-60.36964860393813, 46.38852059870865], [-60.36966051196596, 46.388515580688505], [-60.36967203544182, 46.388510715819216], [-60.369685328245254, 46.388495559465724], [-60.369728182156486, 46.388474504368695], [-60.36972833833617, 46.38846043168126], [-60.36972863582174, 46.38843503101904], [-60.369736200532095, 46.38842539493345], [-60.3697584246843, 46.38840815809076], [-60.36978629600832, 46.388386542127385], [-60.36979618916698, 46.38837554660039], [-60.36981483576878, 46.38835480733837], [-60.36981399143797, 46.388348019769964], [-60.36981195300334, 46.38833170952817], [-60.36980482193595, 46.388317712125215], [-60.369794756232, 46.38829793206451], [-60.369789222986455, 46.388257186898], [-60.369796310432335, 46.38823529057785], [-60.36980131540502, 46.38821071827503], [-60.36981451816439, 46.38819283277891], [-60.36985205729307, 46.38817681241604]]}, "properties": {"OBJECTID": 117285, "FEAT_CODE": "WALK20", "FEAT_DESC": "Lake - Water to the right line", "RIVNAME_1": " ", "RIVNAME_2": " ", "ZVALUE": 1.275, "FID": null, "SHAPE_Length": 118.55508042841468}}, {"type": "Feature", "id": 190405, "geometry": {"type": "LineString", "coordinates": [[-60.36985205729307, 46.38817681241604], [-60.369825218972785, 46.388132831853326], [-60.36979748928919, 46.38808737273932]]}, "properties": {"OBJECTID": 190405, "FEAT_CODE": "WARV50", "FEAT_DESC": "River - Single Line", "RIVNAME_1": " ", "RIVNAME_2": " ", "ZVALUE": 9999, "FID": null, "SHAPE_Length": 10.792843952192538}}]}