{"type": "FeatureCollection", "features": [{"type": "Feature", "id": 17212, "geometry": {"type": "LineString", "coordinates": [[-60.7515507665101, 46.07851014306729], [-60.751835580538724, 46.07850314754711], [-60.751887295506776, 46.078503265174525], [-60.75193940172719, 46.07849439000442], [-60.75195339844135, 46.0784898591762], [-60.751965612800554, 46.07848590530594], [-60.752030432790995, 46.078450278851136], [-60.75218719713814, 46.07837956852498], [-60.752252395504286, 46.07833493991505], [-60.75229082088368, 46.07828079304556], [-60.75230483970287, 46.07825406744202], [-60.752306036280885, 46.0782513548404], [-60.75234470047001, 46.078163946901114], [-60.7523707150432, 46.07812845682318], [-60.75237099089799, 46.07812771521109], [-60.75238380683622, 46.07809271249757], [-60.75238567742624, 46.07801705531699], [-60.752385802510005, 46.078011747498465], [-60.752399793934494, 46.077922018027664], [-60.75239750123316, 46.07791892176083], [-60.752386309608646, 46.07790375179104], [-60.75233640893535, 46.07785866771518], [-60.75228417385944, 46.07782488728568], [-60.752181405712506, 46.07775841289783], [-60.75211821731453, 46.077722067752504], [-60.752040435785695, 46.07769443589806], [-60.751925167977895, 46.07766696638904], [-60.75185995677756, 46.077648582243555], [-60.7517436165022, 46.077647192821416], [-60.75170270440815, 46.07761358095217], [-60.75166727340654, 46.07758448716989], [-60.75162777599091, 46.07746927781184], [-60.75161755326904, 46.07743950106271], [-60.75161532313162, 46.077431365745426], [-60.751605165654674, 46.07739425489224], [-60.75159407994582, 46.07737203055555], [-60.75159201061972, 46.07736789461336], [-60.751579453499524, 46.077358647002264], [-60.75152772668479, 46.0773585290007], [-60.751514438657715, 46.07736726794643], [-60.75150098103325, 46.077412005451144], [-60.751474966263835, 46.07744749533106], [-60.75144964585739, 46.077465897969866], [-60.75133184439295, 46.07750047226573], [-60.75120164413144, 46.077553721375956], [-60.75115047835908, 46.077571615196376], [-60.75115031932366, 46.07760512083215], [-60.7511503085323, 46.07760761375115], [-60.7511497420682, 46.07761009573182], [-60.75113611949857, 46.077670337762804], [-60.75113360320793, 46.077821343188994], [-60.75113341681393, 46.07783229309685], [-60.75113258568195, 46.077840332160406], [-60.7511185224485, 46.07797600748583], [-60.75109017197373, 46.0782283627146], [-60.751074551714815, 46.07839979325878], [-60.75107380224924, 46.07840804994026], [-60.751073755629506, 46.078411424200034], [-60.751073266803864, 46.078453041766466], [-60.75110246251231, 46.078487269262695], [-60.75111153639822, 46.07849789743288], [-60.751137016521405, 46.078507399482135], [-60.7515507665101, 46.07851014306729]]}, "properties": {"OBJECTID": 17212, "FEAT_CODE": "WACOIS10", "FEAT_DESC": "Coastal Island - Water to the right line", "RIVNAME_1": " ", "RIVNAME_2": " ", "ZVALUE": 0.2, "FID": null, "SHAPE_Length": 387.55956777519117}}]}