{"type": "FeatureCollection", "features": [{"type": "Feature", "id": 17952, "geometry": {"type": "LineString", "coordinates": [[-60.40059613308341, 46.36296815915337], [-60.40059654120607, 46.36293216762959], [-60.400571421863866, 46.36291359583822], [-60.4005454491437, 46.362913005033], [-60.400402884489, 46.362903470847755], [-60.400000068606964, 46.362898797777305], [-60.399982972776975, 46.36289880481993], [-60.39996110583493, 46.36289881130838], [-60.39994811948454, 46.36289851583727], [-60.399922357421644, 46.36290279879255], [-60.399895704600546, 46.362907223478274], [-60.399854169277326, 46.36291624164323], [-60.39981689017733, 46.3629243306147], [-60.39979570864705, 46.36293618793287], [-60.39973809385087, 46.362968438714844], [-60.3995406452527, 46.36307464821891], [-60.399461421611775, 46.363127746605976], [-60.399420734821426, 46.363135316890336], [-60.39937091898297, 46.36314458744869], [-60.39908500470386, 46.36314258048555], [-60.39901999966959, 46.36311499136306], [-60.39891819550239, 46.36304158159462], [-60.398865762625064, 46.36302328774664], [-60.39883050689663, 46.36304707380395], [-60.39879995179337, 46.363067690775026], [-60.39877744988837, 46.36309037209335], [-60.39874670024772, 46.363121379855514], [-60.39850906190514, 46.36333466615613], [-60.39847616262117, 46.363348794530324], [-60.39846922210056, 46.36335176859688], [-60.39836571564857, 46.363369212625116], [-60.39833716563737, 46.36336895865116], [-60.39830074071636, 46.36336863338539], [-60.3981712005917, 46.36333148331543], [-60.39809407616341, 46.36328562632598], [-60.39806746391272, 46.363285632409635], [-60.39805506119804, 46.363285638018546], [-60.39804293425837, 46.3632836698608], [-60.39799056962396, 46.36327516038492], [-60.39797711294073, 46.36328476320312], [-60.39797627595875, 46.36332974515648], [-60.39798800257766, 46.363411013987566], [-60.39803637379343, 46.36349209116827], [-60.398101204396696, 46.36360079569769], [-60.39809972767595, 46.36364775212836], [-60.398098659060174, 46.36368173955986], [-60.39807554756408, 46.36371997720832], [-60.39807184953046, 46.36372612114779], [-60.398019907830566, 46.36377984871094], [-60.39798735672394, 46.3638178354062], [-60.39796621469186, 46.36384252757169], [-60.39796226432354, 46.36384604670327], [-60.39792685810922, 46.36387763222879], [-60.397729390218565, 46.3639838291602], [-60.39761075046265, 46.364072938502], [-60.397374350891496, 46.3642052578283], [-60.397230130702006, 46.36423077376757], [-60.39713871151006, 46.36423949178561], [-60.397048189603616, 46.364229329745804], [-60.39694917021086, 46.36420511376233], [-60.396893973790945, 46.36419161617116], [-60.39685724010736, 46.36417233798827], [-60.396789962000156, 46.364137045648874], [-60.39676710411903, 46.36412014457442], [-60.39675228418166, 46.36410918673263], [-60.39667473256609, 46.36407231925903], [-60.396626973223256, 46.36406373406918], [-60.39662317081159, 46.36406304443077], [-60.39659715446453, 46.364063360754635], [-60.39658331314324, 46.36408104582696], [-60.3965780061239, 46.364086847055425], [-60.39647771764781, 46.36419654275119], [-60.39643926466566, 46.3642353125643], [-60.396424450166805, 46.36425022138334], [-60.39640937248526, 46.364348880079554], [-60.39643846954217, 46.36437154849951], [-60.396549780037006, 46.36445828133664], [-60.39659690646595, 46.36449167469373], [-60.39664033537826, 46.364522445739766], [-60.396640052859574, 46.36453467957717], [-60.39663906987236, 46.364576418116556], [-60.396629515163184, 46.36460730514125], [-60.39662524500157, 46.364621104170894], [-60.396583283581776, 46.364738050850335], [-60.3965430577137, 46.36479113562675], [-60.39652374007837, 46.36481079297436], [-60.396517100703434, 46.36481754486716], [-60.39634520187232, 46.36496033172904], [-60.39626554498957, 46.36502241822531], [-60.39620017343802, 46.365084830161514], [-60.396168713201256, 46.36515123682383], [-60.396132240336534, 46.365228185497536], [-60.39604211698681, 46.365361638943234], [-60.395957434970086, 46.36548700812737], [-60.3959478836143, 46.36549703270462], [-60.39593143458932, 46.36551431626498], [-60.395878204369716, 46.36554010386491], [-60.395828033867524, 46.36556169507154], [-60.39559018846835, 46.365664043083065], [-60.3954526885862, 46.3657296708284], [-60.39540660709501, 46.365751661052414], [-60.395168405607066, 46.36590355517049], [-60.39515586933366, 46.36591154959872], [-60.39503723460636, 46.36600064737288], [-60.39487919766751, 46.36609784698635], [-60.39474798972011, 46.36617765762994], [-60.39461633812274, 46.36623945760843], [-60.39442020495117, 46.366315096561785], [-60.39436734722441, 46.36633548283035], [-60.39434070364081, 46.36634759260216], [-60.39425040801622, 46.36638862664759], [-60.39418743205759, 46.366423560441476], [-60.39409149810121, 46.3664767960646], [-60.393947287970164, 46.36655630928949], [-60.39385162716417, 46.366588769479485], [-60.39384290546135, 46.366591729644064], [-60.39380962721286, 46.36660419199381], [-60.39372509479183, 46.3666358438492], [-60.39366535886785, 46.36667535134983], [-60.39365931823817, 46.36667934467019], [-60.39327778539403, 46.36688304694947], [-60.39311975580895, 46.36698024429401], [-60.39308923389837, 46.36700853766095], [-60.39301364876562, 46.367078625944984], [-60.39292306764615, 46.3671455460005], [-60.39286946315987, 46.3671851389646], [-60.39272619096995, 46.367316693194965], [-60.392617940226515, 46.36741610559026], [-60.39256875130894, 46.367463710335336], [-60.39252526028777, 46.36750578394506], [-60.39243099496638, 46.36756595039766], [-60.39226111614781, 46.36767436942645], [-60.39209962682237, 46.367794166906506], [-60.39201041749651, 46.36786035252464], [-60.39198445682501, 46.36788676064676], [-60.3918640868819, 46.36801181630979], [-60.391796993864546, 46.36811018721955], [-60.39169133750057, 46.36822657831761], [-60.39167141045387, 46.36824886698921], [-60.39161168459104, 46.368315662243035], [-60.3915580353855, 46.368377439056495], [-60.39151861558976, 46.36841344007359], [-60.39145364885731, 46.368439857729484], [-60.39133624673476, 46.36844797800322], [-60.39119781813763, 46.36844632994153], [-60.39108935431948, 46.368445041801536], [-60.39104989644773, 46.368497935159624], [-60.39104907749453, 46.36849902348708], [-60.391047151309344, 46.36860167177097], [-60.39104654867319, 46.36863396872314], [-60.39103101844803, 46.368741616536944], [-60.39103059010244, 46.3687506069554], [-60.390715299149804, 46.36892792135583], [-60.39057023425431, 46.36902540218771], [-60.39045203017059, 46.36907760420983], [-60.390083911522424, 46.36932660310803], [-60.39002258804183, 46.36934910706894], [-60.38996613486363, 46.36936981419147], [-60.38983971170305, 46.369403206449796], [-60.389834457579205, 46.36940459847439], [-60.38970449356968, 46.36940343895115], [-60.38963994036725, 46.36939386423146], [-60.38955859397647, 46.36957291000919], [-60.38958455663845, 46.36957350307818], [-60.38968375847335, 46.36958911639861], [-60.38976524164175, 46.36960193986171], [-60.38978358961766, 46.36960516701613], [-60.3898181064886, 46.36961123853649], [-60.38982958301176, 46.369628511043516], [-60.38983023721402, 46.36962951600775], [-60.38981683392487, 46.36966521065219], [-60.38981554824841, 46.36969218187704], [-60.38980167351446, 46.36973776596781], [-60.38979328182959, 46.36974960755525], [-60.38978912730647, 46.36975547979144], [-60.389710312701226, 46.36979958954565], [-60.38956567272591, 46.36988806960624], [-60.389503547906486, 46.369921364219486], [-60.38943357737798, 46.369958862664944], [-60.38938415718271, 46.36997521206447], [-60.38932922840837, 46.36999337964035], [-60.389265813682364, 46.37005045017636], [-60.38917026942664, 46.37013645127768], [-60.38914259157911, 46.37019882030472], [-60.38913751123539, 46.370441709538106], [-60.38905700619066, 46.37057577318042], [-60.389056860342755, 46.37058783011095], [-60.389056576791646, 46.37061177315431], [-60.38906348530227, 46.37061686310457], [-60.38906914957888, 46.37062105160777], [-60.38910862649424, 46.37062127853547], [-60.38912114429283, 46.37062134852627], [-60.38919997335265, 46.370604240099], [-60.3892366973734, 46.37059102979743], [-60.389369306428286, 46.370543316207325], [-60.38944903543104, 46.37050732775554], [-60.389659076694926, 46.37038342297984], [-60.38966302460772, 46.370380795100125], [-60.389711444311835, 46.370348618382586], [-60.38983053875006, 46.370250536465214], [-60.38994160007541, 46.370176130468565], [-60.390068268188706, 46.37009126256863], [-60.39009068420305, 46.37007079506295], [-60.39014711210433, 46.37001926162935], [-60.390213353538435, 46.36993887264983], [-60.39034667664797, 46.369815014568346], [-60.39041685554664, 46.36975321079104], [-60.390519034969714, 46.36966324707018], [-60.39057100227502, 46.36960953252321], [-60.39061150339098, 46.36957460955032], [-60.39066365395101, 46.36956124702793], [-60.39071565433737, 46.36954803405615], [-60.39072443886675, 46.36954649759608], [-60.390911015060446, 46.3695137937386], [-60.39098103582053, 46.36949048884555], [-60.39112107673784, 46.36944388791715], [-60.39118305088065, 46.36942027319637], [-60.39121244877076, 46.3694090730584], [-60.391317650816355, 46.36932958185267], [-60.39137134452603, 46.36926689715395], [-60.391430886683075, 46.369187065553234], [-60.39143801152008, 46.36917751697812], [-60.39159860502883, 46.36897237812884], [-60.391677846512096, 46.3688643844135], [-60.391770943115766, 46.36879360768066], [-60.3919562827867, 46.3686685948704], [-60.391968426108114, 46.36866041182247], [-60.392219102704566, 46.36847442832616], [-60.392311010417984, 46.368419032359796], [-60.39246941973566, 46.36832353684495], [-60.392557368068005, 46.368273189448566], [-60.39265387055144, 46.36821794304589], [-60.3927972606957, 46.36815551312901], [-60.39303370312071, 46.368050204870194], [-60.3930577615727, 46.368036434395144], [-60.393125940608144, 46.36799740782756], [-60.3932999382271, 46.36788793844485], [-60.39330954809826, 46.367881893513015], [-60.39334302627905, 46.36786688881393], [-60.39350617063736, 46.36779366735471], [-60.393588622073885, 46.36775387702139], [-60.39374302421083, 46.36767938480708], [-60.3939214040349, 46.3675906158739], [-60.393992063346104, 46.3675554524357], [-60.39417650867931, 46.367449856050854], [-60.394203208268536, 46.36743166346107], [-60.39422891340681, 46.36741415020462], [-60.3943215908808, 46.367324461414846], [-60.39434954019456, 46.367283553784986], [-60.394376091489654, 46.36724470231774], [-60.394430055460155, 46.3672079159067], [-60.39445402730916, 46.36719157810598], [-60.39458275681137, 46.367113367335435], [-60.39486237240632, 46.366943482153616], [-60.39509926034774, 46.36680127895795], [-60.39515204872845, 46.36675748125346], [-60.39524429594098, 46.366676782103], [-60.39525220731133, 46.366672543333344], [-60.395376375534596, 46.3666059909593], [-60.39555911772641, 46.36653635431546], [-60.3956638452767, 46.366474515672564], [-60.395664781740734, 46.36647396100174], [-60.39579643278225, 46.36641215980446], [-60.39614851629395, 46.366375568811485], [-60.396187098990204, 46.36637156982883], [-60.39634306029058, 46.3663724142889], [-60.39640760741934, 46.36635499349116], [-60.396416867016406, 46.36634700527445], [-60.3964482789301, 46.366319910322304], [-60.396500681107526, 46.36628420337447], [-60.39651850462793, 46.366266177031015], [-60.39657989571311, 46.36620410624778], [-60.396711972479736, 46.36613331349524], [-60.39676437430656, 46.36609760641812], [-60.396882976770165, 46.36600940614016], [-60.39693306187524, 46.3659567888391], [-60.39700203217417, 46.36588431523863], [-60.39710241539683, 46.36580440292175], [-60.39721417518598, 46.36571544342709], [-60.397372617322354, 46.365582249015986], [-60.39746443204243, 46.36551053841823], [-60.397486029467004, 46.36549816899391], [-60.39755666102689, 46.36545773759996], [-60.39761190759674, 46.365414669752326], [-60.39763630415224, 46.36539564989473], [-60.397808158397886, 46.36525376010572], [-60.39801777630581, 46.36513793047592], [-60.398478878457375, 46.364873022407615], [-60.39855726450245, 46.36483790604113], [-60.39870059651309, 46.364776367406535], [-60.39875714151563, 46.36472344634053], [-60.398767263569454, 46.36471398353131], [-60.39884732655945, 46.364615903735704], [-60.39903302345584, 46.3644014165609], [-60.39918017800848, 46.36423197091928], [-60.399245972105916, 46.36416056669357], [-60.39938677706281, 46.36405937780105], [-60.39944384716659, 46.36401836660785], [-60.39957544408986, 46.363929559216736], [-60.399597760654174, 46.36391707975405], [-60.39965425494573, 46.363885451562346], [-60.399743256982845, 46.363848487901], [-60.399759025832196, 46.36384193455392], [-60.39995664391672, 46.363762603135115], [-60.399999871452344, 46.36372589381453], [-60.40000416232153, 46.36372231935831], [-60.40000931932645, 46.3637180265917], [-60.40007595187447, 46.3636286495602], [-60.400131501970385, 46.36350269554208], [-60.4001706628369, 46.363413890472486], [-60.40018411922086, 46.363396070205866], [-60.40022476682558, 46.36334221972231], [-60.400259521040084, 46.36331420073232], [-60.40029100362199, 46.36328882536469], [-60.40030354490956, 46.36327111026868], [-60.400355941218464, 46.36323541041333], [-60.400410063679296, 46.36319073159918], [-60.40047628160562, 46.36311033609948], [-60.400563512959806, 46.36303723170993], [-60.40058187220467, 46.36302183597352], [-60.40059613308341, 46.36296815915337]]}, "properties": {"OBJECTID": 17952, "FEAT_CODE": "WACOIS10", "FEAT_DESC": "Coastal Island - Water to the right line", "RIVNAME_1": " ", "RIVNAME_2": " ", "ZVALUE": 0.4, "FID": null, "SHAPE_Length": 2740.9740858743085}}]}