{ "type": "FeatureCollection", "features": [{"type":"Feature","geometry":{"type":"Point","coordinates":[-60.20525500432666,45.76678386499424]},"properties":{"gaz_map":"011F16","admin_loc":"Cape Breton","concise_ds":"Channel","orig_narr":null,"objectid":"584","generic_cd":"1210","locn_narr":"Belfry Lake - Fourchu Bay","county":"Cape Breton","generic_tm":"Gut (2)","cgndb_key":"CACOG","tmod_date":"20130205","concise_cd":"CHAN","status_cd":"1348","ordec_date":"19241202","jurr_narr":null,"fmod_date":"20151125","nad83_lon":"-60.205255","nts_map":"011F16","status_ds":"Official - Official","decis_date":"19241202","nad83_lat":"45.766787","geoname":"Belfry Gut"}},{"type":"Feature","geometry":{"type":"Point","coordinates":[-60.19145243022914,45.77541586190065]},"properties":{"gaz_map":"011F16","admin_loc":"Cape Breton","concise_ds":"Beach","orig_narr":null,"objectid":"12596","generic_cd":"1900","locn_narr":"NW. shore of Fourchu Bay","county":"Cape Breton","generic_tm":"Beach","cgndb_key":"CACOF","tmod_date":"20130205","concise_cd":"BCH","status_cd":"1348","ordec_date":"19760220","jurr_narr":null,"fmod_date":"20151125","nad83_lon":"-60.191452","nts_map":"011F16","status_ds":"Official - Official","decis_date":"19760220","nad83_lat":"45.775419","geoname":"Belfry Beach"}},{"type":"Feature","geometry":{"type":"Point","coordinates":[-60.19095578530548,45.78411891008519]},"properties":{"gaz_map":"011F16","admin_loc":"Cape Breton","concise_ds":"Lake","orig_narr":null,"objectid":"13212","generic_cd":"951","locn_narr":"E. of Bras d'Or Lake","county":"Cape Breton","generic_tm":"Lake","cgndb_key":"CACOI","tmod_date":"20130205","concise_cd":"LAKE","status_cd":"1348","ordec_date":"19241202","jurr_narr":null,"fmod_date":"20151125","nad83_lon":"-60.190955","nts_map":"011F16","status_ds":"Official - Official","decis_date":"19241202","nad83_lat":"45.784122","geoname":"Belfry Lake"}},{"type":"Feature","geometry":{"type":"Point","coordinates":[-60.20760396212252,45.765954870604496]},"properties":{"gaz_map":"011F16","admin_loc":"Cape Breton","concise_ds":"Cape","orig_narr":null,"objectid":"16211","generic_cd":"1601","locn_narr":"W. shore of Fourchu Bay","county":"Cape Breton","generic_tm":"Head (1)","cgndb_key":"CACOH","tmod_date":"20130205","concise_cd":"CAPE","status_cd":"1348","ordec_date":"19760220","jurr_narr":null,"fmod_date":"20151125","nad83_lon":"-60.207604","nts_map":"011F16","status_ds":"Official - Official","decis_date":"19760220","nad83_lat":"45.765958","geoname":"Belfry Head"}}], "crs" : { "type": "name", "properties": { "name": "urn:ogc:def:crs:OGC:1.3:CRS84" } } }