{ "type": "FeatureCollection", "features": [{"type":"Feature","geometry":{"type":"Point","coordinates":[-59.96052132196372,45.898524361781114]},"properties":{"gaz_map":"011G13","admin_loc":"Cape Breton","concise_ds":"Island","orig_narr":null,"objectid":"11152","generic_cd":"2300","locn_narr":"E. of Louisbourg Harbour","county":"Cape Breton","generic_tm":"Island","cgndb_key":"CBGCK","tmod_date":"20130205","concise_cd":"ISL","status_cd":"1348","ordec_date":"19530128","jurr_narr":null,"fmod_date":"20151125","nad83_lon":"-59.960516","nts_map":"011G13","status_ds":"Official - Official","decis_date":"19530128","nad83_lat":"45.898527","geoname":"Rocky Island"}},{"type":"Feature","geometry":{"type":"Point","coordinates":[-59.965970341826896,45.89927934615892]},"properties":{"gaz_map":"011G13","admin_loc":"Cape Breton","concise_ds":"Island","orig_narr":null,"objectid":"17794","generic_cd":"2300","locn_narr":"Louisbourg Harbour","county":"Cape Breton","generic_tm":"Island","cgndb_key":"CABYU","tmod_date":"20130205","concise_cd":"ISL","status_cd":"1348","ordec_date":"19530128","jurr_narr":null,"fmod_date":"20151125","nad83_lon":"-59.965965","nts_map":"011G13","status_ds":"Official - Official","decis_date":"19530128","nad83_lat":"45.899282","geoname":"Battery Island"}},{"type":"Feature","geometry":{"type":"Point","coordinates":[-59.96071821940746,45.894446349110154]},"properties":{"gaz_map":"011G13","admin_loc":"Cape Breton","concise_ds":"Island","orig_narr":"Decision on C.4376.","objectid":"16536","generic_cd":"2300","locn_narr":"Atlantic Ocean","county":"Cape Breton","generic_tm":"Island","cgndb_key":"CAONY","tmod_date":"20130205","concise_cd":"ISL","status_cd":"1348","ordec_date":"19391212","jurr_narr":null,"fmod_date":"20151125","nad83_lon":"-59.960713","nts_map":"011G13,C.4376","status_ds":"Official - Official","decis_date":"19391212","nad83_lat":"45.894449","geoname":"Green Island"}}], "crs" : { "type": "name", "properties": { "name": "urn:ogc:def:crs:OGC:1.3:CRS84" } } }