{ "type": "FeatureCollection", "features": [{"type":"Feature","geometry":{"type":"Point","coordinates":[-60.456708264082415,46.22378073396859]},"properties":{"gaz_map":"011K01","admin_loc":"Victoria; Cape Breton","concise_ds":"Island","orig_narr":"Boularderie Island was adopted in the 18th Report, 1924 and confirmed 5 October 1950 on 11K/2 and 3 December 1953 on 11K/1. Quotation from Dr. Bournott Work:- \"The first gentlemen who obtained a grant to settle and develop the fine island at the entrance","objectid":"17508","generic_cd":"2300","locn_narr":"W. of Sydney","county":"Victoria; Cape Breton","generic_tm":"Island","cgndb_key":"CAETN","tmod_date":"20130205","concise_cd":"ISL","status_cd":"1348","ordec_date":"19531203","jurr_narr":null,"fmod_date":"20151125","nad83_lon":"-60.456703","nts_map":"011K01,011K02,011K08","status_ds":"Official - Official","decis_date":"19531203","nad83_lat":"46.223781","geoname":"Boularderie Island"}},{"type":"Feature","geometry":{"type":"Point","coordinates":[-60.259595742854074,45.71565290900852]},"properties":{"gaz_map":"011F09","admin_loc":"Richmond","concise_ds":"Unincorporated area","orig_narr":"Application altered 9 May 2008 on 11F09 from 45º42'56\"-60º15'34\" to 45º42'56\"-60º16'25\" on 11F09.","objectid":"22257","generic_cd":"121","locn_narr":"E. of Bras d'Or Lake","county":"Richmond","generic_tm":"Community (2)","cgndb_key":"CAMQU","tmod_date":"20191003","concise_cd":"UNP","status_cd":"1348","ordec_date":"19500706","jurr_narr":"Forchu (Dispersed Rural Community) changed to Forchu (Community) 26-June-2007 at 45 42 56 -60 15 34 on 011F09.","fmod_date":"20250522","nad83_lon":"-60.259598","nts_map":"011F09","status_ds":"Official - Official","decis_date":"20070626","nad83_lat":"45.715656","geoname":"Fourchu"}},{"type":"Feature","geometry":{"type":"Point","coordinates":[-60.22957282897619,45.71748678660658]},"properties":{"gaz_map":"011F09","admin_loc":"Richmond","concise_ds":"Cape","orig_narr":null,"objectid":"16466","generic_cd":"1601","locn_narr":"S. of Fourchu Bay","county":"Richmond","generic_tm":"Head (1)","cgndb_key":"CAMRA","tmod_date":"20130205","concise_cd":"CAPE","status_cd":"1348","ordec_date":"19500706","jurr_narr":null,"fmod_date":"20151125","nad83_lon":"-60.229575","nts_map":"011F09","status_ds":"Official - Official","decis_date":"19500706","nad83_lat":"45.71749","geoname":"Fourchu Head"}},{"type":"Feature","geometry":{"type":"Point","coordinates":[-61.91616921246512,45.3415215206379]},"properties":{"gaz_map":"011F05","admin_loc":null,"concise_ds":"Lake","orig_narr":null,"objectid":"4957","generic_cd":"951","locn_narr":"SW. of Guysborough","county":"Guysborough","generic_tm":"Lake","cgndb_key":"CBKOF","tmod_date":"20130205","concise_cd":"LAKE","status_cd":"1348","ordec_date":"19760511","jurr_narr":null,"fmod_date":"20151125","nad83_lon":"-61.916165","nts_map":"011F05","status_ds":"Official - Official","decis_date":"19760511","nad83_lat":"45.34152","geoname":"Stewarts Lake"}},{"type":"Feature","geometry":{"type":"Point","coordinates":[-62.0331846018679,45.45313572219816]},"properties":{"gaz_map":"011E08","admin_loc":"Antigonish","concise_ds":"Lake","orig_narr":null,"objectid":"5453","generic_cd":"951","locn_narr":"NE. of Eden Lake","county":"Antigonish","generic_tm":"Lake","cgndb_key":"CBKOI","tmod_date":"20130205","concise_cd":"LAKE","status_cd":"1348","ordec_date":"19760507","jurr_narr":null,"fmod_date":"20151125","nad83_lon":"-62.03318","nts_map":"011E08","status_ds":"Official - Official","decis_date":"19760507","nad83_lat":"45.453134","geoname":"Stewarts Lake"}},{"type":"Feature","geometry":{"type":"Point","coordinates":[-60.02097314685085,45.93945748526444]},"properties":{"gaz_map":"011F16","admin_loc":"Cape Breton","concise_ds":"Lake","orig_narr":"Formerly approved as Stewart Lake 2 Dec. 1924 on 11F/16. Changed to Stewarts Lake 20 Feb. 1976 on 11F/16.","objectid":"8519","generic_cd":"951","locn_narr":"E. of Bras d'Or Lake","county":"Cape Breton","generic_tm":"Lake","cgndb_key":"CBKOG","tmod_date":"20130205","concise_cd":"LAKE","status_cd":"1348","ordec_date":"19760220","jurr_narr":null,"fmod_date":"20151125","nad83_lon":"-60.020967","nts_map":"011F16","status_ds":"Official - Official","decis_date":"19760220","nad83_lat":"45.93946","geoname":"Stewarts Lake"}}], "crs" : { "type": "name", "properties": { "name": "urn:ogc:def:crs:OGC:1.3:CRS84" } } }