{ "type": "FeatureCollection", "features": [{"type":"Feature","geometry":{"type":"Point","coordinates":[-59.99452666325019,45.8732761381929]},"properties":{"gaz_map":"011G13","admin_loc":"Cape Breton","concise_ds":"Cape","orig_narr":null,"objectid":"14259","generic_cd":"1604","locn_narr":"S. of Louisbourg Harbour","county":"Cape Breton","generic_tm":"Point (1)","cgndb_key":"CBORN","tmod_date":"20130205","concise_cd":"CAPE","status_cd":"1348","ordec_date":"19530128","jurr_narr":null,"fmod_date":"20151125","nad83_lon":"-59.994522","nts_map":"011G13,C.4000,C.4001,C.4002,C.4003,C.4006,C.4013,C.4015,C.4045,C.4375","status_ds":"Official - Official","decis_date":"19530128","nad83_lat":"45.873279","geoname":"White Point"}}], "crs" : { "type": "name", "properties": { "name": "urn:ogc:def:crs:OGC:1.3:CRS84" } } }