{"type": "FeatureCollection", "features": [{"type": "Feature", "id": 40196, "geometry": {"type": "LineString", "coordinates": [[-60.39791917645814, 46.05234727341982], [-60.39791965377703, 46.05234674425828], [-60.39795018854183, 46.052320870131666], [-60.39801452573651, 46.052302192467685], [-60.39805346292414, 46.052290901674326], [-60.39810426250542, 46.05228548846187], [-60.39813579384767, 46.0522876468331], [-60.39818685956896, 46.052291150233565], [-60.39824444725424, 46.05233935510829], [-60.398221973054355, 46.05239644696854], [-60.39813865689024, 46.05243937204344], [-60.39805599569783, 46.052429568503705], [-60.398021506920706, 46.05241881917694], [-60.3979809542085, 46.05240616758132], [-60.39794224221082, 46.05239368391343], [-60.39790999596874, 46.05238087950193], [-60.39788932348458, 46.05237266803789]]}, "properties": {"OBJECTID": 40196, "FEAT_CODE": "WALK20", "FEAT_DESC": "Lake - Water to the right line", "RIVNAME_1": " ", "RIVNAME_2": " ", "ZVALUE": 9999, "FID": null, "SHAPE_Length": 65.29674782860269}}, {"type": "Feature", "id": 40197, "geometry": {"type": "LineString", "coordinates": [[-60.39788932348458, 46.05237266803789], [-60.397916215100594, 46.05234977112458], [-60.397918462896165, 46.05234787820471], [-60.39791917645814, 46.05234727341982]]}, "properties": {"OBJECTID": 40197, "FEAT_CODE": "WALK20", "FEAT_DESC": "Lake - Water to the right line", "RIVNAME_1": " ", "RIVNAME_2": " ", "ZVALUE": 81.6, "FID": null, "SHAPE_Length": 3.6479755896667103}}, {"type": "Feature", "id": 130301, "geometry": {"type": "LineString", "coordinates": [[-60.39256360350813, 46.0520400603741], [-60.392574887366315, 46.05198683643234], [-60.3925768973864, 46.05197736868905], [-60.39264192957899, 46.05196894359424], [-60.39277032088733, 46.052015077267654], [-60.39280816497702, 46.05204184482756], [-60.39282161318711, 46.05205136840914], [-60.392823488586174, 46.05205574050346], [-60.392833257220786, 46.05207861798072], [-60.392833278076765, 46.0521056292414], [-60.39279367098638, 46.05215061919064]]}, "properties": {"OBJECTID": 130301, "FEAT_CODE": "WALK20", "FEAT_DESC": "Lake - Water to the right line", "RIVNAME_1": "Gillis Brook", "RIVNAME_2": " ", "ZVALUE": 73.2, "FID": null, "SHAPE_Length": 41.03596712850925}}, {"type": "Feature", "id": 130302, "geometry": {"type": "LineString", "coordinates": [[-60.39279367098638, 46.05215061919064], [-60.39274112891188, 46.052168321077666], [-60.392715302399345, 46.052167731535015], [-60.39268915368546, 46.05216300335857], [-60.392664030415766, 46.052158460595265], [-60.39261322417351, 46.05213929961025], [-60.3925842483401, 46.0521081351296], [-60.3925627778731, 46.05208504449999], [-60.39256360350813, 46.0520400603741]]}, "properties": {"OBJECTID": 130302, "FEAT_CODE": "WALK20", "FEAT_DESC": "Lake - Water to the right line", "RIVNAME_1": "Gillis Brook", "RIVNAME_2": " ", "ZVALUE": 73.2, "FID": null, "SHAPE_Length": 27.275584634332922}}, {"type": "Feature", "id": 141500, "geometry": {"type": "LineString", "coordinates": [[-60.397628550104415, 46.05528327844839], [-60.397705700714866, 46.05534714928674], [-60.397716971955255, 46.055437402974164], [-60.39772537762725, 46.055464578248255], [-60.39772819561145, 46.05547366104103], [-60.397797196493805, 46.05552994765469], [-60.39780538927743, 46.055536623731086], [-60.39787707169868, 46.05557134297226], [-60.39792041435216, 46.05559234769681], [-60.39792302804075, 46.05559422535925], [-60.39795793122808, 46.055619304085575], [-60.39798336061023, 46.05565588574687], [-60.39799620830246, 46.055679048923736], [-60.39803341661263, 46.055746131883105], [-60.39814765520407, 46.055895353815885], [-60.39817227165518, 46.055927506626844], [-60.39824728772239, 46.05600932064365], [-60.39837531849508, 46.056118443865], [-60.39850287936208, 46.056182553297305], [-60.398619639035985, 46.056227542353554], [-60.398669225577315, 46.05624664586286], [-60.398766618966135, 46.05627540667153], [-60.398798012171014, 46.05628468117391], [-60.39897896299763, 46.05631310353473], [-60.39902897871803, 46.05631949882993], [-60.399133174152446, 46.056332816200005], [-60.3991977749423, 46.056333387131126], [-60.39926282393104, 46.05632496764328], [-60.39926894462626, 46.056322919866155], [-60.39941912254205, 46.05627272275095], [-60.39942147527803, 46.05627107520751], [-60.39945788319748, 46.05624570343438], [-60.399471195374325, 46.056210004172925], [-60.399433695171425, 46.0561551468432], [-60.39943140010332, 46.056153915511786], [-60.39938326295604, 46.056127896880604], [-60.39932469442865, 46.056104322891734], [-60.39929318968282, 46.05609164377207], [-60.3992789312828, 46.056083911632776], [-60.3991910634597, 46.05603621490914]]}, "properties": {"OBJECTID": 141500, "FEAT_CODE": "WALK20", "FEAT_DESC": "Lake - Water to the right line", "RIVNAME_1": " ", "RIVNAME_2": " ", "ZVALUE": 82, "FID": null, "SHAPE_Length": 238.12166962806597}}, {"type": "Feature", "id": 141585, "geometry": {"type": "LineString", "coordinates": [[-60.392470665450844, 46.062494822152956], [-60.392464570839294, 46.06248559243163], [-60.39245859691506, 46.06247654547677], [-60.39243232116969, 46.06245794445953], [-60.39243111874337, 46.06245794401072], [-60.392393531857266, 46.06245795897838], [-60.392250951386636, 46.06246550452705], [-60.39223065214233, 46.06245589648438], [-60.39221300927557, 46.062447537163244], [-60.392195427660475, 46.062408514255395], [-60.392188428050154, 46.06239297245], [-60.392181834136274, 46.06237650384625], [-60.392162978917234, 46.06232938733321], [-60.39214825212755, 46.06230441650218], [-60.392125863434835, 46.06226643590292], [-60.39206249323372, 46.06221188558293], [-60.39198620757937, 46.06215704032651], [-60.391947842124935, 46.06214806378924], [-60.39185739074091, 46.06214689848502], [-60.39181063303706, 46.06210529217092], [-60.39180653867159, 46.06210163444639], [-60.39180070884622, 46.06208431921159], [-60.39175775464453, 46.06195651114308], [-60.39172312029639, 46.06175860749348], [-60.39172309976137, 46.061731605276016], [-60.39173665112341, 46.06168383361408], [-60.39175100794197, 46.06163323615889], [-60.39179556674867, 46.061573877752984], [-60.39180480939733, 46.06156156899664], [-60.39187021482364, 46.06146314702656], [-60.39195069442976, 46.06137407879993], [-60.39212243817941, 46.06118628776618], [-60.39226665265165, 46.06103476135102], [-60.3923447946642, 46.06093847500929], [-60.3923462496679, 46.0609366811087], [-60.39246549498733, 46.0608205957237], [-60.39246770500427, 46.06081814401398], [-60.3926101047993, 46.06066008631149], [-60.39278100936911, 46.060545188849936], [-60.39286939155974, 46.06042662542874], [-60.39290107912257, 46.060384109903204], [-60.392941929216846, 46.06031340665939], [-60.39299398360717, 46.06022331985765], [-60.3930623488447, 46.06006196965624], [-60.39309652425539, 46.06003854709357], [-60.39311445375813, 46.06002625648218], [-60.39313673289574, 46.06001714334057], [-60.393179037364845, 46.059999828668666], [-60.39332371987827, 46.05992032526231], [-60.39336200742142, 46.05990319786806], [-60.39338916292568, 46.059875915774114], [-60.39339839717499, 46.059847846671126], [-60.39345706033997, 46.05966955172983], [-60.39348413898947, 46.059616166162165], [-60.393549581541784, 46.059571756569525], [-60.39359847290003, 46.0595435933367], [-60.39364127727808, 46.05951894542308], [-60.39372346439925, 46.05949124488156], [-60.39377133677031, 46.05947511010678], [-60.39378715666052, 46.0594689006513], [-60.39386222788856, 46.059439381534965], [-60.39394826691883, 46.059393569536674], [-60.39399351450317, 46.059369472267406], [-60.39401628312398, 46.05934803031936], [-60.394059802870814, 46.05930708050894], [-60.39407227281872, 46.059289363841145], [-60.39408211867183, 46.05927026421737], [-60.394086499826926, 46.05926178661524], [-60.39412771877447, 46.05912771823261], [-60.394128944969445, 46.059046740937724], [-60.39415646642491, 46.05895646290845], [-60.39418396683422, 46.05889409520796], [-60.39421493154551, 46.05883256258349], [-60.39423816418916, 46.058786424567934], [-60.39427728858113, 46.05872430402669], [-60.39429479324622, 46.05870069880069], [-60.39431732305426, 46.058670313761226], [-60.39434399903136, 46.058652921142254], [-60.394461965583226, 46.05856380623414], [-60.394510410592325, 46.05852257257618], [-60.39451449133879, 46.05851910143075], [-60.394555488611964, 46.058496014054604], [-60.39459284649968, 46.058474985787164], [-60.394596541115426, 46.05847312593646], [-60.39469745457136, 46.05842245932343], [-60.39471076995658, 46.058386769696405], [-60.39473075060711, 46.05833911730854], [-60.394846193621554, 46.05806403732631], [-60.39493960392046, 46.057938719508165], [-60.39496625133643, 46.057902964894275], [-60.39501917689737, 46.057822266626935], [-60.39506604755573, 46.05772215098688], [-60.395073794571324, 46.05770560457712], [-60.39510264503027, 46.057673581413866], [-60.39521838842754, 46.05754509144984], [-60.39524604165047, 46.05741953384543], [-60.39524798013644, 46.05741075747657], [-60.39525389189841, 46.0573936471674], [-60.39528839054059, 46.05729378032482], [-60.39530422142897, 46.057177133699575], [-60.39529335539683, 46.05705086867817], [-60.395296184727336, 46.05688082208774], [-60.395324170863994, 46.05683555729147], [-60.39536427131805, 46.056787256524494], [-60.39537624393532, 46.056772669573725], [-60.395377918405735, 46.05670987465175], [-60.39545790354742, 46.05657580769567], [-60.39555167603402, 46.05642401788407], [-60.395630828164386, 46.05630791498442], [-60.39573671876011, 46.056200531213236], [-60.3958817526256, 46.05605801943038], [-60.396026375340995, 46.05592450767772], [-60.39605380685115, 46.05589513409463], [-60.39609305379598, 46.05585313202268], [-60.39638103838525, 46.05564007358716], [-60.396455526743694, 46.05559449142165], [-60.39651148639625, 46.05556024163983], [-60.396724589999884, 46.05544092674113], [-60.396747825440016, 46.05542791943185], [-60.39683908845154, 46.055384096427105], [-60.39694332054609, 46.05533966885618], [-60.397163349173276, 46.05527897878785], [-60.39716560081975, 46.05527838205601], [-60.39722880694231, 46.05526156918591], [-60.39730452454522, 46.05526241251608], [-60.39738385977039, 46.05526330222525], [-60.39741862512125, 46.05526847767439], [-60.39744804951894, 46.05527286537284], [-60.39754386978761, 46.05527838786915], [-60.397628550104415, 46.05528327844839]]}, "properties": {"OBJECTID": 141585, "FEAT_CODE": "WALK20", "FEAT_DESC": "Lake - Water to the right line", "RIVNAME_1": " ", "RIVNAME_2": " ", "ZVALUE": 82, "FID": null, "SHAPE_Length": 1022.0358800351775}}, {"type": "Feature", "id": 141586, "geometry": {"type": "LineString", "coordinates": [[-60.40303053654934, 46.05854743369663], [-60.403042238286545, 46.0586287050074], [-60.403041868932995, 46.05866386189049], [-60.4030414598699, 46.05870069197912], [-60.40302644922568, 46.05877235535946], [-60.402998958333626, 46.05883473439372], [-60.40297226880251, 46.058880030532805], [-60.40291977541165, 46.058951741704355], [-60.40289551935575, 46.05897878596934], [-60.40288021298557, 46.05899584506532], [-60.402813934727234, 46.05905824216551], [-60.40281253767459, 46.05905991150903], [-60.40270849882314, 46.05918366195729], [-60.40261295835188, 46.0593119978485], [-60.402562234705876, 46.059380139863045], [-60.40253142858513, 46.05941148138505], [-60.40248347495309, 46.05946026309846], [-60.40239095696897, 46.05953105480498], [-60.40236515259993, 46.05955746970548], [-60.40227176106374, 46.05967414442014], [-60.40223304103763, 46.059700274547914], [-60.402112669451675, 46.05974084762175], [-60.40205044069147, 46.05976182569142], [-60.401894543485504, 46.059805082723344], [-60.401868132715144, 46.05981521066417], [-60.401803711779095, 46.05983991897933], [-60.40176454054195, 46.05987593032445], [-60.401722862199776, 46.06001989161425], [-60.40170639315476, 46.06007795775782], [-60.40169497257838, 46.06011826358569], [-60.40161498310181, 46.060252352735375], [-60.40160757610608, 46.06025893467102], [-60.40157450700176, 46.060288334329684], [-60.40145616792164, 46.06038554860804], [-60.40133819496868, 46.06047467956968], [-60.40119444289014, 46.060590207615505], [-60.40112816078564, 46.060652603640925], [-60.40103605962569, 46.0607414228913], [-60.40091729261618, 46.06087552025424], [-60.40087641844551, 46.06094749486701], [-60.400769094441884, 46.06112368716355], [-60.400729322687276, 46.061188972375], [-60.400689360006105, 46.061269059183154], [-60.400676018444464, 46.061289402902204], [-60.40063643908303, 46.06134976014003], [-60.40056369360434, 46.06142255742436], [-60.40055639546015, 46.06142984381368], [-60.40055477111399, 46.06143166996688], [-60.400477220907774, 46.061518947790475], [-60.40042015307144, 46.06158497332543], [-60.40034598186505, 46.06167077086177], [-60.400279684562236, 46.06173316604243], [-60.40017750729288, 46.061805212186286], [-60.4000002047179, 46.061930217714064], [-60.39996883155127, 46.06195237403836], [-60.39995206141684, 46.061964224083326], [-60.39991159098426, 46.061991501650496], [-60.39979449100138, 46.06207045321965], [-60.399614452984615, 46.06216640500533], [-60.399611495494334, 46.06216798478025], [-60.399559012402285, 46.06221179282011], [-60.3993635336823, 46.06232704993948], [-60.399279397854514, 46.062400046087085], [-60.399270528824665, 46.06240773765411], [-60.39920512951371, 46.06245125143589], [-60.39908842928629, 46.06251339829742], [-60.399049681352416, 46.06255270355338], [-60.39903548070547, 46.06256709613377], [-60.39902107477576, 46.06258640735496], [-60.39892922700013, 46.062709585873776], [-60.398909622570535, 46.06272946274261], [-60.39887627807198, 46.06276328362739], [-60.398809990702176, 46.062825678175315], [-60.39853488194774, 46.06301202509301], [-60.39833939869381, 46.06312727134862], [-60.39806928466151, 46.06329229152788], [-60.398063840176086, 46.06329561472503], [-60.39806162127487, 46.063296608245864], [-60.398025538710186, 46.06331274337361], [-60.39795091110997, 46.063355587181654], [-60.39794713689548, 46.06335776034701], [-60.397944021157194, 46.06335967849558], [-60.39780332044948, 46.06344628989313], [-60.39767204147457, 46.06351620368755], [-60.39766422777538, 46.06352151601847], [-60.39757987763094, 46.063578908020624], [-60.39748902414347, 46.06361374034058], [-60.39747382948949, 46.06361653533255], [-60.397397724501396, 46.063630561264276], [-60.39726876133601, 46.06367402965724], [-60.39726765779007, 46.063674400536385], [-60.39716429164909, 46.06372784868876], [-60.39707174591246, 46.063798653429984], [-60.39701961716196, 46.063807357114094], [-60.39691626979781, 46.06383290367503], [-60.396773686568686, 46.06384044581659], [-60.39673223123075, 46.063829771366734], [-60.39663188309519, 46.06380392071687], [-60.39652910223005, 46.06377866257016], [-60.39647848521628, 46.06376622210213], [-60.39640641928132, 46.063758144010166], [-60.396297143895694, 46.06374588746113], [-60.39623791830681, 46.06372487111097], [-60.39619413166983, 46.06370933701173], [-60.39614493481862, 46.06369502064696], [-60.396130368346334, 46.06369078232702], [-60.3958731132673, 46.063634514190746], [-60.39583029168953, 46.063623205224424], [-60.39573135368683, 46.0635970799109], [-60.3956033787725, 46.06356896034528], [-60.39555126955785, 46.06354977100808], [-60.39544074865955, 46.063520582148705], [-60.39540951042722, 46.063512336337375], [-60.39528101668075, 46.06347271983844], [-60.39522980810575, 46.063456926109666], [-60.395188362626705, 46.06345017557484], [-60.395114326129395, 46.06343810047182], [-60.39506534362518, 46.063422537447806], [-60.39499839939724, 46.06340125441307], [-60.39480624707847, 46.06333566793364], [-60.39475538763976, 46.06331740679491], [-60.394704083068085, 46.063281134319965], [-60.39468632194492, 46.06326208899735], [-60.39462777136866, 46.06319928851008], [-60.39448936894233, 46.06303592113224], [-60.39447600348072, 46.0630215573419], [-60.39443889838453, 46.06298166639966], [-60.39438980098813, 46.06293504845957], [-60.3943621642191, 46.06290881135091], [-60.3943371578293, 46.062863228989116], [-60.3942883713812, 46.06274601754148], [-60.394263364697316, 46.06270044415613], [-60.39424996119621, 46.06268304627482], [-60.39425038489401, 46.0626740463592], [-60.39424431410135, 46.062664853279394], [-60.394238315725644, 46.06265576985833], [-60.39417406176122, 46.0625921999756], [-60.394123639002, 46.062564956933684], [-60.394059420271006, 46.06252838053223], [-60.394046927891196, 46.06251909493628], [-60.39398228552622, 46.062491518407626], [-60.39382931654707, 46.062444825419014], [-60.39371298233766, 46.06241696932816], [-60.39366618759437, 46.06241098723532], [-60.3936358694408, 46.06240710921122], [-60.393578810563085, 46.062398615720234], [-60.39357167222317, 46.06239754376974], [-60.393559964717305, 46.06239740262007], [-60.39332614789011, 46.062394640984095], [-60.3931964828826, 46.06240249146384], [-60.39298843551224, 46.062427436011305], [-60.39285963888847, 46.06244429750975], [-60.3927295712141, 46.06248814059455], [-60.392638272587575, 46.06250494873349], [-60.392470665450844, 46.062494822152956]]}, "properties": {"OBJECTID": 141586, "FEAT_CODE": "WALK20", "FEAT_DESC": "Lake - Water to the right line", "RIVNAME_1": " ", "RIVNAME_2": " ", "ZVALUE": 82, "FID": null, "SHAPE_Length": 1192.6983515927043}}, {"type": "Feature", "id": 141587, "geometry": {"type": "LineString", "coordinates": [[-60.3991910634597, 46.05603621490914], [-60.39930735160149, 46.05601006087791], [-60.399450759488744, 46.05598452419308], [-60.399670800858964, 46.05598659068449], [-60.399786753195336, 46.05598767329978], [-60.39981028560889, 46.05599117920742], [-60.399850931338506, 46.055997234828055], [-60.39995387800909, 46.05600767883649], [-60.40000000559898, 46.0560159293257], [-60.40000514198012, 46.05601694630462], [-60.4001597997288, 46.05605466892505], [-60.400230818132506, 46.0560801729663], [-60.40033906184554, 46.05611905304206], [-60.40040922448205, 46.05614764269706], [-60.40051919365432, 46.05619245725664], [-60.40063463214415, 46.05623918729511], [-60.40070714433387, 46.05626565209391], [-60.400710906599905, 46.05626702479553], [-60.40071611146787, 46.056268511331446], [-60.4007759674702, 46.05628560647771], [-60.400839314844056, 46.056313149718015], [-60.4009414596621, 46.0563676774641], [-60.40094374869383, 46.0563693136541], [-60.401056527837575, 46.05645040099523], [-60.4011074084903, 46.05649566159256], [-60.401170359043874, 46.05655920696682], [-60.40128382010436, 46.05673099050659], [-60.4013088044155, 46.05674956911771], [-60.40140392669059, 46.05682676215706], [-60.40149934778225, 46.05690420492973], [-60.40149966162189, 46.05690743427949], [-60.40150021721458, 46.056913225295666], [-60.401639470170544, 46.05705860247453], [-60.401678728020556, 46.05708681231365], [-60.40179206062699, 46.05716828052982], [-60.401932568127116, 46.057259682366364], [-60.40201643393184, 46.057335997804074], [-60.40212227071578, 46.057432308168465], [-60.40216024022102, 46.057459606479455], [-60.402198560402674, 46.057487146768565], [-60.40224963032246, 46.05752758683773], [-60.40231324015092, 46.0575779607048], [-60.40234288749573, 46.05761344922927], [-60.40238913417306, 46.05766879251802], [-60.402457328009746, 46.05773802777276], [-60.402477998200986, 46.05775901917719], [-60.402529460540535, 46.057818108254466], [-60.402604341113964, 46.057904101560695], [-60.40261441053915, 46.05791626531712], [-60.40264226787921, 46.05794995794242], [-60.40270522223525, 46.05801349353718], [-60.40273065541066, 46.05805008320802], [-60.402755287570514, 46.05810374676879], [-60.40272859822108, 46.05814904285939], [-60.402710355102606, 46.05816725023392], [-60.40267569964362, 46.05820184348441], [-60.402675277802544, 46.058210834476334], [-60.40268782264739, 46.05827412383152], [-60.40268697896685, 46.0582921058153], [-60.40271729143569, 46.05830461286967], [-60.40277702840886, 46.05832926474071], [-60.4028412492076, 46.05836581830028], [-60.40292934593027, 46.0584294484242], [-60.40293003388983, 46.05842994109757], [-60.40297395191967, 46.058453099108505], [-60.40298176145104, 46.058457218929405], [-60.40301973065072, 46.058502185088], [-60.40302611459919, 46.058506929535525], [-60.40303222370159, 46.05851146972082], [-60.40303053654934, 46.05854743369663]]}, "properties": {"OBJECTID": 141587, "FEAT_CODE": "WALK20", "FEAT_DESC": "Lake - Water to the right line", "RIVNAME_1": " ", "RIVNAME_2": " ", "ZVALUE": 82, "FID": null, "SHAPE_Length": 450.7244727671551}}, {"type": "Feature", "id": 192294, "geometry": {"type": "LineString", "coordinates": [[-60.41662397320822, 46.05610332200407], [-60.416611309722086, 46.05612037071187], [-60.41661017815755, 46.056121902219616], [-60.4166093390593, 46.056139884408175], [-60.416598187436556, 46.05614919080498], [-60.41655687500795, 46.05618370070556], [-60.41654684444627, 46.05619170036712], [-60.41654479007947, 46.05619333701036], [-60.41654373105537, 46.05619469914708], [-60.416531036935176, 46.05621101810569], [-60.41651580646939, 46.05622129430697], [-60.41649232634537, 46.05623714428448], [-60.41643583362339, 46.05627586507876], [-60.416413516779144, 46.05629116531494], [-60.41633927410404, 46.05632682939724], [-60.416322280395086, 46.056334995554096], [-60.41620473957799, 46.056388149331376], [-60.41617891061808, 46.056387565049555], [-60.41615465249671, 46.05639487380581], [-60.4160622092604, 46.05642272750261], [-60.415931808817916, 46.056474681024476], [-60.4159002233025, 46.05648857439274], [-60.41571004820724, 46.056572261462726], [-60.415625241056524, 46.05661487752007], [-60.415605462816984, 46.05662480768524], [-60.41554561653725, 46.05666278611629], [-60.41540961681232, 46.056749084579785], [-60.41537074290438, 46.05677148944111], [-60.41531794537483, 46.056801922755], [-60.41528421111793, 46.056821680712055], [-60.41512122686459, 46.05691716982616], [-60.4150879778972, 46.05694369814514], [-60.41504334196474, 46.05697930235816], [-60.414930624518064, 46.057061446850625], [-60.41487203083411, 46.057104142580066], [-60.41484769106989, 46.057118172645865], [-60.41478034622437, 46.057156962023086], [-60.41462654026683, 46.057208411301865], [-60.414624071162706, 46.05720923747102], [-60.4146208372689, 46.05721093738686], [-60.414454438044984, 46.05729811271601], [-60.414322095609975, 46.057368039603475], [-60.41427151258142, 46.05739476932029], [-60.41416770973249, 46.05743022183116], [-60.41394465229458, 46.05749618643303], [-60.413842607889706, 46.057526368117266], [-60.41367424380652, 46.05756035838175], [-60.413583409939214, 46.05759520396178], [-60.41354951788109, 46.05760863042274], [-60.41342665755118, 46.05765736760189], [-60.41329623931131, 46.057709308706876], [-60.413258377982004, 46.05775289614811], [-60.4130325312182, 46.05801295635523], [-60.413006238967526, 46.058022270504104], [-60.41296868969078, 46.05803731506967], [-60.41294037562799, 46.058048671545535], [-60.41279740559485, 46.05809224526268], [-60.41240816047322, 46.05820492670447], [-60.41230394759812, 46.0582493688127], [-60.412134247460344, 46.05837216227991], [-60.412120625140105, 46.0583820242997], [-60.412029326618566, 46.05842675875426], [-60.41187222271918, 46.05852400556116], [-60.411775684475955, 46.05858954743785], [-60.41174136813532, 46.05861285538637], [-60.411544624220454, 46.058728095706826], [-60.41153426568267, 46.05874142483894], [-60.41153088133435, 46.058745785429615], [-60.41148136157932, 46.058801699887894], [-60.41141213043949, 46.05887990307514], [-60.411359673020854, 46.05892370812581], [-60.411307679973596, 46.05895205167752], [-60.41129465222425, 46.05895914589403], [-60.41127654376296, 46.058967340037356], [-60.4111374734128, 46.059030288302985], [-60.41112308353718, 46.05903775665285], [-60.410967871683376, 46.059118250011075], [-60.4109362817417, 46.05913991840588], [-60.41089039914009, 46.059171397467125], [-60.410771195339684, 46.05928750301315], [-60.410704534708024, 46.05938589833747], [-60.41063704959386, 46.059529277834685], [-60.41061688489528, 46.059562905902524], [-60.410583779146556, 46.05961807599912], [-60.41050373991269, 46.05972606854421], [-60.410423772120524, 46.059860164334786], [-60.41042335109207, 46.05986916437029], [-60.41038256209773, 46.059967236991675], [-60.410367590171674, 46.06006590392889], [-60.41035822011926, 46.06010839024129], [-60.410339716304065, 46.060192180143815], [-60.41031272770784, 46.0602724474561], [-60.41027140039557, 46.06035355073566], [-60.41020557924555, 46.060433954630795], [-60.41016340417775, 46.06050028669826], [-60.410126030308824, 46.06055905911952], [-60.41004603082279, 46.060666152176154], [-60.40996606047783, 46.06080024757425], [-60.409936579094754, 46.06083181013584], [-60.40989936623161, 46.06087165791376], [-60.40983603184009, 46.06094973282843], [-60.409819787399215, 46.060969741767025], [-60.40973094354207, 46.06104422295009], [-60.40970271039946, 46.06106789324825], [-60.409545594850606, 46.061165136569194], [-60.409480162796804, 46.06120955554938], [-60.4094502076072, 46.06124294335647], [-60.40944060380788, 46.06125366124387], [-60.409419888068356, 46.06130013842353], [-60.409372705077615, 46.061406031162235], [-60.40934601936711, 46.06145132885661], [-60.40927890353885, 46.06153171184486], [-60.40921392031361, 46.0615941510088], [-60.40912142312688, 46.06169195035175], [-60.40906851389992, 46.06177265546199], [-60.40894733794198, 46.06201382237501], [-60.4088751107755, 46.06211083924848], [-60.40880108728958, 46.062210317485025], [-60.40878156652308, 46.062234563224074], [-60.40872144866567, 46.0623093172624], [-60.40861851251335, 46.06241048859871], [-60.408576430491664, 46.06245183657425], [-60.40823348038512, 46.062817579251785], [-60.40819266908963, 46.06288865782259], [-60.40818064423658, 46.06292124607165], [-60.40816599727544, 46.062960957280644], [-60.40809524462476, 46.06322936909233], [-60.40805439336282, 46.063328348490906], [-60.40801443833228, 46.063436348788066], [-60.40790862668967, 46.063569856295594], [-60.40781528119183, 46.06368564546317], [-60.40776276082933, 46.06373035647184], [-60.407683987040265, 46.06378347219958], [-60.407629785472146, 46.06381521116304], [-60.407592254858564, 46.06383719382298], [-60.407484988406964, 46.063878331004986], [-60.40741054590553, 46.06390687427308], [-60.40735758863804, 46.06393357402584], [-60.40734512176918, 46.0639512921992], [-60.40731880456964, 46.0639812067876], [-60.40730551693784, 46.06399629615924], [-60.40726508512137, 46.06405591626986], [-60.4071846803086, 46.064174464817256], [-60.407132158967954, 46.064219175511894], [-60.40706672131868, 46.064263592970605], [-60.406911276951796, 46.064324868276586], [-60.40674073970215, 46.06440470191487], [-60.406721564154076, 46.06441464421926], [-60.40657111442249, 46.06449265652257], [-60.40638135883083, 46.064824474398335], [-60.406330274613545, 46.064913815203866]]}, "properties": {"OBJECTID": 192294, "FEAT_CODE": "WARV50", "FEAT_DESC": "River - Single Line", "RIVNAME_1": " ", "RIVNAME_2": " ", "ZVALUE": 9999, "FID": null, "SHAPE_Length": 1319.6740724868632}}, {"type": "Feature", "id": 192295, "geometry": {"type": "LineString", "coordinates": [[-60.406330274613545, 46.064913815203866], [-60.40655086403136, 46.06489722261686], [-60.40665893784667, 46.06489548216127], [-60.40689894622059, 46.06489162458266], [-60.40702861538888, 46.06488376761895], [-60.40715823147757, 46.06486876284651], [-60.40717162210295, 46.06486721269607], [-60.40719659464117, 46.06486325228075], [-60.4072758504493, 46.06485067742457], [-60.40749590688583, 46.06478996809577], [-60.407677255015486, 46.064755381566904], [-60.40813209126285, 46.064651396127395], [-60.40841804561955, 46.064564278547905], [-60.408483511240036, 46.06454686267656], [-60.408599337477085, 46.064530589334915], [-60.40871628522171, 46.06451273021587], [-60.40876865144256, 46.06450472862147], [-60.408838891092344, 46.06449056205054], [-60.408937039539744, 46.06447074613659], [-60.4090020839919, 46.064462320988746], [-60.40909255324483, 46.06443557131448], [-60.40922299177073, 46.0643836264924], [-60.40937493033845, 46.06429968608402], [-60.4094327080961, 46.064267775387], [-60.40949286286283, 46.064237565675725], [-60.40953731344249, 46.064215244300904], [-60.40958578951429, 46.06419338322596], [-60.409615244536425, 46.06418010933753], [-60.40973154549589, 46.06415394498062], [-60.409809221170214, 46.06414387969475], [-60.40986163343033, 46.064137093720674], [-60.41007100963061, 46.06413069872328], [-60.410301878896036, 46.06412367457564], [-60.41054745544021, 46.064125641935156], [-60.41062733868661, 46.06411868633453], [-60.410727916374526, 46.064109931654066], [-60.41075166046536, 46.0641059606147], [-60.41078004436909, 46.06410120369065], [-60.41090926045967, 46.06407533989897], [-60.411168997253554, 46.06402363244525], [-60.411401993125615, 46.06399020158187], [-60.41144078378788, 46.063990180628245], [-60.4117538538251, 46.06390366920113], [-60.411831362691736, 46.06387752373251], [-60.411987293456725, 46.06383335384209], [-60.412052336766436, 46.06382492693031], [-60.41219491912213, 46.0638173566745], [-60.41229741798912, 46.06380977820979], [-60.41258421495667, 46.06370467713409], [-60.41262383355379, 46.063686664382885], [-60.4126731911521, 46.06365282419912], [-60.41267592974471, 46.06365094210895], [-60.41288637311661, 46.063463996583806], [-60.41295504298766, 46.06341144047385], [-60.412978911090065, 46.06339318786714], [-60.41305925593513, 46.063223096591514], [-60.41315216961055, 46.0631162939399], [-60.41319875602494, 46.06303936801527], [-60.41324464272182, 46.062963578298294], [-60.413312532987774, 46.06281120593078], [-60.41335335064043, 46.06274012568206], [-60.4134054454571, 46.062704403041295], [-60.41365259215729, 46.06261729358106], [-60.41371760256642, 46.06258186324793], [-60.41377282079815, 46.0625412698454], [-60.413875597343946, 46.062465732902346], [-60.41390965800302, 46.06244294956711], [-60.41392764956013, 46.06243090911576], [-60.41405975686314, 46.062315092454284], [-60.41413892448337, 46.0622259699358], [-60.414164766230876, 46.06219866217795], [-60.41420516228874, 46.06213657265291], [-60.4142127742103, 46.06212031892245], [-60.414218088586765, 46.06210896349602], [-60.414232232935234, 46.06205528023997], [-60.414246345732884, 46.06197459453753], [-60.414247555297514, 46.06197222776634], [-60.414287581547185, 46.0618945228387], [-60.41431468349742, 46.061840232843025], [-60.414320306230486, 46.06183085551821], [-60.41434132339232, 46.061795833015516], [-60.414407140762464, 46.06171541767022], [-60.41446790057574, 46.06166023342787], [-60.41448545364925, 46.06164428571238], [-60.4145105726933, 46.06163105641926], [-60.414603426959125, 46.06158215193838], [-60.4147484593431, 46.06146662702893], [-60.41479225218728, 46.061417322988355], [-60.414827610846146, 46.06137752166196], [-60.41490355442947, 46.06129065678512], [-60.414999711682725, 46.06118069481297], [-60.41507421645794, 46.06112518227255], [-60.41513098689016, 46.06108285922259], [-60.415261799809564, 46.06099491365475], [-60.41527818758943, 46.06098231466347], [-60.415366403424436, 46.060914475387925], [-60.41558892190128, 46.06077280996487], [-60.41565390818853, 46.06072868342048], [-60.415719788672604, 46.060683956030466], [-60.415848630546414, 46.06056756836877], [-60.4159560091901, 46.060470577274266], [-60.41610268170186, 46.06029209269157], [-60.41615449968615, 46.06025224026225], [-60.41620728275498, 46.06021165359185], [-60.41624291720297, 46.060187510067394], [-60.41631142188137, 46.0601411045833], [-60.416404398539875, 46.060060402357394], [-60.41644543649526, 46.06003987321689], [-60.41645602725534, 46.06003456841082], [-60.416600254425965, 46.05993612402108], [-60.41671776018623, 46.059883878116935], [-60.41675693483624, 46.05984786172978], [-60.41679651986051, 46.059830755825374]]}, "properties": {"OBJECTID": 192295, "FEAT_CODE": "WARV50", "FEAT_DESC": "River - Single Line", "RIVNAME_1": " ", "RIVNAME_2": " ", "ZVALUE": 9999, "FID": null, "SHAPE_Length": 1062.8384857541348}}, {"type": "Feature", "id": 192519, "geometry": {"type": "LineString", "coordinates": [[-60.39788932348458, 46.05237266803789], [-60.3978882683921, 46.05237256299568], [-60.39785026388692, 46.05236868198013], [-60.397802995998774, 46.05236386086093], [-60.39767764537162, 46.052360194933634], [-60.397522462573605, 46.052353148968685], [-60.39743540946889, 46.05235125543686], [-60.3972716722403, 46.05234221409249], [-60.3972200190977, 46.05232343189025], [-60.39714965680074, 46.05229785089685], [-60.39710316791664, 46.05227536107367], [-60.39705574377296, 46.05225241788922], [-60.39697094613116, 46.05223032406738], [-60.39690533354982, 46.05224477780025], [-60.39686763583596, 46.05225307225123], [-60.39681324320286, 46.05230988641743], [-60.39679482098469, 46.05232942986731], [-60.39678765085802, 46.052337033962104], [-60.39673768954999, 46.05236393210938], [-60.39673103162309, 46.05236751560877], [-60.39663885898325, 46.05243903963209], [-60.396572582021584, 46.05250143319129], [-60.39656245140834, 46.05254038186262], [-60.39655838121071, 46.0525560131251], [-60.396557511864295, 46.05255718138799], [-60.39653215433499, 46.052591426694384]]}, "properties": {"OBJECTID": 192519, "FEAT_CODE": "WARV50", "FEAT_DESC": "River - Single Line", "RIVNAME_1": " ", "RIVNAME_2": " ", "ZVALUE": 81.6, "FID": null, "SHAPE_Length": 129.49578627164584}}, {"type": "Feature", "id": 192521, "geometry": {"type": "LineString", "coordinates": [[-60.390903201238366, 46.0458790362406], [-60.39091109513142, 46.04589008929074], [-60.390928664054194, 46.04591472024228], [-60.39109369882542, 46.04606069953771], [-60.391113414752496, 46.04608942077149], [-60.39114329135845, 46.046132937058466], [-60.39123208433572, 46.04625107292719], [-60.39126920176089, 46.046314024852045], [-60.391370027013345, 46.04642342582338], [-60.39148259001847, 46.04661321813081], [-60.391595132985024, 46.04677600805832], [-60.39165895122761, 46.04687556302324], [-60.39172061031599, 46.04696607704343], [-60.39179691718346, 46.047074926719574], [-60.39184269458007, 46.047128031531045], [-60.39185942357526, 46.04714745880772], [-60.39187809810776, 46.04716317725689], [-60.391935265645195, 46.04721129476915], [-60.391957051463635, 46.04721913671801], [-60.391961957623515, 46.04722090485551], [-60.39202485390215, 46.04725744334984], [-60.392141202951514, 46.04731229441432], [-60.39235876110072, 46.04741357699563], [-60.39253111347994, 46.04750918285998], [-60.392639675008546, 46.047569400001436], [-60.39266740856291, 46.04758901536463], [-60.39269096407533, 46.04760567315588], [-60.39270368052673, 46.04761698917543], [-60.3927418299119, 46.047650937226145], [-60.392773464684325, 46.047697238390114], [-60.39277931799494, 46.04770579656399], [-60.39279540108173, 46.04773236443419], [-60.392828490853724, 46.04778702434998], [-60.39287937835646, 46.047859290651864], [-60.392907133845945, 46.047892173340585], [-60.39291733230996, 46.04790425991629], [-60.393019013679066, 46.04796869393967], [-60.39306973322909, 46.047997582430604], [-60.393147405217384, 46.04804182003237], [-60.39325741254356, 46.04808920772005], [-60.393275364789766, 46.04809694392224], [-60.393373277574184, 46.0483232934068]]}, "properties": {"OBJECTID": 192521, "FEAT_CODE": "WARV50", "FEAT_DESC": "River - Single Line", "RIVNAME_1": " ", "RIVNAME_2": " ", "ZVALUE": 9999, "FID": null, "SHAPE_Length": 341.4151521323613}}, {"type": "Feature", "id": 192522, "geometry": {"type": "LineString", "coordinates": [[-60.40661723796698, 46.05627798272592], [-60.40656968285303, 46.05633384967724], [-60.406472216694056, 46.05644840121169], [-60.406352210042044, 46.05658157607168], [-60.40632142212586, 46.056623647734845], [-60.40629972327299, 46.05665328896155], [-60.40627790887517, 46.05668236052334], [-60.406245944919206, 46.05672497249699], [-60.406128070653494, 46.05684020337091], [-60.40607184716894, 46.057046840072054]]}, "properties": {"OBJECTID": 192522, "FEAT_CODE": "WARV50", "FEAT_DESC": "River - Single Line", "RIVNAME_1": " ", "RIVNAME_2": " ", "ZVALUE": 9999, "FID": null, "SHAPE_Length": 96.53724637071122}}, {"type": "Feature", "id": 192523, "geometry": {"type": "LineString", "coordinates": [[-60.38847003024415, 46.05060544792584], [-60.38867464303697, 46.05065242890293], [-60.3887788294496, 46.05069307236973], [-60.388816808019264, 46.05070788254374], [-60.38882421381581, 46.05071202111364], [-60.38886718760959, 46.05073603607144], [-60.38898181196865, 46.050799860495104], [-60.38903722310326, 46.05083480741082], [-60.38909730394902, 46.05087270523263], [-60.38914438497772, 46.05091324906223], [-60.38928735555066, 46.05103636001349], [-60.389361057588076, 46.051097376549045], [-60.38936450392127, 46.051100227504236], [-60.389453685128586, 46.05115536936564], [-60.38959371318146, 46.05122877438303], [-60.38960721274426, 46.05123362820988], [-60.389671253355424, 46.05125664823201], [-60.38972737342326, 46.051268074450846], [-60.38976088154527, 46.05127489762091], [-60.38991410475364, 46.051289973906805], [-60.390070983488236, 46.05130538553356], [-60.390221971004124, 46.05133581033946], [-60.39030276008806, 46.051352084219076], [-60.3903140174272, 46.05135432156102], [-60.39035398851471, 46.051362255287486], [-60.39043246993161, 46.05137071783583], [-60.390534050843314, 46.05138167020028], [-60.39064434065664, 46.05138804211572], [-60.390714536992135, 46.05139209391456], [-60.39083999910823, 46.05139059470239], [-60.39110256415289, 46.051387456729344], [-60.39122990579451, 46.05138859219081], [-60.391231779035294, 46.05138861697479], [-60.39131676895273, 46.05138268260648], [-60.39134850529468, 46.05138047324784], [-60.39136128524094, 46.051378929008706], [-60.39155522064963, 46.051355492297915], [-60.39163401235464, 46.05132938081593], [-60.3917899002542, 46.05131314835687]]}, "properties": {"OBJECTID": 192523, "FEAT_CODE": "WARV50", "FEAT_DESC": "River - Single Line", "RIVNAME_1": " ", "RIVNAME_2": " ", "ZVALUE": 9999, "FID": null, "SHAPE_Length": 286.6332218250417}}, {"type": "Feature", "id": 192524, "geometry": {"type": "LineString", "coordinates": [[-60.39030896718031, 46.05618464454159], [-60.39034898353529, 46.05610365346172], [-60.390355551457766, 46.056091301703994], [-60.39036316910917, 46.05607697579863], [-60.39042349343211, 46.05594336319678], [-60.390444019490495, 46.05589791114355], [-60.39055362011852, 46.05557459374696], [-60.39059779063244, 46.05535058808198], [-60.39063903687946, 46.055188619668506], [-60.39069448815674, 46.05502697574838], [-60.39073361320679, 46.05496486540352], [-60.39076485427151, 46.054922736267436], [-60.39077364820235, 46.05491087636421], [-60.39081321702953, 46.05486677731244], [-60.39081992620586, 46.05485773197015], [-60.390853251449805, 46.05481279723214], [-60.39087588566918, 46.05475496343547], [-60.39088117783476, 46.05474142142688], [-60.39092200641014, 46.05461544572653], [-60.39093703129485, 46.0545437841995], [-60.39095200259861, 46.054418117892695], [-60.390954270174014, 46.05441005115563], [-60.39097996316596, 46.054318850005004], [-60.391059935169785, 46.05415777499826], [-60.39110177540021, 46.05406902178194], [-60.39111450229607, 46.0540420046811], [-60.39112081042744, 46.05402308551044], [-60.39114161505391, 46.053960718569975], [-60.39117075732465, 46.05380837412304], [-60.391171180544255, 46.053799392197284], [-60.39120034930399, 46.05364703034346], [-60.391224795477015, 46.05360257673432], [-60.39123995123227, 46.053575039055566], [-60.39128039538472, 46.053512058582214], [-60.39138580257276, 46.05338755763421], [-60.39142541213884, 46.05334255923428], [-60.39147789236395, 46.05329876382069], [-60.39156148825691, 46.05324811848407], [-60.3916096333081, 46.05321895797787], [-60.391621679010356, 46.05321023246902], [-60.39167245471303, 46.053183130143395], [-60.39168798343228, 46.053174835189715], [-60.39170456100923, 46.05317199154353], [-60.39173881147909, 46.05316610424144], [-60.39183056112047, 46.05313939747004], [-60.3918890737723, 46.05314014854537], [-60.39192099779059, 46.0531405624846], [-60.39200213888261, 46.05314147017551], [-60.392153567408826, 46.05314317258245], [-60.39227611404591, 46.05313805898464], [-60.39233490659341, 46.05313561201026], [-60.39252956109843, 46.05309236174937], [-60.392539447313005, 46.05309215541032], [-60.39282584691268, 46.05308651536646], [-60.39292467709337, 46.053087052122606], [-60.392929265186226, 46.05308707584169], [-60.392994298221836, 46.05307865956513], [-60.39305971223253, 46.05306215141287], [-60.393073198688036, 46.05305274758799], [-60.39309847358095, 46.05303513425957], [-60.393121842315054, 46.05298908954846], [-60.39312554904656, 46.05298174865958], [-60.393139008634506, 46.05293035644489], [-60.39315391529503, 46.05287348889195], [-60.393143054169, 46.05274723269327], [-60.393146778243924, 46.05255830521755], [-60.39314843869387, 46.05250491558837], [-60.393149296640516, 46.05247735734927], [-60.39316602627864, 46.05242295255762], [-60.39317677361818, 46.052387978520585], [-60.39317802206565, 46.052334003448536]]}, "properties": {"OBJECTID": 192524, "FEAT_CODE": "WARV50", "FEAT_DESC": "River - Single Line", "RIVNAME_1": " ", "RIVNAME_2": " ", "ZVALUE": 9999, "FID": null, "SHAPE_Length": 548.9425091782487}}, {"type": "Feature", "id": 192972, "geometry": {"type": "LineString", "coordinates": [[-60.40974587586138, 46.046356510564074], [-60.40962238780879, 46.04635530313845], [-60.409397026671385, 46.04635309912042], [-60.409279905633525, 46.04637024394364], [-60.409246731048526, 46.04638172328158], [-60.409228651942335, 46.04638799164615], [-60.409180022584046, 46.04639965144519], [-60.40904695804539, 46.04643156438679], [-60.40893030289094, 46.04646582055493], [-60.4088132106801, 46.046509967346026], [-60.408693547615414, 46.04657452305022], [-60.40868191826441, 46.046580793645575], [-60.40858368994627, 46.04662509815312], [-60.40852611786672, 46.04665107274269], [-60.40840728546009, 46.0466909583541], [-60.40823983708244, 46.04674717485405], [-60.40808268988476, 46.0468183138441], [-60.407939366950366, 46.046897866881686], [-60.40773017795032, 46.047003826734766], [-60.40758685403681, 46.04708337930669], [-60.407363504228165, 46.04724302066148], [-60.40723310436168, 46.047322866148704], [-60.40708979182747, 46.04740241835328], [-60.40669933691217, 46.04754206371024], [-60.40663923542646, 46.047565702766654], [-60.406608473504406, 46.04757780315501], [-60.40642556732647, 46.047674456718404], [-60.40627742542123, 46.04776572502468], [-60.40613673632245, 46.04785241007378], [-60.40600594132699, 46.04794034572002], [-60.40595301387353, 46.04799404732363], [-60.40578176688054, 46.04817287907383], [-60.40566346224915, 46.04827008961048], [-60.40551202864583, 46.04837306393307], [-60.405505913789334, 46.04837721831781], [-60.40547850105184, 46.04839313872624], [-60.405140498225904, 46.048589431873914], [-60.40499677248801, 46.04870497444071], [-60.40482469324125, 46.04887386717985], [-60.40473219485802, 46.048999582936396], [-60.40462598315455, 46.049142079142484], [-60.40447688451604, 46.04948251383898], [-60.404369813118734, 46.04967089329695], [-60.40426947475554, 46.049881630131885], [-60.40421210672735, 46.050002131420726], [-60.40421080479339, 46.050004811011334], [-60.404207798481906, 46.050011034104], [-60.40419786208082, 46.050031626659106], [-60.40419491205403, 46.05003775202403], [-60.40417462274491, 46.05007044910527], [-60.40403410655858, 46.05029690570351], [-60.40396850288844, 46.05038542958692], [-60.403927848299354, 46.05044030024175], [-60.40377751558021, 46.050598722923176], [-60.40369123244888, 46.05068963878303], [-60.403658784414915, 46.05073985356372], [-60.40361039264467, 46.05081470955704], [-60.4035979954743, 46.05084835098479], [-60.40358372181864, 46.050886999087915], [-60.40350659629926, 46.051025475096466], [-60.40348916415419, 46.051056769906424], [-60.40347419599485, 46.05115543616319], [-60.403478664196435, 46.051175105027454], [-60.40349883694566, 46.051264003435946], [-60.40355969066658, 46.05139949561861], [-60.40364853143221, 46.05151762276627], [-60.40367701742402, 46.05155136546558], [-60.40368649666879, 46.051562588663174], [-60.403813658762665, 46.05166268550943], [-60.403851149765046, 46.05168964838692], [-60.40388994289333, 46.05171751390566], [-60.4039531960029, 46.05171335321168], [-60.40412335076259, 46.0517021264771]]}, "properties": {"OBJECTID": 192972, "FEAT_CODE": "WARV50", "FEAT_DESC": "River - Single Line", "RIVNAME_1": " ", "RIVNAME_2": " ", "ZVALUE": 9999, "FID": null, "SHAPE_Length": 851.8188652002788}}, {"type": "Feature", "id": 192973, "geometry": {"type": "LineString", "coordinates": [[-60.40859895739309, 46.053436463434316], [-60.408598506799386, 46.05341847003466], [-60.408599690736494, 46.0533732869373], [-60.408600161932895, 46.05335548546209], [-60.40860159555685, 46.05329668113733], [-60.40860304969005, 46.053238543320944], [-60.40860545871521, 46.0530765873698], [-60.40858212735256, 46.05299505272523], [-60.40855691958525, 46.0529157706529], [-60.408544941325374, 46.0528780924363], [-60.40852155379279, 46.052840020350104], [-60.40849449121731, 46.05279595148919], [-60.408470696796684, 46.05272431596137], [-60.40843317726397, 46.0526694521347], [-60.408366278753945, 46.05260592916844], [-60.40835645088625, 46.05259660657801], [-60.40830598845468, 46.05254235809263], [-60.40822884451584, 46.05250550533441], [-60.407831960585, 46.05231288685658], [-60.40769753915283, 46.05226439215337], [-60.407549744366975, 46.05221107545911], [-60.40739673361706, 46.05213829790873], [-60.40736409852967, 46.052126576417876], [-60.407319195690754, 46.05211043617942], [-60.40717786461188, 46.05206403416566], [-60.407135191989376, 46.052051616722274], [-60.407050331195975, 46.05202692779411], [-60.40689525841411, 46.05199820565297], [-60.40640588477395, 46.051903388935436], [-60.40621713304441, 46.051876421279346], [-60.40613622105871, 46.051864863199135], [-60.40611817737473, 46.0518628783313], [-60.405774831115515, 46.05182515357384], [-60.40564603503632, 46.051815027726], [-60.405435119256246, 46.05175539622815], [-60.40505406309474, 46.05164767013996]]}, "properties": {"OBJECTID": 192973, "FEAT_CODE": "WARV50", "FEAT_DESC": "River - Single Line", "RIVNAME_1": " ", "RIVNAME_2": " ", "ZVALUE": 9999, "FID": null, "SHAPE_Length": 378.6679511303068}}, {"type": "Feature", "id": 192974, "geometry": {"type": "LineString", "coordinates": [[-60.4037065243654, 46.04790970247027], [-60.40356317957612, 46.047989249514835], [-60.40348313745445, 46.048050524140685], [-60.40347068190343, 46.04806006064087], [-60.40344904595116, 46.04807847904339], [-60.403365665843566, 46.048149461352224], [-60.40327897588326, 46.048208325552835], [-60.40323482328067, 46.04823830180434], [-60.40306482168513, 46.04833524336826], [-60.40288231276291, 46.0484508015389], [-60.40267975542081, 46.04858755895489], [-60.40250186582585, 46.04870766785292], [-60.40245472571019, 46.048737107830235], [-60.40234473191268, 46.048805801030305], [-60.402191425649775, 46.04887716326824], [-60.40196678517675, 46.04898171705081], [-60.401758447003985, 46.04909667690076], [-60.401593869740296, 46.0491825879229], [-60.401470900955246, 46.049246763825735], [-60.401258050784406, 46.049326436780945], [-60.401119592874736, 46.04937827109625], [-60.40096330260546, 46.04943051852523], [-60.400676373292995, 46.04949413075472], [-60.400495680648234, 46.04953418443478], [-60.40044080742261, 46.049555941084016], [-60.40033893799076, 46.049596321368334], [-60.40022188681656, 46.04966656200437], [-60.40000542258358, 46.04982726373034], [-60.39999955655186, 46.04983161249655], [-60.39995934063804, 46.04986219912501], [-60.39994961945677, 46.04986853926867], [-60.39994600568375, 46.049870896166844], [-60.3999125488154, 46.04990316674151], [-60.39985393512096, 46.04995969726632], [-60.39980292352628, 46.04999995673543], [-60.399764127966975, 46.050030296610736], [-60.39976266516113, 46.050031442387336], [-60.39969639506465, 46.05009382892807], [-60.39938095159643, 46.05034225501059], [-60.39913049151712, 46.05058317737513], [-60.39888218320982, 46.05077824515456], [-60.39875048338307, 46.05088504411713], [-60.398657944138996, 46.050983743225174], [-60.398510830224396, 46.05119821598525], [-60.398431306756216, 46.05135030586303], [-60.398403392351014, 46.05142167480452], [-60.39832261152477, 46.051627748527345], [-60.398307187575064, 46.05170840254363], [-60.39830472470894, 46.05184335534893], [-60.3982778654559, 46.05195278479785], [-60.39827594663165, 46.05196060760877], [-60.3982364097326, 46.052031711761735], [-60.39820697794596, 46.052059429210146], [-60.39817013503896, 46.05209410630073], [-60.398108838298285, 46.052142996300525], [-60.398092238216684, 46.052156236049356], [-60.39796050888855, 46.05223604963663], [-60.39793976955928, 46.05229170486762], [-60.39791965377703, 46.05234674425828], [-60.39791917645814, 46.05234727341982]]}, "properties": {"OBJECTID": 192974, "FEAT_CODE": "WARV50", "FEAT_DESC": "River - Single Line", "RIVNAME_1": " ", "RIVNAME_2": " ", "ZVALUE": 9999, "FID": null, "SHAPE_Length": 693.5449292058938}}, {"type": "Feature", "id": 274305, "geometry": {"type": "LineString", "coordinates": [[-60.40412335076259, 46.0517021264771], [-60.40412254989234, 46.05171920940084], [-60.40410875144629, 46.05173779704431], [-60.404077902048215, 46.05176355765856], [-60.404056282074094, 46.05178160750756], [-60.404042918955014, 46.051818206221206], [-60.40404152280696, 46.051883554790635], [-60.40403963990847, 46.05197114175993], [-60.40406376297837, 46.05202957282978], [-60.40407677656982, 46.052061091650515], [-60.404075133523605, 46.05212398644572], [-60.40403597986695, 46.05218707277798], [-60.40395640313588, 46.05228517070561], [-60.403894910662416, 46.05233503142069], [-60.40389055598687, 46.05233857768218], [-60.40388058709002, 46.052346892658385], [-60.403838085856144, 46.05238238802532], [-60.40378086250112, 46.05242638732243], [-60.403733482190525, 46.052462824817276], [-60.403725091611456, 46.052474145850965], [-60.40369347484794, 46.05251681002858], [-60.40364866174396, 46.05258147769351], [-60.403613040893774, 46.05263288941086], [-60.403583163241706, 46.05266272224462], [-60.40356014864359, 46.052685690620855], [-60.40343581926266, 46.05274567941695], [-60.40333926493074, 46.05279227659746], [-60.40332276626945, 46.0528003440704], [-60.403195049922836, 46.05286280277143], [-60.403099750185405, 46.05288842989377], [-60.403065434892525, 46.052897658350574], [-60.402974410882194, 46.052906263458624], [-60.40289663118907, 46.05291362154065], [-60.40286030760469, 46.05292349731701], [-60.40283246922375, 46.05293106385797], [-60.40280772472569, 46.05294294902183], [-60.40274121487793, 46.052974891855854], [-60.402714242723285, 46.05298714037143], [-60.40270158854181, 46.05299289201806], [-60.40269334097614, 46.05300997660578], [-60.402688701059134, 46.05301960073447], [-60.402674100441786, 46.053055271083934], [-60.40266081721443, 46.0531179731613], [-60.40265915618867, 46.05318093952531], [-60.40264847526621, 46.05319533160192], [-60.402645356873116, 46.053199526969536], [-60.402639232115874, 46.053205805113265], [-60.402619555706714, 46.05322594201889], [-60.402566594177586, 46.05325263047724], [-60.40245038098578, 46.05330490024752], [-60.40244955350807, 46.0533051784487], [-60.40234530036917, 46.05334031296172], [-60.40225488864239, 46.0533661585519], [-60.40215107335676, 46.05337459809336], [-60.40203525608541, 46.05339086508268], [-60.40199560350488, 46.05338186263051], [-60.401950783162604, 46.05335763962677], [-60.40194517244611, 46.05335461381429], [-60.40186762283473, 46.05332674811665], [-60.40186448262425, 46.05332617265358], [-60.4018163476518, 46.05331749022414], [-60.40175330118865, 46.053316929126055], [-60.4017517377972, 46.05331691156338], [-60.4017141585819, 46.053333148831506], [-60.401712153097165, 46.053334012269964], [-60.40166048198386, 46.053360738663336], [-60.40162290453481, 46.053393465023845], [-60.40156882959059, 46.0534405590312], [-60.40154839918191, 46.05345085895461], [-60.40151586652232, 46.053467264968205], [-60.40137336126753, 46.05352881814444], [-60.401255391261465, 46.053590938377454], [-60.40123165712463, 46.053609101597765], [-60.40116286855301, 46.05366173802595], [-60.40112371383267, 46.0537247513231], [-60.40110785331602, 46.0537511581977], [-60.401097054722115, 46.05376914768744], [-60.401092068052904, 46.05378807947192], [-60.40108291308552, 46.053822829455655], [-60.40106919345731, 46.05386752023377], [-60.401066311310885, 46.0539831752425], [-60.40106627678668, 46.053984461541326], [-60.40106626192888, 46.0539856042782], [-60.40106548279369, 46.054056457196445], [-60.40104388949281, 46.05417965197088], [-60.40103546869327, 46.054227676523226], [-60.40102173642062, 46.054272358005015], [-60.40101987115804, 46.054276842859025], [-60.40098093462625, 46.054370445071285], [-60.40093915616113, 46.05441057310233], [-60.40091595142819, 46.05443287057223], [-60.40089694627381, 46.05444556996526], [-60.40086256542958, 46.05446855816937], [-60.40083132352259, 46.054484714340305], [-60.40081090575364, 46.05449528443626], [-60.400785052163, 46.054494696106545], [-60.40075274620582, 46.05450212447195], [-60.40074587203833, 46.05450370515281], [-60.400668333619194, 46.05450284066953], [-60.40060329987682, 46.05451126130424], [-60.400553140106354, 46.05452861597307], [-60.40055204925784, 46.05452899617368], [-60.40054407957279, 46.05453243303342], [-60.40051246332208, 46.05454609643489], [-60.40049586541471, 46.05455956159349], [-60.40044661057395, 46.054599492288105], [-60.40037797144591, 46.05466184327613], [-60.40036829000479, 46.054670623516714], [-60.40021068845676, 46.054750732882724], [-60.39999999423833, 46.054860253489366], [-60.399991077005524, 46.05486459580194], [-60.399989409735014, 46.05486541290538], [-60.39994983672499, 46.05488250426484], [-60.399884366115536, 46.05492691690265], [-60.39986468234542, 46.05494029372071], [-60.39981895954875, 46.05497133996128], [-60.399753974333905, 46.05503376475231], [-60.39974419885065, 46.055040139641505], [-60.39974063806696, 46.055042461736], [-60.39972051892062, 46.05505051826993], [-60.399674759005485, 46.05506886377618], [-60.399623072378475, 46.05509558889111], [-60.399544341077544, 46.055175701789445], [-60.39937259133896, 46.05533650218199], [-60.3992805228933, 46.05542531181554], [-60.39921464316024, 46.05545171357438], [-60.39918479804604, 46.055461780698465], [-60.39905963813073, 46.05550398764582], [-60.399019912668166, 46.05551990513425], [-60.39899375820259, 46.055530389272654], [-60.39897559504339, 46.05554881389211], [-60.39894081650872, 46.055584087263725], [-60.39887498473508, 46.05566449345044], [-60.39879497131025, 46.0557715783959], [-60.39876876917133, 46.055833976791185], [-60.3987588659694, 46.055881310364796], [-60.39875376645045, 46.05590564882661], [-60.39875363565627, 46.055917787641555], [-60.398753368093864, 46.0559416421077], [-60.398761719614626, 46.05596585487579], [-60.39876588394192, 46.055977929497146], [-60.39879002259887, 46.05601448158071], [-60.3988271520977, 46.056041167841784], [-60.39886630699368, 46.05606932230811], [-60.398944281202944, 46.056088199112814], [-60.3990311201313, 46.05608844849853], [-60.3990347653247, 46.056088459500835], [-60.399125182946314, 46.0560626165975], [-60.3991910634597, 46.05603621490914]]}, "properties": {"OBJECTID": 274305, "FEAT_CODE": "WARV50", "FEAT_DESC": "River - Single Line", "RIVNAME_1": "MacSweens Brook", "RIVNAME_2": " ", "ZVALUE": 9999, "FID": null, "SHAPE_Length": 742.3448751905763}}, {"type": "Feature", "id": 274306, "geometry": {"type": "LineString", "coordinates": [[-60.40505406309474, 46.05164767013996], [-60.404899033956774, 46.05167294982446], [-60.4048602649348, 46.05167296903154], [-60.404769408536815, 46.05168080532714], [-60.4047259297509, 46.05168643285165], [-60.404704378650834, 46.05168922838462], [-60.404226292423594, 46.051684673698304], [-60.4042136794257, 46.05168679921028], [-60.40412335076259, 46.0517021264771]]}, "properties": {"OBJECTID": 274306, "FEAT_CODE": "WARV50", "FEAT_DESC": "River - Single Line", "RIVNAME_1": "MacSweens Brook", "RIVNAME_2": " ", "ZVALUE": 9999, "FID": null, "SHAPE_Length": 72.73683011383045}}, {"type": "Feature", "id": 274307, "geometry": {"type": "LineString", "coordinates": [[-60.42471795777992, 46.043934582537034], [-60.42467206082085, 46.04391038916103], [-60.42466623234139, 46.04390731454959], [-60.42465839461253, 46.04390436564595], [-60.424640827093825, 46.04389774113045], [-60.424589556742596, 46.04388848456284], [-60.424547036031, 46.04390259279867], [-60.42451080366859, 46.0439146106646], [-60.42443206155925, 46.043967738749714], [-60.42435416844179, 46.044002884731555], [-60.42432126655353, 46.0440208280274], [-60.4242891869111, 46.044038321824836], [-60.42425620350709, 46.04404384244016], [-60.42423708022668, 46.04404704743282], [-60.42421125685528, 46.04404646508582], [-60.42413412595037, 46.04400963233262], [-60.42412173696259, 46.04400949694563], [-60.423992014726366, 46.04400820947681], [-60.42394031288237, 46.04400795248347], [-60.4239194514292, 46.044000452513465], [-60.423889473662975, 46.043989704728006], [-60.423880217617324, 46.04397640009736], [-60.42386403193678, 46.04395312852222], [-60.42383614111525, 46.04390584936599], [-60.42382689137077, 46.04389018671649], [-60.423805348514406, 46.043858711767136], [-60.42378937450262, 46.043835336947915], [-60.42371262099175, 46.04379040288173], [-60.42364615526555, 46.04376299096497], [-60.42362257958934, 46.04375326957417], [-60.42360059075198, 46.043741666845], [-60.42357085487726, 46.04372600110464], [-60.423455863391354, 46.043697305462985], [-60.423378339077466, 46.043696456710066], [-60.42331291562625, 46.04371388208524], [-60.42327540291449, 46.04374424989558], [-60.42323501664687, 46.04377692902429], [-60.42321318654612, 46.04378636419747], [-60.42319544520914, 46.04379403748677], [-60.42313042698774, 46.043802471302065], [-60.423079157005915, 46.04379321406327], [-60.423029831528275, 46.04376633249994], [-60.42302747436836, 46.043765046236665], [-60.42301441507067, 46.04375570599604], [-60.42292615342844, 46.04369255556249], [-60.4228844096731, 46.04368634835964], [-60.422861971998486, 46.04368300690979], [-60.42278404227731, 46.043691149203276], [-60.42273195883923, 46.04372687644124], [-60.42275086968763, 46.04377573536402], [-60.42275619934428, 46.04378952753029], [-60.422755362600874, 46.04380750984487], [-60.422733342497445, 46.043844914495835], [-60.422728696813074, 46.04385281120051], [-60.42270332796317, 46.04387023996267], [-60.422687416334234, 46.0438774774278], [-60.422663714462416, 46.04388824735143], [-60.42262339014461, 46.04389347583967], [-60.4225986960619, 46.043896680859774], [-60.42254704952656, 46.04389551542252], [-60.422465212342566, 46.04387374134331], [-60.422406611603265, 46.04385814396202], [-60.422142486858206, 46.043856170390995], [-60.42210943508128, 46.043855937460926], [-60.421953957801165, 46.043836227202654], [-60.421890194909594, 46.043817686852606], [-60.42182517649367, 46.043826119919856], [-60.42177265113907, 46.04384383555004], [-60.42173505258453, 46.04386297717181], [-60.421669387412145, 46.04389640821188], [-60.42153816550451, 46.04399425268313], [-60.42148563990197, 46.04401196817552], [-60.42146973861026, 46.04400787395208], [-60.42144732354057, 46.04400210257317], [-60.4213843141753, 46.04391157417122], [-60.421337701902225, 46.0438786237219], [-60.4213330219803, 46.043875313852915], [-60.421274927072346, 46.04385857523315], [-60.42120420543748, 46.04383820328028], [-60.42110124750486, 46.043828678208065], [-60.4210371014846, 46.043846131121576], [-60.420971287468284, 46.043871646874265], [-60.42094828255715, 46.04388742751091], [-60.420892513175474, 46.043925671854694], [-60.420723379006574, 46.04400466711655], [-60.42065757113858, 46.0440580756792], [-60.42060549808926, 46.0440938201829], [-60.42059074265555, 46.044118409616466], [-60.4205788731267, 46.04413820389814], [-60.4205528039276, 46.04417342854908], [-60.42055018856779, 46.04425456387536], [-60.420613595848195, 46.044364002975584], [-60.42063778627208, 46.04439965158989], [-60.42062449080842, 46.04443535373192], [-60.42059866043725, 46.04446267226052], [-60.42051947311468, 46.04449778639938], [-60.420481317748504, 46.044549956224664], [-60.42046701655127, 46.04456950656443], [-60.42040077565109, 46.04463191479411], [-60.42034874460037, 46.044666742066475], [-60.4203299399952, 46.04467308580961], [-60.420296205081904, 46.04468445669681], [-60.42018526052359, 46.04469901602779], [-60.420167469869355, 46.04470135037838], [-60.42014217910813, 46.04470847465102], [-60.42007577604245, 46.04472718113068], [-60.42003787661298, 46.04473749481152], [-60.42001164158252, 46.044744633728605], [-60.419949496804136, 46.04474906236789], [-60.419791190437145, 46.04476035532269], [-60.41975511704004, 46.044768649023005], [-60.41971278515276, 46.04477838543356], [-60.41963606321471, 46.04481743391119], [-60.41960951776934, 46.044830956146996], [-60.4195174519283, 46.04489278043401], [-60.41941844915805, 46.04496893887975], [-60.419412885463366, 46.044973223470016], [-60.41934748036511, 46.04501765777775], [-60.41908541547337, 46.04514943654262], [-60.41892957737838, 46.04522062004323], [-60.418864603958674, 46.04525605423129], [-60.41879918559719, 46.04530047892376], [-60.41864087424934, 46.0454247096566], [-60.418536616707904, 46.04548155930492], [-60.41851090023876, 46.04549558605258], [-60.41827589957775, 46.04560097284755], [-60.418185025615884, 46.045609719479096], [-60.41816112681856, 46.045613310540524], [-60.418132958515606, 46.04561754313583], [-60.41809104265971, 46.04562582125185], [-60.41804294363292, 46.04563530966964], [-60.41802452780299, 46.04563912365304], [-60.41800377557349, 46.04564342485344], [-60.41783419724027, 46.04573229744182], [-60.41773047355773, 46.04576685494466], [-60.417486671639274, 46.045858855261], [-60.417404176112235, 46.04588998617876], [-60.41731337684349, 46.045924835534265], [-60.41697503736296, 46.04605669384574], [-60.41688337302091, 46.046109524487775], [-60.41667385013697, 46.046278497342655], [-60.41660691779008, 46.04633037502965], [-60.41658131687237, 46.046350218340464], [-60.41653705039265, 46.04637478780114], [-60.4164380077665, 46.046429764351686], [-60.41638914657772, 46.046469422831045], [-60.41637217871744, 46.04648319695762], [-60.41633263656908, 46.04652729648815], [-60.41633264189617, 46.0465288447111], [-60.41633266942636, 46.04655429901824], [-60.41631604781728, 46.046688931964624], [-60.41630149625132, 46.04672405614669], [-60.41628982763186, 46.04675224307767], [-60.41623856640098, 46.04680343996762], [-60.4162369534995, 46.04680504159036], [-60.416184455960405, 46.04684976606291], [-60.416118580917534, 46.04687618669377], [-60.41587319793836, 46.046934314554825], [-60.41567812264, 46.04698052029698], [-60.41555487192325, 46.04702571373386], [-60.41553477731794, 46.047033080567275], [-60.415468915091296, 46.0470594921125], [-60.41541499209563, 46.047077686223545], [-60.41539143130974, 46.047085649642526], [-60.41535524710203, 46.04709627059883], [-60.41527479173555, 46.04711990364368], [-60.41519707419422, 46.047135003021026], [-60.41518348233858, 46.04713763862837], [-60.41516552285914, 46.04713996837905], [-60.41505343593573, 46.04715449687146], [-60.414833445192286, 46.047215222291804], [-60.41482257827274, 46.04722012467648], [-60.41475552827578, 46.047250370181956], [-60.41459848781869, 46.047347613273445], [-60.41459275447366, 46.0473505346982], [-60.41449386475628, 46.04740104872507], [-60.4143101328016, 46.047515697407945], [-60.414270502476796, 46.04754945254137], [-60.41425763346543, 46.047560411951494], [-60.41423100085101, 46.04760481200209], [-60.41421767429871, 46.04764134974054], [-60.41421763935243, 46.0476423750172], [-60.41421685062306, 46.0476863970714], [-60.41424065022963, 46.04775804056082], [-60.41423906599249, 46.047875021425625], [-60.41425075126834, 46.04792928052908], [-60.41427452194143, 46.048001823413195], [-60.4143370782501, 46.04810134603937], [-60.414372056293786, 46.048192710835295], [-60.414399304569365, 46.04826386531733], [-60.41440553818813, 46.04827847038303], [-60.4144109448525, 46.04829113060148], [-60.41441927117459, 46.048299950654155], [-60.41448730876368, 46.04837206445605], [-60.41451274610837, 46.04840864263782], [-60.414499006440735, 46.04842634181166], [-60.41446585165442, 46.048443484485986], [-60.41444733302094, 46.04845307394627], [-60.41442065571869, 46.048470462242875], [-60.41436400495674, 46.04850302205944], [-60.414342301210084, 46.04851549159442], [-60.41433940125398, 46.04851780210291], [-60.41427651044466, 46.048568005788546], [-60.41420870655664, 46.04859165446926], [-60.41419898242941, 46.04859505256465], [-60.414187468685775, 46.04859774410019], [-60.4139781136284, 46.04864675586187], [-60.41371891589949, 46.048716492098315], [-60.41368289124999, 46.04872671111008], [-60.41353681331313, 46.04876817226344], [-60.41347773379277, 46.04877965125483], [-60.41344551359096, 46.04878590607711], [-60.41342045583967, 46.048788812857936], [-60.41338053022679, 46.04879343507082], [-60.413298750773194, 46.04880604701145], [-60.41321257067765, 46.048819333280875], [-60.41317542665167, 46.04883165092143], [-60.41313379254824, 46.04884545096207], [-60.41309504370546, 46.04887247520236], [-60.41306839658078, 46.04891687464718], [-60.413054733413034, 46.04896142414953], [-60.4130659518073, 46.049024826396625], [-60.413128519903324, 46.04912434993985], [-60.41312813113228, 46.04916034350749], [-60.4131148295872, 46.049196044622065], [-60.41299688125537, 46.04925818649155], [-60.412977877645936, 46.049264587519225], [-60.412944335110396, 46.049275897584785], [-60.41293142232122, 46.04927560511085], [-60.412893537391184, 46.049256736824184], [-60.412881002655176, 46.049248352373766], [-60.412791769230175, 46.04916622588311], [-60.412708364909825, 46.04910597679559], [-60.41270298718189, 46.04910211073257], [-60.41261819504187, 46.04910117105348], [-60.41254795021941, 46.04910039884733], [-60.41244702566526, 46.049103890902636], [-60.41232784539716, 46.04910801335033], [-60.41225210512764, 46.04911032067214], [-60.41210779546321, 46.04911472861297], [-60.41197560452006, 46.049113461570286], [-60.41190105262195, 46.049112744384416], [-60.411746886740254, 46.04912005174184], [-60.41168862861931, 46.049119748642305], [-60.41164350077022, 46.04911950904734], [-60.41150095502529, 46.049127079399234], [-60.411384278050576, 46.049134335795266], [-60.41125467660458, 46.049169200983656], [-60.41122838875813, 46.04917850582734], [-60.41112339364837, 46.0492400302863], [-60.41094083758262, 46.04930159668438], [-60.41079751201497, 46.049381153229334], [-60.41076122601627, 46.0493944525981], [-60.410654157301934, 46.04943370715305], [-60.410622925011694, 46.049440658619005], [-60.41057708886655, 46.049450861234874], [-60.41048664427292, 46.04944971082198], [-60.410450009862814, 46.049449726317505], [-60.41040909584917, 46.04944976178141], [-60.41029544749898, 46.04943922855248], [-60.41029325947103, 46.04943902593299], [-60.41028429193764, 46.04943646445515], [-60.410228203116944, 46.04942044975594], [-60.410138990957236, 46.04939322528973], [-60.41000641984853, 46.0493414810173], [-60.40983050919839, 46.049272822728355], [-60.409771763631696, 46.049262210916815], [-60.409727964168084, 46.04925429618056], [-60.40963765861794, 46.049253220251956], [-60.409560014298094, 46.049252287394175], [-60.40937871842915, 46.04928687809391], [-60.409299517295686, 46.04932198412906], [-60.40927579889524, 46.04933825025846], [-60.40924743288102, 46.04935770518184], [-60.40915621870246, 46.04942854100871], [-60.4090200208888, 46.04953499776672], [-60.40890665884842, 46.04962360218784], [-60.408788314279725, 46.04972171509519], [-60.40869667816922, 46.049801541574254], [-60.4086441721633, 46.04984625337924], [-60.40857830341704, 46.04987266079815], [-60.40845928549874, 46.049895369115475], [-60.408397004953976, 46.04990724987995], [-60.40818819718333, 46.049977216821524], [-60.4081115481305, 46.04998537816177], [-60.40808572232037, 46.04998479211353], [-60.40799019275969, 46.04996936639867], [-60.40796897286528, 46.04996593265264], [-60.407710995621564, 46.04998168838337], [-60.40763304230308, 46.049989819800906], [-60.40760009948913, 46.05000347306153], [-60.40756718583898, 46.05001622691522], [-60.40752889654351, 46.05003335904342], [-60.40739805629051, 46.050122195295806], [-60.40727967922499, 46.05019331312008], [-60.40720135872073, 46.0502374382813], [-60.407146558953855, 46.05025325042648], [-60.407019203335736, 46.05029000690905], [-60.40690293020924, 46.05031617813959], [-60.40678625074456, 46.050323420779144], [-60.40669580381968, 46.05035016914915], [-60.40665622273383, 46.050367271654785], [-60.406619356293064, 46.0503885130523], [-60.40656455450192, 46.05042009391144], [-60.40649871210073, 46.05047350250782], [-60.40646423831987, 46.05050603092392], [-60.40632830151123, 46.05063434383084], [-60.40620872847118, 46.05075853688283], [-60.406090797486215, 46.05084766478724], [-60.40602540304279, 46.05091908446734], [-60.40584037831784, 46.05111560453155], [-60.40580322286148, 46.051147963832555], [-60.405748736085606, 46.05119541949763], [-60.405551216248, 46.05135564391748], [-60.405341584340825, 46.05147058988975], [-60.40524633781997, 46.05153101630339], [-60.40514573479911, 46.051594849179594], [-60.405099659788455, 46.05162139824513], [-60.40505406309474, 46.05164767013996]]}, "properties": {"OBJECTID": 274307, "FEAT_CODE": "WARV50", "FEAT_DESC": "River - Single Line", "RIVNAME_1": "MacSweens Brook", "RIVNAME_2": " ", "ZVALUE": 9999, "FID": null, "SHAPE_Length": 2086.974924793873}}, {"type": "Feature", "id": 279783, "geometry": {"type": "LineString", "coordinates": [[-60.39256360350813, 46.0520400603741], [-60.39255069028348, 46.05203976558407], [-60.39253371871447, 46.052034238806115], [-60.3925239535702, 46.052031054684036], [-60.3925008494867, 46.05203085126396], [-60.3924593451207, 46.052030479790034], [-60.392412208755815, 46.05200998040189], [-60.392396006928585, 46.05200293207471], [-60.39234520092473, 46.05198377097497], [-60.392330446873856, 46.051976998707794], [-60.39230597449758, 46.051965774282905], [-60.392243038904745, 46.05190223329364], [-60.39207839484197, 46.051747264138164], [-60.391977085563255, 46.05162074270775], [-60.39189038783199, 46.051457643388325], [-60.39184947348139, 46.05139178782904], [-60.39183992161305, 46.051376394709436], [-60.3917899002542, 46.05131314835687]]}, "properties": {"OBJECTID": 279783, "FEAT_CODE": "WARV50", "FEAT_DESC": "River - Single Line", "RIVNAME_1": "Gillis Brook", "RIVNAME_2": " ", "ZVALUE": 9999, "FID": null, "SHAPE_Length": 105.48395116305092}}, {"type": "Feature", "id": 279784, "geometry": {"type": "LineString", "coordinates": [[-60.3917899002542, 46.05131314835687], [-60.39177664524149, 46.051304196101384], [-60.39177611941041, 46.051303833070584], [-60.39173907433202, 46.05126698474122], [-60.39172652170282, 46.05123159576756], [-60.391715261235646, 46.05114133266373], [-60.39173023736888, 46.05104266809858], [-60.39174792801911, 46.05099477487793], [-60.3917569240606, 46.050970372677774], [-60.39178442320996, 46.05090799645894], [-60.39178669868438, 46.05090497021619], [-60.3918382269256, 46.050836320241466], [-60.39191316645937, 46.050742400113684], [-60.391916518362386, 46.05073820136836], [-60.39191850233048, 46.05073505145885], [-60.391944461553656, 46.05069383644207], [-60.391970711400276, 46.050630531590265], [-60.39203741455437, 46.05055914981841], [-60.39206321936708, 46.05053273722998], [-60.392156573869705, 46.05041696092815], [-60.39219660401557, 46.05036297125189], [-60.39224498680478, 46.050302349811005], [-60.39227490703447, 46.05026485239285], [-60.39240871332731, 46.05008610419237], [-60.392412008631965, 46.05008173312873], [-60.39244870106309, 46.05003300451686], [-60.39246692712817, 46.05000281857724], [-60.39248786273311, 46.04996999431207], [-60.39252916231465, 46.049889031704474], [-60.392567858091624, 46.0498359114928], [-60.3926074640469, 46.04979091258329], [-60.392658341455174, 46.04974949218255], [-60.392661218226785, 46.04974714569248], [-60.39275253043645, 46.049702417995], [-60.39276864140122, 46.049694361197766], [-60.39280415985025, 46.04967659472961], [-60.392820926975524, 46.04966119041386], [-60.39284334218708, 46.04964058666573], [-60.39289628373546, 46.04958689145636], [-60.392899324958655, 46.04958352264583], [-60.39293587273761, 46.04954279210477], [-60.39298961343303, 46.04944411210278], [-60.39303086899558, 46.0493091447162], [-60.39312669442342, 46.0490584150299], [-60.393201616273835, 46.04886234584289], [-60.39322250602454, 46.04880768494012], [-60.39326739137873, 46.048684555081714], [-60.3933175168335, 46.04854703582792], [-60.393373277574184, 46.0483232934068]]}, "properties": {"OBJECTID": 279784, "FEAT_CODE": "WARV50", "FEAT_DESC": "River - Single Line", "RIVNAME_1": "Gillis Brook", "RIVNAME_2": " ", "ZVALUE": 9999, "FID": null, "SHAPE_Length": 365.0207849442329}}, {"type": "Feature", "id": 279896, "geometry": {"type": "LineString", "coordinates": [[-60.393373277574184, 46.0483232934068], [-60.39339094946948, 46.04829579484684], [-60.39341372772311, 46.048260321278335], [-60.393449776751496, 46.04818374779884], [-60.393481242413515, 46.048116943370026], [-60.393536099076094, 46.04802498500777], [-60.39356123252225, 46.04798285970774], [-60.393601217139484, 46.04792976854621], [-60.39361501007192, 46.04791409822832], [-60.393640820838925, 46.047884769217944], [-60.39368885245679, 46.04784388645215], [-60.39369333673051, 46.047840064516066], [-60.39369992489322, 46.0478379556987], [-60.39371958396467, 46.04783167184186], [-60.3937285545302, 46.04782013975405], [-60.393733342922324, 46.04781397559933], [-60.39382419273385, 46.047751244288065], [-60.393860181959106, 46.04772206646949], [-60.39389004369018, 46.04769784316825], [-60.39392918156966, 46.0476627337704], [-60.39395088663542, 46.04761928807609], [-60.393956295698324, 46.04760844876081], [-60.3939837686207, 46.0475190695904], [-60.39396268726078, 46.04742098608409], [-60.39396043898168, 46.04741053009261], [-60.3939487103834, 46.04733014814446], [-60.393963356789094, 46.04729358886206], [-60.39397751625825, 46.047239908326105], [-60.39398726457435, 46.04721376798676], [-60.393990829521634, 46.047204209681944], [-60.393992054466, 46.04712324122597], [-60.39398163743482, 46.04701498734052], [-60.39395181586465, 46.04687300648876], [-60.393945732845495, 46.04684405677188], [-60.39393365798694, 46.046798778259856], [-60.39395114524881, 46.04661916523612], [-60.39395178932754, 46.04661783884216], [-60.39397692529584, 46.04656574983565]]}, "properties": {"OBJECTID": 279896, "FEAT_CODE": "WARV50", "FEAT_DESC": "River - Single Line", "RIVNAME_1": "Gillis Brook", "RIVNAME_2": " ", "ZVALUE": 9999, "FID": null, "SHAPE_Length": 210.45288778015387}}, {"type": "Feature", "id": 280039, "geometry": {"type": "LineString", "coordinates": [[-60.397628550104415, 46.05528327844839], [-60.397628972298826, 46.05527429647882], [-60.397694430350064, 46.05525687761577], [-60.397707344377366, 46.05525717184042], [-60.39770776698122, 46.055248180879275], [-60.3977087576952, 46.05524745640205], [-60.397719812205864, 46.055239454718894], [-60.397739405580516, 46.055226364229895], [-60.39777320093196, 46.05520376865416], [-60.39782863563799, 46.05515343121365], [-60.39785149886967, 46.05513265669171], [-60.39789119667743, 46.055112652711564], [-60.39790449108843, 46.05510595312102], [-60.39799533012812, 46.05507112012241], [-60.398087478926286, 46.05500841505987], [-60.398152846222594, 46.0549378993879], [-60.398165172568326, 46.054904481965835], [-60.39817951377773, 46.05486560207828], [-60.39814363976529, 46.05474867728344], [-60.39813798505578, 46.05473228440594], [-60.39811860896947, 46.054676111372885], [-60.39804355855663, 46.05456728569943], [-60.39804027674348, 46.054558444363636], [-60.39800685282588, 46.05446834308981], [-60.3979822690335, 46.05441377950932], [-60.397992591872416, 46.054323414728664], [-60.397997646876135, 46.054279120971806], [-60.39799374264065, 46.05426096784494], [-60.39798597695835, 46.054224851577786], [-60.397937987593885, 46.05403564598064], [-60.39790083440634, 46.05394568472551], [-60.39786754126367, 46.053896548071705], [-60.397851281119976, 46.053872560082155], [-60.39782621998785, 46.05382788623836], [-60.397735211932265, 46.0537544111401], [-60.39772410156602, 46.05374545443934], [-60.39758403251011, 46.05364505674702], [-60.39754649357085, 46.05359109794807], [-60.39752233319704, 46.05352754331628], [-60.397509372512715, 46.053473244456725], [-60.3975385099262, 46.05332089829027], [-60.3975389325289, 46.05331190732729], [-60.39752871009968, 46.05327361090726], [-60.3975268406216, 46.05326662885495], [-60.39752049674423, 46.053252803410146], [-60.397502215528164, 46.053212964278394], [-60.397496084815195, 46.05320367998751], [-60.39749014719744, 46.05319468811496], [-60.39746638719262, 46.053177900666064], [-60.39743884987313, 46.05315841697175], [-60.397322961537775, 46.05309367222952], [-60.39731735928231, 46.05308964731591], [-60.39720918077776, 46.053011874269906], [-60.39715820281565, 46.052993566458426], [-60.3970299195084, 46.05294748520379], [-60.39692739152171, 46.052901045713696], [-60.396875249433364, 46.052882756247485], [-60.39685045788939, 46.052876367845904], [-60.39683693174811, 46.052872882363374], [-60.39681148526577, 46.052864201876645], [-60.39677229898, 46.0528453075816], [-60.39672229379863, 46.052809065563046], [-60.39664516025238, 46.05274520341903], [-60.396582605465305, 46.052645671147936], [-60.39656710155884, 46.052630637795644], [-60.39654551398475, 46.05260972339459], [-60.3965362482684, 46.052597010371855], [-60.39653215433499, 46.052591426694384]]}, "properties": {"OBJECTID": 280039, "FEAT_CODE": "WARV50", "FEAT_DESC": "River - Single Line", "RIVNAME_1": "Gillis Brook", "RIVNAME_2": " ", "ZVALUE": 9999, "FID": null, "SHAPE_Length": 368.1229887624713}}, {"type": "Feature", "id": 280040, "geometry": {"type": "LineString", "coordinates": [[-60.39653215433499, 46.052591426694384], [-60.39650717391157, 46.05257283810874], [-60.39649149283061, 46.05256652228219], [-60.39641709496864, 46.052536591570316], [-60.396353331359514, 46.05251803695433], [-60.396295986181904, 46.0525254603183], [-60.396288299413385, 46.05252645516957], [-60.396275386037104, 46.052526160797974], [-60.39621471552157, 46.05254299494218], [-60.396119518203214, 46.052569410625296], [-60.39604199561547, 46.05256854335355], [-60.3959648958795, 46.05255868507628], [-60.39591368102541, 46.05257594165002], [-60.395912354362274, 46.05257638843473], [-60.395905285146355, 46.0525782703974], [-60.395846899424626, 46.05259379734792], [-60.39578189003135, 46.05262921756858], [-60.39566436150967, 46.05270934328641], [-60.395546452021506, 46.05279756072968], [-60.3954284773338, 46.05285967484405], [-60.39535547567428, 46.05288718106129], [-60.395311347877204, 46.05290381592584], [-60.39528302167642, 46.05291183753244], [-60.39512922878082, 46.05295545734674], [-60.39505210874194, 46.052973499828944], [-60.39480537907477, 46.053024576225155], [-60.39451942103518, 46.05305765611791], [-60.394442766083365, 46.05306580814536], [-60.394341389796836, 46.05306525962349], [-60.394287677362385, 46.05306497033821], [-60.394239162666835, 46.05305587101937], [-60.39418388214246, 46.05304550124924], [-60.394042560856846, 46.05299907417626], [-60.39394000599563, 46.05295353144371], [-60.39385124054187, 46.05288940200827], [-60.39374951955255, 46.05282587694279], [-60.39371118081705, 46.05278899974667], [-60.39359779483861, 46.05267120480521], [-60.39357597133786, 46.05264022179297], [-60.39354690223545, 46.05259893876446], [-60.393474172321426, 46.05253196174613], [-60.393457705886306, 46.0525167979971], [-60.39335640427138, 46.05241637971047], [-60.39333051926538, 46.05240412420241], [-60.39328054572975, 46.052380446220354], [-60.39324229547033, 46.05236312017327], [-60.39317802206565, 46.052334003448536]]}, "properties": {"OBJECTID": 280040, "FEAT_CODE": "WARV50", "FEAT_DESC": "River - Single Line", "RIVNAME_1": "Gillis Brook", "RIVNAME_2": " ", "ZVALUE": 9999, "FID": null, "SHAPE_Length": 315.2303902621692}}, {"type": "Feature", "id": 280041, "geometry": {"type": "LineString", "coordinates": [[-60.39317802206565, 46.052334003448536], [-60.39312348223481, 46.052311490264], [-60.393087988553916, 46.05229684625273], [-60.39299833615657, 46.05225159714928], [-60.392959574984, 46.05222371064865], [-60.39284282166642, 46.0521722714723], [-60.39279367098638, 46.05215061919064]]}, "properties": {"OBJECTID": 280041, "FEAT_CODE": "WARV50", "FEAT_DESC": "River - Single Line", "RIVNAME_1": "Gillis Brook", "RIVNAME_2": " ", "ZVALUE": 9999, "FID": null, "SHAPE_Length": 36.180239814788344}}, {"type": "Feature", "id": 287664, "geometry": {"type": "LineString", "coordinates": [[-60.40607184716894, 46.057046840072054], [-60.40605936820619, 46.057064566846094], [-60.406020559150704, 46.05708219068858], [-60.40601975324877, 46.05708255941145], [-60.40600459086926, 46.05709078362444], [-60.40575842716371, 46.05722423389948], [-60.40562756665525, 46.057313067603175], [-60.405496747864134, 46.057401002045445], [-60.40545668485797, 46.057427993822955], [-60.40543896256304, 46.057440354083916], [-60.40541793952526, 46.05745500651754], [-60.405352113812334, 46.057535434548655], [-60.40535149066265, 46.05753604143339], [-60.40532500742062, 46.057561820545345], [-60.40514203652984, 46.05765936155936], [-60.40508110116738, 46.057707984459405], [-60.40507622601945, 46.05771186996248], [-60.404971641618204, 46.05781929203256], [-60.40489245199758, 46.05788140600472], [-60.40486589581104, 46.05789963186193], [-60.4048403565306, 46.05791712476863], [-60.40483188488367, 46.057920784536954], [-60.40480076938593, 46.05793422648419], [-60.40469470828812, 46.05796998809773], [-60.404593218103486, 46.05800421537051], [-60.40454211856697, 46.05801537603307], [-60.40451484444385, 46.05802133569955], [-60.404502001143804, 46.05803054847087], [-60.4045014660062, 46.0580309323363], [-60.40449929364695, 46.05803121599401], [-60.404436428582585, 46.058039355074186], [-60.40441661843195, 46.058046051366546], [-60.404411481925436, 46.0580477887629], [-60.404384796395064, 46.058065183515055], [-60.40434603675905, 46.05809220452024], [-60.40431936410152, 46.05810959954959], [-60.40429222769195, 46.05813688467623], [-60.40429289712426, 46.058146044482825], [-60.404239709593504, 46.05818160314573], [-60.40420057079211, 46.05821670700946], [-60.40420014919832, 46.05822569801224], [-60.40414931777224, 46.05823444343498], [-60.40414280961354, 46.05823868781077], [-60.4041359813804, 46.05824314092593], [-60.40408301522348, 46.05826983897149], [-60.40402973915862, 46.058318032344005], [-60.40396554184038, 46.05837607612542], [-60.40384799862625, 46.05842920812578], [-60.40382552270414, 46.058436779784905], [-60.40379545381717, 46.05844691503074], [-60.40377751175101, 46.05844878435741], [-60.40371748806259, 46.05845504350004], [-60.40365291106374, 46.05848147742507], [-60.40356162161597, 46.058498303509424], [-60.40329024083785, 46.05849574343299], [-60.40303053654934, 46.05854743369663]]}, "properties": {"OBJECTID": 287664, "FEAT_CODE": "WARV55", "FEAT_DESC": "River - Single Line Indefinite", "RIVNAME_1": " ", "RIVNAME_2": " ", "ZVALUE": 9999, "FID": null, "SHAPE_Length": 301.78690716570605}}]}