{"type": "FeatureCollection", "features": [{"type": "Feature", "id": 4623, "geometry": {"type": "LineString", "coordinates": [[-60.3451743080576, 46.20172052196418], [-60.34518765119282, 46.20170724140583], [-60.34521567088895, 46.20167937020837], [-60.345233241728266, 46.201664702820246], [-60.345266239626, 46.201653490069035], [-60.34527294653327, 46.20164477150859], [-60.34527703992179, 46.201639448376845], [-60.345276804447096, 46.201629542441644], [-60.345276481075025, 46.2016166193228], [-60.34531304154845, 46.20157478890807], [-60.34533963001219, 46.20154433730229], [-60.34541762903806, 46.20144901721928], [-60.34548562811867, 46.20136592130645], [-60.34561954370646, 46.201169232542824], [-60.34564969416442, 46.20110359097379], [-60.345673125472295, 46.20105257197336], [-60.34569552557133, 46.200997397814895], [-60.34574225440437, 46.20088226106675], [-60.34578158304822, 46.20081928081972], [-60.34584806341925, 46.20073082115126], [-60.34597736099991, 46.20054466316488], [-60.34602216792141, 46.20048015402527], [-60.346046328972164, 46.200447872776465], [-60.346142694444914, 46.200319146273216], [-60.346170417111395, 46.20027750629193], [-60.346195793475395, 46.20023936696637], [-60.34630380889995, 46.20004207571774], [-60.3463042420272, 46.20003308535602], [-60.34632299637403, 46.20001293703109], [-60.34632474589216, 46.20001106058017], [-60.34633069807359, 46.20000454752933], [-60.34636989764808, 46.19996170702261], [-60.346541340547525, 46.199846883650224], [-60.346613981744554, 46.199787619990175], [-60.346672213029194, 46.19974011817252], [-60.3467659280592, 46.199624380190365], [-60.346766360671715, 46.19961539881497], [-60.34680568719082, 46.19955241815838], [-60.34685057131062, 46.199463663340225], [-60.346860126872315, 46.19944476836059], [-60.34687437753697, 46.199391096777894], [-60.34687485388552, 46.19935160498195], [-60.34687525228426, 46.19931911370501], [-60.34688264653378, 46.19930526276865], [-60.34688949855537, 46.19929244328832], [-60.346994903371545, 46.199203086823374], [-60.34723113000052, 46.199034864273315], [-60.3474034773452, 46.19890115971108], [-60.347505799604136, 46.198831910147746], [-60.34762588856457, 46.19875061640366], [-60.34780479137743, 46.19862258969453], [-60.34782322303085, 46.198609390957216], [-60.3482581612919, 46.19827118009819], [-60.34837524035738, 46.19817993323185], [-60.34860021312403, 46.19800459730349], [-60.34869305478095, 46.19790685630383], [-60.34891588868085, 46.19773552030243], [-60.348970318205815, 46.197693671352894], [-60.349014926287296, 46.197664951099156], [-60.34927260743916, 46.19749907625337], [-60.349443217739406, 46.19737432871986], [-60.34958810979475, 46.19728465294888], [-60.349614200648595, 46.19726849046813], [-60.34979862408286, 46.19709906073922], [-60.35010135525064, 46.196868471988985], [-60.35021926438022, 46.19678840300549], [-60.3504032035533, 46.1966828640853], [-60.35050902751099, 46.19661151493397], [-60.35063988453501, 46.19650474452691], [-60.350648998366374, 46.19649688250394], [-60.35068045373726, 46.196469683659], [-60.350708693808954, 46.19645436280676], [-60.350745664608446, 46.196434294180406], [-60.35088946498166, 46.19635482492158], [-60.351126573064946, 46.196194715107275], [-60.35138914462941, 46.195990193028926], [-60.351535536191406, 46.19585678047165], [-60.351917695826366, 46.19551012268029], [-60.35202351599551, 46.195438763032094], [-60.35243069608942, 46.19513769459533], [-60.35252313762586, 46.19504803257251], [-60.352563567547875, 46.19500071822287], [-60.35257669546382, 46.19498537070888], [-60.35260940892829, 46.19496162064732], [-60.35274724725933, 46.194861516905995], [-60.352866442857746, 46.19478147499028], [-60.35313256442475, 46.19462552544647], [-60.35316783848958, 46.1946048496949], [-60.353259370909285, 46.19453406690738], [-60.353326318812904, 46.194462705484376], [-60.35341918919131, 46.19436406123981], [-60.35347032234691, 46.194333492309774], [-60.353536600132884, 46.19429387774798], [-60.35375858558743, 46.19420541554317], [-60.35410010933931, 46.193975714727245], [-60.35420592393894, 46.19387736063736], [-60.354378627214345, 46.19370855207649], [-60.35446282680979, 46.19360228982309], [-60.35447106364812, 46.19359188706448], [-60.3544837392438, 46.19358000302036], [-60.354537563750114, 46.193529523985255], [-60.35473443043557, 46.19337027485993], [-60.35497108285093, 46.19321914691105], [-60.35507983020923, 46.19316654608503], [-60.35520725911537, 46.19310490920512], [-60.35532465263059, 46.19301905371994], [-60.35537784231327, 46.19298015214306], [-60.35550483548961, 46.19292892734029], [-60.35550868125337, 46.19292737828601], [-60.35576945229729, 46.192840710032925], [-60.355911941960734, 46.192815206670296], [-60.35597912958488, 46.19280705924466], [-60.35605533779171, 46.19279782448797], [-60.35621287729083, 46.19278548566884], [-60.356250473484565, 46.19278253954498], [-60.3565358838702, 46.19274954227348], [-60.35671854735882, 46.192697066170744], [-60.356952604176364, 46.192626886916514], [-60.35708253562467, 46.192592982160804], [-60.35713773145926, 46.19256490868973], [-60.35718748063233, 46.192539607328136], [-60.35731520075583, 46.192497217749406], [-60.357423219298965, 46.19246135663032], [-60.35752731329181, 46.1923989613707], [-60.357554916445224, 46.19236359813554], [-60.357693534477164, 46.192186102754924], [-60.3577012811667, 46.19217617444889], [-60.357748890769514, 46.19211196850239], [-60.357886966433384, 46.19192575692319], [-60.357921731712594, 46.191867509141204], [-60.357940500903084, 46.19183609070215], [-60.35798106074267, 46.19177402572499], [-60.35798929000824, 46.19176024737521], [-60.358088154774244, 46.19159469374629], [-60.358129576401055, 46.19151464778477], [-60.358142512441205, 46.19147243790713], [-60.35815723205133, 46.19142438299232], [-60.35817360887119, 46.191380686605086], [-60.35818398238127, 46.19135299815975], [-60.358234282549866, 46.19129049230363], [-60.358449949668106, 46.19102253228593], [-60.358513497997265, 46.19095372632282], [-60.35855656965659, 46.19090709195006], [-60.35857790312618, 46.190869747407824], [-60.35862305867156, 46.19079072364061], [-60.35879578213464, 46.190620999786645], [-60.358889054298565, 46.19048253344903], [-60.35891577286636, 46.19044287422312], [-60.35898183139594, 46.19036249747161], [-60.35900437482924, 46.19033964451265], [-60.359060848319324, 46.190282411246926], [-60.35916707920357, 46.19020207202079], [-60.35917258512693, 46.19020075922958], [-60.35918480000673, 46.19017952156308], [-60.35920542820558, 46.190143627668014], [-60.3592656610638, 46.19009961283171], [-60.35932039150055, 46.19007657678553], [-60.3593509044332, 46.19006373644502], [-60.35939074101756, 46.19006456725395], [-60.35943189844161, 46.19006541957873], [-60.35949920481188, 46.19008581319633], [-60.359514993388885, 46.1900832979887], [-60.3595320488475, 46.19008057804953], [-60.3595323233984, 46.190053754109684], [-60.359507513287376, 46.19002682739934], [-60.35948285268393, 46.18998515243211], [-60.35948587198682, 46.18997461071097], [-60.35949284239417, 46.189950308650474], [-60.359508784658146, 46.189898069612134], [-60.359576738652656, 46.18985274800254], [-60.3596032679969, 46.189826215869765], [-60.35962350736094, 46.18980600066328], [-60.35968361447116, 46.189774061278406], [-60.35972423712021, 46.189737927365364], [-60.359736136241374, 46.189727329851976], [-60.35975616496047, 46.18971800027582], [-60.35978459815213, 46.189704742735785], [-60.35981841193143, 46.18959893209334], [-60.359890349961056, 46.189540228724155], [-60.35993808626577, 46.18948138903496], [-60.359958676182956, 46.18945601562183], [-60.35998777213373, 46.18942432246165], [-60.360034711050126, 46.1893731956754], [-60.36009479379036, 46.18932227359895], [-60.36010083217395, 46.189317147883706], [-60.36011029931785, 46.1893029389612], [-60.360139988567575, 46.189258316850626], [-60.36018854838421, 46.18922231218052], [-60.36028335259864, 46.18919051720975], [-60.36029654475263, 46.18919485423101], [-60.360319241804376, 46.18920231801545]]}, "properties": {"OBJECTID": 4623, "FEAT_CODE": "WACO20", "FEAT_DESC": "Coast - Water to the right line", "RIVNAME_1": " ", "RIVNAME_2": " ", "ZVALUE": 0.2, "FID": null, "SHAPE_Length": 1889.8301309696474}}, {"type": "Feature", "id": 4624, "geometry": {"type": "LineString", "coordinates": [[-60.360561961493694, 46.1893761802298], [-60.360586130876186, 46.18938753916323], [-60.360568421824645, 46.18942501282696], [-60.360514144786364, 46.18945294718189], [-60.36048334057207, 46.189468364227345], [-60.3604424310735, 46.189488858033094], [-60.36036140123237, 46.18949253904455], [-60.360349079299716, 46.18949248834329], [-60.36029968757891, 46.189492292122495], [-60.36026201207375, 46.18948855942455], [-60.36021490777608, 46.18948389780568], [-60.36017571433743, 46.18949075051327], [-60.36015502593604, 46.18949437664632], [-60.36013122949024, 46.18950850646199], [-60.36008324952626, 46.18953700014537], [-60.36006864628931, 46.18954750820527], [-60.360042473925226, 46.189566326325604], [-60.360038640271405, 46.189584130592344], [-60.3600364085704, 46.189594465518326], [-60.360062167487605, 46.18959969599917], [-60.36006334809608, 46.189599939291874], [-60.360073081643144, 46.189596942066636], [-60.36010203244547, 46.18958802561643], [-60.3601524239564, 46.18956275580313], [-60.36017060223776, 46.189562833847724], [-60.360171716804764, 46.189562832601595], [-60.36017881839807, 46.18957203313673], [-60.36018315073246, 46.1895776325107], [-60.36018468109045, 46.18960979941474], [-60.36018474507374, 46.18961116895887], [-60.36016516656214, 46.189640588976495], [-60.36012421596234, 46.18968736297858], [-60.36011619615925, 46.18971815714073], [-60.36011985791564, 46.18973829471886], [-60.36012314527616, 46.18975515648857], [-60.36012537583757, 46.18976648557342], [-60.36010967029098, 46.18979459101078], [-60.36009460211024, 46.189818318963866], [-60.360084187907205, 46.18983471110479], [-60.360082848286964, 46.18984698373785], [-60.36007995390153, 46.18987358513099], [-60.360085284320775, 46.18991921448993], [-60.36007511004457, 46.18994601667272], [-60.36006747458093, 46.18996608219753], [-60.36006889472885, 46.190017048455466], [-60.36003566499301, 46.19006252477173], [-60.36000040587539, 46.19011870969582], [-60.3599942089457, 46.19012795393889], [-60.35995733667, 46.19018291351346], [-60.359925551665285, 46.19027802455896], [-60.35987351765369, 46.19034188616142], [-60.359868918683254, 46.19034753115283], [-60.3598338061762, 46.19039632105797], [-60.35980634381153, 46.190434478236966], [-60.35980377966373, 46.190438226159294], [-60.35975154053484, 46.19051474657071], [-60.3597183705287, 46.19053164780565], [-60.359691431667386, 46.19054535388517], [-60.359680697253324, 46.19055922746723], [-60.35967384472595, 46.19056808752267], [-60.35963067366431, 46.190641703310575], [-60.35953784338712, 46.19073717640548], [-60.359533235649764, 46.19074192113749], [-60.359438003367295, 46.19083910271646], [-60.35943034242667, 46.19085806955541], [-60.359425328750035, 46.19087047326669], [-60.3593174199456, 46.19103988720133], [-60.3592643045505, 46.19109356203983], [-60.3591986763929, 46.19116494846619], [-60.3591578766994, 46.191220159006356], [-60.35910582319592, 46.191290608117676], [-60.35882695430275, 46.19159287589414], [-60.35880819869313, 46.19161807549617], [-60.358786783414175, 46.19164684977752], [-60.35869396991981, 46.191744608675336], [-60.358600108349016, 46.19190180009986], [-60.35858689046812, 46.191923941553036], [-60.358534193077915, 46.1919956265712], [-60.35837445351267, 46.19216474119571], [-60.358295446598895, 46.19224480916146], [-60.35826869271734, 46.19226220035687], [-60.3580588499836, 46.192395054250184], [-60.35802449496286, 46.19241852490068], [-60.357954338411695, 46.19246644076505], [-60.35780202920408, 46.192577025629575], [-60.357611934398754, 46.192715033659695], [-60.357558384506895, 46.19277769807605], [-60.35746470546604, 46.192920438087214], [-60.35741201857336, 46.19299212282439], [-60.357358511296816, 46.193053888088386], [-60.35721343584792, 46.1931873385761], [-60.35718800113513, 46.193216118574554], [-60.35717369342349, 46.193232321368455], [-60.35709690898832, 46.19334028723699], [-60.3570527837865, 46.19340233240882], [-60.357019350781115, 46.19344249287841], [-60.356934504999664, 46.19354450285988], [-60.35687614692351, 46.19361739720086], [-60.35682697013591, 46.193678830384165], [-60.35672907751661, 46.19378154639422], [-60.35658950306269, 46.193928038975315], [-60.356481683815566, 46.19405610429267], [-60.35641633161256, 46.194133741784235], [-60.35633899259309, 46.194222685398934], [-60.35628456984295, 46.19432265378129], [-60.356284988976746, 46.194330664860274], [-60.35628798506884, 46.19438760789232], [-60.356275227428284, 46.19441362990711], [-60.35626232780245, 46.19443990964695], [-60.3562618446412, 46.194484549582924], [-60.35626169424415, 46.1945003778531], [-60.356237891738225, 46.19455940084072], [-60.356232152779356, 46.194566099353054], [-60.35616552784554, 46.19464377024654], [-60.35615672598849, 46.19466757068515], [-60.356139693160884, 46.194713537694085], [-60.35610985642732, 46.194754348147576], [-60.35608874443296, 46.194783227938444], [-60.35601289889416, 46.19483264901703], [-60.35590186726202, 46.194920911546895], [-60.355841530542286, 46.19496368012965], [-60.35581997638004, 46.194983405203075], [-60.35580642081626, 46.194995800050975], [-60.35576717049637, 46.19505478039905], [-60.35573958080767, 46.19510574124321], [-60.355669068475315, 46.195196867505246], [-60.35564317715102, 46.19522756267642], [-60.355618207144616, 46.19525715411458], [-60.35555151790223, 46.19535232898493], [-60.355488829743926, 46.19543272773164], [-60.35543000244482, 46.19551450287974], [-60.35537284817375, 46.19557033249802], [-60.35536558650032, 46.19557742773639], [-60.35535400499666, 46.19559405342672], [-60.35532635988357, 46.19563373535202], [-60.35531441880697, 46.19566460038779], [-60.35525212329305, 46.19570872737682], [-60.35516776594282, 46.19576667224882], [-60.35514703163632, 46.19578091691478], [-60.35506125975297, 46.19585185257475], [-60.354946398481175, 46.19593206912772], [-60.35485075500903, 46.19602044390303], [-60.35484015980117, 46.196035418298386], [-60.35479581228914, 46.19609821347103], [-60.35476154812506, 46.19614508634282], [-60.354740907429054, 46.196173301761995], [-60.354680145772384, 46.19625105354038], [-60.35462143005464, 46.19632209334288], [-60.35456305366312, 46.19637850628154], [-60.35453550319932, 46.19640513058796], [-60.354476709821256, 46.196478859643726], [-60.354421867254295, 46.196548584968106], [-60.354367308267925, 46.196609973439315], [-60.354339685848416, 46.196641060242214], [-60.35424384726267, 46.19674559474803], [-60.3541833130729, 46.196803199575726], [-60.35416622135684, 46.196799878592465], [-60.35416209914845, 46.19679908108835], [-60.354143019783656, 46.196776156144836], [-60.35409706226395, 46.19673697494549], [-60.3540902846744, 46.19673695297758], [-60.35408547757071, 46.1967369226449], [-60.354063533633216, 46.196757988420224], [-60.35405616892155, 46.19676506318735], [-60.354075056140026, 46.196805480520474], [-60.35409448945669, 46.19684046524145], [-60.35410349560025, 46.196856694585826], [-60.354112677513235, 46.196899758265495], [-60.3540890338977, 46.19694136865025], [-60.35404982885245, 46.196992321067675], [-60.354020458293064, 46.19702174722699], [-60.35399901178699, 46.19704324753049], [-60.353980913014695, 46.19704551045897], [-60.35394674984136, 46.197049777413135], [-60.35390879842193, 46.19705465864541], [-60.35390611195845, 46.19705500143955], [-60.353884163900574, 46.1970772281391], [-60.3538650771549, 46.197096550970365], [-60.3538413951983, 46.197140842541465], [-60.35383277459086, 46.19716029978856], [-60.353829490178946, 46.19716769406354], [-60.353841401207845, 46.19719441320507], [-60.353842700107165, 46.19719732342714], [-60.3538519316206, 46.19723638308623], [-60.353830295496245, 46.19727127159646], [-60.35380854871987, 46.1972847185295], [-60.353771908032066, 46.19730736991288], [-60.35368445419677, 46.19735009424345], [-60.353639570004226, 46.19738893540015], [-60.35360059379566, 46.197417031885685], [-60.35354803696005, 46.19745046602234], [-60.353507000773206, 46.19749068332835], [-60.353485068970734, 46.19750797809471], [-60.35345435415299, 46.19753218872194], [-60.353401707076706, 46.19757235301746], [-60.35332943124413, 46.19764068388948], [-60.353253109231254, 46.19770123461134], [-60.35324166894211, 46.19771031200057], [-60.35318697500785, 46.19776123828328], [-60.35318648755159, 46.19780429401628], [-60.35318355217475, 46.1978206067782], [-60.35317825122733, 46.19785000535098], [-60.353127572996996, 46.19788748800656], [-60.35303670440267, 46.19788714670008], [-60.35302804537694, 46.19788932218189], [-60.35297854555082, 46.19790173889442], [-60.3529182122944, 46.197936495627054], [-60.35285959160424, 46.197992794022085], [-60.35282013895893, 46.1980213472224], [-60.35278746730007, 46.198044999301565], [-60.35272851615623, 46.198110326396524], [-60.352720904158645, 46.19811876341085], [-60.352646527295285, 46.19820057279733], [-60.35262499470777, 46.19823085525906], [-60.35261313688372, 46.19824753726721], [-60.352573658880814, 46.198276341806086], [-60.352550742526155, 46.198293073550616], [-60.352540366199506, 46.198302931561294], [-60.35249993465811, 46.19834132642879], [-60.35243582840208, 46.19836665302835], [-60.35239090262248, 46.19840821085543], [-60.3523738248876, 46.19843155818252], [-60.35235358519885, 46.19845920643126], [-60.35231230194283, 46.198518282465265], [-60.35226140260153, 46.1985732834336], [-60.352247810697286, 46.19858747709792], [-60.35222031352712, 46.19861618117404], [-60.352176293169435, 46.19867233158539], [-60.35204447313666, 46.198777515331884], [-60.351809260868215, 46.19897188156454], [-60.3516355030835, 46.19911546052928], [-60.35145155618166, 46.19924799349857], [-60.35122603949123, 46.19940021831721], [-60.35110994482893, 46.19947858430974], [-60.35080717264156, 46.19971007476263], [-60.35058173886392, 46.19992355709759], [-60.3505342030268, 46.199944406691195], [-60.35049598480476, 46.19998065607268], [-60.35049109308436, 46.199991541138054], [-60.35048221097444, 46.20001128007596], [-60.35047527244693, 46.20004262063073], [-60.35045967628049, 46.20005265440437], [-60.350422528454146, 46.20008685848914], [-60.350409356552014, 46.200100386642454], [-60.35035985642983, 46.20015128801514], [-60.3503351346342, 46.20017641983398], [-60.35029915513403, 46.20021300908639], [-60.35023556949694, 46.2002740601961], [-60.35017461160058, 46.20031847643909], [-60.350105566074426, 46.20038874327092], [-60.350078924407505, 46.2004093212902], [-60.35007432032832, 46.20041287766606], [-60.350058561095786, 46.2004370742652], [-60.34999403675305, 46.20046859108417], [-60.34995524049964, 46.20050336880662], [-60.34995260808849, 46.20050500882235], [-60.349915279554175, 46.20052813803113], [-60.349857796056, 46.20056229321693], [-60.34980214706817, 46.20060519433839], [-60.34976304819253, 46.2006387139164], [-60.34972192267778, 46.2006631680432], [-60.349649000898424, 46.20071429978138]]}, "properties": {"OBJECTID": 4624, "FEAT_CODE": "WACO20", "FEAT_DESC": "Coast - Water to the right line", "RIVNAME_1": " ", "RIVNAME_2": " ", "ZVALUE": 0.2, "FID": null, "SHAPE_Length": 1603.5764184903635}}, {"type": "Feature", "id": 4625, "geometry": {"type": "LineString", "coordinates": [[-60.360319241804376, 46.18920231801545], [-60.3603550425644, 46.189214071763985], [-60.3603646622474, 46.18921723717887], [-60.360366014604146, 46.189217682446404], [-60.36036591076272, 46.18921930912525], [-60.36036374886638, 46.18925118370484], [-60.36033916121616, 46.189274799738655], [-60.36032481643231, 46.189288571959786], [-60.3602638416728, 46.18931159020701], [-60.36022997488843, 46.18932438929535], [-60.36022431766458, 46.18933102689713], [-60.36021631203535, 46.189340427368364], [-60.360239316591766, 46.18935526962786], [-60.36028171252847, 46.18935812136022], [-60.3603262470918, 46.18935744932134], [-60.360351160108195, 46.18935707092331], [-60.36036462811188, 46.18935754412462], [-60.36043790688061, 46.18936011032791], [-60.36052453820081, 46.189365019088854], [-60.360540060185286, 46.189365899743265], [-60.360561961493694, 46.1893761802298]]}, "properties": {"OBJECTID": 4625, "FEAT_CODE": "WACO20", "FEAT_DESC": "Coast - Water to the right line", "RIVNAME_1": " ", "RIVNAME_2": " ", "ZVALUE": 0.2, "FID": null, "SHAPE_Length": 50.995134899087084}}, {"type": "Feature", "id": 38007, "geometry": {"type": "LineString", "coordinates": [[-60.35566835766629, 46.18994571258059], [-60.355708432816265, 46.189967224191264], [-60.35577514705649, 46.190011538452914], [-60.355842143780926, 46.19002782286644], [-60.355843864360175, 46.190046520586826], [-60.35583561715388, 46.19006093740109], [-60.35583016993075, 46.19007047778526], [-60.355815610305584, 46.19009247986327], [-60.35580286727963, 46.190111733852454], [-60.355788290374846, 46.19013409554424], [-60.35577164269073, 46.190159640458425], [-60.35571756541435, 46.1901914473439], [-60.35571173925594, 46.19019511066934], [-60.35569436735749, 46.19020604010776], [-60.35568091950261, 46.190207303905304]]}, "properties": {"OBJECTID": 38007, "FEAT_CODE": "WALK20", "FEAT_DESC": "Lake - Water to the right line", "RIVNAME_1": " ", "RIVNAME_2": " ", "ZVALUE": 35.24, "FID": null, "SHAPE_Length": 41.29514318521917}}, {"type": "Feature", "id": 141899, "geometry": {"type": "LineString", "coordinates": [[-60.35159354502209, 46.18429616824849], [-60.351503758038056, 46.18430398715306], [-60.35152250936829, 46.18425489245506], [-60.351558605571164, 46.18416035162279], [-60.35154518836556, 46.184142939726804], [-60.35153354275718, 46.184138547537366], [-60.351519745957845, 46.18413334943687], [-60.3514711687871, 46.184117921522166], [-60.35140357429434, 46.18409645440069], [-60.35139883953493, 46.184089279279746], [-60.35139150767034, 46.18407817375524], [-60.351392371783746, 46.1840601929073], [-60.35140531904764, 46.184006490440595], [-60.351499902919386, 46.18387187660268], [-60.351579771431304, 46.183773823345355], [-60.351619901668116, 46.183693749715474], [-60.35163375415742, 46.18364816860394], [-60.35165844299781, 46.183609526033976], [-60.35171362372669, 46.1835231139502], [-60.35178054620504, 46.183451761757375], [-60.35196530375251, 46.183274235646344], [-60.35208534138213, 46.18312221044347], [-60.35225542444412, 46.18300734681504], [-60.352280837594144, 46.1829644006836], [-60.352282219638205, 46.18296206559915], [-60.352309403487695, 46.182908692986494], [-60.352313727663876, 46.18271078347328], [-60.352328758821585, 46.18251521921148], [-60.35233099640581, 46.18248617263971], [-60.35233117314926, 46.18248033544863], [-60.352333156675876, 46.182414228164916], [-60.35241393011133, 46.18227028402342], [-60.35242005137009, 46.18226208247896], [-60.3525870349781, 46.182038484163954], [-60.35262053672757, 46.181989524096025], [-60.352666468101674, 46.1819224191525], [-60.35278563605898, 46.18181537525752], [-60.35297367708393, 46.181612191307735], [-60.352983816690006, 46.181601256702876], [-60.35307662130629, 46.1815305034517], [-60.353207854293075, 46.181441739549825], [-60.353299363236296, 46.18139795742913], [-60.35334605022925, 46.18138255026458], [-60.353378346955346, 46.18137188594414], [-60.35343726491008, 46.181347860664694], [-60.35350787828858, 46.18131908404946], [-60.35359434193231, 46.181296713872314], [-60.353677131385666, 46.18127530256865], [-60.3538535089152, 46.18121077783224], [-60.35408203549982, 46.18112717368204], [-60.35417315484338, 46.181091482236745], [-60.354182716312984, 46.181088805543226], [-60.3542650936736, 46.18106571018637], [-60.354524126329046, 46.18106810887116], [-60.354530120118596, 46.181083881443804], [-60.35454828572558, 46.18113168044962], [-60.354561660486524, 46.181149982060326], [-60.354586739642215, 46.18116766366499], [-60.354781001580236, 46.18116946189462], [-60.35484505104242, 46.18116485166202], [-60.35488502041831, 46.18116196994856], [-60.35489534119266, 46.18115940078106], [-60.35509353292832, 46.18111008594591], [-60.355406105680395, 46.18102282672551], [-60.355510986576476, 46.180970351946826], [-60.35577217463488, 46.18084678248013], [-60.35596132375806, 46.180700151042466], [-60.356035947621095, 46.18064228624672], [-60.35605954351686, 46.180626334541714], [-60.356101567241, 46.18059790268576], [-60.35618012965576, 46.18055381862381], [-60.35623237494978, 46.180518125907774], [-60.35636443202264, 46.18038527527062], [-60.35641667703639, 46.18034958246336], [-60.356534110499794, 46.180305497621596], [-60.35667742988444, 46.180262002628815], [-60.35678278237315, 46.180199637103435], [-60.356834983400866, 46.18016485213165], [-60.35689295857044, 46.18011800512926], [-60.35690103291117, 46.180111477612165], [-60.35697887881176, 46.180059069011506], [-60.35712463514852, 46.17996094313763], [-60.3571553173939, 46.17994338205918], [-60.357203238949964, 46.17991595928338], [-60.35723610028668, 46.179888620109004], [-60.357255870912965, 46.17987217464282], [-60.35732050328812, 46.179828343569305], [-60.35734827969855, 46.179809500157816], [-60.35744021205052, 46.179729731732714], [-60.357519634150286, 46.179667665743835], [-60.35761155307191, 46.17958789686933], [-60.35770803517923, 46.17954753840877], [-60.35778080974599, 46.17951709905294], [-60.35797524344536, 46.179456261730635], [-60.35800311752314, 46.17944753691843], [-60.35800589368527, 46.1794469260897], [-60.35811968562443, 46.17942144032187], [-60.35819867770923, 46.179395356694776], [-60.358367876606785, 46.17932546571681], [-60.35851248410358, 46.17925500587158], [-60.35853490734138, 46.17923835150552], [-60.35864414677212, 46.17915724520424], [-60.35873025816129, 46.179091273837194], [-60.35874906225445, 46.17907686686672], [-60.3587840283643, 46.17904748780592], [-60.35885436511738, 46.178988396987734], [-60.35900074316455, 46.17890366674954], [-60.35903827050486, 46.17888194319799], [-60.359220883082614, 46.178802460562586], [-60.359535114202565, 46.17865311629844], [-60.3595855061917, 46.17861897228667], [-60.35984981236654, 46.17843987879856], [-60.3598887992209, 46.178420942834194], [-60.35990287389389, 46.1784141037533], [-60.359968059284064, 46.178405718713144], [-60.360019872517285, 46.178406007057546], [-60.36012264737446, 46.17839758155151], [-60.36013353341271, 46.178390497748815], [-60.36013600784462, 46.178388880846306], [-60.36014643547954, 46.17837486510665], [-60.36016232020533, 46.178353496099604], [-60.36017697953096, 46.17826383039248], [-60.36017741006832, 46.17825483989559], [-60.36019531591323, 46.178246730242385], [-60.36021714139249, 46.17823685706862], [-60.360251177971634, 46.17823119025338], [-60.360269384564724, 46.17822816378955], [-60.360321167099215, 46.178229360333084], [-60.36063241747238, 46.17822305125867], [-60.360645160371064, 46.178221563583314], [-60.360774436183064, 46.1782065404092], [-60.36095662964472, 46.17816304709666], [-60.36100924749287, 46.17814625273295], [-60.361054937791, 46.178115023608896], [-60.3610614874051, 46.178110557678956], [-60.36112631693362, 46.178058169578215], [-60.361127530379505, 46.178057180558206], [-60.36122074587905, 46.17795042838484], [-60.36123837014524, 46.177938180859186], [-60.36125961277709, 46.17792342478179], [-60.36132823087963, 46.177888512938125], [-60.361364538283254, 46.17787004560584], [-60.361471651287296, 46.17782753539361], [-60.36149527929948, 46.17781816263093], [-60.361533715661686, 46.177800149436514], [-60.361559600282845, 46.177800747271164], [-60.36166365512155, 46.17779234994109], [-60.36169738691026, 46.177801976413754], [-60.361728843377364, 46.177810956299496], [-60.361774676333916, 46.177831689755834], [-60.361831567855305, 46.177857430812004], [-60.36188208985949, 46.177884689829796], [-60.36195892597727, 46.17790357404227], [-60.362153636905944, 46.17792337099875], [-60.36215514628625, 46.177925673963856], [-60.36216570589285, 46.17794165057203], [-60.36218657664117, 46.1779479287773]]}, "properties": {"OBJECTID": 141899, "FEAT_CODE": "WALK20", "FEAT_DESC": "Lake - Water to the right line", "RIVNAME_1": " ", "RIVNAME_2": " ", "ZVALUE": 41.4, "FID": null, "SHAPE_Length": 1234.9548175568655}}, {"type": "Feature", "id": 141900, "geometry": {"type": "LineString", "coordinates": [[-60.36218657664117, 46.1779479287773], [-60.36225341605, 46.177968049033936], [-60.36225639204138, 46.177968945790326], [-60.362307173078506, 46.17798890223819], [-60.36239755722847, 46.17802440777755], [-60.362514916169296, 46.17807401869941], [-60.3626159937306, 46.17811675529541], [-60.36265125335885, 46.17813128599865], [-60.3627062193486, 46.178153958013034], [-60.36273968912708, 46.178183694122495], [-60.3627571506229, 46.178199217979156], [-60.36276161794466, 46.17820252526792], [-60.36276967586819, 46.17820850757522], [-60.362998956818075, 46.178399209551934], [-60.36300910021341, 46.178404933966675], [-60.36311376584722, 46.17846396274329], [-60.36316434362765, 46.17849549768745], [-60.36321567565366, 46.17852751804119], [-60.363285731878186, 46.17859228213949], [-60.363343492011936, 46.178645673848976], [-60.36340975031648, 46.17870749707131], [-60.36343154390419, 46.17872781003804], [-60.36345743744998, 46.178782410312536], [-60.36346383182351, 46.17883970171027], [-60.36346741717511, 46.178871745034584], [-60.36346571403025, 46.17901571283111], [-60.36345966328603, 46.179075849156774], [-60.3634484408904, 46.179187222654974], [-60.36343464660079, 46.17925890783926], [-60.36337811925604, 46.179465513445436], [-60.363309977700936, 46.17961694825273], [-60.36325645534103, 46.17973362771703], [-60.36318955708574, 46.179831970530465], [-60.36298971805422, 46.180109080600964], [-60.362860746591586, 46.18029640878655], [-60.36284212743269, 46.18032348432281], [-60.36282736607984, 46.18033844431281], [-60.3627631312411, 46.18040356471927], [-60.362618099466474, 46.18051002191081], [-60.36243419885117, 46.18064348288129], [-60.362249910130224, 46.18078503499099], [-60.362216902841226, 46.180810320131805], [-60.362144996250336, 46.1808654165626], [-60.36200736487698, 46.180997506106074], [-60.36186658287473, 46.18113260087528], [-60.36177057460897, 46.181208273518585], [-60.361709037965035, 46.18125676882122], [-60.36167028093292, 46.18130065093405], [-60.36166930817798, 46.18130175352354], [-60.361588190003914, 46.181356258842], [-60.3614323254404, 46.181460997258064], [-60.361354225588634, 46.18152308749253], [-60.36128773517645, 46.18158545483227], [-60.361228646901736, 46.1816258250267], [-60.36118324878092, 46.18165684494868], [-60.36098639465227, 46.18176300303757], [-60.36085563359931, 46.18184188627927], [-60.36076934851709, 46.18187085440235], [-60.3607659926512, 46.181873828021956], [-60.360708212942384, 46.18192501070646], [-60.36056396112996, 46.1819987756957], [-60.36041958021299, 46.182088486300856], [-60.360317038706555, 46.182131668176964], [-60.36026969537703, 46.182151608246876], [-60.36012585908785, 46.182182855200274], [-60.36007435045042, 46.18218830723033], [-60.3600415701425, 46.18219177091616], [-60.359917392230265, 46.182168605205824], [-60.35989050247243, 46.182162979528215], [-60.35985246402865, 46.182155026087976], [-60.359745635729915, 46.182119975550755], [-60.359635428131426, 46.18210083159186], [-60.35960426588032, 46.1820954041121], [-60.359424530794, 46.182078631133805], [-60.35926177321568, 46.18208586748366], [-60.35920596171152, 46.18210107513974], [-60.35912743692014, 46.18212247203279], [-60.35907970532162, 46.182142393633534], [-60.359014044334174, 46.18216980310839], [-60.35898872646237, 46.18221223091132], [-60.35889450415843, 46.18225699890524], [-60.3588337692815, 46.18229219954037], [-60.35876935598081, 46.18232952920541], [-60.35872495288055, 46.18235894207503], [-60.358595932014275, 46.182444406283636], [-60.35849059168096, 46.182505387681175], [-60.35843418955694, 46.18253804215876], [-60.35826819627852, 46.18263005843099], [-60.3582084071726, 46.182679843316876], [-60.357905800680314, 46.18288346438988], [-60.35781381905396, 46.18293713074604], [-60.357765793622875, 46.182962886286994], [-60.35768346839951, 46.18300702840414], [-60.357420995777446, 46.18318455714795], [-60.357275516435074, 46.183326998946924], [-60.357182714550476, 46.18342476597635], [-60.35712133051399, 46.183481830750836], [-60.35707692647562, 46.1835231145365], [-60.357065525679936, 46.183532796263655], [-60.35702424764525, 46.18356779803863], [-60.356914261069406, 46.18365667985416], [-60.35689214014596, 46.183674546949185], [-60.35681858918231, 46.18373942145196], [-60.35676089532157, 46.18379031610648], [-60.35664220478089, 46.18388747468139], [-60.35657528791847, 46.18395882984125], [-60.3565123036287, 46.184014381184895], [-60.35644404130959, 46.184074607591086], [-60.35635454376439, 46.184134225539175], [-60.356338293152994, 46.18414505502312], [-60.35622083797728, 46.184216158472104], [-60.35614336303687, 46.18425556048698], [-60.35611592209052, 46.184269515123034], [-60.35605971396818, 46.18430400000367], [-60.35597172996908, 46.184357982403625], [-60.355736024760816, 46.184490242541905], [-60.3556743331513, 46.18452260220947], [-60.35561771887793, 46.18455230723794], [-60.355602164754586, 46.184557257451345], [-60.3555914002642, 46.1845606894541], [-60.35557286472372, 46.18456377056151], [-60.3555391504, 46.18456938044066], [-60.35544452579444, 46.18456864805003], [-60.355422569600805, 46.18456848179233], [-60.35534529487342, 46.184558592493744], [-60.35532179831934, 46.18454650997688], [-60.35525552064449, 46.18451241200919], [-60.35512943181817, 46.18442234159576], [-60.35509012927004, 46.18439426832369], [-60.354885069555756, 46.18423922215093], [-60.35486329090539, 46.184219429936704], [-60.35478448413649, 46.184147788765806], [-60.354703319089296, 46.18409666793757], [-60.35466876771745, 46.18407490583921], [-60.35454010791282, 46.18400172306046], [-60.3543864239053, 46.18393696105093], [-60.35427113927045, 46.1839090899194], [-60.35406391161223, 46.18387998921308], [-60.35384417219258, 46.18384159787441], [-60.35363188424755, 46.183839362489984], [-60.353416773328036, 46.183837088311506], [-60.3533645649706, 46.18382765237602], [-60.35331400089706, 46.183818515524315], [-60.35329001406011, 46.18380829331919], [-60.35324924042746, 46.183790913851155], [-60.35321657396508, 46.1837701220269], [-60.353134821197905, 46.18371805941418], [-60.353083479495396, 46.18368086806838], [-60.35307853399566, 46.183673760137715], [-60.353045902269955, 46.18362688579024], [-60.35303298686484, 46.183587416613506], [-60.353022174573965, 46.18355434147676], [-60.35301593634978, 46.18345651514246], [-60.35301182569113, 46.18339209374015], [-60.35303987262612, 46.183320740072645], [-60.35310593057877, 46.18324036663073], [-60.35319787529704, 46.1831605929267], [-60.35328943033629, 46.18311591184302], [-60.35331661246545, 46.183089540278786], [-60.353528157310826, 46.18289373131837], [-60.353646031478334, 46.18278665656601], [-60.35377814289559, 46.18267991148446], [-60.353818269104586, 46.18259983698312], [-60.353818362379315, 46.1825960049553], [-60.353820860092355, 46.18249189169183], [-60.35379583671336, 46.18247331117043], [-60.353756100885974, 46.1824642903282], [-60.353710732798895, 46.18246381542942], [-60.35361363800513, 46.18246279028083], [-60.35358805283984, 46.18246616677981], [-60.3535497408823, 46.18247121054049], [-60.35354392275519, 46.18247499094971], [-60.353536365876266, 46.18247990113595], [-60.353469236675, 46.18256939446489], [-60.35345607106552, 46.18258694633727], [-60.35340128506904, 46.182653612442394], [-60.35339001444027, 46.1826673200176], [-60.35335955690458, 46.182697683916665], [-60.3533097198948, 46.1827473637936], [-60.353282728195296, 46.182774090786346], [-60.35313830042913, 46.18291710072544], [-60.35299324277365, 46.18305054641617], [-60.35288792268754, 46.18313901046744], [-60.352787891765516, 46.18322930706939], [-60.35272944531982, 46.18328204534657], [-60.35266386296086, 46.183325527781484], [-60.352548539290076, 46.18341801690541], [-60.352452271472174, 46.183495232774646], [-60.35235989322955, 46.183583996271], [-60.3522329973037, 46.183702642166054], [-60.35218894329802, 46.18374384216341], [-60.35203050702974, 46.18385897565093], [-60.35183276235804, 46.18401009952259], [-60.35176757854329, 46.18407249160568], [-60.351686832939144, 46.18418852553946], [-60.35164608612275, 46.184250413003795], [-60.351633715911504, 46.1842691891621], [-60.3516239943188, 46.18427572311905], [-60.35159354502209, 46.18429616824849]]}, "properties": {"OBJECTID": 141900, "FEAT_CODE": "WALK20", "FEAT_DESC": "Lake - Water to the right line", "RIVNAME_1": " ", "RIVNAME_2": " ", "ZVALUE": 41.4, "FID": null, "SHAPE_Length": 1744.0620940443816}}, {"type": "Feature", "id": 161305, "geometry": {"type": "LineString", "coordinates": [[-60.361177747173215, 46.18866831922871], [-60.361157917778144, 46.188671605368214], [-60.361144854523076, 46.18867377873635], [-60.361136836464674, 46.18870590507757], [-60.36113842088045, 46.18874209641377], [-60.36114087633172, 46.18874846243612], [-60.3611571658827, 46.18879068172241], [-60.361152500926394, 46.18887510602626], [-60.36115776125511, 46.18893141723398], [-60.36112307685226, 46.18893261414476], [-60.36109429247687, 46.18891506442715], [-60.361077302247175, 46.18887746416968], [-60.36106871679466, 46.18887353966775], [-60.3610389162712, 46.18885989065149], [-60.36098109108285, 46.18885964391661], [-60.360970291080704, 46.18886705379651], [-60.36094034221411, 46.1888876209714], [-60.36094191917208, 46.18889447072803], [-60.36094774179558, 46.18891982444783], [-60.36096886788514, 46.188932760077115], [-60.36099181933034, 46.18894681792115], [-60.36100697799712, 46.18897368336768], [-60.36099513603573, 46.189003120238944], [-60.36094478368388, 46.189027050265025], [-60.36091733012416, 46.18902284288536], [-60.36089086730085, 46.18901878439259], [-60.360883520276055, 46.18901524850359], [-60.36084864587351, 46.188998494079925], [-60.36081225273292, 46.18897421619975], [-60.3607873926332, 46.18895401193204], [-60.36077726362308, 46.18893604707565], [-60.360760862583746, 46.18890698379198], [-60.36074540286658, 46.1889018294005], [-60.36072035783586, 46.18890036874614], [-60.36071783446686, 46.18890056246087], [-60.36068756569085, 46.188902914303966], [-60.3606817075105, 46.188905362084824], [-60.360643041865735, 46.1889214975918], [-60.360609889322774, 46.18895889347536], [-60.36058978297166, 46.188977698863226], [-60.360567085270176, 46.188998928495494], [-60.36050682133326, 46.189050944687736], [-60.360521864123406, 46.189082118728436]]}, "properties": {"OBJECTID": 161305, "FEAT_CODE": "WARV10", "FEAT_DESC": "Double Line River - Water to the left line", "RIVNAME_1": "Georges River", "RIVNAME_2": " ", "ZVALUE": 9999, "FID": null, "SHAPE_Length": 125.47141542055301}}, {"type": "Feature", "id": 170303, "geometry": {"type": "LineString", "coordinates": [[-60.361177747173215, 46.18866831922871], [-60.36121436150709, 46.188663350697006], [-60.36122005101681, 46.18868174399445], [-60.361221835867205, 46.18868750049663], [-60.36125053214681, 46.188709053340325], [-60.361274263661635, 46.188714668739806], [-60.3612967010954, 46.18871997523036]]}, "properties": {"OBJECTID": 170303, "FEAT_CODE": "WARV20", "FEAT_DESC": "Double Line River - Water to the right line", "RIVNAME_1": "Georges River", "RIVNAME_2": " ", "ZVALUE": 9999, "FID": null, "SHAPE_Length": 12.655436160771032}}, {"type": "Feature", "id": 170304, "geometry": {"type": "LineString", "coordinates": [[-60.36099176955415, 46.189153781707695], [-60.3609897884756, 46.18915726411294], [-60.36097041056564, 46.18916789600162], [-60.360946647527385, 46.18916780607658], [-60.360937629645925, 46.1891677687625], [-60.36093270742048, 46.18916230879718], [-60.36092429095975, 46.18915296092797], [-60.360925595796, 46.18914438665822], [-60.360926331870445, 46.1891395704304], [-60.360927233104775, 46.18913374096915], [-60.36092839910051, 46.18912617154035], [-60.360909375491836, 46.1891118174037], [-60.36090159542506, 46.18910595840106], [-60.3608670341203, 46.1890924063697], [-60.36084389333465, 46.189092312797435], [-60.360838508270035, 46.18910111682081], [-60.36083410556565, 46.18910835046189], [-60.360827186337005, 46.189106705542564], [-60.36080524805213, 46.189101527497236], [-60.360792029691076, 46.189094219786746], [-60.36077839491521, 46.18908667744369], [-60.36076784701582, 46.18907854038178], [-60.360763010423426, 46.18907481047034], [-60.36075694664724, 46.18906666899701], [-60.36074399180875, 46.18904925988361], [-60.360709441967245, 46.18903303494076], [-60.360678517224265, 46.18903961083028], [-60.36067789561338, 46.18904582476807], [-60.36067638901938, 46.18906104569329], [-60.36067046125457, 46.189075768455425], [-60.360620245352, 46.18908494078206], [-60.36057766370069, 46.189100850785366], [-60.360563622104976, 46.18910288447763], [-60.36055065060725, 46.18910476288355], [-60.360521864123406, 46.189082118728436]]}, "properties": {"OBJECTID": 170304, "FEAT_CODE": "WARV20", "FEAT_DESC": "Double Line River - Water to the right line", "RIVNAME_1": "Georges River", "RIVNAME_2": " ", "ZVALUE": 9999, "FID": null, "SHAPE_Length": 52.64486418611727}}, {"type": "Feature", "id": 170305, "geometry": {"type": "LineString", "coordinates": [[-60.3612967010954, 46.18871997523036], [-60.361295382523785, 46.18872856718834], [-60.36129464734962, 46.18873336543867], [-60.36128468606087, 46.18876683297182], [-60.36129216061144, 46.188792332835654], [-60.36130379316039, 46.188802988022225], [-60.36131126697575, 46.1888098299715], [-60.36131227855304, 46.188830923348725], [-60.36131287623936, 46.18884333974964], [-60.36131059931363, 46.188879522897935], [-60.36131996715617, 46.18890770361699], [-60.361327159228466, 46.188910686872525], [-60.36135261089459, 46.18892124722237], [-60.36135240659688, 46.188923348604746], [-60.36135045764736, 46.1889440225838], [-60.36133475542038, 46.18897478339559], [-60.36132088360361, 46.18901359686794], [-60.36128589860195, 46.18903649592726], [-60.361237688279125, 46.18904032359159], [-60.36120115814981, 46.18902810325074], [-60.3611760998141, 46.1890280014545], [-60.36114710621687, 46.18903592714105], [-60.36112052200771, 46.189043062435196], [-60.3610929928393, 46.18905044590787], [-60.36107921938204, 46.18907854210829], [-60.3610746575652, 46.18909884071046], [-60.361073194173386, 46.18910531421866], [-60.3610687913292, 46.18911092778775], [-60.361059531759835, 46.18912270246755], [-60.36102843037871, 46.189123766107095], [-60.361024821776184, 46.1891238897573], [-60.36100351193111, 46.18913318996154], [-60.361001984274516, 46.18913586380196], [-60.36099176955415, 46.189153781707695]]}, "properties": {"OBJECTID": 170305, "FEAT_CODE": "WARV20", "FEAT_DESC": "Double Line River - Water to the right line", "RIVNAME_1": "Georges River", "RIVNAME_2": " ", "ZVALUE": 9999, "FID": null, "SHAPE_Length": 70.15601379420615}}, {"type": "Feature", "id": 184595, "geometry": {"type": "LineString", "coordinates": [[-60.36096441475559, 46.192617505238715], [-60.36103710137191, 46.192605737688496], [-60.361064530373646, 46.19260129505572], [-60.36110062673532, 46.192602866904714], [-60.361108723473514, 46.19260320694237], [-60.361154822470375, 46.192607808962], [-60.36122266635891, 46.19260325577929], [-60.36124919028733, 46.19260147432379], [-60.361254884509556, 46.19259975176187], [-60.36132818787673, 46.192577539775264], [-60.36141116573351, 46.192545182699], [-60.36146348836394, 46.192504260169954], [-60.361511390074135, 46.19245660219651], [-60.3615314632192, 46.19243661683059], [-60.36156105489273, 46.19242435765321], [-60.36160099918806, 46.192407819349036], [-60.36163408006817, 46.19236816243039], [-60.361646593236365, 46.19234393425402], [-60.36167134903116, 46.19229598467336], [-60.361697394153346, 46.19225927039591], [-60.36170452348574, 46.19224922855731], [-60.36170337310034, 46.19216255487003], [-60.36170170476656, 46.19212783769187], [-60.361700165306466, 46.19209557160623], [-60.36169689454144, 46.19203261007881], [-60.36177117243819, 46.19191505177591], [-60.36177768249819, 46.19188275557269], [-60.361779207055235, 46.19187527542251], [-60.36181235702126, 46.191832541899004], [-60.36184142856917, 46.19180758903352], [-60.361857798514826, 46.19179889463237], [-60.36188400862717, 46.19178498220582], [-60.36192079637525, 46.19176235860988], [-60.361920870572405, 46.19175485396593], [-60.3619210304292, 46.191738251866866], [-60.36190789893742, 46.19170204591981], [-60.36188514357352, 46.191678992367436], [-60.361877368853875, 46.19167111746176], [-60.36188632477046, 46.191658111648835], [-60.361892997049225, 46.19164841025996], [-60.361941146082906, 46.19164726302846], [-60.361962329999244, 46.191646024126904], [-60.361968057655474, 46.19163981108759], [-60.36198566689434, 46.191620659786366], [-60.361957129781565, 46.191584377113344], [-60.36191879948723, 46.19156316001389], [-60.361904138849745, 46.191553479019035], [-60.361888183568034, 46.19154295808692], [-60.36189419634548, 46.1915175267196], [-60.36193005039792, 46.19150465602438], [-60.36193477098794, 46.19150296494771], [-60.361968871677185, 46.19147122485416], [-60.36197163911429, 46.19146864263354], [-60.362016050041404, 46.191455429479866], [-60.3620192753778, 46.191435433001494], [-60.36202014423003, 46.191430007805145], [-60.362019031557736, 46.191424554853285], [-60.362012779082875, 46.19139381801638], [-60.362034272301166, 46.191360400710124], [-60.3620343209145, 46.19135559560363], [-60.36203449248963, 46.19133631164633], [-60.362069909716496, 46.19125243543624], [-60.36210474351354, 46.191236507982644], [-60.36213381632744, 46.19121151906895], [-60.36211152934811, 46.19118924141167], [-60.3621109346519, 46.1911886696531], [-60.36212454036657, 46.191171657991774], [-60.36218054156198, 46.19115212408537], [-60.362182805624656, 46.19115139332544], [-60.3621867413053, 46.191150125135735], [-60.36223266935302, 46.19113526384783], [-60.36229431854441, 46.19113283510503], [-60.36233299313318, 46.19113765224693], [-60.36240006221513, 46.19114599609302], [-60.36253286946416, 46.19115123139552], [-60.36256041863893, 46.19115481956087], [-60.362588637538586, 46.191158495184624], [-60.362635012882016, 46.19114295102841], [-60.36264142988613, 46.191139390995154], [-60.36266792418005, 46.191124674910185], [-60.36267070845682, 46.19112255208321], [-60.36273968019115, 46.19107002475013], [-60.362755508530654, 46.19105070621097], [-60.36277085493833, 46.19103197957295], [-60.362871878290065, 46.19094095019322], [-60.362889939245996, 46.19086198332577], [-60.36291543805549, 46.19081417662615], [-60.36294480907835, 46.190762364109176], [-60.3629529782688, 46.190751707164225], [-60.36297017217547, 46.19072930596799], [-60.36298990246206, 46.19068179811564], [-60.36300429624818, 46.190584673715676], [-60.363024005215294, 46.19053652633402], [-60.36307825183242, 46.190504890910795], [-60.363132658365004, 46.19045718438543], [-60.363161772718996, 46.19043618335787], [-60.36316268279777, 46.19042420679101], [-60.363163984809255, 46.19040701902125], [-60.3631641816321, 46.19038611556583], [-60.36316424125172, 46.19038053667545], [-60.36313389644081, 46.190329487863124], [-60.36309952907928, 46.190296149043945], [-60.36305978911041, 46.190216928015346], [-60.36303326779889, 46.19017020663288], [-60.36302850692515, 46.190148099687946], [-60.36302402110458, 46.19012728615325], [-60.363068593842094, 46.19010199774754], [-60.36310915480885, 46.19008877630602], [-60.36310943782978, 46.190060926507215], [-60.363101306806335, 46.19004749919384], [-60.36309806501234, 46.19004212311308], [-60.36307887057136, 46.190031320568394], [-60.363044357435136, 46.1900124060558], [-60.363029171797564, 46.189986890328164], [-60.36303675936643, 46.1899775520146], [-60.36304867330875, 46.18996284130257], [-60.36308547291061, 46.1899415586662], [-60.36308477747537, 46.18993036407948], [-60.363083801801196, 46.18991473481245], [-60.363081932444224, 46.189908031345006], [-60.363077710888284, 46.18989469426881], [-60.363072575441215, 46.189878518962956], [-60.36304400109693, 46.18984355875659], [-60.36302905700829, 46.18983249429483], [-60.363007630638975, 46.18981660897804], [-60.36300482765179, 46.18980775085629], [-60.36299826160479, 46.18978707831084], [-60.363018821693956, 46.18977963251812], [-60.36303113962167, 46.1897751646223], [-60.363039180366094, 46.18973902448602], [-60.363052902473186, 46.189713608996136], [-60.36305600635493, 46.18970805537227], [-60.363068579330076, 46.18968552949513], [-60.36306316848605, 46.189643966616856], [-60.363055743778986, 46.1896358208548], [-60.36304601708634, 46.18962513783768], [-60.3630425054113, 46.18961511130312], [-60.36303849127084, 46.189603669103036], [-60.36304043663491, 46.189586307173926], [-60.36304059350759, 46.18958492472859], [-60.36306391834661, 46.189563574076615], [-60.363064114684086, 46.18954213958223], [-60.36304493398475, 46.18953267841214], [-60.36301947037132, 46.189527500423736], [-60.3630045434588, 46.18952447373942], [-60.36299890053894, 46.18951700813295], [-60.362989322033286, 46.189504312434806], [-60.362985006339805, 46.18949321428866], [-60.362979916262255, 46.189480154174014], [-60.36298577302063, 46.189473944062435], [-60.3630012965488, 46.18945746258609], [-60.363004185653566, 46.189440419455785], [-60.36300539157456, 46.189433363952745], [-60.362988239638845, 46.18941319408758], [-60.362971896995084, 46.189406984568556], [-60.36296328034242, 46.18940370752071], [-60.362943730699925, 46.18939681194018], [-60.36292870513089, 46.18939151485983], [-60.36292523221484, 46.18937445087884], [-60.36292134045825, 46.18935530713018], [-60.362918246421565, 46.18931028755507], [-60.36291793381553, 46.18930571712034], [-60.36291701496236, 46.189304336844685], [-60.362902737136025, 46.1892828742461], [-60.36289717911769, 46.1892587417954], [-60.3628980833318, 46.18924472199536], [-60.362899429325616, 46.18922390806716], [-60.36289586348208, 46.189193080280184], [-60.362882620546685, 46.18916624130914], [-60.36287972270688, 46.18913878610252], [-60.362879079802795, 46.189132722971756], [-60.36287566149038, 46.18908581481825], [-60.36289711686193, 46.18905776072488], [-60.362893324013775, 46.189042237431025], [-60.36289154653603, 46.18903496905331], [-60.362887812164615, 46.189024181336116], [-60.36287834133993, 46.18899678140803]]}, "properties": {"OBJECTID": 184595, "FEAT_CODE": "WARV50", "FEAT_DESC": "River - Single Line", "RIVNAME_1": " ", "RIVNAME_2": " ", "ZVALUE": 9999, "FID": null, "SHAPE_Length": 536.9979489787758}}, {"type": "Feature", "id": 264290, "geometry": {"type": "LineString", "coordinates": [[-60.362348340107395, 46.18812081010976], [-60.36234623904725, 46.18811976255087], [-60.36234466961697, 46.18811897927874], [-60.36231032666757, 46.18811386612949], [-60.36228033322568, 46.18810939342314], [-60.362177625981374, 46.18810845300429], [-60.362150799788225, 46.1881082025959], [-60.36196857065697, 46.18812469569077], [-60.36189130579918, 46.18814181236896], [-60.36174839714447, 46.18814931264679], [-60.36166858816606, 46.18815568690638]]}, "properties": {"OBJECTID": 264290, "FEAT_CODE": "WARV50", "FEAT_DESC": "River - Single Line", "RIVNAME_1": "Georges River", "RIVNAME_2": " ", "ZVALUE": 4.2, "FID": null, "SHAPE_Length": 53.14938827870269}}, {"type": "Feature", "id": 264291, "geometry": {"type": "LineString", "coordinates": [[-60.360521864123406, 46.189082118728436], [-60.36052174417374, 46.18908218796049], [-60.360520985640825, 46.18908260245555], [-60.36051350344, 46.18908675878908], [-60.360482990836175, 46.18910366764373], [-60.36043629473123, 46.18913729438489], [-60.360397464252365, 46.189165252567825], [-60.360319241804376, 46.18920231801545]]}, "properties": {"OBJECTID": 264291, "FEAT_CODE": "WARV50", "FEAT_DESC": "River - Single Line", "RIVNAME_1": "Georges River", "RIVNAME_2": " ", "ZVALUE": 9999, "FID": null, "SHAPE_Length": 20.662992472607367}}, {"type": "Feature", "id": 275270, "geometry": {"type": "LineString", "coordinates": [[-60.35159354502209, 46.18429616824849], [-60.35160856969326, 46.18430305088671], [-60.351632850180984, 46.18431417129615], [-60.351642064620556, 46.18433841608919], [-60.351657007472, 46.184377743412995], [-60.35166492739953, 46.18438362429611], [-60.35166951920662, 46.18438703390742], [-60.351694584227936, 46.18443171713322], [-60.35169415264702, 46.18444069856839], [-60.351667329091256, 46.184561240665225], [-60.3516660563587, 46.18456696244157], [-60.35165181481097, 46.1846206349286], [-60.35161254751362, 46.18468273668586], [-60.35157154330165, 46.184720847990164], [-60.351506747209456, 46.18478107980273], [-60.35142203504077, 46.18484210089428], [-60.35130941642683, 46.184923220912516], [-60.3512190300955, 46.184983930285014], [-60.35115142036041, 46.18502935393577], [-60.35098004516428, 46.18517118725887], [-60.35086508352584, 46.18528754323054], [-60.35084790724194, 46.185304929788884], [-60.35078184557421, 46.185358300505534], [-60.35059876706659, 46.18544675925607], [-60.35058217996821, 46.185459704220925], [-60.35051932876498, 46.18550882003071], [-60.350416859937006, 46.18558954453318], [-60.35036174602606, 46.185632971423225], [-60.35029467458865, 46.18567309679081], [-60.35024298617991, 46.18570402946207], [-60.35012494705824, 46.18578407753317], [-60.350059484254786, 46.18582847028264], [-60.350006840820335, 46.18587225132172], [-60.34992826332175, 46.1859433320908], [-60.34983540124942, 46.18604198278715], [-60.34971496434217, 46.18617509539912], [-60.34964933019478, 46.186246476253736], [-60.34953144350601, 46.18632654524578], [-60.34940018311678, 46.186388293937746], [-60.349176965171694, 46.18652983970376], [-60.34914350907991, 46.18654485914529], [-60.34909882196674, 46.18656491022043], [-60.34896547749848, 46.18660638606542], [-60.348929116166836, 46.18661768384665], [-60.348864348582545, 46.18664408216447], [-60.34880299726683, 46.18668997367498], [-60.34875815300887, 46.18672352162776], [-60.348643847032854, 46.18681423031684], [-60.34853449710947, 46.18690103972484], [-60.3482844785855, 46.18706084462115], [-60.347996919913676, 46.18721977749639], [-60.34778620760251, 46.18737059328714], [-60.3476151966516, 46.18747732828695], [-60.347445080877186, 46.18756518289573], [-60.347195934735275, 46.18770700478351], [-60.34680346743118, 46.187918401127355], [-60.346782731333214, 46.18793081715672], [-60.34658062714188, 46.18805183218323], [-60.34642216670938, 46.18816695729618], [-60.346336572439476, 46.18822319288159], [-60.34594976464065, 46.188477298820224], [-60.345752462965415, 46.188618521927964], [-60.34566002661771, 46.18868117735396], [-60.34549078360854, 46.1887510394506], [-60.34526797967526, 46.188883577740626], [-60.34499750138797, 46.189071980380405], [-60.344860337475204, 46.18916751829082], [-60.344425500658275, 46.18947781753285], [-60.34432187850244, 46.189543407004], [-60.34434311715152, 46.189574367207925], [-60.344387725940656, 46.189639388300264], [-60.34438696735517, 46.189698152515504], [-60.34438298077425, 46.189708806363754], [-60.34437674769589, 46.189728696439495], [-60.3443629456033, 46.1897728017453], [-60.3443430605174, 46.18978931431081], [-60.34430854211166, 46.18981797030068], [-60.34420411361686, 46.18986827617881], [-60.34410789905705, 46.18987587684543], [-60.34407333026531, 46.18987573019715], [-60.34403869631605, 46.189875591024], [-60.34403859320775, 46.18988391403023], [-60.34403839365706, 46.18989961515187], [-60.344048163698254, 46.18992491751179], [-60.344057014718395, 46.189947777387154], [-60.344054107088304, 46.18995916734268], [-60.344053128940686, 46.18996305979136], [-60.3440489011144, 46.1899797923137], [-60.34401855017246, 46.1900217307439], [-60.344018513105624, 46.19002572607569], [-60.34401829962427, 46.19004198490015], [-60.344017931606516, 46.19007112875591], [-60.34397321656609, 46.19010967306865], [-60.34389422256654, 46.19012269617108], [-60.34385238524947, 46.19012116540073], [-60.34381161028785, 46.19011966831649], [-60.34380240464748, 46.19012567357555], [-60.34376896507114, 46.190147532155436], [-60.343750788741055, 46.190158432074895], [-60.3437379650166, 46.19016609928669], [-60.343688638759744, 46.19018173816472], [-60.3436839268596, 46.190183239680444], [-60.343618382206685, 46.19019631430649], [-60.34361185543381, 46.19020374090725], [-60.34357741397636, 46.190242883972466], [-60.343532598776434, 46.19027355040206], [-60.34352891405937, 46.190276056844574], [-60.343526206694335, 46.19027656991639], [-60.343465324256265, 46.190287826774764], [-60.34337878608284, 46.19029012557604], [-60.343353271724254, 46.190291944355025], [-60.34330758899388, 46.190295175194265], [-60.34328466839032, 46.19029507418124], [-60.343271050570166, 46.1902950185002], [-60.34324029084183, 46.19029488817961], [-60.343190138556494, 46.190308032512185], [-60.34317135633603, 46.1903223564149], [-60.343139643184735, 46.19034656807348], [-60.34311580723641, 46.19040522758452], [-60.343105382374084, 46.19046796117922], [-60.34310961139753, 46.19048615041064], [-60.34311812247298, 46.190522773117934], [-60.34312735080121, 46.19053377026465], [-60.34315410356517, 46.19056566896783], [-60.343149363319576, 46.190576089233886], [-60.343132310919565, 46.19061366548334], [-60.343081212770045, 46.19064668773282], [-60.343062512023906, 46.19065878140412], [-60.34298721221842, 46.190682519312055], [-60.34284267132271, 46.19070862486184], [-60.342743267179806, 46.19071998437668], [-60.342684768804304, 46.19072667004964], [-60.34255184785474, 46.19074481012388], [-60.34248618735628, 46.19076590979381], [-60.34242688540213, 46.190835201671156], [-60.34241782211114, 46.19084577335067], [-60.342384521562785, 46.19089240395684], [-60.342370874867385, 46.19090073590264], [-60.342330240735016, 46.19092556783971], [-60.34226651050729, 46.19094667628751], [-60.342237093170574, 46.19096330873669], [-60.342221944727996, 46.190971875739685], [-60.342159191040395, 46.19101223177662], [-60.34215794723866, 46.19101303087886], [-60.342157002976165, 46.19101353093525], [-60.342107590183886, 46.191039535618195], [-60.34208388043581, 46.19107002648454], [-60.342072384462206, 46.19108481674373], [-60.34206608628632, 46.19112349808534], [-60.34205189803127, 46.19117959170249], [-60.34200905918391, 46.191219492959675], [-60.34198657087196, 46.19123594454434], [-60.341952744726036, 46.19126068273639], [-60.34193314191202, 46.19127883952767], [-60.341925463585824, 46.19128595122372], [-60.341909511379356, 46.19132863813332], [-60.34191442452484, 46.191360577989194], [-60.341918362291466, 46.19138614084285], [-60.34192555086692, 46.19142491096945], [-60.34187690626206, 46.19146614416064], [-60.34180140144364, 46.19150457422597], [-60.34176619419318, 46.19154853215562], [-60.34176559651965, 46.191593961443196], [-60.341795645229276, 46.191648870261616], [-60.341801702855314, 46.191655743540046], [-60.34184301703221, 46.191702526072824], [-60.3418404018911, 46.191731212610584], [-60.341838507177805, 46.19175195052688], [-60.341816303854515, 46.19175953428009], [-60.34180373275648, 46.191763831989284], [-60.34173251964601, 46.19176621612589], [-60.34169940384134, 46.19175768716427], [-60.34160602266776, 46.19173361612518], [-60.341524755846955, 46.19170128551247], [-60.3415007863202, 46.191691754278295], [-60.34142619645908, 46.19165937196667], [-60.341354678736764, 46.19168579793984], [-60.34134846593408, 46.19169369073956], [-60.34131163413266, 46.19174041885658], [-60.34125672600649, 46.19181770575961], [-60.34120262084495, 46.191836184483854], [-60.34115061605791, 46.1918304738972], [-60.341114275285726, 46.1918264689285], [-60.341042239428695, 46.19179648592313], [-60.34103967305422, 46.191795418141105], [-60.34098956854877, 46.19180189329705], [-60.34090637757188, 46.191836291682215], [-60.34073099227166, 46.19186096556967], [-60.34071368117238, 46.19186089561497], [-60.340693249590636, 46.19187446067979], [-60.34064768634756, 46.19190472154264], [-60.34059735220902, 46.191928571020185], [-60.340568151522305, 46.19195250743456], [-60.34056066895481, 46.19197676942363], [-60.34055206908865, 46.19200457857432], [-60.34052955468796, 46.1920301467042], [-60.340522754049225, 46.192037863766295], [-60.34046295767739, 46.19204965733268], [-60.34039556754997, 46.19205472176122], [-60.34035301906475, 46.19207057999415], [-60.34029079750602, 46.1920901923888], [-60.34027766356417, 46.192094332818954], [-60.340258499957194, 46.192095587731174], [-60.340219900018745, 46.19209810919711], [-60.34020513027933, 46.19208942191585], [-60.34017409067023, 46.192071175379716], [-60.34014919739142, 46.19206306242374], [-60.34012349563117, 46.19206364305884], [-60.34009914323387, 46.19206419210315], [-60.34002562964758, 46.19209462096842], [-60.340019262730074, 46.192137377790736], [-60.340016493209795, 46.19216065143099], [-60.34001274269736, 46.19219216462817], [-60.34001113009629, 46.19220301760542], [-60.34000640251427, 46.19223490407087], [-60.339969402484925, 46.19226683112262], [-60.33988843330675, 46.19227853640209], [-60.33985675198764, 46.19228029180369], [-60.33982105575468, 46.19228225971981], [-60.3397304980396, 46.19228989842214], [-60.33969147730644, 46.1923298517177], [-60.33964063064455, 46.19239113964532], [-60.33963069590755, 46.1923966595659], [-60.33957855781555, 46.192425641833694], [-60.33957786742482, 46.19247644220767], [-60.33960453880718, 46.19250356061093], [-60.339608232840334, 46.19250730981405], [-60.339616696157485, 46.192534679217516], [-60.339624815038114, 46.19256086154223], [-60.339603284829785, 46.192587505458974], [-60.33953363013116, 46.192615296740804], [-60.339475520279315, 46.192643140839074], [-60.33944821064044, 46.19267110819906], [-60.33941131200767, 46.19269501804376], [-60.339316687385605, 46.19271869047945], [-60.3392647399339, 46.19271848863602], [-60.33922108923786, 46.19270992059865], [-60.33920907247277, 46.192707561611655], [-60.33914960800531, 46.19269394499508], [-60.33911481815471, 46.192704511215744], [-60.33909943867939, 46.19271623157494], [-60.33906425214407, 46.19274306132529], [-60.33902875838663, 46.1928044275744], [-60.339014837271144, 46.1928267394007], [-60.33900711190421, 46.192839106057626], [-60.338968525338856, 46.192846973670235], [-60.33895163793954, 46.192843223140294], [-60.338907130590115, 46.192833338965954], [-60.3389008070573, 46.19283331767117], [-60.33885517052873, 46.19283312764205], [-60.33882921537938, 46.19284994786699], [-60.33881827110114, 46.192857046277005], [-60.338810022928605, 46.192897140079445], [-60.338821496640314, 46.192918792388845], [-60.338836283869085, 46.19294670518242], [-60.33885406833896, 46.19296649739844], [-60.33887608379392, 46.192990996391714], [-60.33891006603133, 46.19303794220402], [-60.33887489203423, 46.19307658075643], [-60.33886567963791, 46.193078679270975], [-60.338845983047456, 46.193083179687925], [-60.33883352580747, 46.193111672888065], [-60.338830014650405, 46.193119700487465], [-60.338829615382615, 46.193144334373976], [-60.338828682660605, 46.193200673361716], [-60.338776414050685, 46.1932363575445], [-60.33872376275095, 46.19325313187789], [-60.33869826219295, 46.193244437432995], [-60.33865065407796, 46.19321046776776], [-60.33863436709329, 46.19319884679877], [-60.33861633225682, 46.19316948125546], [-60.33858389081584, 46.193116666967406], [-60.33853252026724, 46.19308036849093], [-60.33848792162639, 46.19307371318251], [-60.33846818286039, 46.19307076919289], [-60.33844840170403, 46.193075141564975], [-60.33839089145578, 46.193087869351224], [-60.338297583560866, 46.19316849936408], [-60.33827210516836, 46.193185906597996], [-60.33814089484292, 46.19322213626739], [-60.33811579294905, 46.1932290667338], [-60.338088555047946, 46.19325633340556], [-60.338088112158644, 46.19329232482051], [-60.33815112969061, 46.19338289748069], [-60.33811185007882, 46.19341797496688], [-60.33804534049434, 46.19345332698507], [-60.33799437386108, 46.193462048847806], [-60.33786308333465, 46.19352379255791], [-60.33781042282986, 46.193567567555945], [-60.33780827867013, 46.19364922352334], [-60.33780733408594, 46.19368540125378], [-60.33765057270686, 46.19373755071866], [-60.337639151193585, 46.19374352183961], [-60.337533564983964, 46.193798726866056], [-60.337362948830005, 46.193896455244214], [-60.33736111920103, 46.19389757365591], [-60.337342691276284, 46.19390879970532], [-60.33733484865286, 46.19392572673472], [-60.337314765977794, 46.19396904575715], [-60.337273989964125, 46.193992963540445], [-60.337252193843014, 46.19400040288969], [-60.337223676704504, 46.194010142694616], [-60.33718508490314, 46.19401890062555], [-60.33718311912504, 46.19401934982882], [-60.33708870816864, 46.19402432249868], [-60.337007593822875, 46.1940413776104], [-60.336883836416035, 46.19407967865858], [-60.33685323019983, 46.19408410441759], [-60.33680279883332, 46.194091389157066], [-60.33675430550019, 46.19409477686573], [-60.33671221021655, 46.194097719684684], [-60.336634776379135, 46.19412683991254], [-60.33663063450454, 46.19414200808361], [-60.33662055373376, 46.19417895384941], [-60.3366395152114, 46.19422077090701], [-60.33664669525627, 46.194236590054366], [-60.3367019903278, 46.19427427693061], [-60.33670450289314, 46.19431292036248], [-60.33670562198059, 46.19433025428442], [-60.336717254876724, 46.19438452808156], [-60.33665248170286, 46.19438391803714], [-60.33662475391763, 46.19438375761827], [-60.33660065447349, 46.19438360978117], [-60.33654969651052, 46.194365320902726], [-60.33630359334889, 46.19436228295571], [-60.33629108208985, 46.1943529907994], [-60.336252635944554, 46.194343984956895], [-60.33613851748484, 46.1943477592791], [-60.33604492260501, 46.194350851024275], [-60.3360052567447, 46.19434375174876], [-60.33594085605707, 46.19433222346068], [-60.33586445091837, 46.194277339112176], [-60.335857037543754, 46.19426902983553], [-60.33583986334059, 46.1942497644113], [-60.33583483558667, 46.1942242839388], [-60.33582737149404, 46.19418647005721], [-60.335814149202136, 46.19417714326529], [-60.33580230574766, 46.19416878467304], [-60.33577365365689, 46.19417246367705], [-60.33573709809894, 46.194177164409204], [-60.33566433268272, 46.194188797007975], [-60.33563391215206, 46.194193667791964], [-60.33555532420736, 46.194210726791844], [-60.33547630097619, 46.19423678501873], [-60.335461547698074, 46.19424866349964], [-60.33539808409618, 46.194299763775255], [-60.33530522525619, 46.19439750263616], [-60.33529688173688, 46.19440869356646], [-60.335278888627336, 46.19443289004883], [-60.33525437629855, 46.194475844371], [-60.33523782314083, 46.194504835664155], [-60.33521926919, 46.19452026163331], [-60.33518515963063, 46.19454860937992], [-60.335099633876226, 46.19460699822646], [-60.33508061513412, 46.1946199742133], [-60.33495721621909, 46.19468751494214], [-60.33493550287773, 46.1946993929937], [-60.334764029488866, 46.194841208609404], [-60.3346331702293, 46.19492095053002], [-60.33458089730436, 46.194956632689475], [-60.33454246342215, 46.19496156822801], [-60.33445047980287, 46.19497339067918], [-60.33439821708353, 46.19498207169511], [-60.33424188645512, 46.19505222739583], [-60.33418961315626, 46.19508790936733], [-60.33413646971518, 46.19514157187456], [-60.334121327832186, 46.19524021428307], [-60.334107935717334, 46.19527591249522], [-60.33405607483637, 46.19531779632666], [-60.334041845872036, 46.195329272839075], [-60.334037570614406, 46.195330307123456], [-60.33393692805946, 46.19535472570531], [-60.33375641107896, 46.195362213304655], [-60.33369033195749, 46.19538856339775], [-60.333650990757114, 46.19542455595287], [-60.333600902440736, 46.19545819155097], [-60.33357196707561, 46.19547761414771], [-60.33349249514742, 46.19553966225727], [-60.33348042181607, 46.19554837187981], [-60.33345755507102, 46.19556371489541], [-60.333440220466436, 46.19557535285292], [-60.3333804134214, 46.195630632550525], [-60.33337373840198, 46.19563679504279], [-60.33336861529318, 46.19564383080033], [-60.33334735640633, 46.19567308099114], [-60.33326691409765, 46.195719553544905], [-60.33316468385496, 46.19577862204943], [-60.333131659359516, 46.19581477088386], [-60.333123625573585, 46.19582356576947], [-60.3330704582891, 46.19593122981299], [-60.332927962306954, 46.195929703227186], [-60.3328225964392, 46.19599114633689], [-60.332757375044494, 46.19602652534743], [-60.33269172994641, 46.196043884563665], [-60.332688635881354, 46.19604461336054], [-60.332652411383556, 46.19605288500663], [-60.33257554986367, 46.196060981834066], [-60.3324933830975, 46.196060332317764], [-60.33245894616993, 46.196060059230426], [-60.33240673704302, 46.19604083924754], [-60.332376099130784, 46.19601885579927], [-60.33236916066815, 46.19601386054574], [-60.332202068944355, 46.195904653567226], [-60.332096297279584, 46.195857505316816], [-60.332035869108196, 46.19583056885668], [-60.33190480525541, 46.1958437536737], [-60.33177288123418, 46.19585703525536], [-60.33173129067666, 46.19586183311594], [-60.33162292583839, 46.19587438672864], [-60.33144920501033, 46.195887087666414], [-60.331319814580304, 46.19589996888533], [-60.33106095790706, 46.19589599168285], [-60.33101804847728, 46.195891092006526], [-60.33090516102943, 46.19587821205814], [-60.330658790545826, 46.19580726543662], [-60.33031146170389, 46.19585868699955], [-60.330162876029846, 46.195904194916594], [-60.329986589359436, 46.19591126239469], [-60.32991125601943, 46.19592820456823], [-60.32987300625341, 46.19593680601454], [-60.32972601624206, 46.19595767147183], [-60.32962992725181, 46.19597525336075], [-60.32951626490667, 46.19600349490337], [-60.32938110187889, 46.196049081562386], [-60.329264736708986, 46.19612558299351], [-60.32923508540726, 46.19614476274366], [-60.32919260279122, 46.19617222891526], [-60.329033582566964, 46.19621985852591], [-60.32900008172604, 46.19623903821516], [-60.32894655751318, 46.19626968429887], [-60.3289446790792, 46.196273942585584], [-60.32891650850477, 46.196337961028114], [-60.328835184107106, 46.196394508322285], [-60.32874196117553, 46.19648046076183], [-60.328735271287734, 46.19648664963675], [-60.32872040245327, 46.19650033363087], [-60.32861773134858, 46.19659482246006], [-60.3285482966794, 46.19664458223965], [-60.328498626579695, 46.19668019647431], [-60.328429479449554, 46.19670130552896], [-60.32835120140203, 46.19672521614726], [-60.32825954894993, 46.19669725044503], [-60.3280959951097, 46.19678378959513], [-60.32805384390436, 46.19676351579978], [-60.32804925747775, 46.19676588364645], [-60.32800143294285, 46.196790695309886], [-60.327997390832834, 46.19679279687236], [-60.327959806880806, 46.196822123245795], [-60.3279426584565, 46.19683550180701], [-60.32789173549158, 46.196879564880255], [-60.3278236180964, 46.1969141713011], [-60.32773733804361, 46.19691172106575], [-60.327721108407026, 46.19690108093106], [-60.32771058157796, 46.19689418336792], [-60.32768799360677, 46.1968772832002], [-60.32767812514798, 46.196869906011], [-60.32756595259755, 46.19688153866257], [-60.32749460338977, 46.1968758913542], [-60.32747138802655, 46.19687753535797], [-60.327440474354866, 46.196879701293504], [-60.327428425833276, 46.196894018126116], [-60.32741685834489, 46.196907770183344], [-60.327414165555304, 46.19695472544529], [-60.32741491971316, 46.19699047480493], [-60.32741526897416, 46.19700705277163], [-60.327373881217525, 46.197059205063844], [-60.32736110323294, 46.197071992750686], [-60.32734050533167, 46.19709261687223], [-60.32730369119389, 46.19712102499442], [-60.32729553113516, 46.19712732339616], [-60.32721405466875, 46.19715114940517], [-60.32716496531356, 46.19718197941614], [-60.32714186442156, 46.19719648764883], [-60.327116555698964, 46.19724260773986], [-60.32709335181, 46.1972659159754], [-60.3270753249508, 46.19728403508151], [-60.327011173276546, 46.19731061541582], [-60.32698557245047, 46.197341382906124], [-60.32696119269592, 46.1974164340859], [-60.32700103119797, 46.19746086533151], [-60.32707373307556, 46.197504094397544], [-60.32713557310751, 46.19750165310339], [-60.32718539420836, 46.19752600387247], [-60.32720007886096, 46.19757436474601], [-60.32719932637107, 46.19758827080811], [-60.32719731987416, 46.1976253506435], [-60.327159804905655, 46.197676207398125], [-60.3271485134628, 46.197698957316774], [-60.32712986877759, 46.19773648490654], [-60.32711134763085, 46.19780619192591], [-60.32708610172089, 46.197815483711366], [-60.32703765905313, 46.19782469175979], [-60.327034133061865, 46.19782496927613], [-60.326989321447826, 46.19782852898838], [-60.32689593080907, 46.19790393648315], [-60.32683483811767, 46.19801035911752], [-60.32682833511771, 46.19802150249034], [-60.32671962238297, 46.198207238607175], [-60.32670889411359, 46.19824748949724], [-60.32670317497127, 46.19826892069726], [-60.32669335241643, 46.19830119139695], [-60.32668889527152, 46.19831584780227], [-60.326627984369836, 46.19837871249036], [-60.32657265608644, 46.198419485726454], [-60.326553689184145, 46.19843346055211], [-60.326547302227766, 46.19843633522824], [-60.326479722876385, 46.198466741234206], [-60.32640971375348, 46.19850928591893], [-60.326380901756814, 46.19853569391276], [-60.326364377646975, 46.19855087793225], [-60.32635435690508, 46.19856666417506], [-60.32633462466998, 46.19859773987157], [-60.326300678996745, 46.198664754644525], [-60.32633637768424, 46.19872799012825], [-60.326315803036444, 46.19880579434071], [-60.32630758257902, 46.19882267576356], [-60.32628381508457, 46.19887145985921], [-60.326265624878516, 46.19891589226995], [-60.32624759538566, 46.19895995042098], [-60.32621844697183, 46.19896604552839], [-60.32617198723318, 46.198975767642835], [-60.326125475818685, 46.19896999878841], [-60.32609920537692, 46.1989667377763], [-60.32597634958241, 46.198953502639604], [-60.32596996705125, 46.198952813216565], [-60.325863688692685, 46.19895240458391], [-60.325675797969765, 46.19897988577622], [-60.32560445828928, 46.19901937467341], [-60.32559389588293, 46.199025220693734], [-60.325542834806285, 46.199074715739094], [-60.32553049740619, 46.19911898803816], [-60.32553773053195, 46.19917877622294], [-60.32556210571926, 46.19922587909205], [-60.32558463060734, 46.19926624231899], [-60.325586374157474, 46.199307217092304], [-60.32558613732719, 46.1993401261204], [-60.32558597537051, 46.199361615355606], [-60.325560345554166, 46.19939240884327], [-60.32552328840741, 46.199412422296795], [-60.32545584957965, 46.199428952322386], [-60.32536493895904, 46.19943262918904], [-60.32533345107781, 46.19943404307675], [-60.32529577990163, 46.19943573520587], [-60.32528158516453, 46.199446446389324], [-60.3252585908599, 46.199463800870234], [-60.32526139002159, 46.1995230712359], [-60.32526323125568, 46.19956256322932], [-60.32527355130279, 46.19962524083744], [-60.32527773646428, 46.199650630033275], [-60.325206650160894, 46.19968327528567], [-60.325134250580724, 46.19971653777493], [-60.32507243066482, 46.19974493569836], [-60.32502016040545, 46.19978060453536], [-60.32475116079598, 46.20000831661725], [-60.3247160136365, 46.20003809499972], [-60.324715576988154, 46.20004708520356], [-60.32462612376117, 46.20011306958322], [-60.32455828762137, 46.20016310737269], [-60.324505625566914, 46.200179874896605], [-60.32444801145612, 46.20021880247888], [-60.324439957263735, 46.20022423911341], [-60.324060218314784, 46.2004367553253], [-60.32394143442321, 46.200533877641234], [-60.323848079412116, 46.200614503712536], [-60.32368317400599, 46.200799163539045], [-60.32360954822675, 46.20088161967807], [-60.32351798079196, 46.20095237788458], [-60.32340047765965, 46.200996427112294], [-60.323397789772166, 46.20099785820706], [-60.323333935822475, 46.20103178779663], [-60.32321014932696, 46.20116698095342], [-60.32312177443807, 46.2012635098695], [-60.32300291478078, 46.20138852175531], [-60.322872035183316, 46.20146826769818], [-60.32286456432722, 46.201480630220054], [-60.322845237184715, 46.201512641843365], [-60.32284480020879, 46.20152163203113], [-60.32277823833422, 46.201610985488855], [-60.3227365637198, 46.201644606477], [-60.3227121303626, 46.201664329831964], [-60.322567840117664, 46.20175274356329], [-60.32256534977013, 46.20175357623946], [-60.322488799722784, 46.20177880139658], [-60.32238466220228, 46.201841163691235], [-60.32235088759782, 46.20186532124415], [-60.322173824132065, 46.2019919291571], [-60.3220031989847, 46.20208874329837], [-60.32185979746975, 46.20213217482868], [-60.32158372093424, 46.20231831154214], [-60.32145281162555, 46.20239804615757], [-60.3211110626386, 46.202601542801645], [-60.32106012982863, 46.2026269266932], [-60.32086265612833, 46.20272532362721], [-60.32071617213388, 46.20285871270372], [-60.320626318808515, 46.20299427585695], [-60.320618009826056, 46.20300679858162], [-60.32060699793859, 46.20302505418645], [-60.3205608911061, 46.20310150246013], [-60.32058722813754, 46.20314739232577], [-60.32058685392551, 46.20316893957097], [-60.320582553556505, 46.2031856596064], [-60.32057854218563, 46.203201235265325], [-60.32056547452256, 46.20322151274701], [-60.320538721349344, 46.203263043261295], [-60.32049223220766, 46.20333082412796], [-60.32046017925195, 46.20342666489586], [-60.32042893374985, 46.20349231916213], [-60.32040385335874, 46.20354502240721], [-60.32038525772178, 46.20359312552813], [-60.32037200086124, 46.203627412212725], [-60.320378439127815, 46.20370289679663], [-60.32041349728969, 46.203762167885245], [-60.320431164802116, 46.2037920226825], [-60.32039811405625, 46.20391049409577], [-60.32035891073382, 46.20396865333534], [-60.32030144910475, 46.204014692729125], [-60.32026848262717, 46.20404110972454], [-60.320201117987494, 46.20412443054635], [-60.320174043973815, 46.204158420088895], [-60.32014622479722, 46.204193337189494], [-60.32013171498804, 46.204227792461445], [-60.32011789290067, 46.20426063478721], [-60.320111063971304, 46.20427257116357], [-60.320097900408605, 46.20429560947049], [-60.320064480900236, 46.20430415893486], [-60.32003557633709, 46.20431156324675], [-60.31998083048496, 46.20436970875685], [-60.31992063786404, 46.204485437186385], [-60.31984163349024, 46.20463157770406], [-60.31980579083989, 46.20474824635317], [-60.31980321026897, 46.204751461964925], [-60.31973496392113, 46.20483608578297], [-60.31968754899076, 46.204915914160615], [-60.319619938215, 46.20501011037155], [-60.31958841113486, 46.20506845844588], [-60.319590780571495, 46.20515481011132], [-60.31959010589694, 46.20522407054922], [-60.31965475830598, 46.20526710642392], [-60.31965533598896, 46.20526748899512], [-60.319666534101145, 46.20530375342629], [-60.31967368970203, 46.20532692639731], [-60.319656750095234, 46.20540782978847], [-60.31964027660479, 46.205493271325935], [-60.31964653281675, 46.20557966917619], [-60.31965657034946, 46.20567147499425], [-60.319655936380755, 46.20570793883795], [-60.31965535817557, 46.20574165886056], [-60.319653831736666, 46.2058595826007], [-60.3196554339178, 46.20590203918839], [-60.31965685321975, 46.20593973026095], [-60.319693185416384, 46.205962714734305], [-60.31972981921857, 46.20598589528104], [-60.319844603445574, 46.20608349771879], [-60.31985449141675, 46.20618344538651], [-60.319854413320556, 46.20618931183028], [-60.31985315627899, 46.206261753746844], [-60.31984786927906, 46.20628541782894], [-60.319840507787646, 46.20631841168256], [-60.319845521737705, 46.206358158175895], [-60.319850731919836, 46.206399466345665], [-60.31993385509957, 46.20653207557393], [-60.320013693207756, 46.2066394964944]]}, "properties": {"OBJECTID": 275270, "FEAT_CODE": "WARV50", "FEAT_DESC": "River - Single Line", "RIVNAME_1": "Johnstons Brook", "RIVNAME_2": " ", "ZVALUE": 9999, "FID": null, "SHAPE_Length": 4132.061134907069}}, {"type": "Feature", "id": 287783, "geometry": {"type": "LineString", "coordinates": [[-60.35371730247486, 46.18946090820924], [-60.35378979828795, 46.18941123102909], [-60.353800076349415, 46.18940418775573], [-60.353900495385325, 46.18934460879624], [-60.35395839373371, 46.18931284627037], [-60.35404712193907, 46.18926921517719], [-60.35415690284729, 46.189200609380435], [-60.35417458262622, 46.18919838172445], [-60.35418763372224, 46.18919673989787], [-60.354229510080316, 46.18919717873071], [-60.35427654585019, 46.18917437191093], [-60.354308575286666, 46.18915884090605], [-60.354320757506876, 46.18914749447487], [-60.35438416218679, 46.18908848893442], [-60.354412179129454, 46.18904154346645], [-60.35442290381287, 46.18902357495245], [-60.354447866740436, 46.18899327255613], [-60.35452263836759, 46.188968506811726], [-60.35469211586921, 46.188897043691384], [-60.354723741559084, 46.18888370832717], [-60.35479671971003, 46.188849594425356], [-60.35480338809568, 46.188841612438466], [-60.3548589327286, 46.18877517028475], [-60.35492428921406, 46.18873568657559], [-60.354949554437475, 46.1887398447309], [-60.35502713651494, 46.18875263053672], [-60.35510194890666, 46.18875427263079], [-60.35516338462939, 46.188724112464634], [-60.35523269028636, 46.18870305389359], [-60.355262612200484, 46.18870037145168], [-60.35530376631669, 46.188696679971976], [-60.35539554066246, 46.18870132467544], [-60.355433902585126, 46.18869991762376], [-60.355487401726194, 46.188697951925626], [-60.35553371786582, 46.188711453681414], [-60.355584980680376, 46.188726383987465], [-60.35569613011118, 46.188740189361965], [-60.35577228302319, 46.18877276953596], [-60.35590071741325, 46.18878798284188], [-60.35622217013045, 46.18882985814552], [-60.35628660619396, 46.18885951169036], [-60.35631575564916, 46.18887293087293], [-60.35633664887187, 46.18888529494586], [-60.35643923723494, 46.188946009749294], [-60.356561343379695, 46.18899346843136], [-60.35658343592928, 46.18899163952554], [-60.35662281934803, 46.18898839262073], [-60.356666852484146, 46.188999248963995], [-60.356719832072415, 46.18900217590209], [-60.35674550137797, 46.1890035888761], [-60.35687443832326, 46.18896943633425], [-60.35697947898081, 46.188938240959416], [-60.35701093859987, 46.18892889731247], [-60.35715180902037, 46.18885478860602], [-60.35725393555651, 46.18881517316029], [-60.35735797821638, 46.18877559294744], [-60.35745231129045, 46.188747965628195], [-60.35751752355676, 46.188750905144445], [-60.357609596466084, 46.18875662602401], [-60.35767519978882, 46.18872222269637], [-60.35768767178704, 46.18871454578532], [-60.35773293900645, 46.188686692395514], [-60.35777758256566, 46.18863752053697], [-60.357889722551526, 46.18855661712064], [-60.357936088422235, 46.188526115930635], [-60.35796672269469, 46.18850911156401], [-60.35801715455833, 46.18848110749147], [-60.35807432999741, 46.188399211745306], [-60.358077515898245, 46.188394659200036], [-60.35812777761788, 46.18835884776753], [-60.358157653028066, 46.18833901766494], [-60.35819135560711, 46.18831666593265], [-60.35824961657486, 46.18824888087969], [-60.358269316950846, 46.18819827698064], [-60.35827938108969, 46.188191624376266], [-60.3583251768834, 46.18816137985786], [-60.35838120199014, 46.188124279517076], [-60.3584411968116, 46.188073842292816], [-60.358451029743264, 46.188061739064416], [-60.35846062882009, 46.18804991844167], [-60.35850137337037, 46.188004742338656], [-60.35854976449735, 46.18796360421187], [-60.35857055685451, 46.18795320344671], [-60.35862113132036, 46.18792788453314], [-60.35866756781638, 46.18788940129265], [-60.35875445603987, 46.18783509448568], [-60.35880477583334, 46.18779129171089], [-60.35890504528351, 46.18772789770615], [-60.35898979698448, 46.18769625842192], [-60.35903388294618, 46.18768599105629], [-60.35906633028589, 46.18766142294095], [-60.35908994296348, 46.18764354491579], [-60.359116111418, 46.18762100974022], [-60.35914980881012, 46.18759198828222], [-60.359213545010654, 46.18753511182402], [-60.35927914588406, 46.187500707516094], [-60.35932026645892, 46.187472811645165], [-60.3593500148847, 46.18744614696438], [-60.35937061082643, 46.1874276681233], [-60.35938392404211, 46.18741324214418], [-60.359417168001386, 46.18737718078641], [-60.35945717002038, 46.18735504629064], [-60.35947864231315, 46.18734315800332], [-60.359536634028345, 46.18730338441859], [-60.35959459934004, 46.18726361919449], [-60.359748410479405, 46.187164029130386], [-60.359765989803115, 46.18714170031619], [-60.35977562119197, 46.18712946630887], [-60.35986765364492, 46.18709324241042], [-60.35992670289612, 46.18705951435817], [-60.35994058555894, 46.18705159078729], [-60.36004066220324, 46.18700433810738], [-60.360090528811725, 46.18698889366206], [-60.36010414204412, 46.18698902823481], [-60.36016713355208, 46.186989592810285], [-60.360235910967305, 46.18700625781928], [-60.36025709856546, 46.187017349917575], [-60.36027776793817, 46.18702816902472], [-60.360323678202604, 46.18702606170739], [-60.360377297740555, 46.18702397949531], [-60.36041573729635, 46.18702146551083], [-60.36047050793781, 46.18702754624507], [-60.36051916832151, 46.18703295475121], [-60.360529973480055, 46.18703300639223], [-60.36053839513437, 46.187033038963996], [-60.36062673061906, 46.18702041818104], [-60.36068445459392, 46.18699432748867], [-60.36078090081533, 46.18695467665669], [-60.36085794913912, 46.18691797078162], [-60.36093130906337, 46.186852207248336], [-60.360999064271574, 46.18679821277034], [-60.36100088323598, 46.18679676071732], [-60.36109343554575, 46.18675208743099], [-60.36109462591379, 46.18675131388952], [-60.36117826957811, 46.186697020291334], [-60.36124652639517, 46.18666474630197], [-60.361255276755685, 46.186660619212105], [-60.361261349868826, 46.18665719531869], [-60.361367159385985, 46.18659761729342], [-60.361451777250224, 46.18658494600685], [-60.361535860802164, 46.186578832634716], [-60.361586381255705, 46.18657515720541], [-60.36162303359204, 46.18657531966933], [-60.361651744143, 46.18657544271403], [-60.36169735312171, 46.186561213300884], [-60.36175958974478, 46.18654180559991], [-60.36179400007529, 46.1865273535283], [-60.36187929882104, 46.18649152152873], [-60.36201459937931, 46.18641221994711], [-60.362041651116655, 46.18639393470092], [-60.36208048158388, 46.18635400537368], [-60.36209118382163, 46.1863532264505], [-60.362145878103966, 46.18634925113264], [-60.36217255753071, 46.18637610344109], [-60.36220481328898, 46.18639880929445], [-60.36221840257244, 46.18640837551816], [-60.362283263942636, 46.186462453685714], [-60.36232554167109, 46.18648478787582], [-60.36234451287302, 46.186494811363346], [-60.36239408183591, 46.18654079600817], [-60.36239387590483, 46.18654320337008], [-60.36238971679455, 46.186591925701165], [-60.36238554419599, 46.18665636247933], [-60.36238516567686, 46.18666210501768], [-60.36238620581417, 46.18666419913283], [-60.36240402194256, 46.186699982186454], [-60.36242073345705, 46.18670252812995], [-60.36244243642286, 46.1867058373448], [-60.36248452830169, 46.186730435293406], [-60.362535764619096, 46.186771643137305], [-60.36254181676895, 46.18677650809208], [-60.36263338488337, 46.186865557292165], [-60.36277511541446, 46.18694109372151], [-60.3628155624171, 46.186978407189756], [-60.362840037434765, 46.187000969246085], [-60.362874479401995, 46.187012123814874], [-60.3629385914046, 46.18703287369801]]}, "properties": {"OBJECTID": 287783, "FEAT_CODE": "WARV55", "FEAT_DESC": "River - Single Line Indefinite", "RIVNAME_1": " ", "RIVNAME_2": " ", "ZVALUE": 9999, "FID": null, "SHAPE_Length": 920.685347756329}}, {"type": "Feature", "id": 307140, "geometry": {"type": "LineString", "coordinates": [[-60.36166858816606, 46.18815568690638], [-60.36165792602366, 46.18821489752735], [-60.36162704772693, 46.188241356702704], [-60.36162600572046, 46.18824173765699], [-60.361574841613816, 46.188259906938164], [-60.3615718924864, 46.18826466305858], [-60.36155331159423, 46.18829465538465], [-60.361508246226705, 46.18836705809182], [-60.361488460456016, 46.18841923564711], [-60.36148785543674, 46.18848356576688], [-60.3614928591652, 46.18853441677298], [-60.36149314124325, 46.18853718642072], [-60.36147732636545, 46.1885773411033], [-60.3614531925348, 46.18860069784659], [-60.36144425122902, 46.18860934775842], [-60.36143157186496, 46.18862163751167], [-60.361378098687126, 46.18867340598941], [-60.36133853876698, 46.1886960463902], [-60.3612967010954, 46.18871997523036]]}, "properties": {"OBJECTID": 307140, "FEAT_CODE": "WARVSP50", "FEAT_DESC": "River Split - Single Line", "RIVNAME_1": " ", "RIVNAME_2": " ", "ZVALUE": 9999, "FID": null, "SHAPE_Length": 72.9592973600039}}, {"type": "Feature", "id": 307141, "geometry": {"type": "LineString", "coordinates": [[-60.36099176955415, 46.189153781707695], [-60.36099924577982, 46.1891838448472], [-60.360992040654985, 46.18919249882814], [-60.36099145000598, 46.18919319621793], [-60.360952739408056, 46.189201338407415], [-60.36093618128931, 46.189207481211454], [-60.360906310219185, 46.18921857271918], [-60.36090349661368, 46.189220496816546], [-60.36088300790492, 46.18923456819568], [-60.360851824119024, 46.18927063256318], [-60.36077637516618, 46.18929579182175], [-60.36072021513017, 46.189313260272804], [-60.36067701186095, 46.189328075899915], [-60.3606251784362, 46.18934585127325], [-60.36059195149396, 46.189361797401915], [-60.360561961493694, 46.1893761802298]]}, "properties": {"OBJECTID": 307141, "FEAT_CODE": "WARVSP50", "FEAT_DESC": "River Split - Single Line", "RIVNAME_1": " ", "RIVNAME_2": " ", "ZVALUE": 9999, "FID": null, "SHAPE_Length": 44.31436787462173}}, {"type": "Feature", "id": 311203, "geometry": {"type": "LineString", "coordinates": [[-60.35568091950261, 46.190207303905304], [-60.35564644995803, 46.19020049374121], [-60.35559489273028, 46.19017492714276], [-60.355524146099334, 46.190149285334655], [-60.355522474805305, 46.190126592558414], [-60.35553637902041, 46.190082605290435], [-60.35555623228166, 46.19001997182777], [-60.35560669553253, 46.18996814540348], [-60.35562969850319, 46.18995977644068], [-60.35566835766629, 46.18994571258059]]}, "properties": {"OBJECTID": 311203, "FEAT_CODE": "WALK20", "FEAT_DESC": "Lake - Water to the right line", "RIVNAME_1": " ", "RIVNAME_2": " ", "ZVALUE": 35.24, "FID": null, "SHAPE_Length": 40.81041765255348}}, {"type": "Feature", "id": 315915, "geometry": {"type": "LineString", "coordinates": [[-60.36166858816606, 46.18815568690638], [-60.361521497505834, 46.18816743752707], [-60.36134642445716, 46.18818143077705], [-60.361294171925394, 46.18819012433792], [-60.36122542824676, 46.1882068163573], [-60.36118926640101, 46.18821560252749], [-60.36112451541723, 46.18824200817585], [-60.36112297039916, 46.188243421556486], [-60.36101086789692, 46.188347739136724], [-60.36098980365149, 46.188367341507636], [-60.360998961762576, 46.18841829750629], [-60.36104546739085, 46.18848658703492], [-60.36104838559393, 46.18849086664834], [-60.3611131405082, 46.18857154828302], [-60.36117091595488, 46.18865807194948], [-60.361177747173215, 46.18866831922871]]}, "properties": {"OBJECTID": 315915, "FEAT_CODE": "WARV50", "FEAT_DESC": "River - Single Line", "RIVNAME_1": "Georges River", "RIVNAME_2": " ", "ZVALUE": 9999, "FID": null, "SHAPE_Length": 97.71071537468815}}]}