{ "type": "FeatureCollection", "features": [{"type":"Feature","geometry":{"type":"Point","coordinates":[-60.77223748692941,46.0687420434214]},"properties":{"gaz_map":"011K02","admin_loc":"Victoria","concise_ds":"Cape","orig_narr":"Crow Point was adopted 5 October 1950 on 11K/2. Its application altered slightly to the south 23 January 1976 on 11K/2 and its former application changed to Neil Island.","objectid":"15392","generic_cd":"1604","locn_narr":"SE. shore of St. Patricks Channel","county":"Victoria","generic_tm":"Point (1)","cgndb_key":"CAIQX","tmod_date":"20130205","concise_cd":"CAPE","status_cd":"1348","ordec_date":"19760123","jurr_narr":null,"fmod_date":"20151125","nad83_lon":"-60.772233","nts_map":"011K02","status_ds":"Official - Official","decis_date":"19760123","nad83_lat":"46.068742","geoname":"Crow Point"}},{"type":"Feature","geometry":{"type":"Point","coordinates":[-65.87170748398225,43.75966046367224]},"properties":{"gaz_map":"020P13","admin_loc":null,"concise_ds":"Cape","orig_narr":null,"objectid":"16073","generic_cd":"1604","locn_narr":"W. side of Argyle River","county":"Yarmouth","generic_tm":"Point (1)","cgndb_key":"CAIPY","tmod_date":"20130205","concise_cd":"CAPE","status_cd":"1348","ordec_date":"19740716","jurr_narr":null,"fmod_date":"20151125","nad83_lon":"-65.871706","nts_map":"020P13","status_ds":"Official - Official","decis_date":"19740716","nad83_lat":"43.759656","geoname":"Crowell Point"}}], "crs" : { "type": "name", "properties": { "name": "urn:ogc:def:crs:OGC:1.3:CRS84" } } }