{ "type": "FeatureCollection", "features": [{"type":"Feature","geometry":{"type":"Point","coordinates":[-61.305155576741,46.12980710232001]},"properties":{"gaz_map":"011K03","admin_loc":"Inverness","concise_ds":"Unincorporated area","orig_narr":"Generic changed to 'community' following the NS Civic Address Project review, 1 July 2005    (D.Wills). Application altered 27 May 2008 on 11K03 from 46º07'47\"-61º18'12\" to 46º07'47\"-61º19'41\" on 11K03.\r\n\r\n(1)It was so named when a former postmaster","objectid":"21068","generic_cd":"121","locn_narr":"S. of Inverness","county":"Inverness","generic_tm":"Community (2)","cgndb_key":"CAEGH","tmod_date":"20191007","concise_cd":"UNP","status_cd":"1348","ordec_date":"19490707","jurr_narr":"Blackstone (Dispersed Rural Community) became Blackstone (Community) by decision 26-June-2007 at 46 07 47 -61 18 12 on 011K03.\r\n\r\n(1) It was so named when a former postmaster sent his petition in for a new post office. The priest who was in charge of the","fmod_date":"20151125","nad83_lon":"-61.305153","nts_map":"011K03","status_ds":"Official - Official","decis_date":"20070626","nad83_lat":"46.129804","geoname":"Blackstone"}},{"type":"Feature","geometry":{"type":"Point","coordinates":[-61.497734402426325,45.99407430545845]},"properties":{"gaz_map":"011F14","admin_loc":"Inverness","concise_ds":"Unincorporated area","orig_narr":"Change in the Form of a Name - Generic altered to 'community' following the NS Civic Address Project review, 1 July 2005    (D.Wills). Application altered 24 May 2008 on 11F14 from 45º59'39\"-61º29'50\" to 45º59'38\"-61º30'08\" on 11F14.","objectid":"21076","generic_cd":"121","locn_narr":"SW. of Inverness","county":"Inverness","generic_tm":"Community (2)","cgndb_key":"CAKEJ","tmod_date":"20191007","concise_cd":"UNP","status_cd":"1348","ordec_date":"19760108","jurr_narr":"Dunmore (Dispersed Rural Community) became Dunmore (Community) by decision 26-June-2007 at 45 59 39 -61 29 50 on 011F14.","fmod_date":"20151125","nad83_lon":"-61.497731","nts_map":"011F14,011F13,011K04","status_ds":"Official - Official","decis_date":"20070626","nad83_lat":"45.994072","geoname":"Dunmore"}},{"type":"Feature","geometry":{"type":"Point","coordinates":[-61.91815053396548,45.52559666570159]},"properties":{"gaz_map":"011F12","admin_loc":"Antigonish","concise_ds":"Unincorporated area","orig_narr":"Generic altered to 'community' following the NS Civic Address Project review, August 2005. (D.Wills)\r\n\r\nBased on the following criteria (projection shift, geographic area, building clusters,road network) the Community Locator Point was adjusted, 12 Febru","objectid":"20719","generic_cd":"121","locn_narr":"SE. of Antigonish","county":"Antigonish","generic_tm":"Community (2)","cgndb_key":"CAKEI","tmod_date":"20191121","concise_cd":"UNP","status_cd":"1348","ordec_date":"19510503","jurr_narr":"Dunmore (Dispersed Rural Community) became Dunmore (Community) by decision 26-June-2007 at 45 31 54 -61 55 40 on 011F12.  Coordinates updated 12 February 2008. \r\n(1)  Formerly known as Big Brook until 1879 after a very large stream nearby. Named Dunmore","fmod_date":"20151125","nad83_lon":"-61.918146","nts_map":"011F12","status_ds":"Official - Official","decis_date":"20070626","nad83_lat":"45.525595","geoname":"Dunmore"}}], "crs" : { "type": "name", "properties": { "name": "urn:ogc:def:crs:OGC:1.3:CRS84" } } }