{ "type": "FeatureCollection", "features": [{"type":"Feature","geometry":{"type":"Point","coordinates":[-60.71133907660291,46.21423413104715]},"properties":{"gaz_map":"011K02","admin_loc":"Victoria","concise_ds":"River","orig_narr":"Formerly approved as Christopher McLeod Brook 5 Oct. 1950 on 11K/2. Changed to Christopher MacLeod Brook 16 Jan. 1976 on 11K/7.","objectid":"431","generic_cd":"601","locn_narr":"Flows SW. into Baddeck River","county":"Victoria","generic_tm":"Brook","cgndb_key":"CBQVA","tmod_date":"20130205","concise_cd":"RIV","status_cd":"1348","ordec_date":"19760116","jurr_narr":null,"fmod_date":"20151125","nad83_lon":"-60.711334","nts_map":"011K02,011K07","status_ds":"Official - Official","decis_date":"19760116","nad83_lat":"46.214235","geoname":"Christopher MacLeod Brook"}},{"type":"Feature","geometry":{"type":"Point","coordinates":[-60.69204024313528,46.2780946614042]},"properties":{"gaz_map":"011K07","admin_loc":"Victoria","concise_ds":"Lake","orig_narr":"Formerly approved as McLeod Lake 5 April 1951 on 11K/7. Changed to MacLeods Lake 16 Jan. 1976 on 11K/7.","objectid":"1535","generic_cd":"951","locn_narr":"SE. of Bell Lakes","county":"Victoria","generic_tm":"Lake","cgndb_key":"CAWXU","tmod_date":"20130205","concise_cd":"LAKE","status_cd":"1348","ordec_date":"19760116","jurr_narr":null,"fmod_date":"20151125","nad83_lon":"-60.692035","nts_map":"011K07","status_ds":"Official - Official","decis_date":"19760116","nad83_lat":"46.278096","geoname":"MacLeods Lake"}},{"type":"Feature","geometry":{"type":"Point","coordinates":[-60.135777638389186,45.94731865930695]},"properties":{"gaz_map":"011F16","admin_loc":"Cape Breton","concise_ds":"Lake","orig_narr":"McLeod lake was adopted 2 December 1924 on 11F/16. Changed to MacLeod Lake 20 February 1976 on 11F/16.","objectid":"3865","generic_cd":"951","locn_narr":"E. of Bras d'Or Lake","county":"Cape Breton","generic_tm":"Lake","cgndb_key":"CAWWV","tmod_date":"20130205","concise_cd":"LAKE","status_cd":"1348","ordec_date":"19760220","jurr_narr":null,"fmod_date":"20151125","nad83_lon":"-60.135772","nts_map":"011F16","status_ds":"Official - Official","decis_date":"19760220","nad83_lat":"45.947321","geoname":"MacLeod Lake"}},{"type":"Feature","geometry":{"type":"Point","coordinates":[-60.72632986943301,45.65863066642136]},"properties":{"gaz_map":"011F10","admin_loc":"Richmond","concise_ds":"Lake","orig_narr":null,"objectid":"2998","generic_cd":"951","locn_narr":"NE. of L'Ardoise","county":"Richmond","generic_tm":"Lake","cgndb_key":"CAUMO","tmod_date":"20130205","concise_cd":"LAKE","status_cd":"1348","ordec_date":"19760310","jurr_narr":null,"fmod_date":"20151125","nad83_lon":"-60.726327","nts_map":"011F10","status_ds":"Official - Official","decis_date":"19760310","nad83_lat":"45.658631","geoname":"Little MacLeod Lake"}},{"type":"Feature","geometry":{"type":"Point","coordinates":[-62.96799316803091,45.04710062295573]},"properties":{"gaz_map":"011E02","admin_loc":"Halifax","concise_ds":"Lake","orig_narr":"Shown on 11E/2 (1954 ed.).","objectid":"2532","generic_cd":"951","locn_narr":"SW. of Governor Lake","county":"Halifax","generic_tm":"Lake","cgndb_key":"CAYNU","tmod_date":"20130205","concise_cd":"LAKE","status_cd":"1348","ordec_date":"19530910","jurr_narr":null,"fmod_date":"20151125","nad83_lon":"-62.967989","nts_map":"011E02","status_ds":"Official - Official","decis_date":"19530910","nad83_lat":"45.0471","geoname":"McLeod Lake"}},{"type":"Feature","geometry":{"type":"Point","coordinates":[-60.18017892611267,45.88735227237637]},"properties":{"gaz_map":"011F16","admin_loc":"Cape Breton","concise_ds":"Lake","orig_narr":"Formerly approved as MacLeod Lake 2 Dec. 1924. Changed to MacLeods Lake 20 Feb. 1976 on 11F/16.","objectid":"5550","generic_cd":"951","locn_narr":"E. of Bras d'Or Lake","county":"Cape Breton","generic_tm":"Lake","cgndb_key":"CAWXW","tmod_date":"20130205","concise_cd":"LAKE","status_cd":"1348","ordec_date":"19760220","jurr_narr":null,"fmod_date":"20151125","nad83_lon":"-60.180175","nts_map":"011F16","status_ds":"Official - Official","decis_date":"19760220","nad83_lat":"45.887355","geoname":"MacLeods Lake"}},{"type":"Feature","geometry":{"type":"Point","coordinates":[-65.01832100148017,44.314192854864984]},"properties":{"gaz_map":"021A06","admin_loc":"Queens","concise_ds":"Lake","orig_narr":null,"objectid":"5878","generic_cd":"951","locn_narr":"N. of Lake Rossignol","county":"Queens","generic_tm":"Lake","cgndb_key":"CBLPO","tmod_date":"20130205","concise_cd":"LAKE","status_cd":"1348","ordec_date":"19530910","jurr_narr":null,"fmod_date":"20151125","nad83_lon":"-65.018317","nts_map":"021A06","status_ds":"Official - Official","decis_date":"19530910","nad83_lat":"44.31419","geoname":"Third Christopher Lake"}},{"type":"Feature","geometry":{"type":"Point","coordinates":[-62.148718161188384,45.26100311034855]},"properties":{"gaz_map":"011E08","admin_loc":null,"concise_ds":"Lake","orig_narr":null,"objectid":"5305","generic_cd":"951","locn_narr":"SW. of Antigonish","county":"Guysborough","generic_tm":"Lake","cgndb_key":"CAYNT","tmod_date":"20130205","concise_cd":"LAKE","status_cd":"1348","ordec_date":"19391212","jurr_narr":null,"fmod_date":"20151125","nad83_lon":"-62.148715","nts_map":"011E08","status_ds":"Official - Official","decis_date":"19391212","nad83_lat":"45.261002","geoname":"McLeod Lake"}},{"type":"Feature","geometry":{"type":"Point","coordinates":[-65.01965600795029,44.310813848706786]},"properties":{"gaz_map":"021A06","admin_loc":"Queens","concise_ds":"Lake","orig_narr":null,"objectid":"10121","generic_cd":"952","locn_narr":"NE. of Lake Rossignol","county":"Queens","generic_tm":"Lakes","cgndb_key":"CBQUZ","tmod_date":"20130205","concise_cd":"LAKE","status_cd":"1348","ordec_date":"19371231","jurr_narr":null,"fmod_date":"20151125","nad83_lon":"-65.019652","nts_map":"021A06,021A07","status_ds":"Official - Official","decis_date":"19371231","nad83_lat":"44.310811","geoname":"Christopher Lakes"}},{"type":"Feature","geometry":{"type":"Point","coordinates":[-60.62232179775353,45.74445168541967]},"properties":{"gaz_map":"011F10","admin_loc":"Richmond","concise_ds":"Lake","orig_narr":null,"objectid":"9813","generic_cd":"951","locn_narr":"W. of Loch Lomond","county":"Richmond","generic_tm":"Lake","cgndb_key":"CAWWZ","tmod_date":"20130205","concise_cd":"LAKE","status_cd":"1348","ordec_date":"19530402","jurr_narr":null,"fmod_date":"20151125","nad83_lon":"-60.622319","nts_map":"011F10","status_ds":"Official - Official","decis_date":"19530402","nad83_lat":"45.744452","geoname":"MacLeod Lake"}},{"type":"Feature","geometry":{"type":"Point","coordinates":[-60.131698816776385,45.95574773412486]},"properties":{"gaz_map":"011F16","admin_loc":"Cape Breton","concise_ds":"Lake","orig_narr":null,"objectid":"9254","generic_cd":"951","locn_narr":"E. of Bras d'Or Lake","county":"Cape Breton","generic_tm":"Lake","cgndb_key":"CAVVD","tmod_date":"20130205","concise_cd":"LAKE","status_cd":"1348","ordec_date":"19760220","jurr_narr":null,"fmod_date":"20151125","nad83_lon":"-60.131693","nts_map":"011F16","status_ds":"Official - Official","decis_date":"19760220","nad83_lat":"45.95575","geoname":"Lower MacLeod Lake"}},{"type":"Feature","geometry":{"type":"Point","coordinates":[-60.45542966852847,45.78075709294648]},"properties":{"gaz_map":"011F16","admin_loc":"Cape Breton","concise_ds":"Lake","orig_narr":"McLeod Lake was adopted 2 December 1924 on 11F/16. Changed to MacLeod Lake 20 February 1976 on 11F/16.","objectid":"9570","generic_cd":"951","locn_narr":"E. of Bras d'Or Lake","county":"Cape Breton","generic_tm":"Lake","cgndb_key":"CAWWY","tmod_date":"20130205","concise_cd":"LAKE","status_cd":"1348","ordec_date":"19760220","jurr_narr":null,"fmod_date":"20151125","nad83_lon":"-60.455427","nts_map":"011F16","status_ds":"Official - Official","decis_date":"19760220","nad83_lat":"45.780758","geoname":"MacLeod Lake"}},{"type":"Feature","geometry":{"type":"Point","coordinates":[-60.51015228777126,45.742429263231784]},"properties":{"gaz_map":"011F10","admin_loc":"Richmond","concise_ds":"Lake","orig_narr":null,"objectid":"9402","generic_cd":"952","locn_narr":"E. of Loch Lomond","county":"Richmond","generic_tm":"Lakes","cgndb_key":"CAWXY","tmod_date":"20130205","concise_cd":"LAKE","status_cd":"1348","ordec_date":"19760310","jurr_narr":null,"fmod_date":"20151125","nad83_lon":"-60.51015","nts_map":"011F10","status_ds":"Official - Official","decis_date":"19760310","nad83_lat":"45.74243","geoname":"MacLeods Lakes"}},{"type":"Feature","geometry":{"type":"Point","coordinates":[-64.96840002771114,44.33298802486382]},"properties":{"gaz_map":"021A07","admin_loc":"Queens","concise_ds":"Lake","orig_narr":null,"objectid":"8244","generic_cd":"951","locn_narr":"N. of Lake Rossignol","county":"Queens","generic_tm":"Lake","cgndb_key":"CALXK","tmod_date":"20130205","concise_cd":"LAKE","status_cd":"1348","ordec_date":"19371207","jurr_narr":null,"fmod_date":"20151125","nad83_lon":"-64.968396","nts_map":"021A07","status_ds":"Official - Official","decis_date":"19371207","nad83_lat":"44.332985","geoname":"First Christopher Lake"}},{"type":"Feature","geometry":{"type":"Point","coordinates":[-63.6684655185838,45.80094729083999]},"properties":{"gaz_map":"011E13","admin_loc":"Cumberland","concise_ds":"Lake","orig_narr":null,"objectid":"7751","generic_cd":"951","locn_narr":"NW. of Tatamagouche","county":"Cumberland","generic_tm":"Lake","cgndb_key":"CAYNN","tmod_date":"20130205","concise_cd":"LAKE","status_cd":"1348","ordec_date":"19430614","jurr_narr":null,"fmod_date":"20151125","nad83_lon":"-63.668465","nts_map":"011E13","status_ds":"Official - Official","decis_date":"19430614","nad83_lat":"45.800947","geoname":"McLeod Lake"}},{"type":"Feature","geometry":{"type":"Point","coordinates":[-60.242277408194525,45.854117316108926]},"properties":{"gaz_map":"011F16","admin_loc":"Cape Breton","concise_ds":"Lake","orig_narr":"McLeod Lake was adopted 2 December 1924 on 11F/16. Changed to MacLeod Lake 20 February 1976 on 11F/16.","objectid":"12028","generic_cd":"951","locn_narr":"E. of Bras d'Or Lake","county":"Cape Breton","generic_tm":"Lake","cgndb_key":"CAWWX","tmod_date":"20130205","concise_cd":"LAKE","status_cd":"1348","ordec_date":"19760220","jurr_narr":null,"fmod_date":"20151125","nad83_lon":"-60.242275","nts_map":"011F16","status_ds":"Official - Official","decis_date":"19760220","nad83_lat":"45.85412","geoname":"MacLeod Lake"}},{"type":"Feature","geometry":{"type":"Point","coordinates":[-60.56395354564672,46.21086473430171]},"properties":{"gaz_map":"011K02","admin_loc":"Victoria","concise_ds":"Lake","orig_narr":null,"objectid":"10509","generic_cd":"951","locn_narr":"NE. of Baddeck","county":"Victoria","generic_tm":"Lake","cgndb_key":"CAWXV","tmod_date":"20130205","concise_cd":"LAKE","status_cd":"1348","ordec_date":"19760123","jurr_narr":null,"fmod_date":"20151125","nad83_lon":"-60.563948","nts_map":"011K02","status_ds":"Official - Official","decis_date":"19760123","nad83_lat":"46.210865","geoname":"MacLeods Lake"}},{"type":"Feature","geometry":{"type":"Point","coordinates":[-60.482674237796175,46.46084338074739]},"properties":{"gaz_map":"011K08","admin_loc":"Victoria","concise_ds":"Lake","orig_narr":"Formerly approved as McLeod Lake 20 Jan. 1976 on 11K/8. Changed to MacLeod Lake 20 Jan. 1976 on 11K/8.","objectid":"13313","generic_cd":"951","locn_narr":"NE. of Bell Lakes","county":"Victoria","generic_tm":"Lake","cgndb_key":"CAWWS","tmod_date":"20130205","concise_cd":"LAKE","status_cd":"1348","ordec_date":"19760120","jurr_narr":null,"fmod_date":"20151125","nad83_lon":"-60.482667","nts_map":"011K08","status_ds":"Official - Official","decis_date":"19760120","nad83_lat":"46.460844","geoname":"MacLeod Lake"}},{"type":"Feature","geometry":{"type":"Point","coordinates":[-60.10578414348498,45.95746272792447]},"properties":{"gaz_map":"011F16","admin_loc":"Cape Breton","concise_ds":"Lake","orig_narr":"McLeod Lake was adopted 2 December 1924 on 11F/16. Changed to Little MacLeod Lake 20 February 1976 on 11F/16.","objectid":"13067","generic_cd":"951","locn_narr":"E. of Bras d'Or Lake","county":"Cape Breton","generic_tm":"Lake","cgndb_key":"CAUMP","tmod_date":"20130205","concise_cd":"LAKE","status_cd":"1348","ordec_date":"19760220","jurr_narr":null,"fmod_date":"20151125","nad83_lon":"-60.105778","nts_map":"011F16","status_ds":"Official - Official","decis_date":"19760220","nad83_lat":"45.957465","geoname":"Little MacLeod Lake"}},{"type":"Feature","geometry":{"type":"Point","coordinates":[-64.98559309846866,44.32040694452686]},"properties":{"gaz_map":"021A07","admin_loc":"Queens","concise_ds":"Lake","orig_narr":"Decision on 21A/SE.","objectid":"13861","generic_cd":"951","locn_narr":"N. of Lake Rossignol","county":"Queens","generic_tm":"Lake","cgndb_key":"CBHWX","tmod_date":"20130205","concise_cd":"LAKE","status_cd":"1348","ordec_date":"19360428","jurr_narr":null,"fmod_date":"20151125","nad83_lon":"-64.985589","nts_map":"021A07,021A06","status_ds":"Official - Official","decis_date":"19360428","nad83_lat":"44.320404","geoname":"Second Christopher Lake"}},{"type":"Feature","geometry":{"type":"Point","coordinates":[-65.0312329636179,44.30496581686943]},"properties":{"gaz_map":"021A06","admin_loc":"Queens","concise_ds":"Lake","orig_narr":null,"objectid":"17567","generic_cd":"951","locn_narr":"NE. of Lake Rossignol","county":"Queens","generic_tm":"Lake","cgndb_key":"CAMRR","tmod_date":"20130205","concise_cd":"LAKE","status_cd":"1348","ordec_date":"19530910","jurr_narr":null,"fmod_date":"20151125","nad83_lon":"-65.031229","nts_map":"021A06","status_ds":"Official - Official","decis_date":"19530910","nad83_lat":"44.304963","geoname":"Fourth Christopher Lake"}},{"type":"Feature","geometry":{"type":"Point","coordinates":[-63.289534047326356,44.90333671328589]},"properties":{"gaz_map":"011D14","admin_loc":"Halifax","concise_ds":"Lake","orig_narr":null,"objectid":"15486","generic_cd":"951","locn_narr":"E. of Shubenacadie Grand Lake","county":"Halifax","generic_tm":"Lake","cgndb_key":"CBQUY","tmod_date":"20130205","concise_cd":"LAKE","status_cd":"1348","ordec_date":"19211014","jurr_narr":null,"fmod_date":"20151125","nad83_lon":"-63.289531","nts_map":"011D14","status_ds":"Official - Official","decis_date":"19211014","nad83_lat":"44.903335","geoname":"Christopher Lake"}},{"type":"Feature","geometry":{"type":"Point","coordinates":[-60.4242717711662,46.09223930358304]},"properties":{"gaz_map":"011K01","admin_loc":"Cape Breton","concise_ds":"Lake","orig_narr":null,"objectid":"16559","generic_cd":"951","locn_narr":"SW. of Sydney","county":"Cape Breton","generic_tm":"Lake","cgndb_key":"CBHJV","tmod_date":"20130205","concise_cd":"LAKE","status_cd":"1348","ordec_date":"19531203","jurr_narr":null,"fmod_date":"20151125","nad83_lon":"-60.424267","nts_map":"011K01","status_ds":"Official - Official","decis_date":"19531203","nad83_lat":"46.09224","geoname":"Sandy McLeod Lake"}},{"type":"Feature","geometry":{"type":"Point","coordinates":[-60.710358803893584,45.68751774020525]},"properties":{"gaz_map":"011F10","admin_loc":"Richmond","concise_ds":"Lake","orig_narr":null,"objectid":"16162","generic_cd":"951","locn_narr":"E. of Soldiers Cove","county":"Richmond","generic_tm":"Lake","cgndb_key":"CAWXT","tmod_date":"20130205","concise_cd":"LAKE","status_cd":"1348","ordec_date":"19760310","jurr_narr":null,"fmod_date":"20151125","nad83_lon":"-60.710356","nts_map":"011F10","status_ds":"Official - Official","decis_date":"19760310","nad83_lat":"45.687518","geoname":"MacLeods Lake"}},{"type":"Feature","geometry":{"type":"Point","coordinates":[-60.360127718239376,45.96107580371775]},"properties":{"gaz_map":"011F16","admin_loc":"Cape Breton","concise_ds":"Lake","orig_narr":"McLeod Lake was adopted 2 December 1924 on 11F/16. Changed to MacLeod Lake 20 February 1976 on 11F/16.","objectid":"18837","generic_cd":"951","locn_narr":"E. of Bras d'Or Lake","county":"Cape Breton","generic_tm":"Lake","cgndb_key":"CAWWT","tmod_date":"20130205","concise_cd":"LAKE","status_cd":"1348","ordec_date":"19760220","jurr_narr":null,"fmod_date":"20151125","nad83_lon":"-60.360123","nts_map":"011F16","status_ds":"Official - Official","decis_date":"19760220","nad83_lat":"45.961077","geoname":"MacLeod Lake"}}], "crs" : { "type": "name", "properties": { "name": "urn:ogc:def:crs:OGC:1.3:CRS84" } } }