{ "type": "FeatureCollection", "features": [{"type":"Feature","geometry":{"type":"Point","coordinates":[-60.77688118530838,46.023007258066876]},"properties":{"gaz_map":"011K02","admin_loc":"Victoria","concise_ds":"Cape","orig_narr":"Shown on 11K/2-1953 edition, 11K-1955-56 edition.","objectid":"9589","generic_cd":"1604","locn_narr":"W. shore of Great Bras d'Or","county":"Victoria","generic_tm":"Point (1)","cgndb_key":"CBQEJ","tmod_date":"20130205","concise_cd":"CAPE","status_cd":"1348","ordec_date":"19501005","jurr_narr":null,"fmod_date":"20151125","nad83_lon":"-60.776877","nts_map":"011K02","status_ds":"Official - Official","decis_date":"19501005","nad83_lat":"46.023007","geoname":"Gillis Point"}},{"type":"Feature","geometry":{"type":"Point","coordinates":[-61.261315745044456,46.291726611888535]},"properties":{"gaz_map":"011K06","admin_loc":"Inverness","concise_ds":"Cape","orig_narr":null,"objectid":"18542","generic_cd":"1604","locn_narr":"W. shore of Cape Breton Island","county":"Inverness","generic_tm":"Point (1)","cgndb_key":"CBQEK","tmod_date":"20130205","concise_cd":"CAPE","status_cd":"1348","ordec_date":"19760105","jurr_narr":null,"fmod_date":"20151125","nad83_lon":"-61.261314","nts_map":"011K06","status_ds":"Official - Official","decis_date":"19760105","nad83_lat":"46.291725","geoname":"Gillis Point"}},{"type":"Feature","geometry":{"type":"Point","coordinates":[-60.804647917212876,46.00485741065123]},"properties":{"gaz_map":"011K02","admin_loc":"Victoria","concise_ds":"Unincorporated area","orig_narr":"Shown on 11K/2-1953 edition, 11K-1955-56 edition. Application altered 25 April 2008 on 11K02 from 46º00'20\"-60º48'14\" to 46º00'17\"-60º49'43\" on 11K02. (Change in the Form of a Name): Generic altered to 'community' following the NS Civic Address Proje","objectid":"20773","generic_cd":"121","locn_narr":"S. of Baddeck","county":"Victoria","generic_tm":"Community (2)","cgndb_key":"CBQEI","tmod_date":"20191007","concise_cd":"UNP","status_cd":"1348","ordec_date":"19501005","jurr_narr":"Shown on 11K/2-1953 edition, 11K-1955-56 edition. \r\nGillis Point (Dispersed Rural Community) became Gillis Point (Community) by decision 26-June-2007 at 46 00 20 -60 48 14 on 011K02.  Coordinates updated 25-Apr-2008 at 46 00 17 -60 48 17.\r\n(1) Named by t","fmod_date":"20151125","nad83_lon":"-60.804644","nts_map":"011K02","status_ds":"Official - Official","decis_date":"20070626","nad83_lat":"46.004857","geoname":"Gillis Point"}},{"type":"Feature","geometry":{"type":"Point","coordinates":[-60.96200011141246,46.00459713832319]},"properties":{"gaz_map":"011F15","admin_loc":"Victoria; Inverness","concise_ds":"Channel","orig_narr":"Approved on 2 November 1950 on 11 F/15 and 5 October 1950 on 11 K/2. Shown on 11 K/2-1953 edition, 11 F/15-1953 edition, 11K-1955-56 edition. \r\n\r\nCoordinates improved to ddmmss, ddmmss on 20130509.","objectid":"5762","generic_cd":"1203","locn_narr":"Between Whycocomagh Bay and St. Patricks Channel","county":"Victoria; Inverness","generic_tm":"Narrows","cgndb_key":"CAUNT","tmod_date":"20190226","concise_cd":"CHAN","status_cd":"1348","ordec_date":"19501102","jurr_narr":"Approved on 2 November 1950 on 11F15 and 5 October 1950 on 11K2. Shown on 11K2-1953 edition, 11F15-1953 edition, 11K-1955-56 edition. Coordinates updated 5 February 2013 to 46 00 17 -60 57 43 on 11K2.","fmod_date":"20151125","nad83_lon":"-60.961997","nts_map":"011F15,011K02,011K/2","status_ds":"Official - Official","decis_date":"19501102","nad83_lat":"46.004596","geoname":"Little Narrows"}},{"type":"Feature","geometry":{"type":"Point","coordinates":[-60.983590028735954,45.992043265212736]},"properties":{"gaz_map":"011F15","admin_loc":"Victoria","concise_ds":"Unincorporated area","orig_narr":"(Change in the Form of a Name): Generic altered to 'community' following the NS Civic Address Project review, July 2005.(D.Wills) \n\nApplication altered 5 May 2008 on 11F15 from 45º59'31\"-60º59'00\" to 45º59'31\"-60º60'59\" on 11F15.\n\n(1)Named so because","objectid":"21039","generic_cd":"121","locn_narr":"N. of Bras d'Or Lake","county":"Victoria","generic_tm":"Community (2)","cgndb_key":"CAUNS","tmod_date":"20130205","concise_cd":"UNP","status_cd":"1348","ordec_date":"19501102","jurr_narr":"(Change in the Form of a Name): Generic altered to 'community' following the NS Civic Address Project review, July 2005.(D.Wills) Application altered 5 May 2008 on 11F15 from 45º59'31\"-60º59'00\" to 45º59'31\"-60º60'59\" on 11F15.\n\n(1)Named so because o","fmod_date":"20250522","nad83_lon":"-60.983587","nts_map":"011F15","status_ds":"Official - Official","decis_date":"20070626","nad83_lat":"45.992042","geoname":"Little Narrows"}}], "crs" : { "type": "name", "properties": { "name": "urn:ogc:def:crs:OGC:1.3:CRS84" } } }