{ "type": "FeatureCollection", "features": [{"type":"Feature","geometry":{"type":"Point","coordinates":[-61.23660531529017,46.318913519075615]},"properties":{"gaz_map":"011K06","admin_loc":"Inverness","concise_ds":"Beach","orig_narr":null,"objectid":"729","generic_cd":"1909","locn_narr":"W. shore of Cape Breton Island","county":"Inverness","generic_tm":"Shore","cgndb_key":"CAXCK","tmod_date":"20130205","concise_cd":"BCH","status_cd":"1348","ordec_date":"19760105","jurr_narr":null,"fmod_date":"20151125","nad83_lon":"-61.236604","nts_map":"011K06","status_ds":"Official - Official","decis_date":"19760105","nad83_lat":"46.318913","geoname":"MacPhersons Shore"}},{"type":"Feature","geometry":{"type":"Point","coordinates":[-61.053539551532204,45.93338501784372]},"properties":{"gaz_map":"011F14","admin_loc":"Inverness","concise_ds":"River","orig_narr":null,"objectid":"1030","generic_cd":"601","locn_narr":"Flows NW. into Whycocomagh Bay","county":"Inverness","generic_tm":"Brook","cgndb_key":"CAXCE","tmod_date":"20130205","concise_cd":"RIV","status_cd":"1348","ordec_date":"19751222","jurr_narr":null,"fmod_date":"20151125","nad83_lon":"-61.053537","nts_map":"011F14","status_ds":"Official - Official","decis_date":"19751222","nad83_lat":"45.933383","geoname":"MacPhersons Brook"}},{"type":"Feature","geometry":{"type":"Point","coordinates":[-61.073308162029726,45.60825794201438]},"properties":{"gaz_map":"011F11","admin_loc":"Richmond","concise_ds":"River","orig_narr":"McPherson Brook was adopted 4 November 1966 on 11F/11. Changed to MacPherson Brook 1 March 1976 on 11F/11.","objectid":"1850","generic_cd":"601","locn_narr":"Flows SE. into Shannon Brook","county":"Richmond","generic_tm":"Brook","cgndb_key":"CAXBV","tmod_date":"20130205","concise_cd":"RIV","status_cd":"1348","ordec_date":"19760301","jurr_narr":null,"fmod_date":"20151125","nad83_lon":"-61.073304","nts_map":"011F11","status_ds":"Official - Official","decis_date":"19760301","nad83_lat":"45.608258","geoname":"MacPherson Brook"}},{"type":"Feature","geometry":{"type":"Point","coordinates":[-60.74574481429794,45.925593377946704]},"properties":{"gaz_map":"011F15","admin_loc":"Cape Breton","concise_ds":"Bay","orig_narr":"Named after a piper named Roderick McNeil who resided there. He died 1835. (Postmaster, 1922) Pipers Cove was approved 1 Sept. 1949 on C. 4387.","objectid":"1878","generic_cd":"1407","locn_narr":"Bras d'Or Lake","county":"Cape Breton","generic_tm":"Cove (2)","cgndb_key":"CBDVA","tmod_date":"20130205","concise_cd":"BAY","status_cd":"1348","ordec_date":"19490901","jurr_narr":null,"fmod_date":"20151125","nad83_lon":"-60.745741","nts_map":"011F15,C.4387","status_ds":"Official - Official","decis_date":"19490901","nad83_lat":"45.925593","geoname":"Pipers Cove"}},{"type":"Feature","geometry":{"type":"Point","coordinates":[-61.1242707903469,46.196937458206854]},"properties":{"gaz_map":"011K03","admin_loc":"Inverness","concise_ds":"Unincorporated area","orig_narr":"Formerly approved as Piper Glen 7 July 1949. Changed to Pipers Glen 8 Jan. 1976 on 11K/3.","objectid":"2159","generic_cd":"108","locn_narr":"SE. of Inverness","county":"Inverness","generic_tm":"Locality","cgndb_key":"CBDVE","tmod_date":"20191122","concise_cd":"UNP","status_cd":"1348","ordec_date":"19760108","jurr_narr":"Formerly approved as Piper Glen 7 July 1949. Changed to Pipers Glen 8 Jan. 1976 on 11K/3.\r\nConfirmed as a Locality following the NS Civic Address Review, 6 September 2005.  Located within the community of Keppoch.","fmod_date":"20151125","nad83_lon":"-61.124268","nts_map":"011K03","status_ds":"Official - Official","decis_date":"19760108","nad83_lat":"46.196937","geoname":"Pipers Glen"}},{"type":"Feature","geometry":{"type":"Point","coordinates":[-60.756650808202565,45.93953339075721]},"properties":{"gaz_map":"011F15","admin_loc":"Cape Breton","concise_ds":"Lake","orig_narr":null,"objectid":"4708","generic_cd":"953","locn_narr":"N. of Bras d'Or Lake","county":"Cape Breton","generic_tm":"Pond (1)","cgndb_key":"CBDVD","tmod_date":"20130205","concise_cd":"LAKE","status_cd":"1348","ordec_date":"19760223","jurr_narr":null,"fmod_date":"20151125","nad83_lon":"-60.756647","nts_map":"011F15","status_ds":"Official - Official","decis_date":"19760223","nad83_lat":"45.939533","geoname":"Pipers Cove Pond"}},{"type":"Feature","geometry":{"type":"Point","coordinates":[-60.71978689715392,45.916843315230096]},"properties":{"gaz_map":"011F15","admin_loc":"Cape Breton","concise_ds":"Unincorporated area","orig_narr":null,"objectid":"4834","generic_cd":"108","locn_narr":"N. of Bras d'Or Lake","county":"Cape Breton","generic_tm":"Locality","cgndb_key":"CACQW","tmod_date":"20130205","concise_cd":"UNP","status_cd":"1348","ordec_date":"19501102","jurr_narr":null,"fmod_date":"20250522","nad83_lon":"-60.719783","nts_map":"011F15","status_ds":"Official - Official","decis_date":"19501102","nad83_lat":"45.916843","geoname":"Benacadie Pond"}},{"type":"Feature","geometry":{"type":"Point","coordinates":[-60.68323823100204,45.96791213017678]},"properties":{"gaz_map":"011F15","admin_loc":"Cape Breton","concise_ds":"River","orig_narr":null,"objectid":"3242","generic_cd":"610","locn_narr":"Flows W. into Benacadie River","county":"Cape Breton","generic_tm":"Branch","cgndb_key":"CBJLY","tmod_date":"20130205","concise_cd":"RIV","status_cd":"1348","ordec_date":"19760223","jurr_narr":null,"fmod_date":"20151125","nad83_lon":"-60.683234","nts_map":"011F15","status_ds":"Official - Official","decis_date":"19760223","nad83_lat":"45.967912","geoname":"South Branch Benacadie River"}},{"type":"Feature","geometry":{"type":"Point","coordinates":[-61.002253615983506,45.927935707057095]},"properties":{"gaz_map":"011F14","admin_loc":"Inverness","concise_ds":"Bay","orig_narr":null,"objectid":"2934","generic_cd":"1407","locn_narr":"Bras d'Or Lake","county":"Inverness","generic_tm":"Cove (2)","cgndb_key":"CBDVB","tmod_date":"20130205","concise_cd":"BAY","status_cd":"1348","ordec_date":"19751222","jurr_narr":null,"fmod_date":"20151125","nad83_lon":"-61.002251","nts_map":"011F14,011F15","status_ds":"Official - Official","decis_date":"19751222","nad83_lat":"45.927934","geoname":"Pipers Cove"}},{"type":"Feature","geometry":{"type":"Point","coordinates":[-60.72489889092807,45.921662324893724]},"properties":{"gaz_map":"011F15","admin_loc":"Cape Breton","concise_ds":"River","orig_narr":"Benacadie Brook was adopted 2 November 1950 on 11F/15. Changed to Benacadie River 23 February 1976 on 11F/15.","objectid":"3403","generic_cd":"600","locn_narr":"Flows S. into Benacadie Pond","county":"Cape Breton","generic_tm":"River","cgndb_key":"CACQY","tmod_date":"20130205","concise_cd":"RIV","status_cd":"1348","ordec_date":"19760223","jurr_narr":null,"fmod_date":"20151125","nad83_lon":"-60.724895","nts_map":"011F15","status_ds":"Official - Official","decis_date":"19760223","nad83_lat":"45.921662","geoname":"Benacadie River"}},{"type":"Feature","geometry":{"type":"Point","coordinates":[-61.07311157635559,45.61555800015516]},"properties":{"gaz_map":"011F11","admin_loc":"Richmond","concise_ds":"Lake","orig_narr":null,"objectid":"7196","generic_cd":"951","locn_narr":"N. of Lennox Passage","county":"Richmond","generic_tm":"Lake","cgndb_key":"CAXCH","tmod_date":"20130205","concise_cd":"LAKE","status_cd":"1348","ordec_date":"19760301","jurr_narr":"Coordinates adjusted to reflect current NSHN data following the 2016-2017 NSGN review 16 December 2016 from 45°36'53.122\"-61°4'9.603\" to 45°36'56.009\"-61°4'23.187\" on 11F11. (C.Roche)","fmod_date":"20170215","nad83_lon":"-61.0731074","nts_map":"011F11","status_ds":"Official - Official","decis_date":"19760301","nad83_lat":"45.615558","geoname":"MacPhersons Lake"}},{"type":"Feature","geometry":{"type":"Point","coordinates":[-61.006574982195474,45.98875137170501]},"properties":{"gaz_map":"011F14","admin_loc":"Inverness","concise_ds":"River","orig_narr":"Information from 1973 fieldwork (#149). Headwaters on 11K/3. Formerly approved as Lewis Brook 3 May 1951 on 11F/14. Changed to MacPhersons Brook 17 April 1980 on 11F/4.","objectid":"6553","generic_cd":"601","locn_narr":"Flows SE. into Whycocomagh Bay","county":"Inverness","generic_tm":"Brook","cgndb_key":"CAXCD","tmod_date":"20130205","concise_cd":"RIV","status_cd":"1348","ordec_date":"19800417","jurr_narr":null,"fmod_date":"20151125","nad83_lon":"-61.006572","nts_map":"011F14,011K03","status_ds":"Official - Official","decis_date":"19800417","nad83_lat":"45.98875","geoname":"MacPhersons Brook"}},{"type":"Feature","geometry":{"type":"Point","coordinates":[-60.72744880164826,45.902405376197734]},"properties":{"gaz_map":"011F15","admin_loc":"Cape Breton","concise_ds":"Cape","orig_narr":null,"objectid":"5230","generic_cd":"1604","locn_narr":"N. shore of Bras d'Or Bay","county":"Cape Breton","generic_tm":"Point (1)","cgndb_key":"CACQV","tmod_date":"20130205","concise_cd":"CAPE","status_cd":"1348","ordec_date":"19501102","jurr_narr":null,"fmod_date":"20151125","nad83_lon":"-60.727445","nts_map":"011F15","status_ds":"Official - Official","decis_date":"19501102","nad83_lat":"45.902405","geoname":"Benacadie Point"}},{"type":"Feature","geometry":{"type":"Point","coordinates":[-62.66104958052654,45.34762643633584]},"properties":{"gaz_map":"011E07","admin_loc":"Pictou","concise_ds":"Lake","orig_narr":null,"objectid":"9046","generic_cd":"951","locn_narr":"N. of Governor Lake","county":"Pictou","generic_tm":"Lake","cgndb_key":"CBDUZ","tmod_date":"20130205","concise_cd":"LAKE","status_cd":"1348","ordec_date":"19530806","jurr_narr":null,"fmod_date":"20151125","nad83_lon":"-62.661045","nts_map":"011E07","status_ds":"Official - Official","decis_date":"19530806","nad83_lat":"45.347626","geoname":"Piper Lake"}},{"type":"Feature","geometry":{"type":"Point","coordinates":[-60.005607605867795,45.961600669568455]},"properties":{"gaz_map":"011F16","admin_loc":"Cape Breton","concise_ds":"Lake","orig_narr":"MacPhersons Lake was formerly approved as McPherson Lake 2 Dec. 1924. Changed to MacPhersons Lake 20 Feb. 1976 on 11F/16.","objectid":"8428","generic_cd":"951","locn_narr":"E. of Bras d'Or Lake","county":"Cape Breton","generic_tm":"Lake","cgndb_key":"CAXCG","tmod_date":"20130205","concise_cd":"LAKE","status_cd":"1348","ordec_date":"19760220","jurr_narr":null,"fmod_date":"20151125","nad83_lon":"-60.005601","nts_map":"011F16","status_ds":"Official - Official","decis_date":"19760220","nad83_lat":"45.961603","geoname":"MacPhersons Lake"}},{"type":"Feature","geometry":{"type":"Point","coordinates":[-62.21005065802659,45.732907810246054]},"properties":{"gaz_map":"011E09","admin_loc":"Antigonish","concise_ds":"River","orig_narr":null,"objectid":"14700","generic_cd":"601","locn_narr":"Flows W. into McArras Brook","county":"Antigonish","generic_tm":"Brook","cgndb_key":"CAXBU","tmod_date":"20130205","concise_cd":"RIV","status_cd":"1348","ordec_date":"19670323","jurr_narr":null,"fmod_date":"20151125","nad83_lon":"-62.210046","nts_map":"011E09","status_ds":"Official - Official","decis_date":"19670323","nad83_lat":"45.732906","geoname":"MacPherson Brook"}},{"type":"Feature","geometry":{"type":"Point","coordinates":[-60.73118991644015,45.93787632576916]},"properties":{"gaz_map":"011F15","admin_loc":"Cape Breton","concise_ds":"Unincorporated area","orig_narr":"Changed to Locality on 6 December 2010 following the NS Civic Address Review Initiative (2001-2005)","objectid":"15172","generic_cd":"108","locn_narr":"N. of Bras d'Or Lake","county":"Cape Breton","generic_tm":"Locality","cgndb_key":"CACQZ","tmod_date":"20190507","concise_cd":"UNP","status_cd":"1348","ordec_date":"19501102","jurr_narr":"Benacadie West (Dispersed Rural Community) became Benacadie West (Locality) and coordinates updated to 45 56 16 -60 43 52 by decision 01-Dec-2010 on 11F15.  Located within the community of  Benacadie.","fmod_date":"20250522","nad83_lon":"-60.731186","nts_map":"011F15","status_ds":"Official - Official","decis_date":"19501102","nad83_lat":"45.937876","geoname":"Benacadie West"}},{"type":"Feature","geometry":{"type":"Point","coordinates":[-60.09430726275838,45.95846571224536]},"properties":{"gaz_map":"011F16","admin_loc":"Cape Breton","concise_ds":"Lake","orig_narr":"McPherson Lake was adopted 2 December 1924 on 11F/16. Changed to MacPherson Lake 20 February 1976 on 11F/16.","objectid":"17501","generic_cd":"951","locn_narr":"E. of Bras d'Or Lake","county":"Cape Breton","generic_tm":"Lake","cgndb_key":"CAXBX","tmod_date":"20130205","concise_cd":"LAKE","status_cd":"1348","ordec_date":"19760220","jurr_narr":null,"fmod_date":"20151125","nad83_lon":"-60.094301","nts_map":"011F16","status_ds":"Official - Official","decis_date":"19760220","nad83_lat":"45.958468","geoname":"MacPherson Lake"}},{"type":"Feature","geometry":{"type":"Point","coordinates":[-60.603786821680764,45.87750397392049]},"properties":{"gaz_map":"011F15","admin_loc":"Cape Breton","concise_ds":"Lake","orig_narr":"Formerly approved as Lochan Fad 2 Nov. 1950 on 11F/15. Changed to MacPhersons Pond 23 Feb. 1976 on 11F/15.","objectid":"17228","generic_cd":"953","locn_narr":"East Bay","county":"Cape Breton","generic_tm":"Pond (1)","cgndb_key":"CAXCJ","tmod_date":"20130205","concise_cd":"LAKE","status_cd":"1348","ordec_date":"19760223","jurr_narr":null,"fmod_date":"20151125","nad83_lon":"-60.603783","nts_map":"011F15","status_ds":"Official - Official","decis_date":"19760223","nad83_lat":"45.877504","geoname":"MacPhersons Pond"}},{"type":"Feature","geometry":{"type":"Point","coordinates":[-62.54565666659022,45.46621184972121]},"properties":{"gaz_map":"011E07","admin_loc":"Pictou","concise_ds":"Lake","orig_narr":"Murdoch Lake was adopted 12 December 1939 on 11E/7. Changed to MacPhersons Lake 6 August 1953 on 11E/7.","objectid":"15850","generic_cd":"951","locn_narr":"SE. of New Glasgow","county":"Pictou","generic_tm":"Lake","cgndb_key":"CAXCF","tmod_date":"20130205","concise_cd":"LAKE","status_cd":"1348","ordec_date":"19530806","jurr_narr":null,"fmod_date":"20151125","nad83_lon":"-62.545652","nts_map":"011E07","status_ds":"Official - Official","decis_date":"19530806","nad83_lat":"45.466211","geoname":"MacPhersons Lake"}},{"type":"Feature","geometry":{"type":"Point","coordinates":[-60.808237726928226,45.97818149214166]},"properties":{"gaz_map":"011F15","admin_loc":"Victoria","concise_ds":"Cape","orig_narr":"Formerly approved as Macpherson Point 2 Nov. 1950 on 11F/11. Changed to MacPherson Point 23 Feb. 1976 on 11F/15.","objectid":"16283","generic_cd":"1604","locn_narr":"W. shore of Great Bras d'Or","county":"Victoria","generic_tm":"Point (1)","cgndb_key":"CAXCC","tmod_date":"20130205","concise_cd":"CAPE","status_cd":"1348","ordec_date":"19760223","jurr_narr":null,"fmod_date":"20151125","nad83_lon":"-60.808234","nts_map":"011F15","status_ds":"Official - Official","decis_date":"19760223","nad83_lat":"45.978181","geoname":"MacPherson Point"}},{"type":"Feature","geometry":{"type":"Point","coordinates":[-60.72262187975683,45.91519432723947]},"properties":{"gaz_map":"011F15","admin_loc":"Cape Breton","concise_ds":"Lake","orig_narr":null,"objectid":"19657","generic_cd":"953","locn_narr":"Bras d'Or Lake","county":"Cape Breton","generic_tm":"Pond (1)","cgndb_key":"CACQX","tmod_date":"20130205","concise_cd":"LAKE","status_cd":"1348","ordec_date":"19501102","jurr_narr":null,"fmod_date":"20151125","nad83_lon":"-60.722618","nts_map":"011F15","status_ds":"Official - Official","decis_date":"19501102","nad83_lat":"45.915194","geoname":"Benacadie Pond"}},{"type":"Feature","geometry":{"type":"Point","coordinates":[-60.02410600048174,45.9875328951105]},"properties":{"gaz_map":"011F16","admin_loc":"Cape Breton","concise_ds":"Low vegetation","orig_narr":null,"objectid":"20021","generic_cd":"3571","locn_narr":"N. of Gabarus Bay","county":"Cape Breton","generic_tm":"Meadows","cgndb_key":"CAXCI","tmod_date":"20130205","concise_cd":"VEGL","status_cd":"1348","ordec_date":"19760220","jurr_narr":null,"fmod_date":"20151125","nad83_lon":"-60.024099","nts_map":"011F16","status_ds":"Official - Official","decis_date":"19760220","nad83_lat":"45.987535","geoname":"MacPhersons Meadows"}},{"type":"Feature","geometry":{"type":"Point","coordinates":[-61.32628170044033,45.814062071682734]},"properties":{"gaz_map":"011F14","admin_loc":"Inverness","concise_ds":"River","orig_narr":"McPherson Brook was adopted 3 May 1951 on 11F/14. Changed to MacPherson Brook 22 December 1975 on 11F/14.","objectid":"19009","generic_cd":"601","locn_narr":"Flows E. into Glendale Brook","county":"Inverness","generic_tm":"Brook","cgndb_key":"CAXBS","tmod_date":"20130205","concise_cd":"RIV","status_cd":"1348","ordec_date":"19751222","jurr_narr":null,"fmod_date":"20151125","nad83_lon":"-61.326277","nts_map":"011F14","status_ds":"Official - Official","decis_date":"19751222","nad83_lat":"45.814061","geoname":"MacPherson Brook"}},{"type":"Feature","geometry":{"type":"Point","coordinates":[-61.419567326150364,45.43321122016025]},"properties":{"gaz_map":"011F06","admin_loc":null,"concise_ds":"Lake","orig_narr":"McPherson Lake was adopted 6 November 1952 on 11F/6. Changed to MacPherson Lake 16 June 1976 on 11F/6.","objectid":"18415","generic_cd":"951","locn_narr":"N. of Chedabucto Bay","county":"Guysborough","generic_tm":"Lake","cgndb_key":"CAXBY","tmod_date":"20130205","concise_cd":"LAKE","status_cd":"1348","ordec_date":"19760616","jurr_narr":null,"fmod_date":"20151125","nad83_lon":"-61.419564","nts_map":"011F06","status_ds":"Official - Official","decis_date":"19760616","nad83_lat":"45.433211","geoname":"MacPherson Lake"}},{"type":"Feature","geometry":{"type":"Point","coordinates":[-61.42806932954884,45.43793922987335]},"properties":{"gaz_map":"011F06","admin_loc":"District of Guysborough","concise_ds":"Unincorporated area","orig_narr":"Generic altered to Locality following the NS Civic Address Review, 29 November 2005.  Located within the community of Port Shoreham.        (D.Wills)\r\n\r\n\r\nLocator Point adjusted 26 February 2008.  (D.Wills)","objectid":"22565","generic_cd":"108","locn_narr":"N. of Chedabucto Bay","county":"Guysborough","generic_tm":"Locality","cgndb_key":"CAXBW","tmod_date":"20190816","concise_cd":"UNP","status_cd":"1348","ordec_date":"19760616","jurr_narr":"MacPherson Lake (Dispersed Rural Community) became MacPherson Lake (Locality) by decision 26-June-2007 at 45 26 17 -61 25 39 on 011F06. Located within the community of Port Shoreham.","fmod_date":"20250522","nad83_lon":"-61.428066","nts_map":"011F06","status_ds":"Official - Official","decis_date":"20070626","nad83_lat":"45.437939","geoname":"MacPherson Lake"}},{"type":"Feature","geometry":{"type":"Point","coordinates":[-60.72630196964739,45.94621130173279]},"properties":{"gaz_map":"011F15","admin_loc":"Cape Breton","concise_ds":"Unincorporated area","orig_narr":"Benacadie is an Indian name meaning an abundance of mount ains. \"Ben\" is a Gaelic word meaning mountain. \"Acadie\" i s a pure Indian word meaning abundance. (J. Turrell PM).\nThis name was included on the 2019 Indigenous Place Names in Canada map indicated","objectid":"22578","generic_cd":"121","locn_narr":"N. of Bras d'Or Lake","county":"Cape Breton","generic_tm":"Community (2)","cgndb_key":"CACQT","tmod_date":"20190819","concise_cd":"UNP","status_cd":"1348","ordec_date":"19501102","jurr_narr":"Benacadie (Dispersed Rural Community) became Benacadie (Community) by decision 26-June-2007 at 45 56 46 -60 43 34 on 011F15.\r\n(1) Benacadie is an Indian name meaning an abundance of mount ains. \"Ben\" is a Gaelic word meaning mountain. \"Acadie\" is a India","fmod_date":"20151125","nad83_lon":"-60.726298","nts_map":"011F15","status_ds":"Official - Official","decis_date":"20070626","nad83_lat":"45.946211","geoname":"Benacadie"}},{"type":"Feature","geometry":{"type":"Point","coordinates":[-60.7560138358789,45.94560837942504]},"properties":{"gaz_map":"011F15","admin_loc":"Cape Breton Regional Municipality","concise_ds":"Unincorporated area","orig_narr":"Named after a piper named Roderick McNeil who resided there. He died 1835. (Postmaster, 1922)","objectid":"21926","generic_cd":"121","locn_narr":"N. of Bras d'Or Lake","county":"Cape Breton","generic_tm":"Community (2)","cgndb_key":"CBDVC","tmod_date":"20190819","concise_cd":"UNP","status_cd":"1348","ordec_date":"19490901","jurr_narr":"Pipers Cove (Locality) became Pipers Cove (Community) by decision 26-June-2007 at 45 56 32 -60 45 41 on 011F15.\r\n(1) Named after a piper named Roderick McNeil who resided there. He died 1835. (Postmaster, 1922)","fmod_date":"20151125","nad83_lon":"-60.75601","nts_map":"011F15","status_ds":"Official - Official","decis_date":"20070626","nad83_lat":"45.945608","geoname":"Pipers Cove"}}], "crs" : { "type": "name", "properties": { "name": "urn:ogc:def:crs:OGC:1.3:CRS84" } } }