{ "type": "FeatureCollection", "features": [{"type":"Feature","geometry":{"type":"Point","coordinates":[-60.27973895868882,45.87661273857205]},"properties":{"gaz_map":"011F16","admin_loc":"Cape Breton","concise_ds":"Lake","orig_narr":null,"objectid":"1137","generic_cd":"951","locn_narr":"E. of Bras d'Or Lake","county":"Cape Breton","generic_tm":"Lake","cgndb_key":"CBQDY","tmod_date":"20130205","concise_cd":"LAKE","status_cd":"1348","ordec_date":"19241202","jurr_narr":null,"fmod_date":"20151125","nad83_lon":"-60.279736","nts_map":"011F16","status_ds":"Official - Official","decis_date":"19241202","nad83_lat":"45.876615","geoname":"Gillis Lake"}},{"type":"Feature","geometry":{"type":"Point","coordinates":[-60.39761676126371,46.059822098365345]},"properties":{"gaz_map":"011K01","admin_loc":"Cape Breton","concise_ds":"Lake","orig_narr":"Formerly approved as Gillies Lake 6 May 1924 on 11K/1. Changed to Gillis Lake 5 Feb. 1976 on 11K/1. \r\n\r\n(1) Named after John Gillies who was the first settler in the vicinity of the lake about 1825. (File No. 1763)","objectid":"11462","generic_cd":"951","locn_narr":"SW. of Sydney","county":"Cape Breton","generic_tm":"Lake","cgndb_key":"CBQED","tmod_date":"20130205","concise_cd":"LAKE","status_cd":"1348","ordec_date":"19760205","jurr_narr":null,"fmod_date":"20151125","nad83_lon":"-60.397612","nts_map":"011K01","status_ds":"Official - Official","decis_date":"19760205","nad83_lat":"46.059823","geoname":"Gillis Lake"}},{"type":"Feature","geometry":{"type":"Point","coordinates":[-61.97264586226041,45.5253486024279]},"properties":{"gaz_map":"011F12","admin_loc":"Antigonish","concise_ds":"Lake","orig_narr":null,"objectid":"15029","generic_cd":"951","locn_narr":"S. of Antigonish","county":"Antigonish","generic_tm":"Lake","cgndb_key":"CBQDW","tmod_date":"20130205","concise_cd":"LAKE","status_cd":"1348","ordec_date":"19510503","jurr_narr":null,"fmod_date":"20151125","nad83_lon":"-61.972641","nts_map":"011F12","status_ds":"Official - Official","decis_date":"19510503","nad83_lat":"45.525347","geoname":"Gillis Lake"}},{"type":"Feature","geometry":{"type":"Point","coordinates":[-60.77397508816984,45.66221782637285]},"properties":{"gaz_map":"011F10","admin_loc":"Richmond","concise_ds":"Lake","orig_narr":null,"objectid":"13897","generic_cd":"951","locn_narr":"S. of Bras d'Or Lake","county":"Richmond","generic_tm":"Lake","cgndb_key":"CBQDX","tmod_date":"20130205","concise_cd":"LAKE","status_cd":"1348","ordec_date":"19530402","jurr_narr":null,"fmod_date":"20151125","nad83_lon":"-60.773972","nts_map":"011F10","status_ds":"Official - Official","decis_date":"19530402","nad83_lat":"45.662218","geoname":"Gillis Lake"}},{"type":"Feature","geometry":{"type":"Point","coordinates":[-60.28170729473524,46.0221867259257]},"properties":{"gaz_map":"011K01","admin_loc":"Cape Breton","concise_ds":"Lake","orig_narr":null,"objectid":"17118","generic_cd":"951","locn_narr":"SW. of Sydney","county":"Cape Breton","generic_tm":"Lake","cgndb_key":"CBQEA","tmod_date":"20130205","concise_cd":"LAKE","status_cd":"1348","ordec_date":"19351203","jurr_narr":null,"fmod_date":"20151125","nad83_lon":"-60.281702","nts_map":"011K01","status_ds":"Official - Official","decis_date":"19351203","nad83_lat":"46.022188","geoname":"Gillis Lake"}},{"type":"Feature","geometry":{"type":"Point","coordinates":[-61.9648485118803,45.48020576906547]},"properties":{"gaz_map":"011F05","admin_loc":"Antigonish","concise_ds":"Lake","orig_narr":null,"objectid":"20194","generic_cd":"951","locn_narr":"S. of Antigonish","county":"Antigonish","generic_tm":"Lake","cgndb_key":"CBQDV","tmod_date":"20130205","concise_cd":"LAKE","status_cd":"1348","ordec_date":"19760511","jurr_narr":null,"fmod_date":"20151125","nad83_lon":"-61.964844","nts_map":"011F05","status_ds":"Official - Official","decis_date":"19760511","nad83_lat":"45.480204","geoname":"Gillis Lake"}},{"type":"Feature","geometry":{"type":"Point","coordinates":[-60.2984851919191,46.06695094089022]},"properties":{"gaz_map":"011K01","admin_loc":"Cape Breton","concise_ds":"Lake","orig_narr":null,"objectid":"18540","generic_cd":"951","locn_narr":"SW. of Sydney","county":"Cape Breton","generic_tm":"Lake","cgndb_key":"CBQEC","tmod_date":"20130205","concise_cd":"LAKE","status_cd":"1348","ordec_date":"19531203","jurr_narr":null,"fmod_date":"20151125","nad83_lon":"-60.29848","nts_map":"011K01","status_ds":"Official - Official","decis_date":"19531203","nad83_lat":"46.066952","geoname":"Gillis Lake"}},{"type":"Feature","geometry":{"type":"Point","coordinates":[-60.400712737740335,46.05573408766427]},"properties":{"gaz_map":"011K01","admin_loc":"Cape Breton Regional Municipality","concise_ds":"Unincorporated area","orig_narr":"First recorded as Gillis Lake. (T.J. Brown 1922) Originally approved as Gilliesville 6 May 1924 on 11K/1. Changed to Gillisville 3 Dec. 1953 on 11K/1. Changed to Gillis Lake 5 Feb. 1976 on 11K/1.\r\n\r\n(1) Named after a family named Gillis; the Indian [Mi'k","objectid":"21787","generic_cd":"121","locn_narr":"SW. of Sydney","county":"Cape Breton","generic_tm":"Community (2)","cgndb_key":"CBQDT","tmod_date":"20190820","concise_cd":"UNP","status_cd":"1348","ordec_date":"19760205","jurr_narr":"Originally approved as Gilliesville 6 May 1924 on 11K/1. Changed to Gillisville 3 Dec. 1953 on 11K/1. Changed to Gillis Lake 5 Feb. 1976 on 11K/1.\r\nGillis Lake (Dispersed Rural Community) became Gillis Lake (Community) by decision 26-June-2007 at 46 03 2","fmod_date":"20151125","nad83_lon":"-60.400708","nts_map":"011K01","status_ds":"Official - Official","decis_date":"20070626","nad83_lat":"46.055735","geoname":"Gillis Lake"}},{"type":"Feature","geometry":{"type":"Point","coordinates":[-59.68550805248096,46.02259270346796]},"properties":{"gaz_map":"011J04","admin_loc":"Cape Breton","concise_ds":"Island","orig_narr":null,"objectid":"2422","generic_cd":"2300","locn_narr":"Gulf of St. Lawrence","county":"Cape Breton","generic_tm":"Island","cgndb_key":"CAPXQ","tmod_date":"20130205","concise_cd":"ISL","status_cd":"1348","ordec_date":"19531105","jurr_narr":null,"fmod_date":"20151125","nad83_lon":"-59.685502","nts_map":"011J04","status_ds":"Official - Official","decis_date":"19531105","nad83_lat":"46.022593","geoname":"Hay Island"}},{"type":"Feature","geometry":{"type":"Point","coordinates":[-59.73600037674544,46.0119482988697]},"properties":{"gaz_map":"011J04","admin_loc":"Cape Breton","concise_ds":"Island","orig_narr":"Scatari Island was adopted in the 18th Report, 1924 and confirmed 12 December 1939 on C.4377. Changed to Scatarie Island 1 April 1954 on 11J/4. Scatori on Samson Map 1656. Authority: Scatarie Island (Offical Postal Guide Canada 1907). Scatterie Island (3","objectid":"2253","generic_cd":"2300","locn_narr":"Gulf of St. Lawrence","county":"Cape Breton","generic_tm":"Island","cgndb_key":"CBHMU","tmod_date":"20130205","concise_cd":"ISL","status_cd":"1348","ordec_date":"19540401","jurr_narr":null,"fmod_date":"20151125","nad83_lon":"-59.735994","nts_map":"011J04,011G13,C.4377,C.4000,C.4001,C.4002,C.4003,C.4006,C.4013,C.4015,C.4022,C.4045,C.4375","status_ds":"Official - Official","decis_date":"19540401","nad83_lat":"46.011949","geoname":"Scatarie Island"}},{"type":"Feature","geometry":{"type":"Point","coordinates":[-59.697950058652545,46.02774876222111]},"properties":{"gaz_map":"011J04","admin_loc":"Cape Breton","concise_ds":"Unincorporated area","orig_narr":"Scatari Island was adopted 4 December 1934 on 11SW & NW. Changed to Scatarie Island 5 November 1953 on 11J/4. \r\n\r\nChanged to Locality on 6 December 2010 following the NS Civic Address Review Initiative (2001-2005)","objectid":"9484","generic_cd":"108","locn_narr":"Scatarie Island","county":"Cape Breton","generic_tm":"Locality","cgndb_key":"CBHMT","tmod_date":"20130205","concise_cd":"UNP","status_cd":"1348","ordec_date":"19531105","jurr_narr":"Scatari Island was adopted 04-Dec-1934 on 11SW & NW. Changed to Scatarie Island 05-Nov-1953 on 11J04. \r\nScatarie Island (Dispersed Rural Community) became Scatarie Island (Locality) and coordinates updated to 46 01 40 -59 41 53 by decision 01-Dec-2010 on","fmod_date":"20250522","nad83_lon":"-59.697944","nts_map":"011J04,C.4000,C.4001,C.4002,C.4003,C.4006,C.4013,C.4015,C.4022,C.4045,C.4375","status_ds":"Official - Official","decis_date":"19531105","nad83_lat":"46.027749","geoname":"Scatarie Island"}},{"type":"Feature","geometry":{"type":"Point","coordinates":[-60.35755964706309,46.18151072649864]},"properties":{"gaz_map":"011K01","admin_loc":"Cape Breton","concise_ds":"Lake","orig_narr":null,"objectid":"19238","generic_cd":"951","locn_narr":"W. of Sydney","county":"Cape Breton","generic_tm":"Lake","cgndb_key":"CBHPK","tmod_date":"20130205","concise_cd":"LAKE","status_cd":"1348","ordec_date":"19531203","jurr_narr":null,"fmod_date":"20151125","nad83_lon":"-60.357555","nts_map":"011K01","status_ds":"Official - Official","decis_date":"19531203","nad83_lat":"46.181511","geoname":"Scotch Lake"}},{"type":"Feature","geometry":{"type":"Point","coordinates":[-60.369032670858815,46.181229720510586]},"properties":{"gaz_map":"011K01","admin_loc":"Cape Breton Regional Municipality","concise_ds":"Unincorporated area","orig_narr":"Generic Altered to Community, August 2005.    (D.Wills)","objectid":"21021","generic_cd":"121","locn_narr":"NW. of Sydney","county":"Cape Breton","generic_tm":"Community (2)","cgndb_key":"CBHPJ","tmod_date":"20190819","concise_cd":"UNP","status_cd":"1348","ordec_date":"19531203","jurr_narr":"Scotch Lake (Dispersed Rural Community) became Scotch Lake (Community) by decision 26-June-2007 at 46 11 15 -60 21 41 on 011K01.","fmod_date":"20151125","nad83_lon":"-60.369028","nts_map":"011K01","status_ds":"Official - Official","decis_date":"20070626","nad83_lat":"46.18123","geoname":"Scotch Lake"}}], "crs" : { "type": "name", "properties": { "name": "urn:ogc:def:crs:OGC:1.3:CRS84" } } }