{
  "type": "FeatureCollection",
  "features": [
    {
      "type": "Feature",
      "id": 60256,
      "geometry": {
        "type": "LineString",
        "coordinates": [
          [
            -60.77448436770999,
            46.08762844525873
          ],
          [
            -60.77469250628845,
            46.08756679629282
          ],
          [
            -60.7747831862033,
            46.087531660672596
          ],
          [
            -60.77486113506772,
            46.087523278388716
          ],
          [
            -60.77496460860034,
            46.08752349357917
          ],
          [
            -60.77506768060341,
            46.087469698121694
          ],
          [
            -60.775093879707036,
            46.08746120788904
          ],
          [
            -60.775158179807185,
            46.08747056050729
          ],
          [
            -60.775184960490684,
            46.08748009149144
          ],
          [
            -60.775184573542184,
            46.08750482620878
          ],
          [
            -60.77518320496494,
            46.087588053771796
          ],
          [
            -60.77517029272579,
            46.08758780231902
          ],
          [
            -60.775140246967354,
            46.087594804586736
          ],
          [
            -60.77513111930625,
            46.08759693994858
          ],
          [
            -60.775099328511814,
            46.08760551930355
          ],
          [
            -60.775065720850506,
            46.08761456729178
          ],
          [
            -60.775027876089986,
            46.08762283071594
          ],
          [
            -60.77501422737508,
            46.08764056581356
          ],
          [
            -60.77500094042572,
            46.08764930749955
          ]
        ]
      },
      "properties": {
        "OBJECTID": 60256,
        "FEAT_CODE": "WALK20",
        "FEAT_DESC": "Lake - Water to the right line",
        "RIVNAME_1": " ",
        "RIVNAME_2": " ",
        "ZVALUE": 2,
        "FID": null,
        "SHAPE_Length": 87.56783936577413
      }
    },
    {
      "type": "Feature",
      "id": 60257,
      "geometry": {
        "type": "LineString",
        "coordinates": [
          [
            -60.77500094042572,
            46.08764930749955
          ],
          [
            -60.774990438831075,
            46.087660515552614
          ],
          [
            -60.77497526107583,
            46.08767670878997
          ],
          [
            -60.77496125054893,
            46.08770343729007
          ],
          [
            -60.774961719888154,
            46.087718459190555
          ],
          [
            -60.77496181950493,
            46.0877214492819
          ],
          [
            -60.77493488375983,
            46.08774792604807
          ],
          [
            -60.77488371571404,
            46.08776583043893
          ],
          [
            -60.774882440261614,
            46.08776634562485
          ],
          [
            -60.77481796810235,
            46.08779245129516
          ],
          [
            -60.77476623108665,
            46.087792343640686
          ],
          [
            -60.7747019306889,
            46.08778299079671
          ],
          [
            -60.77468081321522,
            46.087780914381376
          ],
          [
            -60.77459884178097,
            46.08777288235994
          ],
          [
            -60.774534347397484,
            46.08773652427628
          ],
          [
            -60.7745214222042,
            46.08773627249781
          ],
          [
            -60.774519780691726,
            46.0877339904077
          ],
          [
            -60.77449569054301,
            46.087700669472575
          ],
          [
            -60.77448385093536,
            46.08767343747018
          ],
          [
            -60.77447035696116,
            46.087655173694756
          ],
          [
            -60.77448436770999,
            46.08762844525873
          ]
        ]
      },
      "properties": {
        "OBJECTID": 60257,
        "FEAT_CODE": "WALK20",
        "FEAT_DESC": "Lake - Water to the right line",
        "RIVNAME_1": " ",
        "RIVNAME_2": " ",
        "ZVALUE": 2,
        "FID": null,
        "SHAPE_Length": 60.30782798564748
      }
    }
  ]
}
