{"type": "FeatureCollection", "features": [{"type": "Feature", "id": 20326, "geometry": {"type": "LineString", "coordinates": [[-59.744438582868796, 46.01677722751682], [-59.74444647742567, 46.016776111510055], [-59.74447148009407, 46.01678571727867], [-59.74465032658041, 46.016842121648395], [-59.744740896285116, 46.0168618056347], [-59.74477286387946, 46.01686215006087]]}, "properties": {"OBJECTID": 20326, "FEAT_CODE": "WACOIS10", "FEAT_DESC": "Coastal Island - Water to the right line", "RIVNAME_1": " ", "RIVNAME_2": " ", "ZVALUE": 0.6, "FID": null, "SHAPE_Length": 27.871149248460235}}, {"type": "Feature", "id": 20327, "geometry": {"type": "LineString", "coordinates": [[-59.74477286387946, 46.01686215006087], [-59.744791249524944, 46.016862341248206], [-59.74483105060744, 46.01684457433238], [-59.744836648985995, 46.01684098060965], [-59.74487132669605, 46.01681872020537], [-59.74489770134102, 46.016764720179744], [-59.74492836668359, 46.016639429951496], [-59.744951888389515, 46.01657197334913], [-59.74495633234422, 46.01655921987233], [-59.74495678148152, 46.016558611620816], [-59.744983001502476, 46.01652307685456], [-59.74503599334286, 46.016478683473444], [-59.745115027125166, 46.01645303415775], [-59.74525834084525, 46.01641031558089], [-59.74525986673515, 46.016410071054885], [-59.745310511171525, 46.01640190194453], [-59.74534296139045, 46.01640854254428], [-59.74536158615777, 46.016412358787505], [-59.74539925059309, 46.016430525054425], [-59.74546245423888, 46.01647643981265], [-59.7456022622894, 46.0165596323896], [-59.745634944201306, 46.01657618941613], [-59.74563989940449, 46.01657870688062], [-59.74567864466839, 46.01657891121861], [-59.74600210815717, 46.01659263132974], [-59.746086181317764, 46.016594244450246], [-59.74619567629758, 46.01659634801056], [-59.74621464396786, 46.01658332434691], [-59.74623471512462, 46.01656954905745]]}, "properties": {"OBJECTID": 20327, "FEAT_CODE": "WACOIS10", "FEAT_DESC": "Coastal Island - Water to the right line", "RIVNAME_1": " ", "RIVNAME_2": " ", "ZVALUE": 0.6, "FID": null, "SHAPE_Length": 152.85014977560047}}, {"type": "Feature", "id": 21889, "geometry": {"type": "LineString", "coordinates": [[-59.73222971330196, 46.02039364739413], [-59.73229595433734, 46.020281034881606], [-59.73236612979357, 46.020161730315216], [-59.73251787538759, 46.01986724602328], [-59.73262759772055, 46.019671468011545], [-59.7326444086965, 46.01964382154861], [-59.732681961687334, 46.01958211551831], [-59.73274922348246, 46.019493132107534], [-59.73282938304644, 46.01940451775484], [-59.73292196350601, 46.019324359528234], [-59.73302896457162, 46.01921852049015], [-59.7331107803543, 46.01915044820786], [-59.733187909355195, 46.0190862651274], [-59.73332373707428, 46.01896523818845], [-59.73334747634741, 46.01894409943636], [-59.733507180197236, 46.01882085716921], [-59.733651662179646, 46.01871518083019], [-59.73386226165527, 46.0185834932691], [-59.73399480949857, 46.01850447755366], [-59.734096631161115, 46.01845357438817], [-59.73425706429468, 46.01837336687087], [-59.734320226898575, 46.01834817112552], [-59.73445287592255, 46.01829526016253], [-59.7346371314282, 46.018238514585065], [-59.73470156773901, 46.0182186655447], [-59.73500119534178, 46.018132726075834], [-59.73509565971881, 46.01811040525092], [-59.73510713653457, 46.018107700178675], [-59.735144004068495, 46.01809900658876], [-59.73535401022626, 46.01805272613038], [-59.73559951442594, 46.017998621473254], [-59.736067444571745, 46.01790669034806], [-59.736767216060336, 46.01778637907522], [-59.7370280376553, 46.01774152996186], [-59.737495666252855, 46.017676586831186], [-59.73794958250411, 46.01760314924884], [-59.738029974400305, 46.017586994511504], [-59.73811823641116, 46.017569264408465], [-59.73833871262721, 46.01755486148359], [-59.739137943264986, 46.017584892457755], [-59.739473496250994, 46.01759851734964], [-59.73951171083964, 46.01760006775228], [-59.73966664134473, 46.01760179199433], [-59.739690225922566, 46.01759706500763], [-59.739705862987954, 46.01759391122494], [-59.73973276848853, 46.01757577782923], [-59.73973248317438, 46.017558668116834], [-59.739725247244166, 46.01753431227306], [-59.73972170016375, 46.01752235689538], [-59.73972158605567, 46.0175133168099], [-59.73972146718963, 46.01750435759595], [-59.73972764381434, 46.01750038460035], [-59.73973489401293, 46.017495731196966], [-59.73979651723099, 46.01747973230612], [-59.73980049235178, 46.017478702715316], [-59.739808440898685, 46.01747711152773], [-59.73996914489329, 46.01744481509853], [-59.740293731556214, 46.017395577714304], [-59.74043623963741, 46.01738884548756], [-59.74061638353139, 46.01740118919636], [-59.74081000648072, 46.017404016504315], [-59.74093960403022, 46.01739691508797], [-59.7409725724171, 46.017400457438335], [-59.74104232236313, 46.017407947985205], [-59.74110638778061, 46.017416977382595], [-59.74114531359662, 46.01743609014372], [-59.74114425674167, 46.0174540616231], [-59.741091789342185, 46.0174894673437], [-59.741092535839655, 46.01749061375515], [-59.74110363012397, 46.01750780698117], [-59.74113485388371, 46.01751531385181], [-59.741141847507336, 46.01751699861574], [-59.74137416392375, 46.01752092943421], [-59.7416721310907, 46.01750693163431], [-59.74176299590098, 46.01749962393946], [-59.741867401518455, 46.017437797578914], [-59.74202574378359, 46.01735950865334], [-59.74216365062326, 46.01730995205933], [-59.742169603214165, 46.01730780870666], [-59.742183404215005, 46.01730291903778], [-59.742364872351985, 46.01723867376279], [-59.742521100569306, 46.01719632712052], [-59.742531990717055, 46.0171948016717], [-59.742638340994986, 46.01717987037378], [-59.742703409983335, 46.01717182594265], [-59.742748257002, 46.01717878496439], [-59.742767422107505, 46.01718176196893], [-59.74281162541802, 46.01719505718171], [-59.74295911330145, 46.017239426531994], [-59.74306280532641, 46.01725697497873], [-59.743074241269504, 46.01725891236335], [-59.74310003651718, 46.01725964822964], [-59.74317858407429, 46.01724208712562], [-59.7432434323774, 46.01721603444517], [-59.74327027086968, 46.0171987983867], [-59.74327079894822, 46.01718981262762], [-59.74325819581826, 46.01716245064655], [-59.74322444546784, 46.01712253232743], [-59.743196589951204, 46.017089586777836], [-59.743184857779866, 46.01706411280376], [-59.74318399977604, 46.017062225157666], [-59.74321136629424, 46.0170360033525], [-59.74322044000721, 46.01702977259656], [-59.74325040630269, 46.01700921445445], [-59.743303053243544, 46.01699270559042], [-59.743406633252555, 46.016966866563195], [-59.74350138726394, 46.01694831838293], [-59.74357522950143, 46.016933872090384], [-59.74383444727038, 46.01691967247187], [-59.743962988088896, 46.016930530125414], [-59.74400227441413, 46.01692174964091], [-59.744028069528845, 46.0169224852936], [-59.744132946166964, 46.01685257945308], [-59.74427761759733, 46.01680899174448], [-59.74439404212072, 46.016784409185426], [-59.744438582868796, 46.01677722751682]]}, "properties": {"OBJECTID": 21889, "FEAT_CODE": "WACOIS10", "FEAT_DESC": "Coastal Island - Water to the right line", "RIVNAME_1": " ", "RIVNAME_2": " ", "ZVALUE": 0.6, "FID": null, "SHAPE_Length": 1154.7805353990088}}, {"type": "Feature", "id": 22374, "geometry": {"type": "LineString", "coordinates": [[-59.73316902472853, 45.9974008935479], [-59.73314270961156, 45.99740914138425], [-59.733103978026065, 45.99740893314798], [-59.732885997919624, 45.9973603913253], [-59.73273869516798, 45.99731192762523], [-59.73254140064666, 45.997247019539486], [-59.73245139694304, 45.99721834109072], [-59.73238687984724, 45.997217394591736], [-59.73236178953136, 45.99722567730407], [-59.73233419662189, 45.99723478846553], [-59.73230018327274, 45.99725773917109], [-59.73228174366773, 45.997270190601334], [-59.73222774593904, 45.99731843771024], [-59.73220267622014, 45.99734083430617], [-59.73216152740845, 45.997403562492934], [-59.732134383371815, 45.997447789759875], [-59.73211854361661, 45.99751934313966], [-59.732117714819125, 45.99755532280562], [-59.73213030845294, 45.99758268583041], [-59.73213303314079, 45.99758400593916], [-59.732167981108546, 45.99760086578153], [-59.732296200382294, 45.997638739053045], [-59.732309041094986, 45.99764525416663], [-59.73233380782005, 45.997657808166196], [-59.732340955397945, 45.997665600460664], [-59.7323592939904, 45.99768554917991], [-59.73236454207699, 45.99769774252471], [-59.73237065142499, 45.99771197671006], [-59.732363643380744, 45.99772219910641], [-59.7323579358542, 45.997730514542944], [-59.73235241923319, 45.997734055993504], [-59.73234451341741, 45.99773913121046], [-59.73218810359073, 45.99776345701214], [-59.732135650028056, 45.997798859062186], [-59.732128585203576, 45.99781311219829], [-59.73212245778483, 45.99782548398688], [-59.732121112339954, 45.99787044971], [-59.73214476730701, 45.997907130200424], [-59.73225842338454, 45.998016602429914], [-59.73227050109689, 45.998052942516125], [-59.73226838306796, 45.99808888527918], [-59.7322417553693, 45.99812412650094], [-59.73220166501135, 45.99816888330025], [-59.732147675423484, 45.998230343843815], [-59.73210569699048, 45.99832905164448], [-59.73208878629206, 45.998361573690175], [-59.73207802287236, 45.99838226456739], [-59.732069826243034, 45.9983878894932], [-59.73203899128923, 45.998409049922664], [-59.731986306810285, 45.99842644359964], [-59.73195770830089, 45.99843069242966], [-59.731935507028204, 45.99843399027213], [-59.731902551577164, 45.998428456458875], [-59.731819107243545, 45.99841445664975], [-59.731717318800186, 45.99837709648264], [-59.731640875871854, 45.9983490486365], [-59.73161614894338, 45.9983303390478], [-59.73160902641242, 45.9983203692206], [-59.731603025797504, 45.99831196165592], [-59.731600271107084, 45.998298660548684], [-59.731591968181384, 45.998258540093744], [-59.73158103315725, 45.99824664294631], [-59.731566494520216, 45.998230808269014], [-59.7315530054908, 45.99822061116683], [-59.731529390825884, 45.998202752479095], [-59.73147882548044, 45.99818419420278], [-59.73146290284447, 45.99818022800889], [-59.73140118426258, 45.998164869711694], [-59.73135008880992, 45.9981553060486], [-59.73133381663052, 45.99815792744971], [-59.73129793404418, 45.998163713726925], [-59.73123311617741, 45.99818976050628], [-59.731223015171004, 45.998202495519486], [-59.731219163778256, 45.99820736271441], [-59.731218104947914, 45.99822532509094], [-59.73124412046802, 45.9982440806623], [-59.73135784558443, 45.998308542529784], [-59.73138257241331, 45.99832725217194], [-59.73139521879957, 45.99835371670151], [-59.731380613586815, 45.99842621440448], [-59.7313839911107, 45.99843727413654], [-59.731391441555, 45.99846161871734], [-59.731441655046126, 45.99850806058139], [-59.73146334947224, 45.99851971673192], [-59.731492980868175, 45.99853563249088], [-59.731526563261085, 45.99854564879133], [-59.73155643966189, 45.99855455988859], [-59.73181451466097, 45.99855833872247], [-59.73189215605245, 45.998577671935436], [-59.73191448155296, 45.99858585373661], [-59.731942722957236, 45.99859621206942], [-59.73194555163054, 45.99860037042567], [-59.731967680295966, 45.99863292987444], [-59.731989983657115, 45.99865989579311], [-59.73200505422336, 45.99867810386339], [-59.73201900975259, 45.998716108877765], [-59.73205179175313, 45.99880545357093], [-59.73209398131645, 45.99892122399819], [-59.73212405343182, 45.99900374046464], [-59.732184743823154, 45.99911348780803], [-59.732199945416845, 45.99913583098982], [-59.732221588698806, 45.99916764742465], [-59.7322211993409, 45.999184773890036], [-59.73222075988471, 45.99920362708376], [-59.73219391422742, 45.99922086036089], [-59.73217897603643, 45.999220783809285], [-59.7321551813975, 45.99922065176895], [-59.731881168007874, 45.99919207917078], [-59.73184583009526, 45.9991883943216], [-59.7318282025165, 45.99918815072754], [-59.73166516478122, 45.99918593160343], [-59.73152399302617, 45.9991926820421], [-59.73134558437813, 45.99919707006192], [-59.73130410587167, 45.99919808769183], [-59.73129617442696, 45.99919986779235], [-59.73126486917348, 45.99920686521663], [-59.73125693672852, 45.99921194859623], [-59.73125143331038, 45.99921548137045], [-59.7312509036171, 45.999224467050276], [-59.73126284628241, 45.99924118152826], [-59.731264026843434, 45.99924284448282], [-59.731365920020494, 45.999288965870136], [-59.73139764650856, 45.9993050586468], [-59.73140354057348, 45.99930804466144], [-59.73140882610495, 45.99932398347189], [-59.73141560453224, 45.99934439344032], [-59.731402182080075, 45.99935300099491], [-59.731350025654194, 45.999361417651365], [-59.73116888363319, 45.99936703225906], [-59.731143044036585, 45.99936719248815], [-59.73110459399159, 45.99938409324308], [-59.731089109462395, 45.99939437888046], [-59.731064271892016, 45.99941084131204], [-59.73106291258679, 45.99945580661905], [-59.73110028574875, 45.999500989879664], [-59.73115162570796, 45.99952855334216], [-59.731469022222974, 45.99968705483939], [-59.731589840835525, 45.99974604001029], [-59.731811743682194, 45.99985438118264], [-59.7320849054838, 45.99999716828595], [-59.73210868620487, 46.0000095950959], [-59.732120103828315, 46.00001550243986], [-59.73216759094554, 46.00004008388715], [-59.732177959304764, 46.00004714030207], [-59.73218000782543, 46.000048540064], [-59.73220603406017, 46.0000627502895], [-59.73243401464596, 46.00018722270353], [-59.73254792194341, 46.00027059934608], [-59.732572933862855, 46.00030640948583], [-59.732570815863326, 46.00034235224551], [-59.73255809970642, 46.000360890079214], [-59.732553237643074, 46.00036186703018], [-59.732518889513585, 46.00036876871005], [-59.73247984986643, 46.000375068060016], [-59.73246673226485, 46.0003771858547], [-59.7322871231496, 46.00035673466985], [-59.7322097088553, 46.00035541892508], [-59.73219385456776, 46.000360581648245], [-59.73210567851019, 46.00038934464387], [-59.732071424234796, 46.00039487174626], [-59.732053521719116, 46.00039775261172], [-59.73178337371492, 46.00035762534449], [-59.73174803815394, 46.000356955817146], [-59.731693066430324, 46.0003559311584], [-59.731653273520116, 46.000373693738595], [-59.731649508315975, 46.00038345087304], [-59.73163955071508, 46.000409304256316], [-59.73165214468098, 46.000436667333396], [-59.731738134855405, 46.00051204488779], [-59.731777409436, 46.000546463336114], [-59.731802137368476, 46.00056517291163], [-59.7318464625367, 46.00058446148569], [-59.731866345940524, 46.00059311343468], [-59.73196802533721, 46.00062121746144], [-59.732186776476055, 46.000678792913014], [-59.73225129758839, 46.00067973963214], [-59.73227386544666, 46.000673742965944], [-59.73231558843738, 46.00066267803602], [-59.732368804524334, 46.000636298579124], [-59.73241490665546, 46.00060549408946], [-59.73243468387191, 46.00059227984966], [-59.732473147288, 46.00057537903012], [-59.732497307295105, 46.000572389166315], [-59.73253818491014, 46.000567339525986], [-59.73260217641024, 46.00057727173292], [-59.73266662778976, 46.000597811058654], [-59.73269218555767, 46.000605950196245], [-59.732707527835316, 46.00060881950514], [-59.7327943814832, 46.00062507642414], [-59.732922894726364, 46.000635945842944], [-59.732975281586455, 46.00064555474945], [-59.733028983008275, 46.00069664113425], [-59.73306211448875, 46.000728147088715], [-59.73316177298746, 46.00085611058299], [-59.73321602691247, 46.00097805832609], [-59.73322220848931, 46.00099195249384], [-59.733224862509, 46.001022973336525], [-59.73323139391275, 46.00109932536452], [-59.73323710073838, 46.001167093994844], [-59.73324127349468, 46.001216619023296], [-59.73322515022218, 46.001296274171175], [-59.73321030111354, 46.00136964718391], [-59.73318800341316, 46.00144317608967], [-59.733167017067444, 46.001512422110274], [-59.733124521081784, 46.00162011628218], [-59.733015044417755, 46.001833903834466], [-59.73295909867007, 46.00195021390204], [-59.73294515868911, 46.00196781666981], [-59.732907183841, 46.00197663087075], [-59.73289428989971, 46.00197626188212], [-59.732824074567894, 46.00195706988138], [-59.73279133156965, 46.00194811309072], [-59.73271391502369, 46.00194679762868], [-59.7326741613082, 46.001963661601124], [-59.73266092816123, 46.00199118549003], [-59.73266009948926, 46.00202716514386], [-59.73269695951251, 46.00208132501689], [-59.73280849446917, 46.00222673028829], [-59.73283130216381, 46.00227892181899], [-59.73283239490753, 46.00228141932164], [-59.73283504599891, 46.00229056803887], [-59.73285598342531, 46.002363101949236], [-59.73290414943801, 46.002444587827625], [-59.73293079011853, 46.00249135350806], [-59.7329661871461, 46.002553473171794], [-59.73308485953283, 46.00269351088915], [-59.7331280081346, 46.00274442124718], [-59.733151379635345, 46.00280809591503], [-59.73314290116907, 46.002819590400854], [-59.73312471000294, 46.002844236210905], [-59.73308278176101, 46.002942054673795], [-59.733080840723275, 46.0029451854277], [-59.73305563602141, 46.00298627308538], [-59.7330547343013, 46.00301209769807], [-59.73305374861163, 46.00304022412319], [-59.733076828947276, 46.003083413558414], [-59.733078178541156, 46.00308593641004], [-59.733113968334685, 46.00315805819525], [-59.73317519426939, 46.00325881942802], [-59.733235115546336, 46.0034036474145], [-59.73323844700142, 46.00341352665538], [-59.73325931322933, 46.00347544645163], [-59.733289530382976, 46.00355907381118], [-59.73331817605169, 46.00363824578423], [-59.73334613982852, 46.0037585860837], [-59.73337484026526, 46.003881989736385], [-59.73340003133354, 46.003936715566184], [-59.733435499005445, 46.00398954822497], [-59.733448715931175, 46.00400921519297], [-59.733462610423196, 46.0040252742075], [-59.73353578570069, 46.00410980658302], [-59.73363603277888, 46.00422789451438], [-59.73366046419477, 46.00427359770966], [-59.73368436625559, 46.00432828659407], [-59.733694545728476, 46.00441858622686], [-59.73369361546953, 46.004444680048366], [-59.73369265881477, 46.00447253727916], [-59.73364914196206, 46.004597312999785], [-59.73361722577494, 46.00466527427873], [-59.73359449730232, 46.004713651567975], [-59.733486685118756, 46.00485548041268], [-59.73341225836347, 46.00492984002437], [-59.733353559584586, 46.0049884841078], [-59.73320889668439, 46.00507615331752], [-59.73305828095239, 46.005156334317135], [-59.73301154260732, 46.005181216300805], [-59.732959873582566, 46.00519968358153], [-59.73284133600545, 46.00524204264582], [-59.73270850001208, 46.00528067107516], [-59.73260741431339, 46.00531006409128], [-59.73244653745957, 46.00533727770316], [-59.732411716304746, 46.00534316672101], [-59.73211379728415, 46.005401245688816], [-59.73198590997131, 46.00541528962272], [-59.73197078998424, 46.00541695400596], [-59.73167288694383, 46.00543092816786], [-59.73158489740721, 46.00542943527778], [-59.731518044272505, 46.00542829541679], [-59.731425498891475, 46.00541797716259], [-59.73123573788034, 46.00539681067445], [-59.731142874280906, 46.00538356680733], [-59.731093560263986, 46.005376538288814], [-59.73100514391522, 46.00535315168933], [-59.73091423525493, 46.005329099599486], [-59.73087538594807, 46.00531655609551], [-59.73082550903594, 46.005300456497736], [-59.73078196835669, 46.00527678859772], [-59.73072413544667, 46.00524534871997], [-59.730471523794385, 46.00506079806032], [-59.73036171512471, 46.004996735576206], [-59.73028173889746, 46.0049500529353], [-59.73021833033023, 46.00488614009482], [-59.730207026178185, 46.00485880481469], [-59.730195447379, 46.00479955368855], [-59.73018420579195, 46.004742031379344], [-59.7301723708103, 46.00469873140262], [-59.73016188355683, 46.00466039348463], [-59.73007514605836, 46.00453279750683], [-59.730012498174204, 46.00447789817448], [-59.72994933330736, 46.00443198483987], [-59.729796631960355, 46.004349303594026], [-59.72960530078572, 46.00426461547229], [-59.729262258932465, 46.00412427596408], [-59.729206862315145, 46.00410017778509], [-59.72919803486604, 46.00409633354659], [-59.729193776240784, 46.004093862318875], [-59.729134340991116, 46.00405940544138], [-59.729117730145234, 46.004047156435696], [-59.72908483100586, 46.00402288367848], [-59.72902195552964, 46.00394997559139], [-59.72889124307956, 46.00374093025196], [-59.72886263334298, 46.00369518731091], [-59.72884834948647, 46.00368224886862], [-59.728812364597616, 46.00364964284468], [-59.728728060222934, 46.00357961291231], [-59.728723714260155, 46.00357599605727], [-59.72858520078249, 46.00349371970697], [-59.72840676866931, 46.00340939917687], [-59.72826701916163, 46.003326195932544], [-59.72816701419364, 46.003226111862716], [-59.72805500018027, 46.00308878007295], [-59.72793359030649, 46.002942367052235], [-59.727843988982926, 46.00283431809393], [-59.727684132001215, 46.00258851363026], [-59.72764759116304, 46.002507358748275], [-59.72765326900733, 46.00234550630924], [-59.72764150860177, 46.00228216331106], [-59.72761828460263, 46.00224739343364], [-59.72760471941416, 46.00222710374044], [-59.72758404855507, 46.00220444116634], [-59.72755499623865, 46.00217257350105], [-59.727497472758465, 46.00213028581569], [-59.7274670960178, 46.00210794806055], [-59.72745809422988, 46.00210246953529], [-59.727391042040416, 46.00206166381945], [-59.72735627878596, 46.00203640102987], [-59.72732788153888, 46.0020157581347], [-59.72712414626964, 46.001922600460944], [-59.72712209920378, 46.00192161468883], [-59.727086472500496, 46.001904418821866], [-59.726944836016, 46.00187515589905], [-59.726817382905736, 46.001846299446704], [-59.7267392079558, 46.00183595733579], [-59.726648898108174, 46.00183426808341], [-59.72637814389032, 46.00184810669773], [-59.726362882695625, 46.00184802012295], [-59.72633940935534, 46.00184789608324], [-59.726299319281146, 46.001841769033746], [-59.72627411544019, 46.00183792301358], [-59.726202361905365, 46.001799763042584], [-59.72618648368743, 46.0017913149673], [-59.72615906154756, 46.00177429107847], [-59.72609676627771, 46.00173562819629], [-59.72608495903052, 46.0017269188142], [-59.72604726035867, 46.001699105212], [-59.72604742220407, 46.0016847715074], [-59.72604786508798, 46.00164511748462], [-59.726075774943595, 46.00160991448296], [-59.726111535270384, 46.0015775918505], [-59.72611532931045, 46.00157414531769], [-59.726221802654464, 46.00147728920213], [-59.7262298524376, 46.0014700133315], [-59.72626136972421, 46.00144152035021], [-59.72626206820892, 46.00141853421956], [-59.7262627459531, 46.00139655558874], [-59.726237725370794, 46.0013607348121], [-59.72618827273194, 46.001323313330296], [-59.72607348678027, 46.0012768175948], [-59.72603775698393, 46.00125941142127], [-59.72599690453929, 46.00123951811028], [-59.72581812813534, 46.001183086229254], [-59.725703255051904, 46.001150979971996], [-59.72561356480751, 46.00112591446929], [-59.72540794110254, 46.00108670461662], [-59.72536815143307, 46.00108053184907], [-59.72534393710645, 46.0010767770105], [-59.725266004428725, 46.00108444252595], [-59.7252138461122, 46.00109284732142], [-59.72517486243104, 46.00111873161603], [-59.725173270293915, 46.00114568848274], [-59.72517797040174, 46.00115226791114], [-59.72518639188627, 46.00116406656731], [-59.725224064507586, 46.001182248805556], [-59.72528769938583, 46.00122007751324], [-59.72529386480321, 46.00123443069416], [-59.725299054041194, 46.00124650566264], [-59.72529511982765, 46.00125669878193], [-59.72528532694832, 46.00128211529663], [-59.7252326382714, 46.00129949673269], [-59.72522969670179, 46.00129988039901], [-59.72516887489796, 46.00130757762219], [-59.725090928982596, 46.00131524263861], [-59.72486464448692, 46.001321001414645], [-59.72485809958217, 46.00132116468866], [-59.72483828161232, 46.00132082117341], [-59.724625853512464, 46.00131721106921], [-59.7244333512688, 46.00129637760247], [-59.72434281480284, 46.00127667832639], [-59.72426646143399, 46.001257385935126], [-59.72425647003322, 46.00125270683831], [-59.72422749972872, 46.001239166391734], [-59.724158752182674, 46.001198913173894], [-59.72410141471632, 46.00116534191843], [-59.724037196759056, 46.00113739674545], [-59.723973737323945, 46.00111847414847], [-59.72389684049992, 46.001108166759884], [-59.7237893357008, 46.001125153608065], [-59.72368956171542, 46.00114092207944], [-59.723658595769365, 46.00114039344523], [-59.7236121597459, 46.001139600848205], [-59.72354739821063, 46.001120640644785], [-59.72347157687835, 46.00109235314142], [-59.723348846980244, 46.00103695884735], [-59.72330552203485, 46.00101739864315], [-59.72324200895574, 46.000977754149226], [-59.72312864672147, 46.00090700301717], [-59.722951013296765, 46.00078759350651], [-59.722811810360824, 46.000695389357325], [-59.72270516531028, 46.00064321035116], [-59.722622270166404, 46.00060264007558], [-59.72256185889865, 46.00058045587889], [-59.722545160154986, 46.000574323957736], [-59.722522954744576, 46.000568709010395], [-59.722468808432396, 46.00055503040427], [-59.72243012800351, 46.00055391992746], [-59.722222610708386, 46.000568664035875], [-59.722183877160916, 46.00056845203512], [-59.72216583271584, 46.000563892573034], [-59.722107525585415, 46.00054915824348], [-59.7220556716498, 46.00053056779086]]}, "properties": {"OBJECTID": 22374, "FEAT_CODE": "WACOIS10", "FEAT_DESC": "Coastal Island - Water to the right line", "RIVNAME_1": " ", "RIVNAME_2": " ", "ZVALUE": 0.6, "FID": null, "SHAPE_Length": 2726.8054837007885}}, {"type": "Feature", "id": 118640, "geometry": {"type": "LineString", "coordinates": [[-59.74107639588925, 46.00575554748562], [-59.74108851664754, 46.00574689263982], [-59.74110125707784, 46.0057448350923], [-59.74114067737333, 46.005738480646386], [-59.74123152284538, 46.0057311728506], [-59.741307888821645, 46.00575045419847], [-59.7413306047279, 46.00576107550834], [-59.74134685955295, 46.005768668131594], [-59.74138419297068, 46.005814737908665], [-59.7414071003262, 46.00588648934208]]}, "properties": {"OBJECTID": 118640, "FEAT_CODE": "WALK20", "FEAT_DESC": "Lake - Water to the right line", "RIVNAME_1": " ", "RIVNAME_2": " ", "ZVALUE": 22.7, "FID": null, "SHAPE_Length": 36.565078512387664}}, {"type": "Feature", "id": 118641, "geometry": {"type": "LineString", "coordinates": [[-59.7414071003262, 46.00588648934208], [-59.74139155454046, 46.00590265216876], [-59.74138096202951, 46.00591365488069], [-59.74135652742183, 46.00592172426423], [-59.74132828587726, 46.00593105310789], [-59.74123816269617, 46.00594738243383], [-59.7412303915194, 46.00594203013783], [-59.74122453222088, 46.005937992530946], [-59.74121269366118, 46.00591965293945], [-59.741189516323196, 46.00589424806388], [-59.741162940760496, 46.00586512784686], [-59.74114185920544, 46.00585021475303], [-59.74112449824405, 46.005837928093186], [-59.74111265973759, 46.005819588492486], [-59.741100588185255, 46.005783240566686], [-59.74107639588925, 46.00575554748562]]}, "properties": {"OBJECTID": 118641, "FEAT_CODE": "WALK20", "FEAT_DESC": "Lake - Water to the right line", "RIVNAME_1": " ", "RIVNAME_2": " ", "ZVALUE": 22.7, "FID": null, "SHAPE_Length": 40.509458210389276}}, {"type": "Feature", "id": 118642, "geometry": {"type": "LineString", "coordinates": [[-59.74036041138379, 46.00591602404758], [-59.74038731079822, 46.00589789030979], [-59.74045160553574, 46.00588082423728], [-59.740490201224716, 46.00589706557354], [-59.74054109923628, 46.0059184825765], [-59.74064166943618, 46.005931857785605], [-59.740696177295796, 46.00593911145226], [-59.74073333016469, 46.005966274533165], [-59.740733457508234, 46.00597487396668], [-59.740733563096235, 46.00598428285432]]}, "properties": {"OBJECTID": 118642, "FEAT_CODE": "WALK20", "FEAT_DESC": "Lake - Water to the right line", "RIVNAME_1": " ", "RIVNAME_2": " ", "ZVALUE": 22.7, "FID": null, "SHAPE_Length": 34.73983934098622}}, {"type": "Feature", "id": 118643, "geometry": {"type": "LineString", "coordinates": [[-59.740733563096235, 46.00598428285432], [-59.74065455554531, 46.006009929886424], [-59.740602394500115, 46.006018341648556], [-59.74048171476293, 46.006016579401035], [-59.7404733514211, 46.006016466634776], [-59.74042329131505, 46.00598892595417], [-59.74041317270329, 46.00598395662243], [-59.7403843735876, 46.005969813135096], [-59.74037195412952, 46.00596135778973], [-59.7403632449505, 46.0059403261996], [-59.740360631299836, 46.00593403199823], [-59.74036041138379, 46.00591602404758]]}, "properties": {"OBJECTID": 118643, "FEAT_CODE": "WALK20", "FEAT_DESC": "Lake - Water to the right line", "RIVNAME_1": " ", "RIVNAME_2": " ", "ZVALUE": 22.7, "FID": null, "SHAPE_Length": 36.04465513616547}}, {"type": "Feature", "id": 118648, "geometry": {"type": "LineString", "coordinates": [[-59.74530920161331, 46.006216527067295], [-59.74534789976674, 46.00621763027247], [-59.74535438018953, 46.006219894207405], [-59.74537318936761, 46.006226451970676], [-59.74538474918812, 46.00627178568198], [-59.7453970710026, 46.006326141948115], [-59.7453949608641, 46.0063620851289], [-59.745368864621796, 46.00638834369217], [-59.74532907139633, 46.00640611102709], [-59.74526401543639, 46.00641415731415]]}, "properties": {"OBJECTID": 118648, "FEAT_CODE": "WALK20", "FEAT_DESC": "Lake - Water to the right line", "RIVNAME_1": " ", "RIVNAME_2": " ", "ZVALUE": 20.5, "FID": null, "SHAPE_Length": 32.764280839976706}}, {"type": "Feature", "id": 118649, "geometry": {"type": "LineString", "coordinates": [[-59.74526401543639, 46.00641415731415], [-59.74521343728829, 46.00639561381091], [-59.74520159729624, 46.0063772745968], [-59.7452120063515, 46.00635024481715], [-59.74521531316325, 46.006341662287056], [-59.74525592761927, 46.00628790606746], [-59.74528015841041, 46.00624127946654], [-59.745283593094705, 46.006234698764956], [-59.7453020312298, 46.00622161514327], [-59.74530920161331, 46.006216527067295]]}, "properties": {"OBJECTID": 118649, "FEAT_CODE": "WALK20", "FEAT_DESC": "Lake - Water to the right line", "RIVNAME_1": " ", "RIVNAME_2": " ", "ZVALUE": 20.5, "FID": null, "SHAPE_Length": 26.644202378034205}}, {"type": "Feature", "id": 118651, "geometry": {"type": "LineString", "coordinates": [[-59.746604991973776, 46.01384926022482], [-59.746570302851055, 46.01387197987655], [-59.74653915984471, 46.01389238835032], [-59.74649936145043, 46.01391015594052], [-59.746447428323904, 46.013936578529176], [-59.74636948814206, 46.01398152170079], [-59.746341810360484, 46.013997474456744], [-59.74619765745723, 46.014076173779316], [-59.746155015872546, 46.014104958235805], [-59.74614519647828, 46.01411158201173], [-59.7461129278222, 46.01413531559524], [-59.746025032524436, 46.01419996563515], [-59.745983721894675, 46.014227860876716], [-59.7459469990202, 46.01425264656752], [-59.745898043400565, 46.01428159299495], [-59.74582790256367, 46.01432305875859], [-59.74573569491029, 46.014375335535874], [-59.7457100383777, 46.01438392007146], [-59.74563159261172, 46.014410171614934], [-59.74559290163048, 46.01440906872278], [-59.745565933757284, 46.01440258446783], [-59.74555468554301, 46.014399878612025], [-59.74555116375527, 46.01439495377886], [-59.7455415541717, 46.01438150264268], [-59.745533180138025, 46.01437517037548], [-59.7455291848464, 46.014372149219724], [-59.74547889226307, 46.014326620531705], [-59.74542546123937, 46.01427228055453], [-59.745316756020124, 46.014161774816074], [-59.745253873711114, 46.01408887564395], [-59.74522299689091, 46.01401895006077], [-59.74520597349303, 46.013980400254894], [-59.74516998056328, 46.013889365879066], [-59.7451196344324, 46.0137847090766], [-59.74510896246977, 46.013762514815156], [-59.74509687589179, 46.01374153133718], [-59.74503629763986, 46.013636231748116], [-59.74496465230796, 46.013548465231956], [-59.74492422074299, 46.01349892404388], [-59.74490026045463, 46.01347841208389], [-59.74484916614346, 46.01343467841896], [-59.7447470144735, 46.01337056021676], [-59.74456773309553, 46.013290075342795], [-59.744517941345975, 46.013267719629226], [-59.744509221494795, 46.01326134142114], [-59.74448078185353, 46.013240557630354], [-59.74445687854512, 46.01318587106158], [-59.744471111724025, 46.013141272790655], [-59.74453834657341, 46.01305228163588], [-59.7445558243657, 46.01303469734605], [-59.74456443361417, 46.01302602301446], [-59.74457791084201, 46.01301650639913], [-59.74459826433017, 46.013012424334065], [-59.744617128596616, 46.01300862383157], [-59.74465587134145, 46.013008828450495], [-59.74473195489834, 46.01305510189254], [-59.74493441293051, 46.01319318653604], [-59.74508987999383, 46.01328279379522], [-59.74511184689091, 46.013295454169416], [-59.74520010585985, 46.013332173501986], [-59.74536676757585, 46.013398130325605], [-59.745494257726904, 46.01342696697297], [-59.74559983168289, 46.01343391880051], [-59.745662823122366, 46.013438072589096], [-59.74571518058075, 46.01345128408847], [-59.74573921417662, 46.01345735164032], [-59.745802695610365, 46.01347626267137], [-59.74582063561506, 46.013486224890414], [-59.74585398963187, 46.0135047271976], [-59.74587301591924, 46.01351841070935], [-59.74590480888047, 46.013541278911596], [-59.7460301309436, 46.01365106059378], [-59.74619197553714, 46.01384289046679], [-59.74629097804148, 46.013960913567686], [-59.74630334688437, 46.01397027589541], [-59.746316243784975, 46.013970643444736], [-59.74631835335902, 46.01393470926484], [-59.74631269997712, 46.01390975987602], [-59.74629578353292, 46.01383504796522], [-59.74629733525815, 46.013776928853595], [-59.74629795189318, 46.01375410233189], [-59.74631247718173, 46.013682500683714], [-59.74632030541224, 46.01365213897482], [-59.7463426143093, 46.013565457742786], [-59.74634953048788, 46.01354380984101], [-59.746356858993956, 46.01352085956896], [-59.7463468926164, 46.01344856893347], [-59.74633335212635, 46.013436941014255], [-59.746282941741356, 46.01339364152332], [-59.7461631283048, 46.013299831565135], [-59.74610756264834, 46.01325633106325], [-59.7460820621633, 46.01322860179644], [-59.74606757148651, 46.013207855929295], [-59.746057036501675, 46.013192785313244], [-59.746050587684564, 46.013167525211465], [-59.74603393876716, 46.01310212773338], [-59.74603604951527, 46.01306617558651], [-59.74605348604907, 46.013048625895244], [-59.74606213587175, 46.013039916604086], [-59.746075032553, 46.01304028417492]]}, "properties": {"OBJECTID": 118651, "FEAT_CODE": "WALK20", "FEAT_DESC": "Lake - Water to the right line", "RIVNAME_1": " ", "RIVNAME_2": " ", "ZVALUE": 2.4, "FID": null, "SHAPE_Length": 583.9681395262872}}, {"type": "Feature", "id": 119494, "geometry": {"type": "LineString", "coordinates": [[-59.72632467325767, 46.01845761584484], [-59.726350468631836, 46.0184583555062], [-59.72635579683484, 46.01846198260653], [-59.726362888562775, 46.01846681237972], [-59.72636933759577, 46.018476835202655], [-59.726374724574626, 46.018485153418204], [-59.72637406131368, 46.01850709641744], [-59.72637336014631, 46.018530118428906], [-59.72634680657628, 46.018606944158996], [-59.72634531358881, 46.01861122174574], [-59.7263041936909, 46.01867305744954], [-59.726290993690036, 46.018699672424894], [-59.7262511856505, 46.01871743267487], [-59.72623014377137, 46.018724579010176], [-59.726199769611064, 46.018734860047694]]}, "properties": {"OBJECTID": 119494, "FEAT_CODE": "WALK20", "FEAT_DESC": "Lake - Water to the right line", "RIVNAME_1": " ", "RIVNAME_2": " ", "ZVALUE": 3.9, "FID": null, "SHAPE_Length": 38.659158256596044}}, {"type": "Feature", "id": 119495, "geometry": {"type": "LineString", "coordinates": [[-59.726199769611064, 46.018734860047694], [-59.726161076363155, 46.01873375049733], [-59.72614888605005, 46.01873146575289], [-59.72610996316737, 46.01872418403393], [-59.72609973980498, 46.01871681621677], [-59.726083939151444, 46.01870544510918], [-59.72608436400803, 46.01868732062668], [-59.726084773468216, 46.018669456726634], [-59.72610560355352, 46.01864665190697], [-59.726124831309086, 46.01862560130034], [-59.72619202737162, 46.0185816239814], [-59.726218178713665, 46.01855447131699], [-59.72623192353303, 46.01851885314383], [-59.726245869525556, 46.01850126039296], [-59.72628539625989, 46.018466390507264], [-59.726309774326126, 46.01846094197227], [-59.72632467325767, 46.01845761584484]]}, "properties": {"OBJECTID": 119495, "FEAT_CODE": "WALK20", "FEAT_DESC": "Lake - Water to the right line", "RIVNAME_1": " ", "RIVNAME_2": " ", "ZVALUE": 3.9, "FID": null, "SHAPE_Length": 45.031637388283514}}, {"type": "Feature", "id": 119553, "geometry": {"type": "LineString", "coordinates": [[-59.728513445287305, 46.010969558996074], [-59.728530713306064, 46.01097530130268], [-59.72854004951961, 46.01097842209802], [-59.728576616075976, 46.01101547324863], [-59.72858308973566, 46.01102726082518], [-59.72860109897822, 46.01106027888623], [-59.72861316321712, 46.01109662791775], [-59.72860857135986, 46.011105047132624], [-59.728598663288984, 46.01112321493076], [-59.72857580607969, 46.0111438829395], [-59.728559103321544, 46.01115898476734], [-59.728536952627664, 46.01117753081497], [-59.72850609112466, 46.011203369945434], [-59.728479480112085, 46.01123861072802], [-59.72844906516351, 46.01128402145135], [-59.72842564877899, 46.01131897573114], [-59.72840002787364, 46.01136107650039], [-59.72837128689999, 46.01140832633848], [-59.72833779978175, 46.01142436928135], [-59.72831811142328, 46.01143380499864], [-59.72828621011701, 46.01144661706759], [-59.728253276381444, 46.01145984958233], [-59.72821453508648, 46.01145963942497]]}, "properties": {"OBJECTID": 119553, "FEAT_CODE": "WALK20", "FEAT_DESC": "Lake - Water to the right line", "RIVNAME_1": " ", "RIVNAME_2": " ", "ZVALUE": 26, "FID": null, "SHAPE_Length": 70.24969936183062}}, {"type": "Feature", "id": 119554, "geometry": {"type": "LineString", "coordinates": [[-59.72821453508648, 46.01145963942497], [-59.728188514140236, 46.011440892046636], [-59.72818407541262, 46.01142636350646], [-59.72817769958145, 46.01140547886832], [-59.72818974997198, 46.01138078389172], [-59.72820413512503, 46.01135133137665], [-59.72821250262562, 46.01134263334477], [-59.72829771572062, 46.01125410392176], [-59.72836566406653, 46.0111742155323], [-59.728370848586586, 46.01115947672377], [-59.72839371901472, 46.01109393997694], [-59.72840719842707, 46.011084425330374], [-59.72846150686627, 46.01099597325525], [-59.728475919554654, 46.0109857472759], [-59.72848712298104, 46.01097780555163], [-59.728511813304536, 46.01097007028271], [-59.728513445287305, 46.010969558996074]]}, "properties": {"OBJECTID": 119554, "FEAT_CODE": "WALK20", "FEAT_DESC": "Lake - Water to the right line", "RIVNAME_1": " ", "RIVNAME_2": " ", "ZVALUE": 26, "FID": null, "SHAPE_Length": 63.06828480182927}}, {"type": "Feature", "id": 119555, "geometry": {"type": "LineString", "coordinates": [[-59.72494054158066, 46.00720647948976], [-59.724954573994864, 46.007214271724266], [-59.72499181927104, 46.007234943992586], [-59.72506734664474, 46.00729022453102], [-59.725066338041394, 46.00730729719295], [-59.72505308684674, 46.007334819672835], [-59.72501356768774, 46.007369689380276], [-59.724986372529294, 46.007414813529806], [-59.72499635047121, 46.00748620639], [-59.72498361716073, 46.00750474287859], [-59.72494966230082, 46.00752654095026], [-59.72494333918739, 46.00753058995456], [-59.72492379697511, 46.00754106437701], [-59.72481262653394, 46.00760064702525], [-59.72475993107246, 46.007618037047855]]}, "properties": {"OBJECTID": 119555, "FEAT_CODE": "WALK20", "FEAT_DESC": "Lake - Water to the right line", "RIVNAME_1": " ", "RIVNAME_2": " ", "ZVALUE": 24.7, "FID": null, "SHAPE_Length": 60.876572187691785}}, {"type": "Feature", "id": 119556, "geometry": {"type": "LineString", "coordinates": [[-59.72475993107246, 46.007618037047855], [-59.7247088283028, 46.00760847022176], [-59.72456396814507, 46.00760599740728], [-59.72455398040324, 46.00760582786768], [-59.72453541531386, 46.00759867061131], [-59.724528721588, 46.007596093342904], [-59.72452569198022, 46.00759402623736], [-59.724502650052784, 46.00757825274148], [-59.724504242872825, 46.00755129592331], [-59.724558673201365, 46.00749055374622], [-59.724584450069514, 46.00746178853671], [-59.72466912162581, 46.007378043697834], [-59.72469145590162, 46.00735594832959], [-59.724758183454874, 46.00727595502378], [-59.72477160941385, 46.007267339354065], [-59.7247845044798, 46.007267709291725], [-59.724822404949386, 46.00723597052262], [-59.72483750272862, 46.00722332542595], [-59.72485303959768, 46.0072161474324], [-59.724876013227274, 46.0072055284379], [-59.72494054158066, 46.00720647948976]]}, "properties": {"OBJECTID": 119556, "FEAT_CODE": "WALK20", "FEAT_DESC": "Lake - Water to the right line", "RIVNAME_1": " ", "RIVNAME_2": " ", "ZVALUE": 24.7, "FID": null, "SHAPE_Length": 78.00370373458547}}, {"type": "Feature", "id": 119613, "geometry": {"type": "LineString", "coordinates": [[-59.74589933332492, 46.00551508252026], [-59.74580344574944, 46.00549630091112], [-59.745797163158635, 46.0054950687355], [-59.745780327537496, 46.00548503896843], [-59.74572104885715, 46.00544969515177], [-59.745695551949375, 46.005421965867264], [-59.745672646731656, 46.005387712841085], [-59.74565874259095, 46.00536691161078], [-59.745645807845534, 46.00536744298746], [-59.74555436449767, 46.005428742266666], [-59.74550167712478, 46.00544614210113], [-59.745475887306874, 46.00544540692171], [-59.74545115250813, 46.005426700142245], [-59.74545145843859, 46.00539970635898], [-59.74544277653473, 46.005283348094515], [-59.74544338022675, 46.00526338345038], [-59.745444124583294, 46.005238382348494], [-59.74544333436009, 46.00523600160285], [-59.74543205027039, 46.005202034805656], [-59.7454321979627, 46.005189617863586], [-59.74543234330808, 46.00517504065417], [-59.745437945520536, 46.00516475938809], [-59.745446820667894, 46.005148450855344], [-59.745500341160735, 46.00509507145506], [-59.74553349387146, 46.00507291137384], [-59.745632077814115, 46.00500701821], [-59.745697424971006, 46.00497197750968], [-59.745749584376526, 46.004963563370545]]}, "properties": {"OBJECTID": 119613, "FEAT_CODE": "WALK20", "FEAT_DESC": "Lake - Water to the right line", "RIVNAME_1": " ", "RIVNAME_2": " ", "ZVALUE": 21, "FID": null, "SHAPE_Length": 109.77559623089745}}, {"type": "Feature", "id": 119617, "geometry": {"type": "LineString", "coordinates": [[-59.74469301411117, 46.00447979954432], [-59.74465238817422, 46.004533546245135], [-59.744633330192336, 46.00455037443858], [-59.74461289596671, 46.004568423503265], [-59.74455418124779, 46.004593013718456], [-59.744508284134454, 46.00461224486925], [-59.74449089733094, 46.00461534941387], [-59.74441691313276, 46.00462854112435], [-59.7444289124646, 46.00463315869396], [-59.74444217488638, 46.00463826232209], [-59.744425887122716, 46.004640687130745], [-59.74439135786149, 46.004645814058854], [-59.744353061751625, 46.00465437988833], [-59.74435208040117, 46.00465459492615], [-59.74434640940269, 46.00465240802039], [-59.74432683155188, 46.004644874076426], [-59.74429681217382, 46.00460223613491], [-59.744288681813785, 46.00459068122882], [-59.744214733544055, 46.00450846496994], [-59.744211286917476, 46.00450535139957], [-59.7441644382148, 46.004462926549515], [-59.74415776922964, 46.0044563997729], [-59.74412657610798, 46.00442583443674], [-59.74411397405309, 46.00439849053622]]}, "properties": {"OBJECTID": 119617, "FEAT_CODE": "WALK20", "FEAT_DESC": "Lake - Water to the right line", "RIVNAME_1": " ", "RIVNAME_2": " ", "ZVALUE": 20.1, "FID": null, "SHAPE_Length": 72.3001433886214}}, {"type": "Feature", "id": 119618, "geometry": {"type": "LineString", "coordinates": [[-59.74433409650392, 46.004807096295366], [-59.74452662071811, 46.00482788771578], [-59.74460313322838, 46.00483697308883], [-59.744616409125925, 46.00483854875311], [-59.74465590800872, 46.00484777577968], [-59.74470894038068, 46.004886308364526], [-59.744719073066854, 46.00489368093946], [-59.744804815991266, 46.005039239009676], [-59.744891554455194, 46.00516740878047], [-59.7449153723969, 46.00520260607413], [-59.744920346592565, 46.00520874245261], [-59.74495269559494, 46.0052486743886], [-59.74498902934402, 46.00531181606694], [-59.74502501717257, 46.00540285045902], [-59.745024196351174, 46.00543883039656], [-59.74501100767117, 46.005465465883404]]}, "properties": {"OBJECTID": 119618, "FEAT_CODE": "WALK20", "FEAT_DESC": "Lake - Water to the right line", "RIVNAME_1": " ", "RIVNAME_2": " ", "ZVALUE": 21.4, "FID": null, "SHAPE_Length": 101.11384017047709}}, {"type": "Feature", "id": 119619, "geometry": {"type": "LineString", "coordinates": [[-59.74501100767117, 46.005465465883404], [-59.744985217856865, 46.005464730593026], [-59.74496627157618, 46.00546029305261], [-59.74494571900643, 46.00545549468235], [-59.74484596599192, 46.005372543114824], [-59.74483196146413, 46.00535851654949], [-59.744745939161355, 46.005272482064406], [-59.74472095755895, 46.005235766417854], [-59.74469674690641, 46.00519098099721], [-59.74462308806815, 46.00505475925139], [-59.74457386010321, 46.00499124978027], [-59.74456180183882, 46.004982355148975], [-59.74452310206323, 46.004953799080205], [-59.74448489260841, 46.00494460877639], [-59.7444201318024, 46.00492566048945], [-59.74429266159443, 46.004896823140626], [-59.74422790091505, 46.0048778747477], [-59.74420561172263, 46.0048665821202], [-59.744190272039205, 46.00485879998218], [-59.74419132691605, 46.0048408373944], [-59.74420474989547, 46.00483221035335], [-59.744219628908226, 46.00482716216197], [-59.74425614757388, 46.004814774338946], [-59.74428848322352, 46.004811592082575], [-59.74433409650392, 46.004807096295366]]}, "properties": {"OBJECTID": 119619, "FEAT_CODE": "WALK20", "FEAT_DESC": "Lake - Water to the right line", "RIVNAME_1": " ", "RIVNAME_2": " ", "ZVALUE": 21.4, "FID": null, "SHAPE_Length": 112.55305290747803}}, {"type": "Feature", "id": 119620, "geometry": {"type": "LineString", "coordinates": [[-59.74377971688671, 46.00518552245558], [-59.74378529311477, 46.005186464571025], [-59.74389482037432, 46.005205006835716], [-59.743946633693085, 46.005224486240685], [-59.74398378775334, 46.00525164829576], [-59.74399547931666, 46.00526436688569], [-59.74400928370989, 46.00527937793859], [-59.74400846223558, 46.00531535785199], [-59.74399421814767, 46.005359955792436], [-59.74397446363786, 46.005381597458744], [-59.743954184275395, 46.0054038182079], [-59.74392675847531, 46.00543093860878], [-59.743917334073444, 46.00543283902302], [-59.74388754605792, 46.00543882108783]]}, "properties": {"OBJECTID": 119620, "FEAT_CODE": "WALK20", "FEAT_DESC": "Lake - Water to the right line", "RIVNAME_1": " ", "RIVNAME_2": " ", "ZVALUE": 21.3, "FID": null, "SHAPE_Length": 43.28772286022814}}, {"type": "Feature", "id": 119621, "geometry": {"type": "LineString", "coordinates": [[-59.74388754605792, 46.00543882108783], [-59.743874205007664, 46.00543417419593], [-59.74386223127443, 46.00542999833962], [-59.743838024815865, 46.00540230544224], [-59.74382966671681, 46.00539132906348], [-59.74377566869071, 46.005320419526946], [-59.74373669742282, 46.00530220640927], [-59.7437014734843, 46.00522019422838], [-59.743709731513626, 46.00520868367547], [-59.743714134407064, 46.005202553674884], [-59.74371914761636, 46.005200986503596], [-59.743740451848595, 46.00519430346665], [-59.74377240101235, 46.00518714996542], [-59.74377971688671, 46.00518552245558]]}, "properties": {"OBJECTID": 119621, "FEAT_CODE": "WALK20", "FEAT_DESC": "Lake - Water to the right line", "RIVNAME_1": " ", "RIVNAME_2": " ", "ZVALUE": 21.3, "FID": null, "SHAPE_Length": 36.88589638464252}}, {"type": "Feature", "id": 119622, "geometry": {"type": "LineString", "coordinates": [[-59.742260807989524, 46.00461294145438], [-59.74227113255724, 46.00459989682494], [-59.74227475867983, 46.00459533786237], [-59.74228719350155, 46.00459210135328], [-59.742340340827695, 46.00457830746142], [-59.74241087363222, 46.00456319144792], [-59.74249600486379, 46.004544945597274], [-59.742524030220885, 46.004541478841475], [-59.74256105892987, 46.00453690083839], [-59.74258066174805, 46.004544444799656], [-59.74258632029452, 46.004546622437346], [-59.74258938841909, 46.004551120387255], [-59.742598211843685, 46.004564063317034], [-59.742622599784724, 46.00459414688219], [-59.742635558462155, 46.004610133066876], [-59.74263549566638, 46.0046153787629], [-59.7426352511858, 46.00463712680936]]}, "properties": {"OBJECTID": 119622, "FEAT_CODE": "WALK20", "FEAT_DESC": "Lake - Water to the right line", "RIVNAME_1": " ", "RIVNAME_2": " ", "ZVALUE": 22.7, "FID": null, "SHAPE_Length": 38.666513372837926}}, {"type": "Feature", "id": 119623, "geometry": {"type": "LineString", "coordinates": [[-59.7426352511858, 46.00463712680936], [-59.742629266384036, 46.00464467877061], [-59.74262130006841, 46.00465473943388], [-59.74260811151178, 46.004681356648774], [-59.74251639268008, 46.00472554404968], [-59.74246364212977, 46.00475478577938], [-59.74243762121542, 46.00476920072611], [-59.7423854615745, 46.004777613343094], [-59.74235967214717, 46.00477687746869], [-59.742321283075206, 46.00474877055549], [-59.7422720575274, 46.00468526915168], [-59.74227258553718, 46.00467628338178], [-59.74225998541421, 46.00464892132879], [-59.742260807989524, 46.00461294145438]]}, "properties": {"OBJECTID": 119623, "FEAT_CODE": "WALK20", "FEAT_DESC": "Lake - Water to the right line", "RIVNAME_1": " ", "RIVNAME_2": " ", "ZVALUE": 22.7, "FID": null, "SHAPE_Length": 48.491864079198194}}, {"type": "Feature", "id": 119961, "geometry": {"type": "LineString", "coordinates": [[-59.74532051480217, 46.005847815383405], [-59.7453732026162, 46.00583041564527], [-59.74542504958848, 46.00582293783482], [-59.745463520879184, 46.00583208127998], [-59.74546916625298, 46.005834267399024], [-59.745488782838706, 46.005841811249574], [-59.74551486007946, 46.005859656204244], [-59.74553906758281, 46.005887348771616], [-59.74554446390126, 46.00590851954756], [-59.74555061458937, 46.00593268210253], [-59.74555049024243, 46.00594580177417], [-59.74555032158506, 46.00595967625272]]}, "properties": {"OBJECTID": 119961, "FEAT_CODE": "WALK20", "FEAT_DESC": "Lake - Water to the right line", "RIVNAME_1": " ", "RIVNAME_2": " ", "ZVALUE": 21.3, "FID": null, "SHAPE_Length": 28.565044873634353}}, {"type": "Feature", "id": 119962, "geometry": {"type": "LineString", "coordinates": [[-59.74555032158506, 46.00595967625272], [-59.74552347598579, 46.00597692165765], [-59.745497106185496, 46.00598606186718], [-59.74548573434527, 46.00598373050943], [-59.74544605356899, 46.00597560569101], [-59.745406067958314, 46.005952431774766], [-59.745382345750514, 46.00593869530609], [-59.74537417043066, 46.00592965943202], [-59.74535808608054, 46.00591189230093], [-59.745332588631285, 46.005884171922176], [-59.74533364423119, 46.00586619134563], [-59.74532051480217, 46.005847815383405]]}, "properties": {"OBJECTID": 119962, "FEAT_CODE": "WALK20", "FEAT_DESC": "Lake - Water to the right line", "RIVNAME_1": " ", "RIVNAME_2": " ", "ZVALUE": 21.3, "FID": null, "SHAPE_Length": 27.12226999577794}}, {"type": "Feature", "id": 119965, "geometry": {"type": "LineString", "coordinates": [[-59.73379087250731, 46.01799730641527], [-59.7338449342759, 46.01793493818511], [-59.73386707423769, 46.01791264646833], [-59.73387102867827, 46.01790868222359], [-59.733909549205165, 46.017898686197995], [-59.733936629130895, 46.017891657174914], [-59.73402281792004, 46.017893132697544], [-59.73409150690423, 46.01789428757089], [-59.73410387498398, 46.01790364219828], [-59.734173325288914, 46.01790459378], [-59.734284601088085, 46.01790611166446], [-59.73429489136033, 46.0179138946979], [-59.73429696920413, 46.017915466271845]]}, "properties": {"OBJECTID": 119965, "FEAT_CODE": "WALK20", "FEAT_DESC": "Lake - Water to the right line", "RIVNAME_1": " ", "RIVNAME_2": " ", "ZVALUE": 1.4, "FID": null, "SHAPE_Length": 45.90895751961847}}, {"type": "Feature", "id": 119966, "geometry": {"type": "LineString", "coordinates": [[-59.73429696920413, 46.017915466271845], [-59.734284301682614, 46.01793311457574], [-59.73424350389087, 46.017967941868896], [-59.734218402896204, 46.01797712476444], [-59.73411463895631, 46.01798405745442], [-59.73398262216146, 46.01805408767827], [-59.73396795995865, 46.0180608598934], [-59.73394410668597, 46.01807188758824], [-59.73391829839819, 46.01807114927654], [-59.733854286585235, 46.01806121728819], [-59.73381531003162, 46.01804300066437], [-59.733802941972506, 46.018033646006366], [-59.73379087250731, 46.01799730641527]]}, "properties": {"OBJECTID": 119966, "FEAT_CODE": "WALK20", "FEAT_DESC": "Lake - Water to the right line", "RIVNAME_1": " ", "RIVNAME_2": " ", "ZVALUE": 1.4, "FID": null, "SHAPE_Length": 50.177991433432695}}, {"type": "Feature", "id": 120162, "geometry": {"type": "LineString", "coordinates": [[-59.73252138134084, 46.005542523718724], [-59.73283507311907, 46.00545790155056], [-59.73305938127151, 46.00539915443045], [-59.73316042324861, 46.005372694036126], [-59.73321850249219, 46.005358550474504], [-59.73336878516826, 46.00532195079659], [-59.7334457735216, 46.005296197031264], [-59.73347287717394, 46.00528712560828], [-59.733590639053354, 46.00521758816394], [-59.73373530175769, 46.005129918465826], [-59.733783823447574, 46.00510194591341], [-59.73382755727542, 46.00507675263647], [-59.73388067093144, 46.00505129663636], [-59.733896156130655, 46.005047815277734], [-59.733919990939214, 46.00504248458955], [-59.733945250379065, 46.00505221705212], [-59.73397026467745, 46.00508803592771], [-59.73409418692602, 46.005242795080065], [-59.73416403606582, 46.0053458996242], [-59.73425462153346, 46.00547961508787], [-59.73435373621655, 46.00561655372664], [-59.73444087532752, 46.005716255298175], [-59.7344664427572, 46.00574444817095], [-59.734590060687076, 46.005880737343695], [-59.73462797063351, 46.00591692491337], [-59.7346330678591, 46.00593696255477], [-59.73463950865762, 46.00596225911034], [-59.73463739157876, 46.005998201908426], [-59.73460906602167, 46.00610630187674], [-59.73458600036755, 46.006184309468445], [-59.73458003305992, 46.006204480682314], [-59.73457280236401, 46.00623403963666], [-59.73454941211552, 46.00632961657097], [-59.73453345188661, 46.00644707103345], [-59.73451194892864, 46.006500298996215], [-59.73450471698292, 46.0065182558306], [-59.73450191755217, 46.0065210470256], [-59.73445119762596, 46.00657163011224]]}, "properties": {"OBJECTID": 120162, "FEAT_CODE": "WALK20", "FEAT_DESC": "Lake - Water to the right line", "RIVNAME_1": " ", "RIVNAME_2": " ", "ZVALUE": 0.7, "FID": null, "SHAPE_Length": 310.6590846587822}}, {"type": "Feature", "id": 120163, "geometry": {"type": "LineString", "coordinates": [[-59.73445119762596, 46.00657163011224], [-59.73443853347397, 46.00658926954747], [-59.734421562687515, 46.006590773306726], [-59.73426973351981, 46.006604242988764], [-59.73426510153091, 46.00660108620931], [-59.73425732778951, 46.006595787368646], [-59.734231524831074, 46.0065950492689], [-59.73411672100867, 46.00654856118927], [-59.73409323655215, 46.00653697136656], [-59.73400249970362, 46.00649218873666], [-59.73393879981323, 46.00645526316743], [-59.733811929699854, 46.006372426236986], [-59.73373662460727, 46.006335168539344], [-59.733659500687665, 46.006306859591824], [-59.733608410254334, 46.006297297109676], [-59.733504602382475, 46.006305128037944], [-59.73345325312562, 46.00632166050986], [-59.733374189044085, 46.006348200966045], [-59.73332260919384, 46.006346725106006], [-59.733287654747606, 46.00634018042125], [-59.73327151879057, 46.006337162473656], [-59.7330032164068, 46.006243076967564], [-59.7329793693877, 46.00623304268475], [-59.73291372764182, 46.006205412841084], [-59.73286315358473, 46.00618687296422], [-59.732807393519955, 46.00613293737088], [-59.732787389247086, 46.00611358914133], [-59.73277010589791, 46.006087523143435], [-59.73276366479026, 46.006077806922825], [-59.732761692380976, 46.00607270100574], [-59.732739002549394, 46.00601410426383], [-59.73272398518109, 46.005955070031206], [-59.732715930161646, 46.005923426582], [-59.73269658035804, 46.0057257544542], [-59.73268732172892, 46.00571212323726], [-59.73267161959135, 46.005689036748805], [-59.73263394140861, 46.00567085683446], [-59.732596198334015, 46.005664736174076], [-59.73250598682217, 46.005650093184464], [-59.732246832811626, 46.00566427777635], [-59.73220809547809, 46.00566406908235], [-59.73220323598164, 46.00566039265856], [-59.73219574324324, 46.005654714683125], [-59.732195500717765, 46.005636697062975], [-59.73222238998317, 46.00562338040563], [-59.73224872123606, 46.005610326796074], [-59.7323522318455, 46.00558538691185], [-59.73252138134084, 46.005542523718724]]}, "properties": {"OBJECTID": 120163, "FEAT_CODE": "WALK20", "FEAT_DESC": "Lake - Water to the right line", "RIVNAME_1": " ", "RIVNAME_2": " ", "ZVALUE": 0.7, "FID": null, "SHAPE_Length": 267.2692013917998}}, {"type": "Feature", "id": 146136, "geometry": {"type": "LineString", "coordinates": [[-59.74556576937963, 46.0136171227421], [-59.745544067763, 46.013623920803305], [-59.74553944811703, 46.01362537326199], [-59.74548698717659, 46.01366078119431], [-59.74547379707018, 46.01368740767049], [-59.7454806527392, 46.01370397560297], [-59.745485110928136, 46.01371473266486], [-59.74552356039238, 46.01374194010576], [-59.74563886438749, 46.01378032111731], [-59.74567509274762, 46.01380025553278], [-59.74568892114309, 46.01380785936651], [-59.74569546804569, 46.013811646312774], [-59.745752637937635, 46.01384476978325], [-59.745772650782, 46.01387421487496], [-59.74577761090915, 46.013881484911025], [-59.74580292980916, 46.01389030733401], [-59.74581582668476, 46.013890674939304], [-59.74585509767207, 46.013881893380315], [-59.74589408138587, 46.01385600205114], [-59.745895664161225, 46.013829044687675], [-59.745870691659405, 46.013792320598206], [-59.74580779557308, 46.013719430337346], [-59.74577544616962, 46.013700317593944], [-59.74574536908994, 46.01368254772892], [-59.74569951481645, 46.013665723265355], [-59.74566822856694, 46.01365424649371], [-59.745657441956126, 46.013637521517815], [-59.74565639989872, 46.01363590766882], [-59.74565146928162, 46.01363253582601], [-59.74563030619048, 46.01361806230089], [-59.74560504020557, 46.013608341264735], [-59.745598377062805, 46.01360983448449], [-59.74556576937963, 46.0136171227421]]}, "properties": {"OBJECTID": 146136, "FEAT_CODE": "WALKIS10", "FEAT_DESC": "Lake Island - Island to the left line", "RIVNAME_1": " ", "RIVNAME_2": " ", "ZVALUE": 2.4, "FID": null, "SHAPE_Length": 95.34519982427028}}, {"type": "Feature", "id": 191908, "geometry": {"type": "LineString", "coordinates": [[-59.74055302791328, 46.01002140309232], [-59.74092644982606, 46.0100635664834], [-59.741003350416804, 46.01007385344341], [-59.74111897770778, 46.010084363720814], [-59.74122009903745, 46.01010277659337], [-59.74138866483695, 46.01013346537788], [-59.741504538895775, 46.01016197496794], [-59.741524667691856, 46.010166095796976], [-59.741555594486066, 46.01017243298389], [-59.7417368245637, 46.01016590423294], [-59.74204688653932, 46.010143249864385], [-59.74229312440214, 46.010129574481304], [-59.74248725027384, 46.01012341251072], [-59.74269923441713, 46.01011055005778], [-59.74271930296657, 46.01010932246336], [-59.74288839790152, 46.01011145548777], [-59.743009572168454, 46.01012583943937], [-59.74306799152524, 46.01013277150695], [-59.743093519550186, 46.010137559133106], [-59.743170221300886, 46.01015189833162], [-59.74321553448721, 46.01015676429015], [-59.7432729010417, 46.01016292815183], [-59.74351753465161, 46.01022031091954], [-59.74365950836131, 46.01028282083808], [-59.74370767162279, 46.01030404139243], [-59.74374442304595, 46.01031678168978], [-59.743925431600466, 46.01037955853065], [-59.743975497906895, 46.010407088823], [-59.744039196296384, 46.0104440086987], [-59.7440652223545, 46.01046275259537], [-59.744120348818726, 46.01052795159264], [-59.7441268224975, 46.01053561590088], [-59.744131253902644, 46.010541322791504], [-59.74417605451783, 46.010599125630264], [-59.74419496669304, 46.01064793641339], [-59.744200731268336, 46.01066283516387], [-59.74420772968845, 46.0107007122148], [-59.7442222940191, 46.010779560781884], [-59.74423354693948, 46.010851888321426], [-59.744252652012634, 46.011032449731395], [-59.74426308340358, 46.011140757154095], [-59.74427251952326, 46.011222024704594], [-59.74428435262617, 46.011284476869164], [-59.744308796271234, 46.011330169067456], [-59.74434001210877, 46.01140087866481], [-59.744356679280386, 46.01143865338596], [-59.7443802276739, 46.011482654885285], [-59.74438113541553, 46.01148435492465], [-59.744399292195446, 46.0115060066287], [-59.74448011608418, 46.011602397027005], [-59.744593244332236, 46.011721724529785], [-59.744681219767976, 46.011785438676675], [-59.74470720510525, 46.01180049092142], [-59.74474493308025, 46.01182235857325], [-59.744903316554826, 46.01191150921523], [-59.74490999373143, 46.01191527291986], [-59.744915996963535, 46.011918414353545], [-59.7449989724748, 46.011961913851316], [-59.745110061748385, 46.012021183181815], [-59.74513800734077, 46.01203607519373], [-59.745290237974544, 46.01212773212583], [-59.7453162523349, 46.012146475397124], [-59.745354306490775, 46.012167416057984], [-59.74536632091464, 46.012174005132856], [-59.74548108053516, 46.01222138062745], [-59.74563359252436, 46.012286042635054], [-59.74581208070537, 46.012370328587494], [-59.74582450188168, 46.0123787923788], [-59.7458361616368, 46.012385263284564], [-59.745875782560645, 46.01240724751976], [-59.74590036192424, 46.01242491465971], [-59.74592585166045, 46.01243477702256], [-59.74595214617816, 46.012453375118405], [-59.7459642881263, 46.01246197494889], [-59.74601453912549, 46.01250841133362], [-59.74608845362716, 46.01263564749357], [-59.74609765362957, 46.012675216313525], [-59.74609876633971, 46.01268002746584], [-59.74610013891258, 46.01268415296082], [-59.74611084245526, 46.012716374952966], [-59.746121570570814, 46.01279768815305], [-59.746119707911646, 46.01285164002564], [-59.74608844738907, 46.01298363727593], [-59.746075032553, 46.01304028417492]]}, "properties": {"OBJECTID": 191908, "FEAT_CODE": "WARV50", "FEAT_DESC": "River - Single Line", "RIVNAME_1": " ", "RIVNAME_2": " ", "ZVALUE": 9999, "FID": null, "SHAPE_Length": 634.9615140189143}}, {"type": "Feature", "id": 191941, "geometry": {"type": "LineString", "coordinates": [[-59.72556562896927, 46.02037102587067], [-59.72556615997424, 46.02036204027526], [-59.72554167586524, 46.020317234003564], [-59.725520245035575, 46.02026820390306], [-59.72549387546069, 46.02020786212332], [-59.725489310872895, 46.020146930628805], [-59.72548448958757, 46.020082472448394], [-59.72547432206452, 46.01999217257215], [-59.72545735295741, 46.01995750073252], [-59.72543858631101, 46.01991914099958], [-59.725427300604395, 46.01989848443702], [-59.725414102482794, 46.01987433470558], [-59.725392524449, 46.019847694410146], [-59.72537676143447, 46.019828250545245], [-59.725222272938154, 46.019715764399514], [-59.72511169679532, 46.019635239489254], [-59.72506129141183, 46.01956712448584], [-59.725037518275464, 46.019535002657], [-59.72499992228691, 46.01947181848812], [-59.72496756246783, 46.01940660631201], [-59.72496412145879, 46.01939968497623], [-59.72495175465709, 46.01939032939261], [-59.72491704077291, 46.019325382702405], [-59.72490289447678, 46.01929891949953], [-59.72479133642017, 46.0191534971465], [-59.72474189193893, 46.019071980328874], [-59.72474142435798, 46.019071147839604], [-59.72470562657177, 46.01900793414854], [-59.72470765685348, 46.01894101724155], [-59.72470835819615, 46.018918004245926], [-59.724734457303526, 46.01889175050561], [-59.724774797565225, 46.0188649962253], [-59.72482722269286, 46.01883050587245], [-59.72485495518645, 46.01877639639834], [-59.72484290493804, 46.018740047401735], [-59.72470817337303, 46.018540585261455], [-59.72465877727718, 46.01846744055812], [-59.72462274995377, 46.018377298775256], [-59.72457520388434, 46.01824182237314], [-59.72471028038407, 46.01805488004447]]}, "properties": {"OBJECTID": 191941, "FEAT_CODE": "WARV50", "FEAT_DESC": "River - Single Line", "RIVNAME_1": " ", "RIVNAME_2": " ", "ZVALUE": 9999, "FID": null, "SHAPE_Length": 285.9746726809477}}, {"type": "Feature", "id": 192893, "geometry": {"type": "LineString", "coordinates": [[-59.7284482206878, 46.012227806638286], [-59.72852216703887, 46.01231004202635], [-59.728584507990725, 46.01239192681489], [-59.72862100237397, 46.01247398903878], [-59.72865649023616, 46.012573105989034], [-59.72866666221268, 46.012663406680936], [-59.728683200305206, 46.012728362524236], [-59.728689730658694, 46.01275407600388], [-59.7287142143448, 46.0127988816287], [-59.72871881918119, 46.01280490911856], [-59.728763377164356, 46.01286329613196], [-59.72886256851485, 46.01299935054277], [-59.728898357912286, 46.01307148255506], [-59.728897647017824, 46.013094909353455], [-59.72889699590588, 46.01311644768998], [-59.7288951035628, 46.0131703984612], [-59.728840969412616, 46.01327775746323], [-59.728788123073066, 46.01337270518806], [-59.72871669420902, 46.01350101756611], [-59.728667819043984, 46.01359608802221], [-59.72859264683947, 46.01374228572039], [-59.72846829548569, 46.0139921858217], [-59.72845486965593, 46.0140191636211], [-59.72843326688566, 46.01406626698062], [-59.72838518487234, 46.014171080936855], [-59.72834292466623, 46.01429588153525], [-59.72829548779558, 46.014574456970465], [-59.72827986629275, 46.01466400860451], [-59.728222788158554, 46.01484328957388], [-59.72818062187401, 46.014937597983234], [-59.728111141392674, 46.01509302229631], [-59.72809652929632, 46.01515890364394], [-59.72808120658831, 46.01522806792835], [-59.728078436500276, 46.01530693481804], [-59.72807741993752, 46.01533596936339], [-59.72808755553205, 46.01549208220105], [-59.728094330846545, 46.015596577985754], [-59.72810106633128, 46.0156347905202], [-59.72813885574329, 46.015848986147105], [-59.72814865609677, 46.015921939703695], [-59.72815950107992, 46.01600258290152], [-59.72819273693232, 46.01607793623084], [-59.728207356156474, 46.016111064199464], [-59.728253395239676, 46.01619516419387], [-59.72831697197817, 46.016311323649646], [-59.72832981526411, 46.016340179319904], [-59.72834092629116, 46.01636511499156], [-59.72835322008492, 46.01641947226096], [-59.72835131402572, 46.016473422610204], [-59.728336523062644, 46.016527012721625], [-59.72828269939228, 46.016607368836006], [-59.72827978519304, 46.01661296484584], [-59.728255012087374, 46.01666057136101], [-59.72814521459923, 46.016857252180195], [-59.72807772032405, 46.01692822459044], [-59.728024714875446, 46.01697260971914], [-59.7279714946638, 46.01700815885586], [-59.72795881249887, 46.01701661619694], [-59.727893957192386, 46.01704266899207], [-59.727881072711796, 46.01704229971468], [-59.727541700548166, 46.01714508291765], [-59.727381051868214, 46.01719099067045], [-59.72733274525144, 46.01720479934492], [-59.72730551623692, 46.01721062541606], [-59.727177037228145, 46.01723813926766], [-59.727036820942864, 46.01726029402779], [-59.7269696862778, 46.017270898537596], [-59.72695433947815, 46.017274157904325], [-59.72689118722751, 46.017287549784875], [-59.72683203867963, 46.01730708697098], [-59.72681344712898, 46.017313223565274], [-59.72680627409671, 46.017318958460294], [-59.7267470121196, 46.01736622390117], [-59.72662672368871, 46.017499587676035], [-59.72659880614511, 46.01753478154002], [-59.726505398858336, 46.017650923261954], [-59.72646374962826, 46.01772173567802], [-59.7264370674729, 46.01775788300869], [-59.7264110351625, 46.01777515622931], [-59.72639807271464, 46.01778375837405], [-59.72636144818343, 46.01779028690487], [-59.72630667524496, 46.01780003937345], [-59.726267137934975, 46.01780491820751], [-59.72624160364673, 46.01780807437081], [-59.726138848068615, 46.017797927140606], [-59.725945225862354, 46.017795074922404], [-59.72592086058746, 46.01779703142502], [-59.72585435917155, 46.017802369952996], [-59.72579004635071, 46.0178194272809], [-59.7257368103428, 46.01784580307809], [-59.725717997896766, 46.01785829674387], [-59.72569781467545, 46.01787168717902], [-59.72557677671421, 46.01799602752047], [-59.725511642892826, 46.01804905545405], [-59.72548075185055, 46.018064370939555], [-59.725458392042235, 46.018075457697904], [-59.725406218671736, 46.01808384416227], [-59.72535462832141, 46.01808236441674], [-59.725278264087464, 46.01806308147716], [-59.72521424173332, 46.0180531353282], [-59.725123080862005, 46.0180433197654], [-59.725006962489466, 46.01804088894932], [-59.72486152325232, 46.01804775181844], [-59.72485279098867, 46.01804816737553], [-59.72471028038407, 46.01805488004447]]}, "properties": {"OBJECTID": 192893, "FEAT_CODE": "WARV50", "FEAT_DESC": "River - Single Line", "RIVNAME_1": " ", "RIVNAME_2": " ", "ZVALUE": 9999, "FID": null, "SHAPE_Length": 862.6628466021705}}, {"type": "Feature", "id": 223427, "geometry": {"type": "LineString", "coordinates": [[-59.738204528643415, 46.00916675701236], [-59.73827924734479, 46.009257999975745], [-59.738297812177294, 46.00928429975085], [-59.73842708641282, 46.009467442587244], [-59.738501818762835, 46.00955868578979], [-59.73857688784658, 46.00962203598082], [-59.73876742651142, 46.00974268961028], [-59.73898204468877, 46.00987124038248], [-59.739044882917256, 46.00989856160596], [-59.73904628105425, 46.00989916859332], [-59.73919948746878, 46.00997375100765], [-59.73929379405465, 46.01000918054196], [-59.739300580657215, 46.010011732590364], [-59.73933509286759, 46.010019477903455], [-59.73942936154028, 46.01004062192227], [-59.73959610972625, 46.010060685473924], [-59.73969932983273, 46.01006273311679], [-59.739905822933174, 46.01006592954897], [-59.740229205241015, 46.01004367849489], [-59.74055302791328, 46.01002140309232]]}, "properties": {"OBJECTID": 223427, "FEAT_CODE": "WARV50", "FEAT_DESC": "River - Single Line", "RIVNAME_1": " ", "RIVNAME_2": " ", "ZVALUE": 9999, "FID": null, "SHAPE_Length": 227.5575055709591}}, {"type": "Feature", "id": 224105, "geometry": {"type": "LineString", "coordinates": [[-59.73635009217098, 46.00819297463233], [-59.73627402237553, 46.008146695932936], [-59.736122888396196, 46.00803706554308], [-59.73611182709019, 46.00802704641421], [-59.736072609764456, 46.00799152404035], [-59.73599788347441, 46.00790027938872], [-59.73594849770442, 46.00781785993247], [-59.73590776626826, 46.00776966603982], [-59.73588691138448, 46.00774499255004], [-59.7358234807932, 46.0076810732386], [-59.73576033321946, 46.00763516365405], [-59.73559713288407, 46.007489193213004], [-59.73557762684961, 46.00746750150668], [-59.735523181821385, 46.00740696224301], [-59.73544650007332, 46.00731714644369], [-59.73539872181795, 46.00726119016079], [-59.7353611614075, 46.007197110259504], [-59.735306012045776, 46.00712594776344], [-59.7352627237205, 46.00707008381179], [-59.73521557350485, 46.00701662964007], [-59.73512589921464, 46.00691495700692], [-59.73509987789321, 46.00689621118663], [-59.734884803419355, 46.006775749719964], [-59.73484636349361, 46.00674854792023], [-59.73474894343134, 46.00670910126181], [-59.73473155881043, 46.00670206043801], [-59.7347254687784, 46.006699095997696], [-59.734654963125024, 46.00666476643869], [-59.73451710716502, 46.0066017509572], [-59.73445119762596, 46.00657163011224]]}, "properties": {"OBJECTID": 224105, "FEAT_CODE": "WARV50", "FEAT_DESC": "River - Single Line", "RIVNAME_1": " ", "RIVNAME_2": " ", "ZVALUE": 9999, "FID": null, "SHAPE_Length": 237.00431742733576}}, {"type": "Feature", "id": 313017, "geometry": {"type": "LineString", "coordinates": [[-59.741111510359474, 46.00627859829295], [-59.74110703155381, 46.006282277798796], [-59.74105857850129, 46.006322091518534], [-59.74099058567567, 46.00640205821384], [-59.740983255019856, 46.0064212907564], [-59.740963095688386, 46.00647418024502], [-59.740942592498236, 46.00654851790455], [-59.740933545406676, 46.0065813467113], [-59.74093286429238, 46.00660238022083], [-59.740930313542044, 46.00668026363682], [-59.740927775673676, 46.006758147419774], [-59.74092708165619, 46.00677918056048], [-59.74093592085538, 46.00691445440995], [-59.74094152421839, 46.007049401863284], [-59.7409434093147, 46.007094675868224], [-59.74095283965789, 46.00717595257958], [-59.74096624187653, 46.007367197852425], [-59.74097110038286, 46.00743659796242], [-59.740979707244854, 46.007553854496535], [-59.740976105296525, 46.00758655971451], [-59.74096298935921, 46.007706391440394], [-59.74094032227715, 46.00779445659572], [-59.74093285717671, 46.00782344219798], [-59.740905599075376, 46.00789621888414], [-59.74087616318318, 46.00797483794074], [-59.74082958935791, 46.008058017215], [-59.740780909170404, 46.00814494369019], [-59.74075885299833, 46.00821953399678], [-59.740751885792456, 46.00824312429915], [-59.740695138512045, 46.008395409507294], [-59.74065345214373, 46.0085112302442], [-59.74059670375214, 46.008663524368636], [-59.74055314512879, 46.008789210531845], [-59.74051855649664, 46.008867790389914], [-59.74049796942499, 46.0089145290036], [-59.74046707724214, 46.009066661172746], [-59.74045118124479, 46.009183218153744], [-59.740455365222566, 46.00925573130306], [-59.740459491481566, 46.009327468732096], [-59.74045712402458, 46.00940155899573], [-59.740454905961144, 46.009471351126265], [-59.74046456859428, 46.00957063615148], [-59.740484149213614, 46.009656127036074], [-59.74048717991772, 46.00966939078144], [-59.74049038625679, 46.00968691693457], [-59.74050868169522, 46.00978701547444], [-59.740513137018105, 46.009847007205536], [-59.74051804886725, 46.00991329455026], [-59.74055302791328, 46.01002140309232]]}, "properties": {"OBJECTID": 313017, "FEAT_CODE": "WARV50", "FEAT_DESC": "River - Single Line", "RIVNAME_1": " ", "RIVNAME_2": " ", "ZVALUE": 9999, "FID": null, "SHAPE_Length": 425.57052248538656}}]}