{"type": "FeatureCollection", "features": [{"type": "Feature", "id": 194601, "geometry": {"type": "LineString", "coordinates": [[-60.97946828143973, 45.729039503989824], [-60.97949265799707, 45.72911194252488], [-60.97951157959566, 45.729187389860236], [-60.97951737808976, 45.72921048976545], [-60.979516675467835, 45.72937249368095], [-60.979502182299996, 45.729489249075904], [-60.97950033350784, 45.72949667812019], [-60.979475137040836, 45.72959768157987], [-60.979475135184074, 45.729619823779906], [-60.97947512357924, 45.72963368497237], [-60.979480561666584, 45.72964860567743], [-60.97948797377627, 45.72966901585629], [-60.97960161536397, 45.72986814620007], [-60.97966551719627, 45.729949384732954], [-60.97970374425162, 45.729994165418404], [-60.97988309159638, 45.73012193747536], [-60.97997064217427, 45.730184296194444], [-60.98003675246835, 45.73023389938638], [-60.980175869575355, 45.730338250130345], [-60.980264825508726, 45.73040192960644], [-60.98036665832396, 45.73046493663872], [-60.98039988065297, 45.73048065466492], [-60.980443743378025, 45.73050140332829], [-60.980542909335014, 45.7305421398053], [-60.98062231790948, 45.73057476806884], [-60.98072100160151, 45.730612489560414], [-60.98076304101068, 45.73062856139483], [-60.98084710662633, 45.73066285600011], [-60.98085297084954, 45.73066525490988], [-60.981070436043, 45.73072940552429], [-60.98116069046017, 45.73075710362801], [-60.98119860743402, 45.73077487560686], [-60.98121822100395, 45.73078840863769], [-60.98123748466804, 45.73080166545285], [-60.98126221359393, 45.730829105287754], [-60.981350809957476, 45.73097378570517], [-60.98138902678807, 45.731054569258276], [-60.981401210574106, 45.73110879004004], [-60.98140119831708, 45.731144793444635], [-60.98138832969804, 45.731216564231595], [-60.98138770039106, 45.73122011746694], [-60.98137385176958, 45.73129732547825], [-60.98137383949075, 45.731333328881426], [-60.98138667167271, 45.73136955931302], [-60.98142235369904, 45.731420829084115], [-60.9814367730108, 45.73144155200002], [-60.98144380887187, 45.73145780597817], [-60.98148779013282, 45.73155946546405], [-60.98151737448113, 45.73159341770191], [-60.98155073628694, 45.73163168512065], [-60.981588641823066, 45.73168546038289], [-60.98163971612208, 45.73173046745906], [-60.98178072279054, 45.73181216733209], [-60.98185781062255, 45.73184863310562], [-60.98190792492945, 45.731884622192084], [-60.98194136411854, 45.73191647321728], [-60.981946446757945, 45.731921306505356], [-60.98198435286508, 45.73197508164335], [-60.981996861488376, 45.73202030718903], [-60.981996910446554, 45.73202180220418], [-60.98199751061688, 45.732038320466955], [-60.98211183242049, 45.732182554733264], [-60.98212683205683, 45.73222107359851], [-60.982136538038475, 45.73224598857397], [-60.982148710676015, 45.73233622078319], [-60.98214741440246, 45.73237220149405], [-60.9821414711553, 45.732388757158105], [-60.982134557891314, 45.73240797795221], [-60.982082798853455, 45.732488972552304], [-60.981979336630594, 45.73257805355047], [-60.98195360504713, 45.73259125324211], [-60.98187588606267, 45.73263113104734], [-60.98163100850161, 45.732756416594725], [-60.98139808478208, 45.73283600829549], [-60.98128208017924, 45.732880762546536], [-60.98117924444086, 45.73291674856275], [-60.98111341753062, 45.732932623633886], [-60.9809601242213, 45.73296958066325], [-60.98076670579275, 45.73302287576887], [-60.980612789098494, 45.73308495183013], [-60.98044475524039, 45.73314678704606], [-60.980213391867885, 45.73321830310663], [-60.98000614122954, 45.73329834599993], [-60.979905655908134, 45.733335047507474], [-60.97981338915343, 45.73336874398839], [-60.97960644904788, 45.73343979074553], [-60.979413975222876, 45.73350209216906], [-60.97936087755273, 45.73352386200747], [-60.97934873165975, 45.73352884063167], [-60.97933075679477, 45.73353863061456], [-60.97923335943093, 45.73359160579086], [-60.979177785685465, 45.733623574758894], [-60.979155931779474, 45.73363614036157], [-60.979090051636405, 45.73368087921609], [-60.97893548074652, 45.73379695584847], [-60.97888287187162, 45.73383651089514], [-60.978792794361134, 45.733904241698895], [-60.97874145833713, 45.73394271209568], [-60.978625007225716, 45.73402998499981], [-60.97848265717169, 45.734128275510905], [-60.97831492829322, 45.734217115688075], [-60.978237810923275, 45.7342526542241], [-60.97815918795215, 45.734300344273194], [-60.97813400941378, 45.734315623099576], [-60.97809514748838, 45.734342144821234], [-60.97802988970418, 45.73438668705774], [-60.977940236999814, 45.73444900616288], [-60.97774580911184, 45.73456527557678], [-60.977655520918866, 45.73460958140247], [-60.977526014875416, 45.734672094548955], [-60.9774356938542, 45.734717299709025], [-60.97741416353883, 45.73473049176957], [-60.97732002466912, 45.73478815847792], [-60.97724992877378, 45.734836727991336], [-60.97712622904457, 45.73492243983132], [-60.97706443295544, 45.73495544066712], [-60.97689293709199, 45.735047020303334], [-60.97664806624664, 45.7351362916472], [-60.97640290211275, 45.735233658078606], [-60.976385158625575, 45.735239149265254], [-60.976287213701276, 45.73526941194542], [-60.976133314570696, 45.735295478663126], [-60.97592496734974, 45.73530199334639], [-60.97587595304847, 45.73530351889723], [-60.97559320957728, 45.735338120338675], [-60.97534900209958, 45.73537339525131], [-60.9752942338273, 45.73538581764589], [-60.97511702172889, 45.73542598813943], [-60.97501323104821, 45.73545295076099], [-60.97491576748407, 45.73548231170805], [-60.97489756102136, 45.735487803454866], [-60.97474328592054, 45.73555977522287], [-60.974459548032314, 45.735657353520715]]}, "properties": {"OBJECTID": 194601, "FEAT_CODE": "WARV50", "FEAT_DESC": "River - Single Line", "RIVNAME_1": " ", "RIVNAME_2": " ", "ZVALUE": 9999, "FID": null, "SHAPE_Length": 1175.863429821}}, {"type": "Feature", "id": 133516, "geometry": {"type": "LineString", "coordinates": [[-60.98053051370652, 45.723852164625896], [-60.9803005119215, 45.723815694023436], [-60.98029594399165, 45.7238140740838], [-60.98014571162588, 45.72376075099348], [-60.980133517182736, 45.72374254248934], [-60.98012360653506, 45.723719801910704], [-60.980121647692066, 45.72371532081348], [-60.980108830838226, 45.72364308680251], [-60.98012201072618, 45.72359831532831], [-60.98020011060593, 45.72346378277409], [-60.98020044774392, 45.72341878415596], [-60.98019114045688, 45.72339320996336], [-60.98015134058274, 45.723283801998775], [-60.98014630126598, 45.7232457110037], [-60.980138212050385, 45.723184568725344], [-60.98013918523608, 45.723157574186885], [-60.98016455896732, 45.723131020200256], [-60.980177725811735, 45.723122252151946], [-60.98017907207243, 45.72312126785913], [-60.98019089907044, 45.72311259312481], [-60.9802875601727, 45.72309090922914], [-60.980306229073854, 45.72308672092584], [-60.98034477920832, 45.72308107502541], [-60.98048709481746, 45.72306021632767], [-60.98066578111973, 45.723061017691485], [-60.980692673224816, 45.72306114214869], [-60.98070735625532, 45.72305915153497], [-60.98075724259259, 45.72305238279826], [-60.980764464546134, 45.72304989122138], [-60.98078196729738, 45.723043828033035], [-60.980937159664535, 45.72298087413223], [-60.98098854247295, 45.722945769862385], [-60.98103469237013, 45.72289789976913], [-60.98104060558561, 45.72289178467164], [-60.98105022926931, 45.722886833280356], [-60.981092980456474, 45.72286480771848], [-60.98115658941138, 45.72284703024717], [-60.98123367686528, 45.72284749282958], [-60.981318482352215, 45.7228566606562], [-60.98132328273707, 45.72285717755127], [-60.981446233758504, 45.72287941379425], [-60.9814777697312, 45.722885110704986], [-60.98148224743688, 45.72288566689474], [-60.98155453319088, 45.722894568260855], [-60.981606259728494, 45.72288558144724], [-60.98165831029019, 45.722867599419914], [-60.98166331774055, 45.722862368374344], [-60.98168368317683, 45.72284104508011], [-60.9816958356275, 45.72279193482214], [-60.98169721803764, 45.72278637868448], [-60.981685026868035, 45.72266105048902], [-60.98169852927498, 45.72260728360992], [-60.98168569870296, 45.72257105319141], [-60.9816661382855, 45.72256610803579], [-60.98164749539879, 45.72256137711253], [-60.98160859909678, 45.722570581698335], [-60.98155752150974, 45.72259759081781], [-60.98146693177688, 45.722650895309705], [-60.98142808031049, 45.7226592095356], [-60.98140235012879, 45.72265965484469], [-60.981381218109554, 45.72265659905728], [-60.98133844232438, 45.72265042441971], [-60.98131243330553, 45.72265896560525], [-60.98126070693585, 45.722667952288816], [-60.98124049163404, 45.72267511971958], [-60.98120994101157, 45.722685947842734], [-60.98119708569895, 45.722685720600424], [-60.981194744236014, 45.72268650729479], [-60.98117108916144, 45.722694270975275], [-60.98104668696143, 45.7226763022179], [-60.981043247896416, 45.722675809377016], [-60.98100143373916, 45.72267896756227], [-60.98092727671725, 45.7226845602426], [-60.980850513664514, 45.72267510227131], [-60.98072171250277, 45.72264762242452], [-60.98041336386986, 45.722645770418964], [-60.9803753955834, 45.72263207466019], [-60.98033724946704, 45.7226183217384], [-60.9803301988405, 45.722608575070744], [-60.9803115449138, 45.72258276358564], [-60.98029837815235, 45.72255552798219], [-60.98030447000432, 45.72254374550371], [-60.980312206184784, 45.72252876977599], [-60.98034207445495, 45.72251298832214], [-60.98036329680741, 45.72250177044463], [-60.98040282888295, 45.72247457569118], [-60.980406034061986, 45.722469078805254], [-60.980428850959655, 45.72243002227276], [-60.980466742388174, 45.72241269049256], [-60.98048665161387, 45.722405814816454], [-60.980518793177424, 45.72239469998684], [-60.98059589224445, 45.72235916853672], [-60.980599107487166, 45.72235695715816], [-60.980635424431014, 45.72233196470332], [-60.98064795516476, 45.72230518351698], [-60.98063988391812, 45.72228239449373], [-60.980635125338765, 45.72226895299123], [-60.98062294392613, 45.722214732093555], [-60.98062437916529, 45.722209851971286], [-60.98063612302995, 45.72216996053689], [-60.98064530010975, 45.72216384916499], [-60.98064928957137, 45.72216119242776], [-60.98068784902754, 45.72216097412947], [-60.98071082294198, 45.72215606079676], [-60.98072670024707, 45.72215266015079], [-60.9807376230756, 45.72214517549504], [-60.98081761400819, 45.72209036105355], [-60.98089472517131, 45.722018816941365], [-60.98094581504858, 45.72199181733452], [-60.980958145127104, 45.72197559064238], [-60.980959305317775, 45.72197406299556], [-60.9809661379, 45.72196810816938], [-60.98101101770529, 45.721929072528596], [-60.98114741751116, 45.721812671687296], [-60.981231116266684, 45.721741234795985], [-60.98123828649779, 45.72172876025605], [-60.981257182257686, 45.721695790869816], [-60.98127003663236, 45.721660014415285], [-60.98127100889718, 45.72163302884595], [-60.98124533658381, 45.72159657137629], [-60.981224688563195, 45.72158187692587], [-60.981207749480944, 45.72156981329606], [-60.98109954400383, 45.72152502013087], [-60.98105327915371, 45.72150585838611], [-60.98104017357888, 45.72149653577376], [-60.98101569220412, 45.72147910024482], [-60.98101510614433, 45.72146255519637], [-60.98101505623956, 45.72146108716436], [-60.98101798310418, 45.72144476623591], [-60.98102953133055, 45.72138033479328], [-60.9810188207623, 45.72134591495178], [-60.981004182865426, 45.72129887839806], [-60.98098086765694, 45.72126548684604], [-60.98092843130456, 45.72119043724846], [-60.980867970770554, 45.721126244882754], [-60.98085169539014, 45.72110896339914], [-60.98081444568789, 45.721037197554516], [-60.9808144508668, 45.72103241815788], [-60.980814470504995, 45.720965190637855], [-60.98082196884106, 45.720944324065684], [-60.98082732465289, 45.720929423225975], [-60.98091792479993, 45.72084010673425], [-60.98094532727707, 45.72080927699232], [-60.98095810399454, 45.720794912383106], [-60.98099667479893, 45.720758690502954], [-60.98103457775206, 45.72074135873457], [-60.9810976078019, 45.720731734892425], [-60.98115085614016, 45.72072361227159], [-60.981279665241395, 45.72071508810706], [-60.98147237991913, 45.72071579414816], [-60.98183652199335, 45.72069243658735], [-60.98185750352246, 45.72069108818288], [-60.98202550566348, 45.72066436282828], [-60.98224426533662, 45.72062052317287], [-60.98265575018106, 45.7205413836473], [-60.98271045142478, 45.720534654103076], [-60.982796440312946, 45.7205240667198], [-60.98293740389504, 45.72051200198472], [-60.98309289408655, 45.7204986994695], [-60.9833345822946, 45.720480060183], [-60.98352973935382, 45.72046500926429], [-60.983761671834756, 45.72044750195361], [-60.983941223847545, 45.72042186877714], [-60.98422421721403, 45.720377359039745], [-60.98426428592325, 45.72036837227428], [-60.98433952665443, 45.7203514913978], [-60.984417581480706, 45.72032496614641], [-60.98445550263062, 45.720306733470885], [-60.984618758580105, 45.720194321786714], [-60.98472825432644, 45.720118927104856], [-60.984748172372775, 45.720107838408964], [-60.984792506060664, 45.72008315710508], [-60.98494732996394, 45.720030092242936], [-60.98501093484326, 45.72001230354624], [-60.98508155609121, 45.7200045126135], [-60.98508834197543, 45.72000376824817], [-60.98515258375407, 45.720004001550706], [-60.98538382531706, 45.72004138436755], [-60.985386746060165, 45.72004199394743], [-60.98560193425816, 45.72008663590547], [-60.98564258656388, 45.72009250146688], [-60.98566585277848, 45.720095864137235], [-60.985754017027645, 45.72010623013235], [-60.98590897618608, 45.720124453638405], [-60.98596102309671, 45.720130772963735], [-60.985987020889034, 45.72013393171489], [-60.98605150643534, 45.720152413674754], [-60.986114211612545, 45.72017037815355], [-60.98616235185078, 45.720193153285656], [-60.98619128660458, 45.72020684084976], [-60.98624544867844, 45.72023547371875], [-60.98629343139316, 45.72026084728348], [-60.986383352619875, 45.72033354003645], [-60.98645994427544, 45.720388112879014], [-60.986573773555, 45.720469210813505], [-60.98660106631164, 45.720492482306554], [-60.986637373661175, 45.720523437483195], [-60.98665374718731, 45.72055734456997], [-60.986663686838625, 45.72057790687968]]}, "properties": {"OBJECTID": 133516, "FEAT_CODE": "WALK20", "FEAT_DESC": "Lake - Water to the right line", "RIVNAME_1": " ", "RIVNAME_2": " ", "ZVALUE": 174.8, "FID": null, "SHAPE_Length": 1118.619788482432}}, {"type": "Feature", "id": 133517, "geometry": {"type": "LineString", "coordinates": [[-60.986663686838625, 45.72057790687968], [-60.98661334451738, 45.72064215002978], [-60.98655863826393, 45.72071196879816], [-60.98654702906103, 45.720751458180004], [-60.98654546425292, 45.720756741134444], [-60.986506896973424, 45.72079296494927], [-60.9864999366349, 45.72079784674591], [-60.986455487557365, 45.72082896233287], [-60.986365228531774, 45.720873275633345], [-60.986358268170974, 45.72087815742091], [-60.9863138317935, 45.72090927317636], [-60.986132321384716, 45.72106088841274], [-60.98609375362674, 45.72109711207818], [-60.986076965833206, 45.72112586200371], [-60.98606773699001, 45.721141657888296], [-60.986061927892855, 45.72115669499364], [-60.98605356924326, 45.72117831181474], [-60.986040708971245, 45.72125009237779], [-60.98602720202051, 45.72133986337119], [-60.98602666175157, 45.72138421036879], [-60.98602589059655, 45.721447851262916], [-60.98602283487988, 45.72145635724942], [-60.98601303929412, 45.721483628305954], [-60.98600059783985, 45.72149191477038], [-60.985999873733945, 45.721492397051335], [-60.985984179582914, 45.721499654053794], [-60.98588357310405, 45.72154615173311], [-60.9858447230135, 45.72155446748719], [-60.98583104644981, 45.72156636852122], [-60.98579298910467, 45.721599459764136], [-60.98575810560408, 45.72161789947159], [-60.985741901853594, 45.72162646158681], [-60.98559862516784, 45.72165383555154], [-60.98556075190359, 45.721661070326604], [-60.985483947594794, 45.721688518505765], [-60.98544827244139, 45.72170252380334], [-60.985394009878625, 45.72172383488379], [-60.9852642190084, 45.7217953527973], [-60.985254978606584, 45.72180502778684], [-60.9852388482824, 45.72182190797381], [-60.98521315404188, 45.72185745925497], [-60.985222531444855, 45.72188685876919], [-60.98522470256156, 45.72189366576143], [-60.985263857285496, 45.721948362015674], [-60.98537786646156, 45.722065594878394], [-60.985391978723, 45.722081253393185], [-60.985402581540896, 45.72209301560845], [-60.985402582343376, 45.722097282057405], [-60.98540256224765, 45.72216503160704], [-60.98538067643471, 45.722239407154234], [-60.98537621160161, 45.722254575946614], [-60.98536767893934, 45.72229031208337], [-60.98533535934361, 45.72242577280489], [-60.985321948593835, 45.72247530229799], [-60.98530868500367, 45.72252431233199], [-60.98529132171817, 45.722554033084], [-60.98528267988957, 45.72256885815766], [-60.98515448180187, 45.722631402220664], [-60.985089266550574, 45.72265815449669], [-60.98503817798811, 45.72268515597786], [-60.98499867998249, 45.72271146184486], [-60.98492124943443, 45.72279200490017], [-60.984921563140716, 45.72281901318444], [-60.98493142911855, 45.72284161664606], [-60.98493343516193, 45.722846224506654], [-60.984959757469056, 45.72286469077303], [-60.985023355202, 45.7228829236154], [-60.98504871712092, 45.72289236299941], [-60.98505468796073, 45.722904286547106], [-60.985061905791156, 45.72291869834626], [-60.985074415139096, 45.722963923630125], [-60.9850734446603, 45.722990909256325], [-60.98504301594762, 45.72307054355775], [-60.98500818958524, 45.723161684438764], [-60.985007209628435, 45.7232246645587], [-60.985045426838084, 45.72330544789056], [-60.985058887817935, 45.72332957381517], [-60.98509613100474, 45.723396351621], [-60.98512087821094, 45.72342289088315], [-60.98516004352034, 45.723441583684334], [-60.985222995345325, 45.72347779784787], [-60.985245375929054, 45.72348795866997], [-60.98526219307462, 45.72349559109417], [-60.98530006463167, 45.72355026468473], [-60.98530005504894, 45.72358626817676], [-60.98528688919799, 45.72359502783151], [-60.98515295500324, 45.723594384178774], [-60.985145541524965, 45.72359434339694], [-60.9851386712895, 45.72359313307883], [-60.98509447467784, 45.72358534162222], [-60.98503185933904, 45.723557279153546], [-60.984992033968595, 45.723539429749756], [-60.98490242330326, 45.72349374326508], [-60.98484472172474, 45.72344018679202], [-60.984825335104674, 45.72342217591637], [-60.98478777773418, 45.72339451045748], [-60.984753084319074, 45.723386545421754], [-60.984749540914564, 45.72338573581949], [-60.98471101293955, 45.72338505595486], [-60.984642978774616, 45.72343191128051], [-60.98463326749226, 45.723438589604115], [-60.98458121730224, 45.72345657299302], [-60.98453797282057, 45.7234684021171], [-60.98451632440232, 45.72347432971239], [-60.98445337576962, 45.72347411887709], [-60.984285382778275, 45.723463953209325], [-60.98428130970924, 45.723463935325505], [-60.98415689132861, 45.72346348545925], [-60.984096547151594, 45.72347803689533], [-60.98408039467822, 45.723481937203694], [-60.983911735799026, 45.723597772048805], [-60.983876788877986, 45.7236114935778], [-60.983821806837796, 45.72363308823536], [-60.98373151942725, 45.72364229536807], [-60.98371836584273, 45.72365106405947], [-60.983680461689744, 45.723668396691274], [-60.983677549664954, 45.723675753032204], [-60.98366632406807, 45.72370415074923], [-60.9836280659377, 45.723767381781705], [-60.98360140924902, 45.72379391388297], [-60.9835371527635, 45.723829674111016], [-60.98349922857721, 45.72384791542102], [-60.98342181590777, 45.72385644954294], [-60.98336452943744, 45.72386422288828], [-60.98329270170644, 45.72387397165459], [-60.98320339193824, 45.723855292796365], [-60.98317288126581, 45.723845726075076], [-60.98308775340536, 45.72381904715616], [-60.98299919619928, 45.72381873429456], [-60.982959260873656, 45.72381858704005], [-60.982938272777105, 45.72382187072818], [-60.98290756637424, 45.72382666593962], [-60.982816943474994, 45.723880870999444], [-60.98278818087166, 45.72389057000671], [-60.982766208653956, 45.723897985702536], [-60.98274644217294, 45.72390338814623], [-60.982701315021785, 45.7239157323756], [-60.982556434370366, 45.72391571140305], [-60.98254710469433, 45.72391570861003], [-60.98251263426524, 45.723903335484344], [-60.982444341631485, 45.723878789672426], [-60.98241959551927, 45.72385224985012], [-60.982416900336034, 45.723842517251505], [-60.98240708815093, 45.72380702431479], [-60.98240736834293, 45.72376998149717], [-60.98240775890282, 45.72371702701064], [-60.98241684261361, 45.72369174189825], [-60.98242061305522, 45.72368125043394], [-60.9824366028733, 45.72367544829382], [-60.982446654785996, 45.72367180948326], [-60.98254910492281, 45.72368172014602], [-60.98255320641178, 45.72368023544084], [-60.98257514663315, 45.723672279165676], [-60.98257547021095, 45.72366329296705], [-60.98256807760782, 45.723653036347436], [-60.9825497640868, 45.72362772629712], [-60.98252506326428, 45.723600287205116], [-60.982486177436876, 45.72357349761257], [-60.98247239545663, 45.72356366816875], [-60.98244733688144, 45.72354580871483], [-60.98230830610405, 45.72341013895817], [-60.98228471861424, 45.72339782301944], [-60.98225657787338, 45.72338312239605], [-60.98222321461685, 45.72337355902671], [-60.98219296736496, 45.723364896788034], [-60.98212341838938, 45.723352776850824], [-60.98208953803774, 45.72334686767866], [-60.98205970179935, 45.72334213706624], [-60.98202564888276, 45.72333673787817], [-60.98197424598132, 45.723336729684235], [-60.981959087622734, 45.72333907209836], [-60.981859233792925, 45.72335449935861], [-60.981781185384584, 45.72334501930155], [-60.98167933979555, 45.723354020555945], [-60.98164352831159, 45.723359625298215], [-60.98162764523841, 45.72336210787597], [-60.98160667079884, 45.723376786720415], [-60.98157623034791, 45.723398102954995], [-60.98157525817023, 45.72342508852103], [-60.98160157960921, 45.723443555545735], [-60.98161905009096, 45.72346228918241], [-60.98162632515388, 45.723470095537536], [-60.981652761084426, 45.72347646734277], [-60.98170275255802, 45.72348854796886], [-60.98173446427953, 45.723494013889926], [-60.98175512867172, 45.72349757439952], [-60.981805851268355, 45.723516472593175], [-60.98185691819759, 45.72356148850557], [-60.98186533512407, 45.72358076418817], [-60.98186878915575, 45.72358869202499], [-60.98186903946983, 45.72359101868457], [-60.98186974908589, 45.7235977189046], [-60.98184275616047, 45.723669240231914], [-60.98180417199158, 45.72374146580895], [-60.98178544725164, 45.72379108099054], [-60.981777178583386, 45.72381299611169], [-60.98179392655559, 45.72387355320677], [-60.98180219231951, 45.72390344730183], [-60.981813008411, 45.72393317944335], [-60.98181505564562, 45.723938778186756], [-60.98182723853415, 45.723992998967574], [-60.981822282766885, 45.72400678180221], [-60.98181438392668, 45.72402877546805], [-60.98178769386159, 45.724056206647106], [-60.98174914077688, 45.724091528999324], [-60.98174382161256, 45.724094351294795], [-60.98169806216746, 45.72411852915751], [-60.981607157961854, 45.72414482544778], [-60.98153809249853, 45.72415243470598], [-60.9815297446363, 45.724153358274755], [-60.98144010424855, 45.724144573200334], [-60.98137618190865, 45.72413534254309], [-60.98136242061641, 45.72412815059982], [-60.98132446632715, 45.72410832578524], [-60.98123551858627, 45.72404465621176], [-60.98120984556902, 45.72400818973521], [-60.981210817942404, 45.72398120417801], [-60.981229445839645, 45.72397459375304], [-60.98126158537867, 45.723963199652125], [-60.981325763783815, 45.7239446310729], [-60.981352489439374, 45.72393690363395], [-60.98144544100665, 45.72391120178931], [-60.9814809938883, 45.72390137110942], [-60.98153850720912, 45.72390157752975], [-60.981609486216584, 45.72390184188724], [-60.98166150532772, 45.72388475939618], [-60.98167078589033, 45.72387792069798], [-60.981686587048294, 45.72386630073757], [-60.98168755918734, 45.72383931517178], [-60.98166185323282, 45.72380375730629], [-60.981655677567716, 45.72380146094187], [-60.98163649182714, 45.7237943081789], [-60.98157224546074, 45.723794081820515], [-60.981417744165064, 45.72380214320903], [-60.98141093776118, 45.72380130283226], [-60.98134097949316, 45.72379268554205], [-60.98128191678188, 45.72377734809851], [-60.98119965692698, 45.72375598400101], [-60.98105864638447, 45.723746290547446], [-60.980883012370455, 45.72372919810152], [-60.98086655682228, 45.723727593037346], [-60.980801986687545, 45.72373635243579], [-60.98079666431971, 45.72373819353084], [-60.98074993504754, 45.723754334051975], [-60.980711718579634, 45.72378066109182], [-60.980685028105796, 45.72380809200713], [-60.98065933008848, 45.72384364128837], [-60.98064648735742, 45.72384341420675], [-60.980633288313804, 45.72385307282954], [-60.980627262802486, 45.72385302929333], [-60.98053051370652, 45.723852164625896]]}, "properties": {"OBJECTID": 133517, "FEAT_CODE": "WALK20", "FEAT_DESC": "Lake - Water to the right line", "RIVNAME_1": " ", "RIVNAME_2": " ", "ZVALUE": 174.8, "FID": null, "SHAPE_Length": 1100.9470550989226}}, {"type": "Feature", "id": 283498, "geometry": {"type": "LineString", "coordinates": [[-60.986663686838625, 45.72057790687968], [-60.9867523354153, 45.72068568948724], [-60.986794242055026, 45.720708876515616], [-60.986802734393535, 45.720713571682], [-60.98682941185808, 45.72072214277327], [-60.98688078011822, 45.72072304826347], [-60.98691933863207, 45.72072282784373], [-60.986957259269936, 45.7207045943294], [-60.986991697718835, 45.72068098888237], [-60.98704816386684, 45.7206422901006], [-60.98707385634091, 45.72060673926999], [-60.98708767650049, 45.720543967421335], [-60.98708769892708, 45.72053726213179], [-60.98708801605077, 45.720462974133426], [-60.98707582033002, 45.720444757339735], [-60.98707615184448, 45.72039975858586], [-60.98706460634068, 45.72029154405601], [-60.987064247110986, 45.72025969247083], [-60.98706398932484, 45.72023753666396], [-60.98708180313967, 45.72020703149286], [-60.987090005055826, 45.72019298160463], [-60.98710237545055, 45.72017628690868], [-60.9871170141181, 45.7201565448745], [-60.98715554792213, 45.72012122935351], [-60.98720896447135, 45.72009049656036], [-60.98723296319186, 45.720076689065074], [-60.98731338764678, 45.72004853842569], [-60.987335758531266, 45.72004069683334], [-60.987478066257886, 45.7200144017221], [-60.98757482187856, 45.720015260620116], [-60.987580833507124, 45.720015321547066], [-60.987646036818155, 45.720021700015536], [-60.987670468760705, 45.72002409271667], [-60.98768376031103, 45.72002790028208], [-60.987734051715556, 45.72004231479693], [-60.98787570540692, 45.72007001318496], [-60.9879675232848, 45.720089218637874], [-60.988054265020395, 45.720107362491575], [-60.988158026314586, 45.72011639113536], [-60.988259030315234, 45.72011703626312], [-60.98840213317737, 45.72011798178844], [-60.98871337098118, 45.72008764880988], [-60.98876189535927, 45.72008292279959], [-60.98915955047064, 45.72006652271136], [-60.98929263824154, 45.72005184520345], [-60.989314363791735, 45.72004944641891], [-60.98939177009676, 45.720040917188605], [-60.98940128902902, 45.720038492506134], [-60.989494221866025, 45.72001481797648], [-60.98962303543398, 45.71997027179472], [-60.98971332276286, 45.71992505632088], [-60.989739651992444, 45.71990751793578], [-60.989766310540986, 45.719844980742174], [-60.98976631198094, 45.71981449465195], [-60.989766323799145, 45.71977297361643], [-60.98975414061009, 45.719682749968115], [-60.98973030090449, 45.71963591259321], [-60.98970373525177, 45.719583752690355], [-60.989601956738824, 45.71944784737776], [-60.9895826981293, 45.71942912848007], [-60.98950012680602, 45.71934884484032], [-60.989398658251396, 45.719275951242366], [-60.98934836685514, 45.71924757703132], [-60.98933442410259, 45.719239716780976], [-60.98900201279521, 45.71908534876017], [-60.988883175906565, 45.7190256052429], [-60.988784912842156, 45.718976214941755], [-60.98868276787539, 45.71892221072442], [-60.98868036709884, 45.718920719294935], [-60.988579694113966, 45.71885828904328], [-60.98845100271666, 45.718746274177995], [-60.98841396985069, 45.718714055662595], [-60.988407981986086, 45.718706893470866], [-60.98837577541268, 45.71866837829889], [-60.9883253529924, 45.71860538378061], [-60.988312841860676, 45.718560158792684], [-60.98831317231874, 45.71851516000436], [-60.98832392745394, 45.71847543036354], [-60.98833983924788, 45.71841661958948], [-60.98835300371178, 45.71840785055156], [-60.98836451635195, 45.71840249976964], [-60.98839220646095, 45.7183896391391], [-60.988424820828655, 45.71837598314604], [-60.98845613100729, 45.718362862229554], [-60.98847333520306, 45.718345721466285], [-60.988482783086226, 45.718336319893965], [-60.988490313926135, 45.71832591245616], [-60.98850847323056, 45.718300777689244], [-60.988517040510445, 45.718281900634786], [-60.98852103155132, 45.71827309601927], [-60.98852108397252, 45.71826483409598], [-60.98852165982356, 45.71818399795468], [-60.9885101098767, 45.71814779083709], [-60.988470954474536, 45.718093095653096], [-60.98831871244661, 45.71796710142631], [-60.98830801068566, 45.71795165635416], [-60.98828084149704, 45.717912428800496], [-60.9881909291331, 45.71780373397909], [-60.9881533619019, 45.71774096582896], [-60.98813809372383, 45.71770776248491], [-60.98812833264037, 45.71768651937012], [-60.98812898616, 45.71763252534418], [-60.98814216571503, 45.71755174920999], [-60.98822056052219, 45.71740821533627], [-60.98824619523338, 45.71736776670594], [-60.98826006077209, 45.71734590468254], [-60.988375594916846, 45.71724589630755], [-60.988466939667795, 45.71716682995334], [-60.98851866725588, 45.71712183632724], [-60.988545002856426, 45.71706829462786], [-60.98855820659596, 45.71702262246853], [-60.98855950540351, 45.7169506379521], [-60.9885723539508, 45.71691486055097], [-60.98859803083805, 45.716879309084455], [-60.988688940144115, 45.71681700360145], [-60.988856961968025, 45.71668225744106], [-60.98896069928946, 45.71662016863929], [-60.989114903787964, 45.71654817625616], [-60.98916723658651, 45.716522094930596], [-60.989231804121395, 45.716477327052985], [-60.98924432937297, 45.716450544806484], [-60.9892481437932, 45.71643734460235], [-60.989257532382425, 45.71640487254962], [-60.98925794443189, 45.716363664570096], [-60.98925851438208, 45.71630587966687], [-60.9892716847448, 45.71626111592601], [-60.98929737404373, 45.716225555516765], [-60.989387952732066, 45.716136240876175], [-60.989416936548295, 45.71611629203892], [-60.989427476259394, 45.71610903382561], [-60.989478885486534, 45.7161090387791], [-60.989553782893516, 45.71610940318885], [-60.98962018850996, 45.71610972607754], [-60.98969143455174, 45.71611015213385], [-60.98969726696115, 45.71611018279217], [-60.98976719357336, 45.716098317314966], [-60.9898511077163, 45.71608408772556], [-60.98993266397024, 45.716058574418945], [-60.98999275256487, 45.71603977595395], [-60.99004256403488, 45.71601410889739], [-60.9900451167473, 45.716012794684325], [-60.99008367838394, 45.71597656955229], [-60.990087054329365, 45.7159727225647], [-60.990122530313535, 45.71593224868318], [-60.99014889605598, 45.71587780704348], [-60.99017459057699, 45.71580625182663], [-60.990175880950595, 45.71577027083349], [-60.99012483269665, 45.71561725681201], [-60.99009980238272, 45.71556281075002], [-60.99003654613951, 45.7154635873893], [-60.989998642841094, 45.71540981483571], [-60.98999200875552, 45.71537445945055], [-60.989986776215495, 45.71534659950075], [-60.98999995244923, 45.7152658230677], [-60.98998711799588, 45.71522959347633], [-60.98998392202777, 45.715218034043296], [-60.98997460649988, 45.71518435964019], [-60.98988563670393, 45.71508559271684], [-60.98972091352581, 45.714949479597855], [-60.989697691599574, 45.714933472227685], [-60.98968204287707, 45.714922692686706], [-60.98952918634351, 45.71484980366068], [-60.98946573066201, 45.71481743534523], [-60.989439598643294, 45.714804112972686], [-60.989350301210344, 45.71475033549092], [-60.98928558087617, 45.71468947487736], [-60.98927323830695, 45.7146778713978], [-60.989221882375304, 45.71464096348779], [-60.98903048023202, 45.71453228250103], [-60.98902403574602, 45.714529261723776], [-60.988992571501, 45.714514513218035], [-60.988990696259336, 45.71451377812494], [-60.98887727088088, 45.71446927840244], [-60.98872446539115, 45.714401474714414], [-60.988672383741644, 45.714378361197205], [-60.988468142975535, 45.714269453151644], [-60.988314328968265, 45.71418753569498], [-60.988255849793035, 45.71414614542302], [-60.988250424145996, 45.714142305462644], [-60.98822582233054, 45.714126102465514], [-60.98808473898883, 45.714033175795386], [-60.98803367505976, 45.71398817165459], [-60.987944412580276, 45.713933493586694], [-60.98783853541546, 45.71388995389568], [-60.98779120614661, 45.7138704871731], [-60.98777191373788, 45.71386065127245], [-60.98770162112565, 45.71382480415945], [-60.98761204409925, 45.713743118401695], [-60.987536196372965, 45.71367627311147], [-60.98750991760914, 45.71365310969288], [-60.9873066589237, 45.7134812103556], [-60.987204565700715, 45.71339030186243], [-60.987183867697084, 45.713361296112176], [-60.987153188174474, 45.71331828900746], [-60.98716429566615, 45.71328054585896], [-60.98717953130312, 45.713228744007516], [-60.98716944045095, 45.71320562278967], [-60.98716766009321, 45.71320153199206], [-60.98712942980714, 45.71319275734733], [-60.98705972747309, 45.71319917960173], [-60.98694895424728, 45.71320937833996], [-60.986884720215606, 45.71320914617859], [-60.986878722982766, 45.713206916244076], [-60.98685936262362, 45.71319969826051], [-60.986806260635376, 45.71317857310701], [-60.98676942401981, 45.713163909298494], [-60.98662845554354, 45.71308222499615], [-60.98641235304559, 45.71294609233417], [-60.98637976857332, 45.71292287147872], [-60.986335934083854, 45.712891639445644], [-60.986322779326336, 45.71286440470883], [-60.98631682729567, 45.71284804408153], [-60.986309928283696, 45.71282907448854], [-60.986365714252486, 45.71279049902455], [-60.98641400338429, 45.7127571019022]]}, "properties": {"OBJECTID": 283498, "FEAT_CODE": "WARV50", "FEAT_DESC": "River - Single Line", "RIVNAME_1": "River Tillard", "RIVNAME_2": " ", "ZVALUE": 9999, "FID": null, "SHAPE_Length": 1397.5118576495624}}]}