{"type": "FeatureCollection", "features": [{"type": "Feature", "id": 3683, "geometry": {"type": "LineString", "coordinates": [[-61.243341880305834, 45.47511403862945], [-61.24334380613452, 45.47538140505803], [-61.24328243975906, 45.47575041193855], [-61.243196362874656, 45.47609113477029], [-61.24303487423168, 45.4765117084001], [-61.242907915101874, 45.47676809045165], [-61.24271308401599, 45.4770675339669], [-61.24253077575805, 45.47729335973047], [-61.24225979679907, 45.47757272788582], [-61.24190663424399, 45.477984948541106], [-61.24171161496664, 45.47820787689835], [-61.24157601919552, 45.47837141170249], [-61.24143401041727, 45.47861765893953], [-61.24134316487882, 45.47882328827675], [-61.24125269254433, 45.47909913290714], [-61.2412011084579, 45.47927656284838], [-61.24105942249272, 45.479553418750385], [-61.24084072045948, 45.47983808928118], [-61.24054944451564, 45.480152245398585], [-61.240119079022314, 45.48053626712697], [-61.239801060076935, 45.48080500299446], [-61.23939088812174, 45.48111552311346], [-61.23889601010058, 45.481475142317905], [-61.2383495581636, 45.481806059929525], [-61.23799423239977, 45.48199860484856], [-61.237619142342815, 45.4821683405552], [-61.2371590490256, 45.48235566541276], [-61.23675608192885, 45.48247546116317], [-61.23653129555712, 45.48254399987354], [-61.236431847672954, 45.482614473903595], [-61.236416502771505, 45.48269614810446], [-61.236460720641524, 45.48275533897897], [-61.23646925227493, 45.4827689725801], [-61.23646479762745, 45.48278870648861], [-61.236428958286844, 45.482789053123085]]}, "properties": {"OBJECTID": 3683, "FEAT_CODE": "WACO20", "FEAT_DESC": "Coast - Water to the right line", "RIVNAME_1": " ", "RIVNAME_2": " ", "ZVALUE": 0.7, "FID": null, "SHAPE_Length": 1061.4605030644452}}, {"type": "Feature", "id": 3956, "geometry": {"type": "LineString", "coordinates": [[-61.23378085135717, 45.48289124522247], [-61.233588204396526, 45.48287296330793], [-61.23352450884874, 45.482863876900076], [-61.233012978101854, 45.48277225134858], [-61.23287307911138, 45.482744883067596], [-61.23275719930619, 45.48272688756595], [-61.23266820607068, 45.482708407942475], [-61.23250170235283, 45.482672526342625], [-61.232233134780735, 45.48262696343671], [-61.23195827577917, 45.48258905254721], [-61.23173388543973, 45.482571131132524], [-61.231508209727245, 45.482555034622166], [-61.23130719801377, 45.482545278493895], [-61.23104901431282, 45.48249547202991], [-61.23088039042884, 45.48247382216839], [-61.23073905046899, 45.48247128134054], [-61.23060986753387, 45.48248750724658], [-61.230392483144946, 45.48252374413355], [-61.23017456309841, 45.482577074640794], [-61.23004676203646, 45.48261289900078], [-61.229981940147404, 45.48263979807535], [-61.229802849908786, 45.48271983330286], [-61.22966113114311, 45.482791446397485], [-61.22958451626258, 45.48282716364701], [-61.22957159611867, 45.482871969482346], [-61.229571183787016, 45.482925970465004], [-61.22958384306787, 45.48297117287765], [-61.22960929210854, 45.48301657357547], [-61.229660912621185, 45.483043477427245], [-61.22971181793419, 45.4830523677101], [-61.2298394617775, 45.483062447557955], [-61.22996769749772, 45.48305363385648], [-61.230070071875694, 45.48305342040563], [-61.23020489115315, 45.483046850771615], [-61.230365644167, 45.48303385994186], [-61.23049655104223, 45.48301451959789], [-61.23065657511821, 45.482977807825655], [-61.23078221809844, 45.48293613455499], [-61.23088650564235, 45.482901781347294], [-61.23101604331388, 45.48285463240066], [-61.231103475691384, 45.48282486054791], [-61.23119804724325, 45.482791436697376], [-61.23124402799098, 45.48277860206112], [-61.23129134438437, 45.482772151962976], [-61.23136526360282, 45.48277387293588], [-61.23144893762807, 45.48279017390837], [-61.23155084254866, 45.482827432977146], [-61.23166961670667, 45.48287560163784], [-61.23177806082824, 45.482936571989136], [-61.23188456866659, 45.482998907446614], [-61.23197616777619, 45.48306170507109], [-61.232039831258845, 45.48310494250836], [-61.23213788049533, 45.48315954073105], [-61.23230289614422, 45.48327697795748], [-61.23238392783018, 45.483328693178215], [-61.232689346084655, 45.483545849384335], [-61.2328685530107, 45.483707944477075], [-61.23291905030463, 45.48377083438033], [-61.232995562558145, 45.48386113049746], [-61.23314802513886, 45.48405971633378], [-61.233198523050184, 45.484122606119136]]}, "properties": {"OBJECTID": 3956, "FEAT_CODE": "WACO20", "FEAT_DESC": "Coast - Water to the right line", "RIVNAME_1": " ", "RIVNAME_2": " ", "ZVALUE": 0.7, "FID": null, "SHAPE_Length": 720.4000749018379}}, {"type": "Feature", "id": 4134, "geometry": {"type": "LineString", "coordinates": [[-61.23352766586429, 45.48755176403985], [-61.23365550274934, 45.487596947359904], [-61.23377108342341, 45.48762483864823], [-61.23388597574447, 45.487633816606824], [-61.233962467810436, 45.48764309170511], [-61.23428181624282, 45.48766154091699], [-61.23438516887447, 45.487671240061886]]}, "properties": {"OBJECTID": 4134, "FEAT_CODE": "WACO20", "FEAT_DESC": "Coast - Water to the right line", "RIVNAME_1": " ", "RIVNAME_2": " ", "ZVALUE": 0.7, "FID": null, "SHAPE_Length": 69.03081989215272}}, {"type": "Feature", "id": 4135, "geometry": {"type": "LineString", "coordinates": [[-61.23365202159552, 45.485743541591425], [-61.23357346276879, 45.48592325102888], [-61.23350910033448, 45.48605817389472], [-61.233471317998976, 45.486120597992496], [-61.23339398263567, 45.486220215327954], [-61.23331624004037, 45.48629192251469], [-61.2332262693955, 45.48634543801068], [-61.2331492427693, 45.48643515860755], [-61.23308528781434, 45.48651608018638], [-61.23303412324827, 45.486597199640734], [-61.23298216824948, 45.48678542139948], [-61.23298147765587, 45.48684841927679], [-61.2330195939366, 45.486939021311166], [-61.23312118315169, 45.48712781865452], [-61.23322243751397, 45.48724550106152], [-61.23327321958734, 45.48729939395438], [-61.23335029967509, 45.487371696120505], [-61.23345186438488, 45.487479481775644], [-61.23347759978885, 45.48751588478346], [-61.23352766586429, 45.48755176403985]]}, "properties": {"OBJECTID": 4135, "FEAT_CODE": "WACO20", "FEAT_DESC": "Coast - Water to the right line", "RIVNAME_1": " ", "RIVNAME_2": " ", "ZVALUE": 0.7, "FID": null, "SHAPE_Length": 226.1117542218492}}, {"type": "Feature", "id": 4137, "geometry": {"type": "LineString", "coordinates": [[-61.23438516887447, 45.487671240061886], [-61.23462746368417, 45.48769838925007], [-61.23498590245299, 45.48773543424375], [-61.23521540701097, 45.487762384491845], [-61.23531847899562, 45.48778107967578], [-61.23563686039924, 45.487871510923256], [-61.23593063111473, 45.48797146243946], [-61.23608505097104, 45.48802605490738], [-61.23624988757041, 45.48811591281853], [-61.236531181558824, 45.488287670843775], [-61.2367731053255, 45.488449837055704], [-61.23691305166965, 45.48855821223989], [-61.23702766908676, 45.48865809511553], [-61.23711757501764, 45.48872969260666], [-61.23725767894919, 45.48887407467595], [-61.23737176427689, 45.488991051304666], [-61.237474153577566, 45.48907274253782], [-61.23764040297922, 45.48919952522936], [-61.23772931206881, 45.48926210562779], [-61.23799654589255, 45.48943364302346], [-61.238149288005474, 45.48954222311093], [-61.238277851202064, 45.489605414878774], [-61.238380085985675, 45.48965109803076], [-61.23858442703731, 45.489705557079496], [-61.23875095548227, 45.4897414301341], [-61.23886529212609, 45.48976839604119], [-61.2389289963749, 45.4897774795882], [-61.23898059948908, 45.48980527904393], [-61.23907035232002, 45.4898408686465], [-61.23910788507006, 45.48986845107095], [-61.23919779556734, 45.489940046977694], [-61.23927404563345, 45.490039335963395], [-61.23937535274963, 45.4902380246236], [-61.239438799261166, 45.49033711609012], [-61.23946343107224, 45.490409505585546], [-61.2395017457233, 45.49053521320411], [-61.239552291333936, 45.49067911179869], [-61.23958945684533, 45.490841706656866], [-61.23965267191439, 45.49103080659519], [-61.23971532668752, 45.49123790028876], [-61.23979123980035, 45.49147130183525], [-61.23984151389081, 45.49170610837468], [-61.239917428098536, 45.49193950983613], [-61.240018618332755, 45.49218320213669], [-61.24010660720391, 45.49239878712074], [-61.240145299051086, 45.49247139312869], [-61.24024732414673, 45.49260618337649], [-61.24034779824825, 45.49283186189396], [-61.24041198074386, 45.49294896654527], [-61.24046237244999, 45.493056857452544], [-61.24061504373306, 45.49329144106763], [-61.2407293396731, 45.49352543326673], [-61.24077957406711, 45.49359731674791], [-61.24088157462757, 45.49373300614611], [-61.24100950607367, 45.49385264066251], [-61.24115441166919, 45.49393765677551], [-61.241349770691905, 45.49404646582301], [-61.24149205544359, 45.4941351226376], [-61.24159675351739, 45.494223713575884], [-61.24165030633598, 45.494296727908576], [-61.24169673191229, 45.494365626934695], [-61.241732889047256, 45.49441081166559], [-61.24178517952277, 45.4944706107198]]}, "properties": {"OBJECTID": 4137, "FEAT_CODE": "WACO20", "FEAT_DESC": "Coast - Water to the right line", "RIVNAME_1": " ", "RIVNAME_2": " ", "ZVALUE": 0.7, "FID": null, "SHAPE_Length": 1022.4664029675374}}, {"type": "Feature", "id": 4196, "geometry": {"type": "LineString", "coordinates": [[-61.236428958286844, 45.482789053123085], [-61.23633972367258, 45.482737268088684], [-61.236231008560054, 45.482653677798105], [-61.236174746711534, 45.48261140313839], [-61.23610727025829, 45.48260045952604], [-61.236022830212725, 45.482600055308055], [-61.235830073246206, 45.482625881500645], [-61.23561045523119, 45.48265219246554], [-61.23555898741238, 45.482661298580304], [-61.23544426004577, 45.48268832975954], [-61.23532884362904, 45.48269644759418], [-61.235226188793284, 45.48270566265698], [-61.23512455999948, 45.48272299459128], [-61.234995482603665, 45.48275880476499], [-61.23494501254135, 45.48277692725346], [-61.234778127831106, 45.48279415033838], [-61.23466311877029, 45.48283017760653], [-61.23465032903695, 45.4828299798864], [-61.234534603037844, 45.48284799348369], [-61.23427856918226, 45.482892641458314], [-61.23415133217377, 45.48291047667618], [-61.234036196329434, 45.48290959631335], [-61.23378085135717, 45.48289124522247]]}, "properties": {"OBJECTID": 4196, "FEAT_CODE": "WACO20", "FEAT_DESC": "Coast - Water to the right line", "RIVNAME_1": " ", "RIVNAME_2": " ", "ZVALUE": 0.7, "FID": null, "SHAPE_Length": 220.16359443027187}}, {"type": "Feature", "id": 4301, "geometry": {"type": "LineString", "coordinates": [[-61.233198523050184, 45.484122606119136], [-61.233212029434775, 45.48414081754415], [-61.233262373720756, 45.48416770001504], [-61.23332678709113, 45.48419480012622], [-61.23338964023096, 45.48423087729058], [-61.233479352557055, 45.48426736992374], [-61.23353125735766, 45.48428527518895], [-61.233620126103645, 45.48434875834218], [-61.2336448906193, 45.48437524496352], [-61.23364504462689, 45.484411252252855], [-61.233657707477725, 45.4844564542564], [-61.23369610459561, 45.484538059217016], [-61.233708233153116, 45.48460035528007], [-61.23370782471229, 45.484654356321116], [-61.23368139937104, 45.484762862420496], [-61.23368022752551, 45.485086888431134], [-61.23369307269031, 45.48516719802601], [-61.23371714659264, 45.48533859367675], [-61.23371748149108, 45.48549161968705], [-61.23370328490355, 45.48553640622648], [-61.2336775756116, 45.485662925835456], [-61.23365202159552, 45.485743541591425]]}, "properties": {"OBJECTID": 4301, "FEAT_CODE": "WACO20", "FEAT_DESC": "Coast - Water to the right line", "RIVNAME_1": " ", "RIVNAME_2": " ", "ZVALUE": 0.7, "FID": null, "SHAPE_Length": 198.97795175145447}}, {"type": "Feature", "id": 134113, "geometry": {"type": "LineString", "coordinates": [[-61.23693871788671, 45.483060660586276], [-61.23710550644108, 45.48308753887731], [-61.23713080537576, 45.48309693066339], [-61.23721980078423, 45.48311540683832], [-61.23728377792946, 45.4831154943014], [-61.237463637277656, 45.48313357260381], [-61.23755219572543, 45.48312503809015], [-61.237616453493224, 45.48311612846953], [-61.237680991836875, 45.483098221914474], [-61.237732022521605, 45.48306210441223], [-61.237809474461045, 45.48299939092847], [-61.23786078553924, 45.48295427646661], [-61.23800202420173, 45.482774631043874], [-61.238002304742395, 45.482765634143846], [-61.2380410782, 45.48271222503764], [-61.23811796826915, 45.4826675051298], [-61.23815564754073, 45.48264918389471], [-61.23822018518482, 45.48263127702294], [-61.23828444229472, 45.482622367015665], [-61.23836120861318, 45.48262265117926], [-61.238476091654604, 45.4826316243853], [-61.23848888136939, 45.48263182167641], [-61.23855257753876, 45.482640905323144], [-61.23882115072206, 45.48268645344128], [-61.238974840995205, 45.482723028340835], [-61.23906355609338, 45.48275049998498], [-61.23939586182436, 45.482886141692966], [-61.23967654374586, 45.48299488308292], [-61.239830515692674, 45.48302245994146], [-61.2400477743932, 45.4830312092857], [-61.24029058479464, 45.483041252091496], [-61.24046972633111, 45.48304131213833], [-61.24077623391325, 45.48306043646653], [-61.24108304978614, 45.48306966336902], [-61.24122479290218, 45.48307904752857], [-61.24151879114827, 45.483088975967945], [-61.24164618561112, 45.48310713987406], [-61.241825766600314, 45.48313420824283], [-61.24194062206412, 45.48314407765799], [-61.24203020830831, 45.48314365659829], [-61.24208164762433, 45.483135447250085], [-61.242196652807095, 45.48309941244978], [-61.242248120047506, 45.48309030333357], [-61.242337676947045, 45.483090781703645], [-61.24247758172328, 45.483118138467255], [-61.24270779101341, 45.48316308697711], [-61.24278427839499, 45.48317236510042], [-61.24286104557448, 45.483172646249976], [-61.24295088238111, 45.48316412721799], [-61.242989559705265, 45.48315482097344], [-61.24314321367289, 45.48311037864564], [-61.24323205107042, 45.483092842788544], [-61.24334861414371, 45.48304782956637], [-61.24348847840301, 45.48299417341563], [-61.24361711121092, 45.48293134311724], [-61.243732366708365, 45.482887209513535], [-61.24403958086696, 45.482842427224476], [-61.2442697203572, 45.482807260581325], [-61.24446193065232, 45.48279851406572], [-61.244538256888454, 45.482771783623775], [-61.2447050962904, 45.48267353451616], [-61.24476919140905, 45.48262861345441], [-61.24482077613186, 45.48257449884096], [-61.24485985046831, 45.482511190692655], [-61.24493681015456, 45.48234045005906], [-61.24496306657058, 45.48227784499406], [-61.245015402703984, 45.482034716025844], [-61.24504137946866, 45.48198110787143], [-61.24509240451671, 45.481944986987635], [-61.245156219096515, 45.48190906262203], [-61.245271750703814, 45.481855930471575], [-61.24552816893334, 45.48175725636061], [-61.24565679668469, 45.48169442367554], [-61.24582291056877, 45.481578159313514], [-61.2458872828223, 45.481524240644205], [-61.24593914471401, 45.48146112854421], [-61.2460418684453, 45.481325887681194], [-61.2460937020539, 45.481263675197745], [-61.24613233277591, 45.481173356096846], [-61.246209727987214, 45.48102962495226], [-61.24624849252956, 45.480976212910114], [-61.24629951589531, 45.480940091455786], [-61.246504463650126, 45.48085052603525], [-61.2465813446141, 45.48080580027654], [-61.24662057805052, 45.48077849887603], [-61.24668394882732, 45.48071556314305], [-61.246735781157625, 45.48065335034289], [-61.246774572851535, 45.48059903841296], [-61.24681317409412, 45.480509618743284], [-61.24683929296121, 45.48041010606896], [-61.24686466310804, 45.48029347955239], [-61.24689138591145, 45.48025698475692], [-61.24696798666652, 45.48022125566399], [-61.247390710051036, 45.48012333000268], [-61.247505119915566, 45.48010618329028], [-61.2475949791411, 45.48009676082186], [-61.2476845314679, 45.48009723492833]]}, "properties": {"OBJECTID": 134113, "FEAT_CODE": "WALK20", "FEAT_DESC": "Lake - Water to the right line", "RIVNAME_1": " ", "RIVNAME_2": " ", "ZVALUE": 1, "FID": null, "SHAPE_Length": 1059.9596254300052}}, {"type": "Feature", "id": 134114, "geometry": {"type": "LineString", "coordinates": [[-61.242266889102964, 45.487176248294695], [-61.24224130756487, 45.48717585452665], [-61.24215258396227, 45.48714838524528], [-61.24208816288289, 45.4871212900133], [-61.242050322500546, 45.487103605165416], [-61.24198674136758, 45.48704951913952], [-61.241961000625714, 45.48701311796821], [-61.2419483305919, 45.486967916797255], [-61.241936472446554, 45.486896624578584], [-61.24195045449506, 45.486652906701686], [-61.24195106850029, 45.48650979670866], [-61.24198899046662, 45.48640146572291], [-61.24202807072341, 45.48633815867117], [-61.24205421174039, 45.48632055865337], [-61.24210552258287, 45.48627544230342], [-61.24214317505107, 45.486258019471535], [-61.242361938432296, 45.48617767544957], [-61.242451088758294, 45.48615024367713], [-61.24254121021664, 45.48613272812684], [-61.24275801385323, 45.48611536174935], [-61.243014216214604, 45.48610670225746], [-61.2430526157889, 45.4861063929451], [-61.243141737706715, 45.486079860318334], [-61.24318066878579, 45.486062456815105], [-61.24324476901686, 45.486017536710015], [-61.243296078642125, 45.48597241980449], [-61.24334766790564, 45.48591830595345], [-61.24336129755252, 45.48589151194719], [-61.243373208237756, 45.485837687824805], [-61.243386517463435, 45.48573887909376], [-61.2433744059674, 45.485675684215835], [-61.24332329522087, 45.48554978095703], [-61.24313251324798, 45.48530651324252], [-61.2430309615662, 45.48519783625041], [-61.24283938255612, 45.48506257047027], [-61.24271266294064, 45.484981409712674], [-61.24263629322689, 45.48492712722955], [-61.24245738610528, 45.48483706104015], [-61.24230352817837, 45.48476448426402], [-61.24203602299554, 45.48460194486893], [-61.241729309026816, 45.484465804817646], [-61.241474915036775, 45.484375475784326], [-61.2413076815047, 45.48432159335548], [-61.24120589266337, 45.48430292333125], [-61.24112940404789, 45.48429364413335], [-61.24102730723909, 45.484284870555236], [-61.24086041964661, 45.48430210248718], [-61.240771299540725, 45.484328633367], [-61.2406933823202, 45.484365238122436], [-61.24053975973177, 45.48449068866451], [-61.2403864166381, 45.48460714207841], [-61.240308965248424, 45.48466985730317], [-61.24019311505919, 45.4847328808495], [-61.24011678417745, 45.484759608307684], [-61.240039454439405, 45.48477731909455], [-61.239693856210614, 45.48482149891939], [-61.23960429665296, 45.484821018435056], [-61.23931038459275, 45.484766980393054], [-61.23886255929242, 45.48476547546192], [-61.238773560725036, 45.48474700052569], [-61.23856851919272, 45.48467452850719], [-61.23836419620878, 45.484620069656295], [-61.23821147167004, 45.48459341019596], [-61.2380702864708, 45.48456602845358], [-61.237917029142, 45.48455646270808], [-61.237801861711525, 45.48455648578143], [-61.23769895127714, 45.48457380022647], [-61.237610390570495, 45.48458233481827], [-61.23746977117571, 45.484618869771126], [-61.237277176989295, 45.484680705819514], [-61.237187465235, 45.48472612734198], [-61.23707163961284, 45.484788247977406], [-61.236853591987206, 45.48488659538013], [-61.236699775553966, 45.48497693297434], [-61.23650721017154, 45.485119779195756], [-61.23632781198545, 45.48520972122283], [-61.23603286618401, 45.48535278561242], [-61.23593064294807, 45.485389011649836], [-61.23573832543176, 45.48544184814463], [-61.23568657414125, 45.485459951159626], [-61.23550729937997, 45.48550488767504], [-61.235097868606424, 45.485584972257286], [-61.23495683739348, 45.485593593947776], [-61.23476489767217, 45.48559332741355], [-61.2346756181479, 45.48558384616583], [-61.23427935638917, 45.4855291130165], [-61.234112871436395, 45.485492333955555], [-61.23408782503428, 45.48547484430685], [-61.23407587828261, 45.48544765588313], [-61.23406321489764, 45.48540245392511], [-61.234088613885376, 45.48528583077389], [-61.23408845960954, 45.485249823486164], [-61.234102374629, 45.48521403376832], [-61.23414046493338, 45.48514171286738], [-61.234218458477294, 45.48497999672945], [-61.234231783435085, 45.48488118928825], [-61.23428297232963, 45.48488108068733], [-61.234576978182645, 45.484891027120824], [-61.23466656579835, 45.48489061186153], [-61.23474261824714, 45.484872884969825], [-61.23484553005451, 45.48485557321202], [-61.234973333352485, 45.48481974352443], [-61.23507655412698, 45.48479253498508], [-61.23538347577376, 45.48475767283109], [-61.235536577908036, 45.48473123467611], [-61.235945876466324, 45.48469615260086], [-61.236048815701224, 45.48467794005889], [-61.236292319006736, 45.484624993485774], [-61.236407049954224, 45.48459796151592], [-61.23672719359539, 45.48450839246605], [-61.23685524763748, 45.48446446343791], [-61.23692006849188, 45.48443756045167], [-61.23697110088843, 45.484401443323016], [-61.23699695831312, 45.48431093014412], [-61.236997772388214, 45.48428483915513], [-61.23697231681985, 45.484239440016424], [-61.23692165845658, 45.48414054451943], [-61.23674288475591, 45.483923555012346], [-61.23669210226302, 45.4838696636281], [-61.23653937773632, 45.483761090756346], [-61.23646270681866, 45.48371670082661], [-61.236271613384964, 45.48360753503868], [-61.23613055688838, 45.48353514673954], [-61.23596545275761, 45.48345428567916], [-61.23578571845389, 45.48339120080851], [-61.23561980056306, 45.48333643023535], [-61.235415611183704, 45.483236962013045], [-61.23509694613782, 45.48307451585702], [-61.23504535103569, 45.48304671473538], [-61.235020867435374, 45.48301123152557], [-61.235020993544836, 45.4829662273313], [-61.235034064326555, 45.482957428125026], [-61.235110395049354, 45.48293070405631], [-61.235289380903524, 45.48289476491386], [-61.23535363872663, 45.48288585656781], [-61.2354431950801, 45.48288634034004], [-61.235506890994074, 45.48289542568246], [-61.23566001772086, 45.48294999879525], [-61.23576270280514, 45.48302179486749], [-61.23585129128046, 45.48309427319421], [-61.23596648581947, 45.48317526356512], [-61.23606845442471, 45.48322904583476], [-61.23623409163086, 45.4832928126494], [-61.236566237584235, 45.483392455207074], [-61.236834687902075, 45.48348301223574], [-61.236898384733095, 45.48349209681439], [-61.23694926361308, 45.483501883582186], [-61.236987661388014, 45.48350157628346], [-61.23705220036421, 45.48348367009454], [-61.23709115951245, 45.48346536897196], [-61.23711630237625, 45.48343875343978], [-61.23712965363641, 45.48342095709631], [-61.23712921670576, 45.48339394666736], [-61.237103761410644, 45.483348547555615], [-61.237053259765744, 45.48328565943465], [-61.23697686625271, 45.483150361724306], [-61.23693843717387, 45.48306965748069], [-61.23693871788671, 45.483060660586276]]}, "properties": {"OBJECTID": 134114, "FEAT_CODE": "WALK20", "FEAT_DESC": "Lake - Water to the right line", "RIVNAME_1": " ", "RIVNAME_2": " ", "ZVALUE": 1, "FID": null, "SHAPE_Length": 1866.6106478117938}}, {"type": "Feature", "id": 150210, "geometry": {"type": "LineString", "coordinates": [[-61.23851931588052, 45.48432362183475], [-61.23854529988242, 45.484270015286725], [-61.2385454232176, 45.48422501105613], [-61.238533474552696, 45.484197823065024], [-61.238494638718755, 45.48417112044658], [-61.23844346567695, 45.48417033105817], [-61.23841730931645, 45.48418883014096], [-61.23839216671242, 45.48421544596046], [-61.2383530839591, 45.48427875175128], [-61.23834101187816, 45.48429656796926], [-61.23834073137643, 45.48430556486852], [-61.238379287011114, 45.48434125544147], [-61.2384045864407, 45.48435065595179], [-61.23845577490298, 45.48435054547277], [-61.23849342715956, 45.4843331238365], [-61.23851931588052, 45.48432362183475]]}, "properties": {"OBJECTID": 150210, "FEAT_CODE": "WALKIS10", "FEAT_DESC": "Lake Island - Island to the left line", "RIVNAME_1": " ", "RIVNAME_2": " ", "ZVALUE": 1, "FID": null, "SHAPE_Length": 57.0401551440995}}, {"type": "Feature", "id": 197449, "geometry": {"type": "LineString", "coordinates": [[-61.23693871788671, 45.483060660586276], [-61.23692592808555, 45.48306046312015], [-61.23682395894029, 45.48300668160711], [-61.236683464696476, 45.482916300208124], [-61.23662035815003, 45.48288832204332], [-61.236581243353626, 45.482870615688306], [-61.23656845359793, 45.4828704181828], [-61.236428958286844, 45.482789053123085]]}, "properties": {"OBJECTID": 197449, "FEAT_CODE": "WARV50", "FEAT_DESC": "River - Single Line", "RIVNAME_1": " ", "RIVNAME_2": " ", "ZVALUE": 9999, "FID": null, "SHAPE_Length": 50.47661520059414}}]}