{"type": "FeatureCollection", "features": [{"type": "Feature", "id": 59476, "geometry": {"type": "LineString", "coordinates": [[-60.899091136859084, 45.703711472382196], [-60.899117118053816, 45.70373805311981], [-60.89909134489658, 45.70377448288931], [-60.899078735856456, 45.703787005273696], [-60.899064658733984, 45.703800994806556], [-60.89906127287384, 45.70380324576168], [-60.89905148417934, 45.703809753386146]]}, "properties": {"OBJECTID": 59476, "FEAT_CODE": "WALK20", "FEAT_DESC": "Lake - Water to the right line", "RIVNAME_1": " ", "RIVNAME_2": " ", "ZVALUE": 56, "FID": null, "SHAPE_Length": 13.11911704921866}}, {"type": "Feature", "id": 59477, "geometry": {"type": "LineString", "coordinates": [[-60.89905148417934, 45.703809753386146], [-60.89903898376941, 45.70380052245831], [-60.899027123807976, 45.703774201498696], [-60.89903938539148, 45.703755525075955], [-60.899091136859084, 45.703711472382196]]}, "properties": {"OBJECTID": 59477, "FEAT_CODE": "WALK20", "FEAT_DESC": "Lake - Water to the right line", "RIVNAME_1": " ", "RIVNAME_2": " ", "ZVALUE": 56, "FID": null, "SHAPE_Length": 13.107653369132851}}, {"type": "Feature", "id": 59478, "geometry": {"type": "LineString", "coordinates": [[-60.89908484043077, 45.70435942522583], [-60.899096687695895, 45.70438574594341], [-60.89909584488178, 45.70438663953459], [-60.89907126412666, 45.704413181183014], [-60.89907058997379, 45.704431170687265]]}, "properties": {"OBJECTID": 59478, "FEAT_CODE": "WALK20", "FEAT_DESC": "Lake - Water to the right line", "RIVNAME_1": " ", "RIVNAME_2": " ", "ZVALUE": 55.7, "FID": null, "SHAPE_Length": 8.702659843024527}}, {"type": "Feature", "id": 59479, "geometry": {"type": "LineString", "coordinates": [[-60.89907058997379, 45.704431170687265], [-60.89904491472063, 45.70443069833533], [-60.89902025072185, 45.70440324172211], [-60.89904599052047, 45.70436771145349], [-60.89907036225312, 45.70436251622651], [-60.89908484043077, 45.70435942522583]]}, "properties": {"OBJECTID": 59479, "FEAT_CODE": "WALK20", "FEAT_DESC": "Lake - Water to the right line", "RIVNAME_1": " ", "RIVNAME_2": " ", "ZVALUE": 55.7, "FID": null, "SHAPE_Length": 13.196146968519002}}, {"type": "Feature", "id": 59480, "geometry": {"type": "LineString", "coordinates": [[-60.89897778224506, 45.703548269869295], [-60.89899618996631, 45.70355515222489], [-60.8990031200161, 45.70355773698241], [-60.89901112890643, 45.70357438307661], [-60.89901622995969, 45.7035849810375], [-60.899011507354075, 45.70360370614791], [-60.899002653804224, 45.7036387369955], [-60.89898914219871, 45.70365649032154], [-60.89896122628699, 45.703669883201776], [-60.89895120571594, 45.70367469437228]]}, "properties": {"OBJECTID": 59480, "FEAT_CODE": "WALK20", "FEAT_DESC": "Lake - Water to the right line", "RIVNAME_1": " ", "RIVNAME_2": " ", "ZVALUE": 56, "FID": null, "SHAPE_Length": 17.315072664528095}}, {"type": "Feature", "id": 59481, "geometry": {"type": "LineString", "coordinates": [[-60.89895120571594, 45.70367469437228], [-60.89889985590677, 45.70367374962103], [-60.89887020166083, 45.70363891938623], [-60.898861711601604, 45.70362894313749], [-60.89884826462169, 45.70361069381812], [-60.89886219467827, 45.703586917568124], [-60.898874341244, 45.703566168826846], [-60.898887515766994, 45.703557410266825], [-60.89897778224506, 45.703548269869295]]}, "properties": {"OBJECTID": 59481, "FEAT_CODE": "WALK20", "FEAT_DESC": "Lake - Water to the right line", "RIVNAME_1": " ", "RIVNAME_2": " ", "ZVALUE": 56, "FID": null, "SHAPE_Length": 25.945975691002594}}, {"type": "Feature", "id": 59482, "geometry": {"type": "LineString", "coordinates": [[-60.89891060616792, 45.70376395695315], [-60.89894911858675, 45.70376466551621], [-60.89894920991058, 45.70377422620981], [-60.898949391069245, 45.7037916733921], [-60.89894050562051, 45.703821726119365], [-60.89893616472153, 45.70383643482224], [-60.89890980305156, 45.70385394271811], [-60.89889435144907, 45.70386210132612], [-60.898858691469854, 45.70388091429027]]}, "properties": {"OBJECTID": 59482, "FEAT_CODE": "WALK20", "FEAT_DESC": "Lake - Water to the right line", "RIVNAME_1": " ", "RIVNAME_2": " ", "ZVALUE": 56, "FID": null, "SHAPE_Length": 18.892861006648097}}, {"type": "Feature", "id": 59483, "geometry": {"type": "LineString", "coordinates": [[-60.898858691469854, 45.70388091429027], [-60.89885917980068, 45.703845261494756], [-60.89885943034296, 45.70382692215986], [-60.898881945083595, 45.703795860067636], [-60.898898715346206, 45.703772739133875], [-60.89891060616792, 45.70376395695315]]}, "properties": {"OBJECTID": 59483, "FEAT_CODE": "WALK20", "FEAT_DESC": "Lake - Water to the right line", "RIVNAME_1": " ", "RIVNAME_2": " ", "ZVALUE": 56, "FID": null, "SHAPE_Length": 14.100453660101614}}, {"type": "Feature", "id": 135323, "geometry": {"type": "LineString", "coordinates": [[-60.90642794871377, 45.71068693179852], [-60.90640157776872, 45.71070535033306], [-60.90637289115849, 45.710711467123176], [-60.90636271157978, 45.71071363874835], [-60.90635794524062, 45.7107136323753], [-60.906311321482626, 45.71071359669493], [-60.906304001880756, 45.71071693686518], [-60.906273416032214, 45.710730903637206], [-60.90618268266232, 45.710821049737774], [-60.9061434803455, 45.71083833285916], [-60.906013966115644, 45.71090076494233], [-60.90591140103515, 45.71096369104736], [-60.90571760419398, 45.7110609477997], [-60.90553669852365, 45.71112333697157], [-60.90544672948572, 45.7111585997486], [-60.90534327654412, 45.71117649534023], [-60.90525336837417, 45.71117574630735], [-60.90515092355099, 45.71116666638748], [-60.90511240589572, 45.711165959826864], [-60.90497077105416, 45.711174162724106], [-60.90496032984952, 45.711176455437744], [-60.90464950025524, 45.71124477650555], [-60.9044816328836, 45.711271444462795], [-60.90443107117343, 45.71127947260763], [-60.90441716774305, 45.71127986554744], [-60.90416097598531, 45.711287126376206], [-60.90402001380261, 45.71127732955088], [-60.90386560096001, 45.71124929278089], [-60.90382207340264, 45.711249249907574], [-60.90381421075, 45.711249240600196], [-60.90373706686638, 45.711284737439144], [-60.903645751125204, 45.711355968848274], [-60.90350436943142, 45.71139207749652]]}, "properties": {"OBJECTID": 135323, "FEAT_CODE": "WALK20", "FEAT_DESC": "Lake - Water to the right line", "RIVNAME_1": " ", "RIVNAME_2": " ", "ZVALUE": 45.4, "FID": null, "SHAPE_Length": 253.69176284192898}}, {"type": "Feature", "id": 135324, "geometry": {"type": "LineString", "coordinates": [[-60.90350436943142, 45.71139207749652], [-60.90349153017474, 45.71139184179182], [-60.903483154602014, 45.71137257002788], [-60.90347970027138, 45.71136462178608], [-60.90349858673331, 45.711358100787926], [-60.90350443095754, 45.71135608385415], [-60.9035156272898, 45.71134459717139], [-60.90353115276271, 45.71132866248681], [-60.90353443350804, 45.711326481479276], [-60.90354432844524, 45.7113199034198], [-60.90353222393096, 45.71126567554801], [-60.90354511215325, 45.711229908373575], [-60.903563370243965, 45.71120514891873], [-60.903584377324776, 45.711176623525134], [-60.90358886088981, 45.7111639244918], [-60.903597324812814, 45.71113995733798], [-60.90359799767111, 45.711121967802775], [-60.90352134253662, 45.71104135139543], [-60.90351498835237, 45.71102334086959], [-60.90350856521161, 45.71100511305478], [-60.90350965382661, 45.71094131634842], [-60.903510707555625, 45.71087913917089], [-60.903520241540775, 45.71085541668958], [-60.90353620670144, 45.71081570058014], [-60.90355496021884, 45.71077769182962], [-60.90358903249619, 45.71070865900502], [-60.90357591876804, 45.71068141543873], [-60.9034739071238, 45.710626437148115], [-60.9034844344899, 45.710573407829266], [-60.90348815382169, 45.71055469113888], [-60.90348592395777, 45.71054663936205], [-60.90347570022046, 45.71050945779036], [-60.90344972673755, 45.71048287821864], [-60.90343442464257, 45.71046777273761], [-60.90341255536475, 45.71044619292176], [-60.90336037449378, 45.71042814213324], [-60.903322003826354, 45.71042832875982], [-60.903303459019824, 45.71043121962057], [-60.90327031121584, 45.71043638063255], [-60.90324050248884, 45.710425779281245], [-60.90321959438811, 45.71041834765866], [-60.90319783545588, 45.71039279050981], [-60.903181442179694, 45.71037354252699], [-60.90316967467795, 45.7103103198516], [-60.90316749722091, 45.71030876771253], [-60.903130883242056, 45.710282604760366], [-60.90312363539198, 45.71028093251817], [-60.903092669430464, 45.71027379324505], [-60.90304161596339, 45.7102647639559], [-60.90301600012331, 45.71022828981196], [-60.9030103338177, 45.71021525140726], [-60.90300417067815, 45.7102010697601], [-60.90305745759861, 45.71001302838243], [-60.90307045440176, 45.709940359373206], [-60.903070516508215, 45.70990435673258], [-60.90303303776556, 45.70984156202278], [-60.903001129421895, 45.70981428830693], [-60.9029695448247, 45.70978729055527], [-60.90286692456367, 45.7097142986456], [-60.90285406488206, 45.70971496258825], [-60.90275556889011, 45.7096790582031], [-60.902752653646026, 45.709677996559684], [-60.902721086172754, 45.70966977502563], [-60.9026114212974, 45.7096411991905], [-60.902543986842716, 45.7096321928581], [-60.90247079983943, 45.70962241475797], [-60.90244601404063, 45.70960943919497], [-60.90241913672534, 45.70959536309882], [-60.90230398167854, 45.70951403959368], [-60.902248841652806, 45.70949819317502], [-60.90224044036439, 45.70949576161121], [-60.90216336065469, 45.70949525478951], [-60.90207412862166, 45.7094765137775], [-60.90202273973106, 45.70947646981374], [-60.902002936997505, 45.70948963443605], [-60.90198321330753, 45.70950274650138], [-60.901931088210375, 45.70955669464688], [-60.90188121834908, 45.70958299729265], [-60.90187997307215, 45.709583658485904], [-60.90175145449914, 45.70961910119932], [-60.90168157487253, 45.70965070670313], [-60.9016730409307, 45.709654564321326], [-60.90158267250522, 45.70973481244887], [-60.901495617522016, 45.70977081873649], [-60.90145347989173, 45.70978824433219]]}, "properties": {"OBJECTID": 135324, "FEAT_CODE": "WALK20", "FEAT_DESC": "Lake - Water to the right line", "RIVNAME_1": " ", "RIVNAME_2": " ", "ZVALUE": 45.4, "FID": null, "SHAPE_Length": 357.3142377580238}}, {"type": "Feature", "id": 135325, "geometry": {"type": "LineString", "coordinates": [[-60.90145347989173, 45.70978824433219], [-60.90143735133086, 45.709753024282165], [-60.90142853882648, 45.709733780336414], [-60.90143540732576, 45.7097205311484], [-60.90144240080062, 45.70970703223002], [-60.901532419795146, 45.70963577873805], [-60.90158481902675, 45.70960883864988], [-60.90158454534586, 45.70958183078329], [-60.901564405546715, 45.70955389081669], [-60.90155889708835, 45.70954625580629], [-60.90149534282028, 45.70952798617171], [-60.901238452708064, 45.7095259656277], [-60.90112382990384, 45.709466847043814], [-60.90109729800221, 45.70945316402467], [-60.901062861185245, 45.70944266606125], [-60.90091819101903, 45.70939856664722], [-60.90086814960553, 45.70936254314585], [-60.90082969682717, 45.709325832545304], [-60.900817898479715, 45.709263509142474], [-60.90081457358758, 45.70925143176186], [-60.90080546013266, 45.70921827577192], [-60.90080517147283, 45.709189962488956], [-60.90080491351237, 45.70916426004468], [-60.90083270926732, 45.709073861415185], [-60.90083209707162, 45.70906790953725], [-60.900831762245545, 45.70906484306075], [-60.9008401040037, 45.709043817167064], [-60.90084594799545, 45.70902910902966], [-60.90088388723054, 45.70897214633475], [-60.90092354140356, 45.70891261387501], [-60.90110562431237, 45.708716139523005], [-60.90122203972234, 45.708626460416376], [-60.901286666416404, 45.70858174328418], [-60.90141652951989, 45.708510331009485], [-60.90159689644117, 45.70839393276404], [-60.90173966051688, 45.7082867443813], [-60.901908163872534, 45.70814402491535], [-60.901985964605366, 45.70809054847108], [-60.90219241833642, 45.707929614786885], [-60.90226986872097, 45.707885141661095], [-60.90230909090797, 45.707866960133735], [-60.90238682837857, 45.707849486045305]]}, "properties": {"OBJECTID": 135325, "FEAT_CODE": "WALK20", "FEAT_DESC": "Lake - Water to the right line", "RIVNAME_1": " ", "RIVNAME_2": " ", "ZVALUE": 45.4, "FID": null, "SHAPE_Length": 311.0002707978385}}, {"type": "Feature", "id": 135326, "geometry": {"type": "LineString", "coordinates": [[-60.90238682837857, 45.707849486045305], [-60.902412505251874, 45.70784995767338], [-60.902468119634456, 45.707853085390205], [-60.90257916935606, 45.70785931945222], [-60.90270379319925, 45.70785986207195], [-60.90270760823558, 45.7078598781299], [-60.902835715473785, 45.70787033161568], [-60.90297030566359, 45.7078864125832], [-60.90306719083882, 45.70789798465797], [-60.9032719850654, 45.707953050301896], [-60.90345071984617, 45.708017538208026], [-60.903668312526165, 45.708107941795845], [-60.9038565089682, 45.708207337404886], [-60.90391020399563, 45.70823569394784], [-60.904026031525206, 45.7082990262958], [-60.90419092079742, 45.708390262664004], [-60.90421244954039, 45.70840513128285], [-60.9042297451235, 45.70841707791239], [-60.90426756061592, 45.70847087747518], [-60.904292503944106, 45.70852534090051], [-60.904304496583904, 45.70855473304855], [-60.904318394897366, 45.70858882265668], [-60.904321669399565, 45.708642816420635], [-60.90432872936507, 45.708759130198246], [-60.904341781782854, 45.708822376347435], [-60.904376220229295, 45.70888094740736], [-60.90437922773867, 45.708886070129424], [-60.90440364006983, 45.70890319685784], [-60.90440426619968, 45.708903631391934], [-60.90441105675645, 45.70890894054518], [-60.904531576513925, 45.70900317771508], [-60.904605640366675, 45.70903829024538], [-60.9046085941924, 45.709039694585435], [-60.904613662344914, 45.709042964912015], [-60.90474909298918, 45.70913048170434], [-60.90482609814786, 45.709166998197205], [-60.90487441712218, 45.70917870380942], [-60.90490249192559, 45.709185501529504], [-60.90499239688892, 45.709186250783006], [-60.90500958931991, 45.70919546811361], [-60.90504277703948, 45.709213277742506], [-60.90506583708311, 45.70922947042533], [-60.90509410494971, 45.70924932301135], [-60.90510917118102, 45.70926352385124], [-60.905171062262504, 45.70932185117692], [-60.905372561260805, 45.709534396136846], [-60.905436799174446, 45.70960213634455], [-60.90548686328925, 45.70964451292199], [-60.905565073201046, 45.7097107091228], [-60.90574345343355, 45.709819291541514], [-60.905819788078944, 45.70987379695227], [-60.90587074743593, 45.70991973614811], [-60.905872187422545, 45.70992142772846], [-60.905947055685246, 45.71000934467322], [-60.90602198645934, 45.710135831761214], [-60.906111939040976, 45.71027979503131], [-60.90612381935078, 45.71029881583168], [-60.90619948300628, 45.71037131056931], [-60.90620653180749, 45.71038037774271], [-60.90621296755455, 45.71038865959451], [-60.906311644405754, 45.71045971299074], [-60.90631430957789, 45.710461625048026], [-60.90634699171534, 45.71047649071629], [-60.90635347232497, 45.710479444823626], [-60.906417029341156, 45.71049771179769], [-60.90646771372315, 45.71051664284878]]}, "properties": {"OBJECTID": 135326, "FEAT_CODE": "WALK20", "FEAT_DESC": "Lake - Water to the right line", "RIVNAME_1": " ", "RIVNAME_2": " ", "ZVALUE": 45.4, "FID": null, "SHAPE_Length": 466.33454018396213}}, {"type": "Feature", "id": 135327, "geometry": {"type": "LineString", "coordinates": [[-60.894846251449415, 45.70560540967773], [-60.89493648929076, 45.70559717204416], [-60.89516709752165, 45.70557982038888], [-60.89526539090679, 45.705580767924744], [-60.89526982131878, 45.70558081357505], [-60.89527550038537, 45.705581134264925], [-60.895436489960396, 45.70559018588067], [-60.895590907811076, 45.7056240668082], [-60.8957321000731, 45.70565503954679], [-60.895829875133636, 45.70567322286962], [-60.89583416165396, 45.70567402192671], [-60.89584148235658, 45.705676812094204], [-60.89602541436437, 45.70574685300413], [-60.896134947320355, 45.70579166148147], [-60.896179775166026, 45.705810003177604], [-60.89624854062301, 45.70584706676466], [-60.896281770823954, 45.70586498774894], [-60.89634146952557, 45.70590402648273], [-60.896434748427666, 45.705965015996874], [-60.8964700243072, 45.70599004935548], [-60.89649856822038, 45.70601029621044], [-60.896562050618144, 45.70606457112486], [-60.89659928380397, 45.7061175614458], [-60.89659985715276, 45.706118373090796], [-60.896637292522506, 45.70618206925386], [-60.89664077900688, 45.706189469244386], [-60.89671346154443, 45.706343689066436], [-60.89676325278905, 45.706488621309525], [-60.89677589195595, 45.70653935842226], [-60.89678781817033, 45.70658718409662], [-60.89698273906298, 45.706844186552615], [-60.897041217024764, 45.706921285453234], [-60.897078990830934, 45.706975986744844], [-60.897101682333776, 45.7069978088538], [-60.89711618947195, 45.70701177543717], [-60.8971502398782, 45.70703593992531], [-60.89718001099052, 45.70705705529266], [-60.89725667083537, 45.70710257150364], [-60.89725934209974, 45.707107391192814], [-60.897281944129666, 45.70714804160501], [-60.89731342481935, 45.70717495802381], [-60.89734542855094, 45.707202316109694], [-60.89743486166116, 45.70728406217964], [-60.897473344221126, 45.70731988339308], [-60.89753927389816, 45.70739015249026], [-60.89765123248279, 45.70750947800879], [-60.89779131319372, 45.707645270778194], [-60.89781530331874, 45.70769071713624], [-60.89789040633473, 45.70788021943954], [-60.897916307325836, 45.70792233459369], [-60.89797881032101, 45.7080240616759], [-60.89797804033317, 45.708110717636124], [-60.89797800506592, 45.708114056338836], [-60.89798095332319, 45.70812725199079], [-60.8979901036129, 45.708168284721225], [-60.89802747622179, 45.708267992044476], [-60.898040905600176, 45.708321335819825], [-60.898064289271375, 45.70839119053009], [-60.89806515536013, 45.70839378974325], [-60.89806881886558, 45.70840127395409], [-60.898140338163586, 45.70854728953762], [-60.89815264485663, 45.70857747119754], [-60.89816622210741, 45.70861077256651], [-60.89817727796175, 45.70872707927157], [-60.89817701634672, 45.70874604845402], [-60.89817653786096, 45.70878108033625], [-60.898175798094165, 45.7088350724057], [-60.898124612324395, 45.70889952221212], [-60.89809759019755, 45.70893354349245]]}, "properties": {"OBJECTID": 135327, "FEAT_CODE": "WALK20", "FEAT_DESC": "Lake - Water to the right line", "RIVNAME_1": " ", "RIVNAME_2": " ", "ZVALUE": 46.5, "FID": null, "SHAPE_Length": 502.9468225950021}}, {"type": "Feature", "id": 135328, "geometry": {"type": "LineString", "coordinates": [[-60.89809759019755, 45.70893354349245], [-60.89809595402058, 45.70893469250187], [-60.89804613689844, 45.70896949133992], [-60.89799407359815, 45.708987444043586], [-60.89780894601997, 45.7089866196315], [-60.89780139250308, 45.7089865975982], [-60.89780006605321, 45.708986339156134], [-60.89775037520987, 45.70897665750824], [-60.89757188196871, 45.7089400770637], [-60.89741747811573, 45.708912022713754], [-60.897213023973116, 45.70884795188249], [-60.89709681309213, 45.70882960129603]]}, "properties": {"OBJECTID": 135328, "FEAT_CODE": "WALK20", "FEAT_DESC": "Lake - Water to the right line", "RIVNAME_1": " ", "RIVNAME_2": " ", "ZVALUE": 46.5, "FID": null, "SHAPE_Length": 82.91761233509749}}, {"type": "Feature", "id": 135329, "geometry": {"type": "LineString", "coordinates": [[-60.89709681309213, 45.70882960129603], [-60.897083974474874, 45.70882936488149], [-60.89698221138581, 45.70880229727878], [-60.89692849596194, 45.708784836347384], [-60.89684132275286, 45.70875649813934], [-60.89669975934069, 45.70872868829303], [-60.89669611115581, 45.708728675107274], [-60.8965713059335, 45.70872812258665], [-60.896521303027356, 45.7087277956406], [-60.896494240643726, 45.70872760319888], [-60.89641778411082, 45.70874509686808], [-60.896413048055116, 45.708745999733], [-60.89632720507656, 45.708762330336], [-60.89630283671437, 45.70877148545453], [-60.896160406626855, 45.70882496453482], [-60.89605665116726, 45.70885095599241], [-60.89587600027261, 45.70894034640902], [-60.89571062896526, 45.70903646276644], [-60.895707884230774, 45.70903805036322], [-60.895655753643446, 45.70909199554935], [-60.895607978918584, 45.709125048770915], [-60.89559112162978, 45.70913671839598], [-60.8954108412488, 45.70921619585742], [-60.89538037360732, 45.709233123204356], [-60.895346546966216, 45.70925191484085], [-60.89526897584619, 45.70929940535727], [-60.89522951300009, 45.70932356565778], [-60.895188557336304, 45.709337869396236], [-60.895126668535944, 45.70935947410096], [-60.8950633308693, 45.70937347326897], [-60.89501007256686, 45.709385236935944], [-60.89490756599535, 45.7094121414617], [-60.89484359614765, 45.709438865194535], [-60.89467521898325, 45.70950956896915], [-60.894656484899905, 45.70952057378978], [-60.894584570669736, 45.70956280356373], [-60.89452061333871, 45.70958952734591], [-60.89434036360123, 45.70963390898635], [-60.894275531018245, 45.70965930235453], [-60.894250390596696, 45.70966915387291], [-60.89410351180872, 45.70975612188264], [-60.89406905869395, 45.709776521757476], [-60.89403050231553, 45.709784739679804], [-60.89402607798212, 45.709785891219695], [-60.89392769623316, 45.70981171880986], [-60.893919084417625, 45.709812505089545], [-60.893837452747604, 45.70981995554216], [-60.893747504204136, 45.70985077201709], [-60.8936305100693, 45.709890846604274], [-60.893579390759854, 45.709917806650154], [-60.89355303703297, 45.70993532244352], [-60.893521219619316, 45.709974465734824], [-60.893501849391164, 45.70999828498008], [-60.8934817164961, 45.71000923680236], [-60.893436269128905, 45.71003397916377], [-60.89328241768393, 45.710059944093146], [-60.89296126414501, 45.71005851957533], [-60.89281180911657, 45.710039983298394], [-60.89280780644659, 45.71003948639733], [-60.89261586730734, 45.709984639209345], [-60.892544591763695, 45.709955835010845], [-60.89243615991174, 45.70991201554298], [-60.8923716664297, 45.70985899783932], [-60.89234767617741, 45.709839275052516], [-60.89219400641433, 45.7097572305053], [-60.891951238452314, 45.709585340807486], [-60.891913001243914, 45.70954236651828], [-60.891862487203895, 45.70948558315495], [-60.891785828679566, 45.70944006335969], [-60.89175362263199, 45.70936073751736], [-60.891749378271506, 45.70935027206821], [-60.891736959763136, 45.70930504707062], [-60.89173012770078, 45.70928857522107], [-60.891711036192056, 45.709242461947184], [-60.8917114265521, 45.70919963364332], [-60.891711851252154, 45.70915247651727], [-60.89173966192719, 45.70906207136467], [-60.89177858544676, 45.70901778519377], [-60.891829366465466, 45.708999820654036], [-60.891864258582395, 45.708990302702134], [-60.891894269922375, 45.70898211679093], [-60.89189926684765, 45.708982137025835], [-60.89202272367575, 45.708982687768625], [-60.89218867857076, 45.70901095362132], [-60.89232482037074, 45.709011729165724], [-60.89232997102472, 45.70901176121994], [-60.89235079978244, 45.70900895029812], [-60.89239453614662, 45.70900305177609], [-60.89243270264954, 45.70897683431558], [-60.89243410040568, 45.70897587900803], [-60.89245861527096, 45.70891569204363], [-60.89245957723956, 45.70891334254734], [-60.892498195726866, 45.708877151354514], [-60.89251137249811, 45.70886839357737]]}, "properties": {"OBJECTID": 135329, "FEAT_CODE": "WALK20", "FEAT_DESC": "Lake - Water to the right line", "RIVNAME_1": " ", "RIVNAME_2": " ", "ZVALUE": 46.5, "FID": null, "SHAPE_Length": 604.2596895111017}}, {"type": "Feature", "id": 135330, "geometry": {"type": "LineString", "coordinates": [[-60.89251137249811, 45.70886839357737], [-60.89255061126893, 45.70885021570997], [-60.89255220392978, 45.70885022709922], [-60.8927047290864, 45.708851259524955], [-60.89273108254945, 45.70883374391998], [-60.8927637521849, 45.70881806403776], [-60.89276902453064, 45.70881554204836], [-60.89279572892985, 45.708789031955725], [-60.89280794673301, 45.70877126450214], [-60.89283406480338, 45.70872583258917], [-60.8928476482562, 45.70867207753531], [-60.89290066314587, 45.70849213666373], [-60.89291465317568, 45.7083933843583], [-60.89298145174443, 45.70822269871194], [-60.89299005619155, 45.70821082319793], [-60.89300719716342, 45.70818716992522], [-60.89304689788561, 45.70808798286613], [-60.89309535396677, 45.70789154904922], [-60.893099945836106, 45.70787294779521], [-60.893219011527826, 45.707576312887255], [-60.893246177034165, 45.70746880264234], [-60.89331148463312, 45.707406100676444], [-60.893320640641626, 45.70737509929128], [-60.89332472923229, 45.70736134025477], [-60.893630389681384, 45.70677905439266], [-60.893744022615614, 45.70656258916889], [-60.893756847848316, 45.70656282571293], [-60.893808977792645, 45.706508881362204], [-60.893871118163766, 45.706465805735085], [-60.89405430789934, 45.70633879630042], [-60.894197018177756, 45.70623362353391], [-60.89424854732997, 45.70619565359182], [-60.89436493395888, 45.70610689000755], [-60.894379227367196, 45.70608718944149], [-60.89440423776652, 45.7060527088895], [-60.89453490151459, 45.70589130065958], [-60.894599935435615, 45.705801590042086], [-60.894645050419854, 45.70575887517648], [-60.89466520447463, 45.70573978667271], [-60.894846251449415, 45.70560540967773]]}, "properties": {"OBJECTID": 135330, "FEAT_CODE": "WALK20", "FEAT_DESC": "Lake - Water to the right line", "RIVNAME_1": " ", "RIVNAME_2": " ", "ZVALUE": 46.5, "FID": null, "SHAPE_Length": 423.4044753199315}}, {"type": "Feature", "id": 164064, "geometry": {"type": "LineString", "coordinates": [[-60.88783022463872, 45.70940117472736], [-60.88790352613267, 45.70942727405644], [-60.88798489074775, 45.7094562407452], [-60.888042875819444, 45.70946466688816], [-60.88804877916429, 45.70946552314087], [-60.88807411764141, 45.70947499268478], [-60.88815080699685, 45.70951961545145], [-60.88820148404417, 45.7095385544898], [-60.88838091721583, 45.709584176921915], [-60.88845432757769, 45.70961422032412], [-60.88847076349108, 45.709620941898805], [-60.88847398495804, 45.70962137050209], [-60.888611366455706, 45.70963975224859], [-60.88862423940868, 45.709639081155416], [-60.88876519444539, 45.70964888787626], [-60.88907344681606, 45.709650985829654], [-60.88916430985249, 45.70966076621144], [-60.88929174890315, 45.70968832434922], [-60.88929210293672, 45.70968881694386], [-60.88930394411325, 45.70970565154874], [-60.889304550578416, 45.70972366465262], [-60.88931731839874, 45.709759904423414], [-60.88933499349117, 45.70977295844048], [-60.88935481860463, 45.70978760035466], [-60.88937220097993, 45.70978761558415], [-60.889406207565855, 45.70978765002493], [-60.889435421095286, 45.70979282542365], [-60.889457257846466, 45.70979669436013], [-60.88953098520984, 45.709794114492645], [-60.88967595729661, 45.709789034750564], [-60.88973685894334, 45.709783481451126], [-60.88976618838702, 45.70978080108011], [-60.88992043866511, 45.70974494721745], [-60.88992443527479, 45.70974458001694], [-60.890010669655325, 45.70973671335182], [-60.890075587350225, 45.70971901078706], [-60.89012670810425, 45.70969205233555], [-60.89013652542979, 45.709682791719864], [-60.89023060838811, 45.70959406136612], [-60.89028571789079, 45.709543044992564], [-60.89030782809155, 45.709522580256], [-60.890325899894684, 45.709510078757575], [-60.89037245149301, 45.709477869242555], [-60.890379547272296, 45.7094685493291], [-60.890385967261025, 45.709460117026], [-60.89045067356763, 45.709379403708645], [-60.890478230560646, 45.709262000336004], [-60.890480063470214, 45.709145021870405], [-60.89044096424492, 45.709091194018825], [-60.89039066170626, 45.70902815824633], [-60.890262687098044, 45.7089465857485], [-60.89009755143132, 45.7088283227442], [-60.88994525499207, 45.708710296728796], [-60.889873325123915, 45.708663800900126], [-60.88980478186023, 45.70861949182799], [-60.88977697052859, 45.70859994991559], [-60.88975347743143, 45.708583440102764], [-60.88972782437533, 45.70854786236539], [-60.88972821662384, 45.70850434102434], [-60.88972863006936, 45.708457867763386], [-60.88975261951306, 45.70844139827509], [-60.88976820803194, 45.70843069616995], [-60.8898199343633, 45.70842175093993], [-60.889884160544455, 45.70842203760224], [-60.88998932087953, 45.70844751813553], [-60.89003693555417, 45.70845906400636], [-60.89012778402275, 45.708468843355014], [-60.890204171651135, 45.70848735642162], [-60.89039651193959, 45.70849721035136], [-60.89078213814943, 45.7085259356523], [-60.890784357855374, 45.70852601265321], [-60.891090059049475, 45.70853702298984], [-60.89114731676455, 45.70854325589506], [-60.89117962400738, 45.708546777798105], [-60.891258206224, 45.708558192931655], [-60.8913073999866, 45.708565338963616], [-60.89140081429999, 45.70853116803909], [-60.89152755115998, 45.70848479492907]]}, "properties": {"OBJECTID": 164064, "FEAT_CODE": "WARV10", "FEAT_DESC": "Double Line River - Water to the left line", "RIVNAME_1": " ", "RIVNAME_2": " ", "ZVALUE": 46.5, "FID": null, "SHAPE_Length": 509.5493050876801}}, {"type": "Feature", "id": 164253, "geometry": {"type": "LineString", "coordinates": [[-60.88792305608526, 45.70922197259369], [-60.8879233950061, 45.70921297791361], [-60.88796133875257, 45.709194777672856], [-60.88802433258653, 45.70919506059171], [-60.88802556577244, 45.709195065396095], [-60.88803288855537, 45.70919780209582], [-60.8880509041248, 45.709204534943346], [-60.888090059975255, 45.709222360869106], [-60.88812816529713, 45.709268070293575], [-60.88814253128523, 45.70927823700408], [-60.88821701532445, 45.709330919798695], [-60.888221934332634, 45.70933300897182], [-60.88828150977836, 45.70935821516734], [-60.88831387227314, 45.7093746012576], [-60.88840884227947, 45.70942267620994], [-60.88846990093158, 45.70944023192313], [-60.888472391901374, 45.70944095305191], [-60.888626218978345, 45.70945009785179], [-60.88866658283822, 45.70945052907889], [-60.888741801407875, 45.709451325643805], [-60.88894776425064, 45.7094468253194], [-60.88907611485047, 45.70944402235115], [-60.889158794095096, 45.70944457850843], [-60.88923024724483, 45.70944506212629], [-60.88940934232972, 45.709499677640075], [-60.889525226642775, 45.709527012965935], [-60.889640131307615, 45.709546247219414], [-60.88978701116809, 45.709554974041346], [-60.88979395892002, 45.7095553904543], [-60.88979702872937, 45.70955541117522], [-60.88994809133011, 45.70955643826067], [-60.889983280760184, 45.70953835747554], [-60.8900004958642, 45.709529503585394], [-60.89003811893482, 45.70950649922526], [-60.89011621903548, 45.70945873400534], [-60.89013464746845, 45.7094398304512], [-60.89014294600276, 45.70943132485701], [-60.89015524835215, 45.70937754645842], [-60.89014458185454, 45.709251336123174], [-60.890138858623665, 45.70924125733486], [-60.89011927966368, 45.70920676401219], [-60.89006833409857, 45.70916081801967], [-60.89005613876172, 45.709143490898164], [-60.88996637549912, 45.70907072490827], [-60.889807902414354, 45.70898366486434], [-60.88980022426651, 45.70897944555645], [-60.88979089578489, 45.708974016628446], [-60.8897235342817, 45.70893482388361], [-60.88965563588682, 45.708901021746314], [-60.88955831587672, 45.70885257136412], [-60.889494850856124, 45.708798274892146], [-60.889461841859934, 45.70872740344564], [-60.88943186529223, 45.708663005709035], [-60.88944162558173, 45.70860373482555], [-60.889445171295996, 45.70858224308245], [-60.88945808061203, 45.70854647786727], [-60.8894807514989, 45.708515213510324], [-60.88949737772115, 45.70849230733123], [-60.88951028731995, 45.70845653311398], [-60.889529896263994, 45.708416508241925], [-60.88956317115138, 45.708348598950664], [-60.889614968486256, 45.708303642327536], [-60.88962520673277, 45.70829684679175], [-60.88965449901205, 45.70827738799316], [-60.88969055654763, 45.708260799493246], [-60.88973163442767, 45.708241900498685], [-60.8897538023664, 45.70823388524566], [-60.88975768374853, 45.70823248081257], [-60.890040264456246, 45.70823410178157], [-60.89014545094622, 45.708245568177084], [-60.89021939335523, 45.708253603958184], [-60.89080087587489, 45.70825637927172], [-60.89081026550854, 45.70825642667956], [-60.890828460255136, 45.70825703275237], [-60.891118218777706, 45.70826661444576], [-60.89113560211623, 45.70827103088894], [-60.8911563957047, 45.7082763203898], [-60.89131018632276, 45.70828636099684], [-60.89142606880614, 45.70831370336567], [-60.89150218051488, 45.70844202204611], [-60.89152755115998, 45.70848479492907]]}, "properties": {"OBJECTID": 164253, "FEAT_CODE": "WARV20", "FEAT_DESC": "Double Line River - Water to the right line", "RIVNAME_1": " ", "RIVNAME_2": " ", "ZVALUE": 46.5, "FID": null, "SHAPE_Length": 508.9116599632297}}, {"type": "Feature", "id": 167180, "geometry": {"type": "LineString", "coordinates": [[-60.88783022463872, 45.70940117472736], [-60.88783033005961, 45.70940110466959], [-60.88790805274836, 45.709347717386834], [-60.88792117829191, 45.709330453296275], [-60.88792155675394, 45.70932995624271], [-60.88792161028791, 45.7093258077957], [-60.88792305608526, 45.70922197259369]]}, "properties": {"OBJECTID": 167180, "FEAT_CODE": "WARV20", "FEAT_DESC": "Double Line River - Water to the right line", "RIVNAME_1": " ", "RIVNAME_2": " ", "ZVALUE": 46.5, "FID": null, "SHAPE_Length": 22.724620165551457}}, {"type": "Feature", "id": 193214, "geometry": {"type": "LineString", "coordinates": [[-60.880707249921564, 45.715931708772445], [-60.88072239429258, 45.71592469905604], [-60.88074648456439, 45.71591353489981], [-60.88075966515795, 45.715904769556154], [-60.88082396270921, 45.71586907687638], [-60.880849392472165, 45.71584253694628], [-60.880884054469796, 45.71579475508949], [-60.88088870350809, 45.715788360681096], [-60.880927980454594, 45.715735083863464], [-60.88110469399911, 45.71564230476284], [-60.88114821702921, 45.71561944882203], [-60.88122574129708, 45.71557409128613], [-60.88129452983095, 45.7155524781248], [-60.881393485971415, 45.71552139754114], [-60.88156445998928, 45.71546280483201], [-60.88162520039912, 45.715441987274666], [-60.88179278981766, 45.71532539238387], [-60.88190447553264, 45.71523965973029], [-60.882013778668444, 45.7151557639751], [-60.882119382769744, 45.71509188061386], [-60.8822202132341, 45.71503088794115], [-60.882284404219455, 45.7149932032511], [-60.8823108951535, 45.714977654818355], [-60.8824276928513, 45.71487901008444], [-60.88254094473239, 45.71481094768982], [-60.88262095896808, 45.714762881082564], [-60.88268345275919, 45.714708206925394], [-60.88271264636029, 45.71468267245785], [-60.88273852051385, 45.714653854103126], [-60.882777030054754, 45.71461095850191], [-60.88279576166038, 45.71457325879787], [-60.88281735775258, 45.71452979758788], [-60.88281822906196, 45.71440470064991], [-60.88281384663924, 45.714388741741125], [-60.882805804323425, 45.7143594655933], [-60.88279379464724, 45.71426923351969], [-60.88278681705933, 45.71416211895948], [-60.88278321946275, 45.714107020500265], [-60.88278397430945, 45.714053028840645], [-60.88279058073102, 45.71404174712701], [-60.88281006872074, 45.714008507906144], [-60.88287471575419, 45.713963810599196], [-60.88287728689175, 45.71396309318494], [-60.88306816773442, 45.71391068187016], [-60.883104712905215, 45.713884734519056], [-60.88310645598452, 45.713883488696325], [-60.88314538970736, 45.71383920568335], [-60.88314585180085, 45.71383003328742], [-60.883171483728766, 45.71379468465785], [-60.88328827740226, 45.71369603895414], [-60.883365284870195, 45.713643154588794], [-60.883443929141805, 45.713589112382984], [-60.88353402373276, 45.71351697441462], [-60.883640743309186, 45.713460509081955], [-60.8836507075511, 45.71345523016766], [-60.88371508859704, 45.71338351562222], [-60.8837672346242, 45.71332957619957], [-60.88376931373055, 45.71332555530211], [-60.8837810930632, 45.71330283017994], [-60.883807430540486, 45.713213389809106], [-60.88382088816353, 45.71316765336707], [-60.883860234956806, 45.71307837304292], [-60.88388363802689, 45.71303805943263], [-60.883912454702, 45.71298844014405], [-60.88392616570323, 45.7129421143209], [-60.88393896245323, 45.71289890388363], [-60.88396610780162, 45.712826508226414], [-60.88397902166755, 45.712790743734665], [-60.88401114685433, 45.7127613658399], [-60.88401761433207, 45.71275545504245], [-60.8840481703053, 45.712728163283266], [-60.884147922835744, 45.712639056971405], [-60.88421290710542, 45.71258535520232], [-60.88427762594827, 45.712504645645566], [-60.88428328118516, 45.7124855334014], [-60.884290879076964, 45.71245988645802], [-60.8842915893707, 45.712419287356106], [-60.88429197193295, 45.71239690009386], [-60.88429252047765, 45.71234663098051], [-60.88429355277817, 45.71225291426839], [-60.884293148206694, 45.71224082750539], [-60.88429294826615, 45.71223489217867], [-60.88432336235378, 45.71217765157223], [-60.88434550567898, 45.712135973383276], [-60.88437227730307, 45.7120734537357], [-60.88439815091198, 45.71200102540659], [-60.884402553491284, 45.71199331214819], [-60.88449030565617, 45.71183982447852], [-60.884535723296956, 45.71178265472617], [-60.88456854170727, 45.711741354258734], [-60.88457828688433, 45.71170816827389], [-60.884595093862536, 45.71165093656023], [-60.88466849656634, 45.71159405111523], [-60.88469831562269, 45.71157093996854], [-60.884736935437815, 45.71154476948837], [-60.884764255398096, 45.71152625652257], [-60.88486672397205, 45.711500251500496], [-60.88491217652954, 45.71146392843279], [-60.88494488474857, 45.71143779240813], [-60.885099894961805, 45.71134795346489], [-60.88518066379404, 45.71130863893653], [-60.885228148781884, 45.71128552176387], [-60.885357433226005, 45.71119610616474], [-60.88544945010042, 45.711106900460805], [-60.885484157022454, 45.7110829435143], [-60.885552343155105, 45.711035897951525], [-60.88561981215102, 45.71097448256092], [-60.88563084182728, 45.710964443696135], [-60.885811987315854, 45.71079408814922], [-60.88585109491706, 45.710761769672814], [-60.88587698066066, 45.710740385588544], [-60.885921028187, 45.71071879765741], [-60.88596730002971, 45.71069614376889], [-60.88599055720434, 45.71068279384921], [-60.886044779974966, 45.71065167320729], [-60.886059083179475, 45.71057902130576], [-60.88605955934155, 45.7105783190452], [-60.88607131634214, 45.710561254860515], [-60.88609801187607, 45.710534746174936], [-60.88610690934309, 45.71052979833468], [-60.886162313367464, 45.71049903253708], [-60.88622627556961, 45.71047231352958], [-60.886277665105304, 45.71047236461901], [-60.886286552659335, 45.710490846045765], [-60.886290783145995, 45.710499610261365], [-60.886351132232505, 45.710499881154924], [-60.88635499877983, 45.7104998987129], [-60.88640646116859, 45.71046394730554], [-60.88644648016372, 45.71035667660526], [-60.88646186046573, 45.710340624537864], [-60.88647187869622, 45.710330143827235], [-60.886532278960054, 45.71033041557231], [-60.88653611981822, 45.71033043264872], [-60.88655149614253, 45.71032777390469], [-60.88658784837727, 45.7103214889258], [-60.88659083601039, 45.71031755679645], [-60.88660136554113, 45.71030373718445], [-60.886652488454075, 45.71027678032997], [-60.88669103895502, 45.71027659363618], [-60.88671657143636, 45.71034907369917], [-60.88675444374416, 45.710366876327605], [-60.88681886286957, 45.71036789736047], [-60.88683185007054, 45.7103584076556], [-60.88692182865284, 45.71032316872085], [-60.88694791830623, 45.71027863773014], [-60.88698721908552, 45.710224468137675], [-60.886993671249, 45.71022235528608], [-60.88701323587086, 45.71021594857248], [-60.887064964255195, 45.710207004630035], [-60.8871407473777, 45.710207506662755], [-60.88716677697183, 45.710198987299535], [-60.88719469666841, 45.71018463428175], [-60.88721917023092, 45.71017206269501], [-60.88721898796235, 45.71011145594582], [-60.8872189761156, 45.710109043472805], [-60.88720763807133, 45.71000082234198], [-60.88723399376042, 45.70998330804897], [-60.88725970526437, 45.70998288363207], [-60.887273400928954, 45.70998799751908], [-60.887285043832655, 45.70999235335207], [-60.88733400210556, 45.71003883087799], [-60.887399160452674, 45.7101006756584], [-60.887421264609, 45.71010835733183], [-60.88745114269757, 45.71011873907856], [-60.88748934587327, 45.710128446731886], [-60.887592522219215, 45.71008355936424], [-60.88760006026487, 45.71007854125668], [-60.887605700366166, 45.71007479317884], [-60.887631450042775, 45.7100392656902], [-60.88763253900008, 45.70997627920203], [-60.88761943325365, 45.709949033939644], [-60.887555349527325, 45.70987674105999], [-60.887453766690435, 45.70977675161923], [-60.887450290691845, 45.7097479652936], [-60.88744300020221, 45.70968744306998], [-60.887443473392025, 45.70960875653701], [-60.88744348348334, 45.7096064434801], [-60.88745575022807, 45.70958776840986], [-60.88749254367992, 45.709550330022914], [-60.887507854814416, 45.70953473558186], [-60.88772119289855, 45.709446359052215], [-60.88783009421838, 45.70940122632085], [-60.88783022463872, 45.70940117472736]]}, "properties": {"OBJECTID": 193214, "FEAT_CODE": "WARV50", "FEAT_DESC": "River - Single Line", "RIVNAME_1": " ", "RIVNAME_2": " ", "ZVALUE": 9999, "FID": null, "SHAPE_Length": 1051.5698166242391}}, {"type": "Feature", "id": 193481, "geometry": {"type": "LineString", "coordinates": [[-60.901414905826776, 45.713495023958075], [-60.90148694392937, 45.71345875080346], [-60.90155633679106, 45.71342380614064], [-60.90159828351381, 45.713395080825855], [-60.901685566882165, 45.71333528018402], [-60.90171739022177, 45.71331303851504], [-60.90176340888131, 45.71328090459157], [-60.90181516731579, 45.71323685084853], [-60.90185412002298, 45.71319165271424], [-60.90190217162134, 45.71313644166804], [-60.90193199056424, 45.71310218286123], [-60.90195773273278, 45.71306665202454], [-60.901984792164356, 45.71303025428862], [-60.90203815884472, 45.71298613097839], [-60.90204976050539, 45.71297653308476], [-60.902179409035114, 45.71284210945056], [-60.90221104712094, 45.71281519275099], [-60.90223117990788, 45.712798046744034], [-60.90229625990608, 45.712672328918025], [-60.9023373537566, 45.712588438893405], [-60.9023491492694, 45.712564389017174], [-60.90239295240279, 45.712509720788276], [-60.9024138294914, 45.71248366848625], [-60.90246629358074, 45.71242072542678], [-60.90248745442132, 45.71238743256445], [-60.902505884418986, 45.71235844599714], [-60.90251884892607, 45.71228667657667], [-60.902533131001725, 45.712214031258966], [-60.90252781440541, 45.71212950477299], [-60.90252185440688, 45.71203470539414], [-60.902534818803886, 45.711962935966376], [-60.90256194046108, 45.71189051745883], [-60.9026395338447, 45.7117740391891], [-60.902660922114414, 45.71175766324002], [-60.90274402743082, 45.71169404965355], [-60.90285977319214, 45.711622367502564], [-60.90311828841606, 45.71144349527177], [-60.90318285489409, 45.711434779750384], [-60.90323818818082, 45.711429719168464], [-60.90327308707284, 45.71142653451999], [-60.903473761791375, 45.71139663713188], [-60.90350436943142, 45.71139207749652]]}, "properties": {"OBJECTID": 193481, "FEAT_CODE": "WARV50", "FEAT_DESC": "River - Single Line", "RIVNAME_1": " ", "RIVNAME_2": " ", "ZVALUE": 9999, "FID": null, "SHAPE_Length": 304.5133156885569}}, {"type": "Feature", "id": 193623, "geometry": {"type": "LineString", "coordinates": [[-60.89809759019755, 45.70893354349245], [-60.89809841866042, 45.708934062793766], [-60.89817325406363, 45.70898103895058], [-60.89831474160084, 45.70906984498872], [-60.89841735429918, 45.70914284986756], [-60.898486564846316, 45.70918463676929], [-60.89850655318161, 45.70919669682464], [-60.89853495381734, 45.709202665019966], [-60.89859578347972, 45.70921544059691], [-60.89872730882903, 45.70922833783828], [-60.898787803903645, 45.70923427543773], [-60.89891651814259, 45.709261846286836], [-60.899052275751544, 45.70929174279951], [-60.89921086794467, 45.70932666769636], [-60.89924908079605, 45.70933547149546], [-60.89932614701352, 45.70933598903885], [-60.899392357855724, 45.70931042913394], [-60.89941740030077, 45.70930076370068], [-60.89943899976619, 45.70929692155179], [-60.899467842181906, 45.70929179047259], [-60.89949351966758, 45.70929226276817], [-60.89957153088125, 45.709319674353914], [-60.89959623270291, 45.709328355546525], [-60.89962290269751, 45.709342113462746], [-60.89973738508387, 45.7094011589671], [-60.89981032251449, 45.70945323867966], [-60.89989005428179, 45.709510177789376], [-60.89990519221364, 45.709517287889824], [-60.8999279303732, 45.70952797611397], [-60.8999536079746, 45.70952844830802], [-60.899999996152445, 45.70952480086808], [-60.900023523711155, 45.70952299227403], [-60.90005668906272, 45.70952044280185], [-60.900120579792876, 45.70952971847879], [-60.900149592058874, 45.70953651660425], [-60.90027468262415, 45.70956585548143], [-60.90035406304703, 45.70960715316215], [-60.90041456545948, 45.70963863471799], [-60.900582026635924, 45.709722550894654], [-60.90063273531881, 45.70974796566992], [-60.90072224085827, 45.709793706672514], [-60.90082355734488, 45.709809844576014], [-60.900837184671445, 45.70981201226862], [-60.900892767965146, 45.709831800929756], [-60.900914524615146, 45.70983954560806], [-60.900918302847195, 45.70984157726106], [-60.90096490331086, 45.70986657433983], [-60.90110573488499, 45.70994837110794], [-60.901177850565205, 45.709965835203], [-60.90118212840143, 45.70996687692425], [-60.901207806224434, 45.70996734883991], [-60.901259869132296, 45.709949403666364], [-60.901336725923535, 45.70988690938373], [-60.901375676249025, 45.70984172034854], [-60.901388515133384, 45.70984195628485], [-60.90138885190168, 45.709832961527916], [-60.90139028939464, 45.70983197083735], [-60.90145347989173, 45.70978824433219]]}, "properties": {"OBJECTID": 193623, "FEAT_CODE": "WARV50", "FEAT_DESC": "River - Single Line", "RIVNAME_1": " ", "RIVNAME_2": " ", "ZVALUE": 9999, "FID": null, "SHAPE_Length": 309.4501291524457}}, {"type": "Feature", "id": 193625, "geometry": {"type": "LineString", "coordinates": [[-60.895486528039356, 45.71168294965961], [-60.895525417315646, 45.7116737652794], [-60.89555794586072, 45.71165125928767], [-60.89559005204135, 45.71162905153561], [-60.89561127931288, 45.71160709335388], [-60.89564218513843, 45.71157510644449], [-60.89573283580093, 45.711521871067326], [-60.89578395559976, 45.71149491007188], [-60.89579534529989, 45.71149337375173], [-60.89584852312958, 45.71148619871919], [-60.895990159691756, 45.71147800717577], [-60.89600333655781, 45.71146924900052], [-60.8960255987313, 45.71146934411939], [-60.89606756638732, 45.71146953224628], [-60.89609529759344, 45.71146460657157], [-60.89611799787729, 45.71146056030847], [-60.8961700428132, 45.71144351722216], [-60.89620778643243, 45.71141076503369], [-60.89622183756706, 45.7113985665764], [-60.89632542682416, 45.71130866520902], [-60.8963377151107, 45.71129277087954], [-60.89645641457081, 45.71113916002034], [-60.896505418854844, 45.71107988234607], [-60.896612538413116, 45.71095031557068], [-60.89667749613574, 45.71089660621174], [-60.89672417643435, 45.71086398244115], [-60.89675404741841, 45.71084311033749], [-60.8967791436452, 45.71083204232765], [-60.896793226840984, 45.71082583001798], [-60.89682533205986, 45.71080362189866], [-60.8968578595785, 45.710781115515324], [-60.89690266993787, 45.71072470374008], [-60.89693607231774, 45.71068264539112], [-60.89697570168517, 45.71061946847467], [-60.897067156097805, 45.710476246381766], [-60.89708012736423, 45.71040446867661], [-60.897080129358486, 45.710403730635804], [-60.89708093422544, 45.7103144740797], [-60.89708207588559, 45.710261785565386], [-60.897082687509005, 45.710233497854986], [-60.89708814724796, 45.710221870160346], [-60.8970952549385, 45.71020672643865], [-60.89714960916413, 45.7101400762107], [-60.89721242022068, 45.71006306856951], [-60.89724930225526, 45.71001282933037], [-60.89726522513508, 45.70999113320499], [-60.897356678070615, 45.709847901839694], [-60.897355731600626, 45.70983888346716], [-60.89736991976515, 45.70980314991484], [-60.89738433925242, 45.7096585001682], [-60.89737459559675, 45.70963123692237], [-60.89735875976723, 45.70958691272461], [-60.89732846042765, 45.70955655271626], [-60.89729561013532, 45.7095236434671], [-60.89724394969249, 45.70949658951126], [-60.89718009973578, 45.70945130918714], [-60.897104540764445, 45.709342806587614], [-60.89710086813618, 45.709326321231934], [-60.897092442864825, 45.709288578132416], [-60.8970928580104, 45.709242239901066], [-60.897093653003836, 45.70915358621077], [-60.897022954731824, 45.70908402114643], [-60.89699206694811, 45.70905360520514], [-60.89709681309213, 45.70882960129603]]}, "properties": {"OBJECTID": 193625, "FEAT_CODE": "WARV50", "FEAT_DESC": "River - Single Line", "RIVNAME_1": " ", "RIVNAME_2": " ", "ZVALUE": 9999, "FID": null, "SHAPE_Length": 391.78036165689383}}, {"type": "Feature", "id": 193761, "geometry": {"type": "LineString", "coordinates": [[-60.89152755115998, 45.70848479492907], [-60.89152716626759, 45.7084735096339], [-60.89152694397897, 45.70846678182098], [-60.89153353189922, 45.7084716379533], [-60.891539444135375, 45.70847601356075], [-60.891630280097885, 45.708485791481905], [-60.8917679802825, 45.70850419331789], [-60.89177090744353, 45.708504589392184], [-60.89177360046696, 45.70850506215253], [-60.89187299369986, 45.7085226756645], [-60.891977670848455, 45.70855249290243], [-60.89200139005372, 45.70855924940222], [-60.892077778468156, 45.708577761228085], [-60.89221926961846, 45.7086415882731], [-60.89237298533095, 45.7087609425817], [-60.8925106234882, 45.70886781269507], [-60.892511259994436, 45.70886831049265], [-60.89251137249811, 45.70886839357737]]}, "properties": {"OBJECTID": 193761, "FEAT_CODE": "WARV50", "FEAT_DESC": "River - Single Line", "RIVNAME_1": " ", "RIVNAME_2": " ", "ZVALUE": 46.5, "FID": null, "SHAPE_Length": 94.05883243636491}}, {"type": "Feature", "id": 194018, "geometry": {"type": "LineString", "coordinates": [[-60.904373295259276, 45.70100292759054], [-60.90429620670808, 45.70100331313163], [-60.90424861609388, 45.70101630124556], [-60.90423131624561, 45.701021024298136], [-60.904140751959105, 45.70103826424717], [-60.90398758945876, 45.70104625435102], [-60.90382027271224, 45.701054884537854], [-60.90370470705161, 45.701053663311086], [-60.903512052794376, 45.701052826977815], [-60.90346343815104, 45.70105815415222], [-60.90343466148595, 45.70106130724045], [-60.90325478233678, 45.701096708837994], [-60.9032155421843, 45.70111001185621], [-60.90317671817655, 45.70112317848649], [-60.90314123185505, 45.70113709046105], [-60.90308677716901, 45.70115843095777], [-60.90299201833764, 45.70120778039826], [-60.902983266994745, 45.70121233620085], [-60.90291926117506, 45.70127506765148], [-60.90285424591007, 45.70136478339946], [-60.90283288872132, 45.70143367156097], [-60.90282649130835, 45.70145428328161], [-60.902800972242815, 45.70149259976497], [-60.90274891302334, 45.70157077112736], [-60.90267707716323, 45.70165049646284], [-60.90264437664994, 45.70168676381538], [-60.90258036989714, 45.70174949505502], [-60.902527629281565, 45.701785430312356], [-60.9022952306483, 45.701919785385634], [-60.90205004096648, 45.70205298690279], [-60.901986095406045, 45.70207972410708], [-60.901662118117464, 45.7022582822827], [-60.901521040122034, 45.7023204968574], [-60.90137899028143, 45.70240969626531], [-60.90124973868079, 45.702499130702186], [-60.90122109089801, 45.70252421192879], [-60.901158097841346, 45.702579355187204], [-60.90109239190545, 45.70268705913432], [-60.90085836909033, 45.70303649524413]]}, "properties": {"OBJECTID": 194018, "FEAT_CODE": "WARV50", "FEAT_DESC": "River - Single Line", "RIVNAME_1": " ", "RIVNAME_2": " ", "ZVALUE": 9999, "FID": null, "SHAPE_Length": 381.83515671809005}}, {"type": "Feature", "id": 194019, "geometry": {"type": "LineString", "coordinates": [[-60.89959789012427, 45.70204931652673], [-60.899698892545196, 45.70213038258341], [-60.89990313359094, 45.70230245659991], [-60.89995080298669, 45.70233680777616], [-60.89995440541543, 45.70233940329119], [-60.89999945285148, 45.70237173502136], [-60.900145224293546, 45.70247510920614], [-60.90015712522529, 45.70248353690767], [-60.900247241127126, 45.702547309480195], [-60.90025194547911, 45.70255238250744], [-60.900348484864956, 45.702656282353566], [-60.90038695375012, 45.702692093358316], [-60.90055204332707, 45.70284634455211], [-60.90064089770891, 45.702909184520934], [-60.90085836909033, 45.70303649524413]]}, "properties": {"OBJECTID": 194019, "FEAT_CODE": "WARV50", "FEAT_DESC": "River - Single Line", "RIVNAME_1": " ", "RIVNAME_2": " ", "ZVALUE": 9999, "FID": null, "SHAPE_Length": 147.78332505937175}}, {"type": "Feature", "id": 194020, "geometry": {"type": "LineString", "coordinates": [[-60.90085836909033, 45.70303649524413], [-60.900887413520984, 45.70305710124765], [-60.90092218929507, 45.70308177301098], [-60.90096063799749, 45.70311848354394], [-60.90096521155594, 45.70312499428998], [-60.90099844692015, 45.703172284118565], [-60.90100245705102, 45.7031849231583], [-60.90100993727106, 45.703208499131776], [-60.901020915937806, 45.7032484311341], [-60.901022374623466, 45.70325373250415], [-60.90102237739924, 45.70325434462009], [-60.901022584848754, 45.703316743050515], [-60.90098158880236, 45.703451003854724], [-60.90096788795323, 45.703576765388426], [-60.900967520308654, 45.7036188380919], [-60.90096748788547, 45.70362176280606], [-60.900992425991426, 45.703676226901614], [-60.901015672795424, 45.70370930064117], [-60.9010302349653, 45.70373003646269], [-60.90116957824267, 45.70391981733253], [-60.90124651148369, 45.70399232076924], [-60.90128269519194, 45.704018179416565], [-60.90132283357808, 45.70404683801765], [-60.901411993728026, 45.704101582133255], [-60.901463096332826, 45.70414208940211], [-60.901514299018544, 45.70418267049444], [-60.90157711102123, 45.70425493221889], [-60.9015780246876, 45.70425626314675], [-60.90161488760382, 45.704309632079834], [-60.901637603059314, 45.70436961777621], [-60.90165229837859, 45.70440842987614], [-60.9016547152738, 45.70442176869276], [-60.90167678791357, 45.70454389414837], [-60.90170314752856, 45.70467985182183], [-60.901713387086374, 45.70473268653449], [-60.90171305513799, 45.704757001009064], [-60.90171263808091, 45.70478667848745], [-60.90172321731001, 45.70498489382011], [-60.90178684574619, 45.70512701780817], [-60.901823989679485, 45.7052099689571]]}, "properties": {"OBJECTID": 194020, "FEAT_CODE": "WARV50", "FEAT_DESC": "River - Single Line", "RIVNAME_1": " ", "RIVNAME_2": " ", "ZVALUE": 9999, "FID": null, "SHAPE_Length": 263.9789927340714}}, {"type": "Feature", "id": 194021, "geometry": {"type": "LineString", "coordinates": [[-60.893408880070474, 45.70190830556841], [-60.89344614712822, 45.701962296687796], [-60.89344664674785, 45.70196301697961], [-60.893522856409966, 45.70208863595919], [-60.89354448309624, 45.70211614576026], [-60.893573122779536, 45.70215256984822], [-60.893687844239196, 45.70227889906776], [-60.89370895745574, 45.70231973878437], [-60.893724969739274, 45.702350691374455], [-60.89375172746415, 45.7024081519453], [-60.89378797170106, 45.70248596761814], [-60.89383783296385, 45.702594898697505], [-60.89384930006431, 45.70262032186336], [-60.893951689606034, 45.70284722508014], [-60.89396959827956, 45.7028913089975], [-60.89401400405634, 45.703000490420784], [-60.89402912161026, 45.70306826737714], [-60.89403819161819, 45.70310894794151], [-60.894050251480174, 45.70319827980108], [-60.89412567405959, 45.703378789665614], [-60.89413693999303, 45.70343420027302], [-60.894149536620205, 45.703496251119255], [-60.89415349271908, 45.70355167094423], [-60.894160482033215, 45.70364946019135], [-60.894146765844766, 45.70377522063236], [-60.894119874255786, 45.70390973906447], [-60.894110567212536, 45.70396120591499], [-60.8941052797332, 45.703990478525874], [-60.89409169911457, 45.70404422481705], [-60.89406691923124, 45.70407053669472], [-60.894040855228035, 45.704098202032334], [-60.89398778196464, 45.70414312815595], [-60.89396564652281, 45.704168804706505], [-60.89394882989748, 45.704188314677914], [-60.89393655807472, 45.704209267606494], [-60.893922749095715, 45.70423283846577], [-60.893922681249876, 45.704268841031656], [-60.89394727482379, 45.70433230126748], [-60.89395559750967, 45.70434739633772], [-60.89406152801969, 45.70453963001448], [-60.8940868314031, 45.70458420130399], [-60.89409159648298, 45.704592777074886], [-60.8941120997545, 45.70462967203692], [-60.89423939606249, 45.704729229674165], [-60.89426359263734, 45.70474991898631], [-60.89436635370194, 45.70483778187647], [-60.89437723633887, 45.7048493687391], [-60.89444294069591, 45.70491930246785], [-60.89456875083576, 45.705126843767566], [-60.89463250074081, 45.70520812755585], [-60.89468219630703, 45.70525315739927], [-60.89473381853113, 45.705281093925656], [-60.89487469637637, 45.70532690450268], [-60.89491926266749, 45.7053508224652], [-60.894925068085456, 45.70535393579694], [-60.894951014229164, 45.70538141692673], [-60.894950609267035, 45.705426414224796], [-60.89493107095455, 45.705444506023206], [-60.89487341404131, 45.705497898962925], [-60.89486060263376, 45.705548617190544], [-60.894846251449415, 45.70560540967773]]}, "properties": {"OBJECTID": 194021, "FEAT_CODE": "WARV50", "FEAT_DESC": "River - Single Line", "RIVNAME_1": " ", "RIVNAME_2": " ", "ZVALUE": 9999, "FID": null, "SHAPE_Length": 455.86536404813535}}, {"type": "Feature", "id": 198882, "geometry": {"type": "LineString", "coordinates": [[-60.88686429373582, 45.70152277250235], [-60.88686395473599, 45.701531767188435], [-60.8868530288186, 45.70137857571241], [-60.88684135465875, 45.70127932213634], [-60.886842927615426, 45.70113533589222], [-60.88684292940076, 45.70113460684753], [-60.886842733250184, 45.701072325578764], [-60.88692203805223, 45.70091088466058], [-60.886933688838134, 45.70085839962155], [-60.88693596430584, 45.70084812662561], [-60.8869496362861, 45.70075837000444], [-60.88694954258377, 45.70075676609975], [-60.88693910960804, 45.70056015410184], [-60.886927816583956, 45.70041840503934], [-60.88692690093529, 45.700406911871966], [-60.886926947097635, 45.70040261926797], [-60.886927312156345, 45.7003619146784], [-60.88693388038046, 45.70034169404285], [-60.88694184361893, 45.70031717875833], [-60.886993367917654, 45.700245233342734], [-60.88703303447592, 45.70021797429761], [-60.887071171619844, 45.70019175805531], [-60.88709188232316, 45.700179386887676], [-60.887174986860295, 45.70012977200727], [-60.88720987207026, 45.70011519680213], [-60.88723893659014, 45.70010305216978], [-60.887329164824145, 45.70009482937557], [-60.88744449479954, 45.70006815085093], [-60.88749689146107, 45.70004121714759], [-60.88750956420861, 45.700032504619486], [-60.88753514718784, 45.700014912933774], [-60.887552228474426, 45.700004427753065], [-60.887612631569496, 45.69996955023593], [-60.8876313907011, 45.6999619223811], [-60.887741779964436, 45.699917033230776], [-60.88785125062317, 45.69989550247941], [-60.887921664219675, 45.69988165617273], [-60.88799005127792, 45.69986193071954], [-60.88801257028519, 45.69985542545048], [-60.888060388151565, 45.69983545455989], [-60.88807651897623, 45.699828714124784], [-60.88813246792844, 45.69978487001051], [-60.88817976021702, 45.69974781452681], [-60.88820592318235, 45.69973357277231], [-60.88824533144886, 45.69971212314899], [-60.88852781957176, 45.69958816477826], [-60.888528629317626, 45.699587810710675], [-60.888528760052914, 45.69958775012117]]}, "properties": {"OBJECTID": 198882, "FEAT_CODE": "WARV50", "FEAT_DESC": "River - Single Line", "RIVNAME_1": " ", "RIVNAME_2": " ", "ZVALUE": 9999, "FID": null, "SHAPE_Length": 289.08712228710107}}, {"type": "Feature", "id": 223938, "geometry": {"type": "LineString", "coordinates": [[-60.881518393835236, 45.705282436593556], [-60.881535530512465, 45.705282457461166], [-60.88156977853177, 45.70528248971774], [-60.881723823273056, 45.70531954183576], [-60.881800576830905, 45.705328184283076], [-60.88189055058406, 45.70529294020278], [-60.881908547731186, 45.70529296797308], [-60.8819419352966, 45.705292993159674], [-60.881981392285425, 45.705302725922635], [-60.88200675425867, 45.70532713884262], [-60.882018580036615, 45.70533851935343], [-60.882022105418194, 45.705345857508014], [-60.88203168203972, 45.7053657652121], [-60.88202558522765, 45.70537752439698], [-60.88201782487255, 45.70539251107411], [-60.88201590903351, 45.70539391569468], [-60.881992719595516, 45.70541094746047], [-60.881955113167216, 45.705425677614144], [-60.88190274605143, 45.70544618262371], [-60.88189597244574, 45.70545069248148], [-60.881889568490415, 45.705454939166344], [-60.881867825105864, 45.705477218280976], [-60.88186283952263, 45.70548234636267], [-60.88186307521086, 45.70550704935257], [-60.881863103749126, 45.70550935412619], [-60.88188813384643, 45.70552691119], [-60.881939178596646, 45.70553596779757], [-60.8819431201981, 45.70553568986591], [-60.88217103944641, 45.70551956573361], [-60.88223560189749, 45.70551086198632], [-60.88227353203556, 45.70549266337505], [-60.88230023967097, 45.70546615578257], [-60.88230933468539, 45.705446783368735], [-60.88231281329195, 45.70543937708375], [-60.88231383193957, 45.705412411112576], [-60.88231555096564, 45.705408734596844], [-60.88232641837884, 45.70538563264976], [-60.88235219023691, 45.70534920664209], [-60.882391043096014, 45.705340926151784], [-60.88248162044988, 45.70532370370822], [-60.88257264695735, 45.705260575652275], [-60.882624031312204, 45.705260637296334], [-60.88262963029214, 45.70526205524728], [-60.882662204637064, 45.70527034602317], [-60.882712155429445, 45.70534237968206], [-60.882718432591886, 45.705356114506955], [-60.88273707635839, 45.705396847449364], [-60.88274949931473, 45.70544208254377], [-60.882775252718844, 45.70547553050622], [-60.88282541166799, 45.70554070024428], [-60.88289567209088, 45.70561549559916], [-60.88290199535871, 45.705622228525904], [-60.882905232572696, 45.70562359367808], [-60.882966482913226, 45.70564952679227], [-60.883081037871904, 45.70567775314123], [-60.8832219820941, 45.70568755752392], [-60.88324581071536, 45.70569305774332], [-60.88326018944093, 45.70569637558591], [-60.88327085003153, 45.70570766236093], [-60.883286129922205, 45.70572385926667], [-60.88329757098298, 45.705746798738566], [-60.88329926659219, 45.705750205524765], [-60.883286055207996, 45.7057598616966], [-60.88325936072337, 45.70578636976213], [-60.88307889049596, 45.70593874099033], [-60.88304215094373, 45.70597644000184], [-60.88297464527157, 45.70604572006541], [-60.882973626239824, 45.706072704034405], [-60.88298470404071, 45.70609573581285], [-60.88298672886991, 45.706099949791444], [-60.88302459712558, 45.70611775359778], [-60.883076553112524, 45.70613671863484], [-60.883085531889044, 45.7061367500616], [-60.883256385407506, 45.70613735179539], [-60.88346121429328, 45.706156449864174], [-60.8836413862491, 45.706148087759985], [-60.88377017264029, 45.706139673245836], [-60.88385670306702, 45.70613234777383], [-60.88396220452265, 45.706123420553574], [-60.88401672271373, 45.706131352465206], [-60.88402606239723, 45.706132713645296], [-60.88404971735511, 45.70613975864236], [-60.88411628618405, 45.706159597025106], [-60.88417236011382, 45.70618825987898], [-60.88420577215198, 45.70620535066287], [-60.88424421177225, 45.706242066650674], [-60.8844603947569, 45.70636848461899], [-60.884550207594096, 45.706405252088274], [-60.884716429171874, 45.7064605366278], [-60.88481846115278, 45.706514632027194], [-60.88484361231129, 45.70652186658868], [-60.88488200626853, 45.706532910797364], [-60.88498500985248, 45.70656092128063], [-60.88503784634223, 45.70659199000865], [-60.88513834187571, 45.706651070195775], [-60.885188262783885, 45.706724011294504], [-60.88526486011883, 45.70680462912769], [-60.88526310129125, 45.70691595633453], [-60.88526302941699, 45.70692160760129], [-60.88528649523771, 45.70696024217896], [-60.88530173642153, 45.70698532203348], [-60.885313950118494, 45.70699836555748], [-60.88535237037294, 45.707039374261754], [-60.88541584254429, 45.70709366418903], [-60.88546681667061, 45.707138703710974], [-60.88547332654325, 45.70714561096654], [-60.88549275889414, 45.70716618691478], [-60.88556831800127, 45.70727469726411], [-60.885695603344864, 45.707374264198165], [-60.88573938702404, 45.70742466105035], [-60.88575839806849, 45.7074465342902], [-60.88579981119877, 45.70749677021858], [-60.885848067272306, 45.707555305677744], [-60.88601610908126, 45.70770961446368], [-60.88606415184112, 45.70775371735671], [-60.886088724666, 45.70781718787595], [-60.88608828607596, 45.707864929799406], [-60.886087900335774, 45.707907182121076], [-60.88612569787014, 45.70796098738347], [-60.88617697827087, 45.70799794039608], [-60.88630385431537, 45.70814250381232], [-60.88635482975411, 45.70818755195417], [-60.88639205590911, 45.70820984322576], [-60.88650685064915, 45.70827857483029], [-60.88656780661882, 45.70834003629837], [-60.88659596409466, 45.70836842433324], [-60.8866032916928, 45.70837886602722], [-60.88664717221644, 45.70844138859325], [-60.88664538530105, 45.708554551465284], [-60.8866453313843, 45.70855836687003], [-60.88663488300902, 45.708610253006064], [-60.8866326867677, 45.70862113951492], [-60.886614573191395, 45.70865313571358], [-60.88656661942505, 45.70873782928894], [-60.88656658899956, 45.708740339990676], [-60.88656511752719, 45.708845812882835], [-60.88658743143393, 45.70889970947347], [-60.88659102230336, 45.70890839883647], [-60.886618669714544, 45.708923744049635], [-60.886641371629764, 45.708936342455324], [-60.88667714959564, 45.7089445833525], [-60.886717780065915, 45.7089539491444], [-60.886749182214444, 45.70895421521117], [-60.886807683899924, 45.70895471270616], [-60.88684647507659, 45.708949480881884], [-60.88687224970174, 45.70894600639901], [-60.8870017927187, 45.70888359654311], [-60.8870403803982, 45.708848315720196], [-60.88706829239953, 45.7088208572069], [-60.8871311071402, 45.70875907576232], [-60.887227916387054, 45.70868774313901], [-60.887325359263066, 45.70861595410572], [-60.88740276308912, 45.708607485000044], [-60.88740639841477, 45.70860749824506], [-60.887531215756574, 45.70860806101503], [-60.887646490985084, 45.70861739409081], [-60.88769253935771, 45.70862310635573], [-60.887723216880886, 45.708626914126334], [-60.88775492924546, 45.7086448545175], [-60.8877873713504, 45.70866320443873], [-60.88785050912411, 45.708726478757676], [-60.887862936869105, 45.70877171335684], [-60.88786320394608, 45.70879872114319], [-60.88783609929125, 45.70887022742456], [-60.88783373289828, 45.70888188489047], [-60.88782345592079, 45.708933000220405], [-60.887822367240396, 45.70899598672529], [-60.88782202830592, 45.709004981405116], [-60.8878500896991, 45.709065266711335], [-60.88787254210117, 45.70911347700981], [-60.88792305608526, 45.70922197259369]]}, "properties": {"OBJECTID": 223938, "FEAT_CODE": "WARV50", "FEAT_DESC": "River - Single Line", "RIVNAME_1": " ", "RIVNAME_2": " ", "ZVALUE": 9999, "FID": null, "SHAPE_Length": 929.7089709899363}}, {"type": "Feature", "id": 278484, "geometry": {"type": "LineString", "coordinates": [[-60.90726093856205, 45.71325576671471], [-60.90726087906741, 45.71329176938478], [-60.90728431733062, 45.71331785157026], [-60.90728555092402, 45.71331922431674], [-60.90728710622383, 45.713326777603285], [-60.907298607570006, 45.71338247015744], [-60.90729787637165, 45.71343646239772], [-60.90727958187568, 45.71349835065045], [-60.90727140614014, 45.71352598673127], [-60.90726212115685, 45.713544790564356], [-60.907244995331794, 45.71357950838794], [-60.9071610033949, 45.71364421609977], [-60.9071285787696, 45.71366919355142], [-60.90706592168211, 45.71371927861163], [-60.907050439314716, 45.71373165918998], [-60.90704967411481, 45.71373219422352], [-60.906998986763924, 45.71376762006193], [-60.906972542090074, 45.71381481337282], [-60.90695906389114, 45.71383889588769], [-60.906946345551475, 45.71388598072643], [-60.906932223388324, 45.7139383143846], [-60.906893920224576, 45.71400061893274], [-60.90680290587615, 45.71406376651921], [-60.906661480376584, 45.71413497292684], [-60.90642846105004, 45.71425041385086], [-60.90629926229727, 45.71430385107653], [-60.90609292968036, 45.71439277775572], [-60.90587403212144, 45.71450847647123], [-60.90577186866067, 45.7145594385384], [-60.905731320003206, 45.714579667131], [-60.90565317738265, 45.71464214074933], [-60.90563184320118, 45.714668752311205], [-60.9055884866556, 45.714722853894536], [-60.90557569992814, 45.714744914712696], [-60.90553629862422, 45.71481282424585], [-60.90549795599335, 45.71487268834086], [-60.90548444760013, 45.71489377281223], [-60.905457025881255, 45.714974278319175], [-60.90541618488735, 45.715207553635494], [-60.90534962950123, 45.71544125737696], [-60.90533777415974, 45.71548514452073], [-60.9053227852873, 45.71554067540604], [-60.905322028470486, 45.71559667435664], [-60.9053213188759, 45.715648659754976], [-60.905295792147484, 45.715747201846376], [-60.90528675765796, 45.71578299487585], [-60.90528221896277, 45.715800949502864], [-60.90527697022037, 45.7158110872934], [-60.90526836969779, 45.7158277072847]]}, "properties": {"OBJECTID": 278484, "FEAT_CODE": "WARV50", "FEAT_DESC": "River - Single Line", "RIVNAME_1": "Scotts River", "RIVNAME_2": " ", "ZVALUE": 9999, "FID": null, "SHAPE_Length": 349.6857352173892}}, {"type": "Feature", "id": 286819, "geometry": {"type": "LineString", "coordinates": [[-60.901823989679485, 45.7052099689571], [-60.901862040984, 45.70529167663032], [-60.90188629185002, 45.70533639786013], [-60.90194976533615, 45.70545350525799], [-60.90199830571048, 45.7055690421404], [-60.90199930873842, 45.70557141881665], [-60.90203766779963, 45.70567924383981], [-60.902049046795135, 45.70578746429671], [-60.90204808449794, 45.70584853607297], [-60.902047225548266, 45.70590444320147], [-60.90205892837031, 45.70600366865186], [-60.90210844313974, 45.7061566943348], [-60.90214619251167, 45.706246497209335], [-60.902215378782266, 45.70636135113696], [-60.90222239370038, 45.70637301021425], [-60.90226014338956, 45.70646281305367], [-60.902266534351206, 45.70648187744943], [-60.90228441075581, 45.706535266420325], [-60.9023066739441, 45.706589870087036], [-60.902310298579366, 45.70659874859662], [-60.902398424844456, 45.706715588479256], [-60.902402606355835, 45.7067274385268], [-60.902411213742965, 45.70675181818098], [-60.902485259174576, 45.70700430469501], [-60.902489140314096, 45.70703929066252], [-60.902509277442, 45.707220768618306], [-60.902493771147185, 45.707463509434675], [-60.902466161857674, 45.7076520222517], [-60.90242513205127, 45.707787182960416], [-60.90240455785449, 45.70782063962455], [-60.90238682837857, 45.707849486045305]]}, "properties": {"OBJECTID": 286819, "FEAT_CODE": "WARV55", "FEAT_DESC": "River - Single Line Indefinite", "RIVNAME_1": " ", "RIVNAME_2": " ", "ZVALUE": 9999, "FID": null, "SHAPE_Length": 302.6186134219837}}]}