{"type": "FeatureCollection", "features": [{"type": "Feature", "id": 127610, "geometry": {"type": "LineString", "coordinates": [[-60.856113620426555, 45.70327906415246], [-60.85611365022798, 45.703278956700416], [-60.85613505795429, 45.70320052818286], [-60.85614051045537, 45.703180558401804], [-60.85613518739041, 45.70314540872788], [-60.85612820160677, 45.70309931867377], [-60.856128213700885, 45.70309396332898], [-60.85612838578954, 45.703027314442636], [-60.85614130309498, 45.703005297567415], [-60.856154495701595, 45.70298279980709], [-60.856173327716846, 45.702960974974836], [-60.85619346440004, 45.702937617465516], [-60.85624589077921, 45.70291070766911], [-60.85632573690539, 45.70288061317288], [-60.856361893324305, 45.70286698035723], [-60.856390898698706, 45.702827029500284], [-60.8564012181673, 45.70281281266902], [-60.85647889343088, 45.70269635809511], [-60.85651194964325, 45.70266905758562], [-60.85654389176374, 45.70264267225516], [-60.856623726871035, 45.70257891374614], [-60.85670024943257, 45.70251779329799], [-60.85678963731206, 45.702464565068496], [-60.856842394295995, 45.70242865123856], [-60.856906612765876, 45.70242895632592], [-60.856975259323804, 45.70241961443516], [-60.85703444078056, 45.702411553041664], [-60.85718709312794, 45.70240374240079], [-60.857201779122775, 45.702402991861], [-60.85721910462614, 45.70239536010621], [-60.85724097674378, 45.702385734438096], [-60.857292106281946, 45.70235878182408], [-60.85740854187392, 45.702270056761556], [-60.85743409226603, 45.70225493747443], [-60.8575899170745, 45.70216274779135], [-60.85788660389644, 45.702029698629914], [-60.85789193922492, 45.70202723343599], [-60.85792583575819, 45.70201153251626], [-60.858054440274486, 45.70194014588155], [-60.85819710046315, 45.7019050085691], [-60.858287082463015, 45.70186979223138], [-60.85833631178987, 45.70184715997635], [-60.858441372755394, 45.70179887788127], [-60.85845400605154, 45.701789645782846], [-60.8584545870129, 45.701789233632425], [-60.858494128066795, 45.70176296325405], [-60.858610148050005, 45.70171833388303], [-60.85864841780847, 45.70169204861297], [-60.858713412908834, 45.70163836147107], [-60.85872907408488, 45.70161341643056], [-60.85875306527522, 45.70157519814345], [-60.858765408457714, 45.70152142380653], [-60.858766556161, 45.701427799308306], [-60.858766619686776, 45.7014224359255], [-60.85880702764015, 45.701306181062506], [-60.85880708345192, 45.70129698312465], [-60.85880757295679, 45.701224291523175], [-60.858796613372135, 45.70110796460248], [-60.85878271884067, 45.70095177138582], [-60.85877413999695, 45.70085551624188], [-60.85877424710223, 45.70081436584376], [-60.858774320668665, 45.700783511919134], [-60.85878602782404, 45.70073730445963], [-60.8587879344369, 45.70072976139738], [-60.858800951513025, 45.70065799775756], [-60.85881490870746, 45.700595252706776], [-60.85882633811583, 45.70057952629968], [-60.858828453602136, 45.70057660464754], [-60.85889277309182, 45.70054090665643], [-60.858893692336046, 45.70053970876142], [-60.85890629643645, 45.70052315828018], [-60.858906567163004, 45.70041515178497]]}, "properties": {"OBJECTID": 127610, "FEAT_CODE": "WALK20", "FEAT_DESC": "Lake - Water to the right line", "RIVNAME_1": " ", "RIVNAME_2": " ", "ZVALUE": 69.6, "FID": null, "SHAPE_Length": 432.0190694840699}}, {"type": "Feature", "id": 127611, "geometry": {"type": "LineString", "coordinates": [[-60.858906567163004, 45.70041515178497], [-60.85890944036876, 45.70041324344489], [-60.858919747004315, 45.700406397930784], [-60.85894541974852, 45.70040687926721], [-60.85897047596897, 45.700400967355186], [-60.858984306668695, 45.70039770728351], [-60.85902565820581, 45.700373441871406], [-60.85907497228284, 45.70034451020777], [-60.85915855341988, 45.7003035925776], [-60.85916529498595, 45.700300289593734], [-60.85917382638273, 45.70029620107536], [-60.85920324158395, 45.70028209894277], [-60.85922564051609, 45.70027681223198], [-60.85924212837783, 45.70027292686876], [-60.85928063741086, 45.70027364876096], [-60.859296231085665, 45.700284436201606], [-60.85931943421488, 45.700300478831494], [-60.85934138361668, 45.70031134040243], [-60.85935725647687, 45.70031918975274], [-60.85939579988355, 45.700319012153926], [-60.85957082670697, 45.700304713991194], [-60.85960197132016, 45.70030217440625], [-60.85961643279407, 45.70030358858013], [-60.859704353149596, 45.70031219417729], [-60.85982020270336, 45.70033956809004], [-60.8598964333518, 45.70034010561907], [-60.85997432092462, 45.700340647144714], [-60.86010848119302, 45.70036652770538], [-60.86016558316182, 45.70037754376875], [-60.86017841953769, 45.70037778429761], [-60.860396982032206, 45.700406182117405], [-60.860438819237984, 45.70041360868702], [-60.86044803150693, 45.70041523944137], [-60.86069162788006, 45.7004612075511], [-60.860917732528804, 45.70050371515925], [-60.86103726402542, 45.70052618827087], [-60.861070562309024, 45.70053319364217], [-60.86112646703068, 45.700544960882276], [-60.8612041173136, 45.70056351705332], [-60.86135860045147, 45.70055470901283], [-60.861512693353326, 45.70055579451567], [-60.861560176859236, 45.700562705341426], [-60.8615765795923, 45.70056509171872], [-60.86158736011391, 45.700567705849856], [-60.86165294641946, 45.70058362355042], [-60.86184447850805, 45.700647516299924], [-60.86188324252356, 45.7006752449783], [-60.86189393540256, 45.700685211226684], [-60.86192168505036, 45.700711068491366], [-60.86193410306164, 45.700756305807076], [-60.8619559338513, 45.700874051092846], [-60.861957541525115, 45.70088275812097], [-60.86196980448617, 45.70099910013762], [-60.86196964574692, 45.7010160639811], [-60.861969373211764, 45.70104409687858], [-60.86195513007322, 45.70108074316277], [-60.861929026003345, 45.701125250242264], [-60.86184181552589, 45.701230368817434], [-60.8618253480372, 45.70125022264532], [-60.86182169637759, 45.701257724082915], [-60.86179886612059, 45.701304632679374], [-60.86175992486267, 45.70134890835831], [-60.861708455650046, 45.70138484857739], [-60.861706083854415, 45.70138607330221], [-60.86165604574939, 45.70141177019609], [-60.8616111567036, 45.70142202782501], [-60.86157958925398, 45.70142924054108], [-60.86155322988302, 45.701446748865294], [-60.861535785070984, 45.70146696239], [-60.86151424118827, 45.70149192366763], [-60.861501671847954, 45.70151869117741], [-60.861487971838706, 45.701608444248976], [-60.8614618324903, 45.7016538596551], [-60.86145438767257, 45.701660443956555], [-60.861421950130385, 45.70168911663078], [-60.861383990076654, 45.701707316764974], [-60.861318756545415, 45.701733980071694], [-60.86130468762136, 45.701740449307884], [-60.86124161294452, 45.701769448247035], [-60.8612027597177, 45.701777721533524], [-60.86107155371095, 45.70178272589777], [-60.86099691352763, 45.701785567304356], [-60.86097341522458, 45.701802823051324], [-60.86097181600006, 45.70180399922514], [-60.86096984574357, 45.70180479940968], [-60.86090656864408, 45.70183068003904], [-60.860855132762154, 45.70186572039951], [-60.860819256654246, 45.701915147715624], [-60.86077649254763, 45.701974068017606], [-60.86069745469486, 45.70212649484167], [-60.860692649701704, 45.70213088730653], [-60.86065885519562, 45.70216177558116], [-60.860568098474396, 45.70225098504274], [-60.8604732779466, 45.70228745366834], [-60.86045206602293, 45.70229561616715], [-60.86033569012623, 45.702349241699956], [-60.86024090531186, 45.70237534169371], [-60.86020717657597, 45.70238463775958], [-60.86017107064609, 45.70240943393198], [-60.86012933230002, 45.702438084973565], [-60.86005442163667, 45.70250453048972], [-60.86003891760122, 45.702518299459236], [-60.8599214212125, 45.70263491029977], [-60.85991752356651, 45.70263807760297], [-60.85984452949565, 45.70269737613021], [-60.859662757859034, 45.702848785952085], [-60.85966083958192, 45.70284956908623], [-60.85959750867294, 45.70287546598045], [-60.85940423815412, 45.70299155611588], [-60.85936941135003, 45.70301546691281], [-60.859326405105534, 45.70304500298897], [-60.85921848728762, 45.7031007751407], [-60.859171768942375, 45.70312491300119], [-60.85908128785768, 45.703178878676376], [-60.8590688936574, 45.70318251672754], [-60.85899014026555, 45.70320521683675], [-60.85890059033176, 45.70319543702162], [-60.85886229812232, 45.70322262204617], [-60.85886122318322, 45.703226886348816], [-60.858848696569545, 45.70327637278602], [-60.85877779703595, 45.703292550293384], [-60.858732051184035, 45.703302988744205], [-60.8586042087471, 45.703320393658935], [-60.85848820691702, 45.70336412326035], [-60.858456888207115, 45.7033715107944], [-60.858449317846166, 45.70337329503236], [-60.85838509791094, 45.70337299978779], [-60.85826916535236, 45.70338161771915], [-60.858211895909, 45.7033873573612], [-60.85810279862323, 45.70339829955451], [-60.85795119416725, 45.70344686942402], [-60.85790901784241, 45.703460371819915], [-60.85769093729858, 45.70348598405979], [-60.857446208089385, 45.703502995042165], [-60.857201856908624, 45.703510111536644], [-60.85720151312859, 45.70351910604629], [-60.857098747815584, 45.703518977899215], [-60.85697124826032, 45.70352738645828], [-60.85679052066886, 45.70351679400162], [-60.85662353566433, 45.703516360252], [-60.85649547453263, 45.70350585572227], [-60.85648276597059, 45.703502925891705], [-60.856457272860006, 45.703497037797156], [-60.856431598743214, 45.70349655587652], [-60.85635463396161, 45.703460007414584], [-60.856304031207856, 45.70340595184795], [-60.856113620426555, 45.70327906415246]]}, "properties": {"OBJECTID": 127611, "FEAT_CODE": "WALK20", "FEAT_DESC": "Lake - Water to the right line", "RIVNAME_1": " ", "RIVNAME_2": " ", "ZVALUE": 69.6, "FID": null, "SHAPE_Length": 884.920092861961}}, {"type": "Feature", "id": 127612, "geometry": {"type": "LineString", "coordinates": [[-60.85965419346075, 45.696847682067556], [-60.85965393982514, 45.696820674406425], [-60.8596801210141, 45.69680240708914], [-60.85971952512931, 45.69678499965784], [-60.859783140226, 45.696767289885116], [-60.8598227110309, 45.69674012849152], [-60.859822947408524, 45.69670431806494], [-60.85982324626333, 45.696659129799], [-60.85982788406677, 45.69665237598017], [-60.85983547194896, 45.69664135698357], [-60.859901146433906, 45.6965696799236], [-60.85998552266564, 45.69648790316754], [-60.86003052486382, 45.696444290700875], [-60.86009515633603, 45.696399596891055], [-60.86012983586891, 45.69639221787406], [-60.860134018791925, 45.696391324151], [-60.86014626321376, 45.69638921333996], [-60.86018573818491, 45.696382392214964], [-60.860214281389624, 45.69637256693839], [-60.8602378011131, 45.69636445672188], [-60.86026616509368, 45.69634485302102], [-60.8603024576577, 45.696319772265085], [-60.86031015206536, 45.696306631003594], [-60.86032854813669, 45.69627525627055], [-60.860409476755294, 45.696198302127684], [-60.86043250812279, 45.696176393235184], [-60.86044435058221, 45.69616293363894], [-60.860471446671056, 45.69613211792604], [-60.86053219805475, 45.69596656715401], [-60.86053738698627, 45.6959524338346], [-60.860535826275026, 45.69593240443897], [-60.860514996070826, 45.69566398328748], [-60.86049127425339, 45.69551142244868], [-60.8605564383595, 45.695385729613434], [-60.860622809579084, 45.695161048670094], [-60.86062495736935, 45.69507107919407], [-60.860610164434725, 45.694929234780076], [-60.86060146062064, 45.69484561471072], [-60.860601942969986, 45.694794588237585], [-60.86060274455271, 45.69471061518676], [-60.86061644354459, 45.6946208711099], [-60.8606567533007, 45.694540617528425], [-60.86076054409111, 45.69437874419592], [-60.860853437199296, 45.69430152779674], [-60.86100726891301, 45.69417363417096], [-60.861085087091126, 45.694120203814784], [-60.86112080221812, 45.69409809129809], [-60.86120084783155, 45.694048554998375], [-60.86130442472833, 45.693959585035174], [-60.86131538890404, 45.69395263460115], [-60.86144657458463, 45.69386953714522], [-60.86160298439828, 45.69370865741893], [-60.861706129152296, 45.693664674860315], [-60.861744668004974, 45.693664496386475], [-60.86180853364149, 45.69367379309028], [-60.86191115864031, 45.69371081837342], [-60.861987898742875, 45.69375469473585], [-60.8620381162639, 45.693783402912274], [-60.86211312526243, 45.69379149491607], [-60.86212894852734, 45.693793195296784], [-60.862167474294466, 45.693793025436065], [-60.862360366993144, 45.69376031743251], [-60.86237302319202, 45.693758169085406], [-60.86269458469468, 45.693678678664696], [-60.862726864197754, 45.69366445820324], [-60.86273377483907, 45.693661410197684], [-60.86275080993773, 45.69365591439221], [-60.862926232827796, 45.69359930492456], [-60.86302932289039, 45.69359043294257], [-60.86303440788889, 45.69359046509196], [-60.86347874822624, 45.69359344163432], [-60.863633090575334, 45.69362153187673], [-60.863836833263335, 45.69362832260463], [-60.86394095595041, 45.693631791447295], [-60.86415181188314, 45.69364201802379], [-60.864364027033275, 45.693652305633755], [-60.86458292115916, 45.693671700713615], [-60.86469402419175, 45.69367197803885], [-60.86474987767207, 45.69367211330608], [-60.864814676028836, 45.69368155178038], [-60.86487760976109, 45.693690712328824], [-60.86496688955067, 45.69367347951027], [-60.865083156773764, 45.693655851061614], [-60.86541700062336, 45.69365849144173], [-60.86552536925417, 45.693643883242494], [-60.86554611540473, 45.69364110267002], [-60.86564800454983, 45.69363340300517], [-60.865660743771585, 45.69363244397358], [-60.86581542936644, 45.693651545706246], [-60.86584201468209, 45.69365766815659], [-60.86585362631473, 45.69366035142637], [-60.865925198778875, 45.693683156297375], [-60.86619879975897, 45.69377031282242], [-60.86645546449856, 45.69384351579617], [-60.86656964447278, 45.69388075276753], [-60.8667360891472, 45.6939621706407], [-60.86682519886265, 45.69401694096784], [-60.8669912893859, 45.69410735282272], [-60.867118575375784, 45.694171836956414], [-60.86725969371373, 45.694243780059026], [-60.86756657888489, 45.69438092523312], [-60.8676297880887, 45.69440820836073], [-60.867809058154116, 45.69448986414476], [-60.86789008669838, 45.69453359157347], [-60.867911004874045, 45.694544873299854], [-60.867914982825404, 45.69454767486371], [-60.86796229521468, 45.69458093468349], [-60.86807136020699, 45.69462980291464], [-60.86816562400194, 45.69467204004622], [-60.86841217004175, 45.69482476230165], [-60.86845927844401, 45.69485394066619], [-60.86846982279899, 45.69486173430084], [-60.86847175892074, 45.69486317459078], [-60.86857407018186, 45.69490828888593], [-60.86885456809531, 45.6950085651465], [-60.86893270518048, 45.69503648617139], [-60.86914254963563, 45.69510290470148], [-60.86916242474875, 45.69510919819847], [-60.86931634954778, 45.69518226879849], [-60.86936653882281, 45.69521388052519], [-60.86941795730723, 45.69524627124459], [-60.86944387979584, 45.69526919429855], [-60.86946890755212, 45.69529132657039], [-60.869493811394875, 45.69534579700941], [-60.869507398839474, 45.69537864301362], [-60.869519690936876, 45.69540839551907], [-60.86953140534703, 45.695471611851715], [-60.86951781612785, 45.69552536414628], [-60.86949913672814, 45.695557239128334], [-60.86949172040415, 45.695569882142856], [-60.869462584363774, 45.695600436913125], [-60.869414131806224, 45.695651234505384], [-60.869361681360076, 45.695713271704236], [-60.869321690618634, 45.695785433416894], [-60.86932229032839, 45.69580345554562], [-60.86931129140869, 45.69584379069293], [-60.86929542770003, 45.69590195600039], [-60.86928208358647, 45.695982715743774], [-60.869281012642055, 45.696027466581164]]}, "properties": {"OBJECTID": 127612, "FEAT_CODE": "WALK20", "FEAT_DESC": "Lake - Water to the right line", "RIVNAME_1": " ", "RIVNAME_2": " ", "ZVALUE": 71.2, "FID": null, "SHAPE_Length": 1173.4144762032988}}, {"type": "Feature", "id": 127613, "geometry": {"type": "LineString", "coordinates": [[-60.869281012642055, 45.696027466581164], [-60.869279936758865, 45.69607268537649], [-60.86929194712035, 45.69616292815753], [-60.86931709695154, 45.69624439712227], [-60.869379774872165, 45.69635267807386], [-60.86939150177653, 45.69641590364587], [-60.86939141836794, 45.69645190596295], [-60.86932627256012, 45.696577604149496], [-60.869312783089796, 45.69661316731566], [-60.86929913805614, 45.69664910561818], [-60.869269558296786, 45.69677549436231], [-60.86925928479665, 45.69681938041438], [-60.86925629064692, 45.6968278664665], [-60.86924633147036, 45.6968560426922], [-60.869232387329404, 45.696918780286374], [-60.869225240193195, 45.696938530067364], [-60.86921946745424, 45.69695456108995], [-60.86919312573746, 45.69697206251566], [-60.86907863180902, 45.69702535406791], [-60.869038815008665, 45.69704389114959], [-60.86895554074046, 45.697106460079866], [-60.868766421627846, 45.69724853939495], [-60.868650677041416, 45.69732017814967], [-60.8686111228186, 45.697347342908806], [-60.868598261052185, 45.697347111855095], [-60.868274994927134, 45.69760659739984], [-60.8682357907828, 45.69762386749943], [-60.868184341958454, 45.69765981103421], [-60.86814858885984, 45.69767212298795], [-60.86813228056498, 45.69767774117644], [-60.86809308916373, 45.69769501146478], [-60.868016639629, 45.69771248625706], [-60.868006996911554, 45.697714412459575], [-60.867926023594855, 45.69773059660502], [-60.86789151205975, 45.69773795412373], [-60.86788718692865, 45.69773887247881], [-60.86787145859599, 45.6977444384514], [-60.867836408954766, 45.69775682644802], [-60.867733688035116, 45.697755808602906], [-60.867707640127655, 45.697765223301126], [-60.867489158904796, 45.69783585162057], [-60.867384727118605, 45.69787981534694], [-60.867320429155534, 45.69791550953348], [-60.86728379853684, 45.69794109025462], [-60.867268966306874, 45.69795146139371], [-60.867154131788496, 45.698050415553006], [-60.86711358656928, 45.69808536512015], [-60.86695683713283, 45.69825525591454], [-60.866840989903615, 45.69836290377422], [-60.866556067268604, 45.69855920280103], [-60.866297584732195, 45.698701989339064], [-60.86623351974461, 45.69872172855101], [-60.866181906362485, 45.69873763195463], [-60.866104513535014, 45.69874608687321], [-60.86597539992551, 45.69876347629516], [-60.86577051926669, 45.698780349680625], [-60.865693468689955, 45.69877980975115], [-60.86562832577506, 45.69877049136203], [-60.86555194714928, 45.6987519619646], [-60.86532225098743, 45.69867837006087], [-60.86525743819594, 45.698660047663864], [-60.86511660209656, 45.698614210217826], [-60.86500202406086, 45.69858686544697], [-60.864883591204034, 45.69856866547729], [-60.86482197396824, 45.69855919652286], [-60.86473612425618, 45.69853607001931], [-60.86461726683962, 45.698504063353326], [-60.86455377200205, 45.69848487410469], [-60.8644281818247, 45.69848428972715], [-60.864425356539236, 45.698484272895904], [-60.86428447449955, 45.69843933365802], [-60.86416830531667, 45.698420059160505], [-60.864118630026425, 45.6984080048747], [-60.86409195335409, 45.698401529282556], [-60.86406485151084, 45.698391715374214], [-60.86401593123365, 45.69837400455652], [-60.86386265636753, 45.69828382816273], [-60.8636827164215, 45.69821925553532], [-60.8635945099648, 45.69817440075347], [-60.86347946980053, 45.698092139907175], [-60.86341637191166, 45.698028843711256], [-60.863409459469594, 45.698019452386504], [-60.86340293755689, 45.698010599425125], [-60.86337852165434, 45.69787602819657], [-60.863384985801936, 45.6978435836413], [-60.86339281565888, 45.6978042878988], [-60.86340573875887, 45.69776852581856], [-60.863424512271415, 45.697746428652565], [-60.86358864585437, 45.69755322431264], [-60.86362734883563, 45.697481040530214], [-60.86362788043329, 45.69743708074799], [-60.86362855113481, 45.6973820523774], [-60.863595062943276, 45.69730286543373], [-60.86357906173511, 45.69726501404181], [-60.863541124632505, 45.697148191810335], [-60.863479291589314, 45.69704363186135], [-60.86346630702773, 45.69702167859509], [-60.863449319097676, 45.697007706293384], [-60.863389090789575, 45.6969581272291], [-60.86332566435102, 45.69690382579233], [-60.86323585502374, 45.69686705060444], [-60.863227642587226, 45.69686447567846], [-60.86303149844151, 45.69680292015949], [-60.863001436314114, 45.6967959849151], [-60.86299330019053, 45.696794104474854], [-60.86292979506779, 45.69678333902962], [-60.86282611394581, 45.69676577301657], [-60.86268309795153, 45.69673180903399], [-60.86259570999662, 45.6967110553791], [-60.86257783233074, 45.69670729139429], [-60.862506512511175, 45.696692284004016], [-60.862377745555335, 45.69670067487667], [-60.86228705101236, 45.69670769908665], [-60.86227468430564, 45.69670863771222], [-60.86220840223353, 45.69671681192585], [-60.862198542720215, 45.696718022502736], [-60.861991302444046, 45.696796951613926], [-60.86191411937227, 45.696833310621216], [-60.86182347466251, 45.69688651936657], [-60.861816117397524, 45.69689419445231], [-60.86179805814872, 45.696913046379926], [-60.861732627773286, 45.69701172300197], [-60.86173118001866, 45.69708371264278], [-60.86170364704631, 45.6971121802179], [-60.861679015996465, 45.697137641795344], [-60.86160248979232, 45.697191114730195], [-60.86155729191926, 45.697208549331364], [-60.86151123383009, 45.697226309842655], [-60.861493492202, 45.697236490735754], [-60.86143375396924, 45.697270763837075], [-60.86140502140628, 45.697284537296504], [-60.861395810141865, 45.697288955287696], [-60.861292831626066, 45.6973203123025], [-60.861278848216166, 45.69732456890224], [-60.8612607047742, 45.697339557751675], [-60.861213873506856, 45.697378257916114], [-60.86120069920432, 45.6974007026147], [-60.86118775750686, 45.697422773627515], [-60.861163035963926, 45.69750616362801], [-60.86116122250741, 45.69751228632508], [-60.86113542800562, 45.69754870717406], [-60.8611094077968, 45.69757083925347], [-60.86108364036677, 45.697592742036356], [-60.86106259572646, 45.69761542634726], [-60.86105820170324, 45.697620168564534], [-60.86101899541632, 45.697637436146096], [-60.860889895840266, 45.69765482007803], [-60.86086419001061, 45.697655238654875], [-60.8607747374981, 45.697609458248564], [-60.860736795105645, 45.69756834212875], [-60.86069949346057, 45.697527940074934], [-60.860670777878994, 45.69750254145444], [-60.860648548438334, 45.69748288094185], [-60.8605663981173, 45.69742045036355], [-60.860470042489744, 45.69734722244973], [-60.86038625791464, 45.69730238501761], [-60.860266120024086, 45.69723809034625], [-60.86015041311031, 45.69717381556987], [-60.86003652709496, 45.697128476831914], [-60.85985715811489, 45.69708281088676], [-60.859805218648006, 45.69706383554586], [-60.859769045400874, 45.6970379818953], [-60.85976770734975, 45.6970370297182], [-60.85974176996608, 45.69700953169791], [-60.859735214154966, 45.69700091191478], [-60.85966594377474, 45.6969100089856], [-60.859666973691496, 45.69688302538181], [-60.85965419346075, 45.696847682067556]]}, "properties": {"OBJECTID": 127613, "FEAT_CODE": "WALK20", "FEAT_DESC": "Lake - Water to the right line", "RIVNAME_1": " ", "RIVNAME_2": " ", "ZVALUE": 71.2, "FID": null, "SHAPE_Length": 1181.8653970152056}}, {"type": "Feature", "id": 193442, "geometry": {"type": "LineString", "coordinates": [[-60.85965419346075, 45.696847682067556], [-60.85965314540751, 45.696847545411636], [-60.859371763607314, 45.69680998474011], [-60.85926973158915, 45.696790970248124], [-60.85914283556007, 45.69679037357162], [-60.85914129460774, 45.696790362685064], [-60.85911529295807, 45.696798876194144], [-60.85907640857543, 45.69680804827292], [-60.85902494196138, 45.69684398735272], [-60.859009296031125, 45.696875638458415], [-60.85899850676444, 45.696897497552634], [-60.85894623737422, 45.69698742735998], [-60.85894398174741, 45.696992677639265], [-60.858919458603104, 45.69704993206784], [-60.85885448201113, 45.69710361970666], [-60.85883522006029, 45.69712164752911], [-60.85881583776814, 45.697139799105415], [-60.858777584107074, 45.69716608474884], [-60.85875474468209, 45.697191012228465], [-60.85871190748278, 45.69723776111732], [-60.858667229866626, 45.697292675362036], [-60.85866069338757, 45.69730070767187], [-60.858672408666365, 45.69736392512774], [-60.858683964173764, 45.69749826523807], [-60.858683315098, 45.69754452704519], [-60.858682422499996, 45.69760624794904], [-60.85866946210025, 45.697642908895105], [-60.858668775151216, 45.69766089795018], [-60.85866403547796, 45.697674013495316], [-60.85865584907638, 45.69769665944125], [-60.85861656450115, 45.69774992860183], [-60.85859371123566, 45.69777487378967], [-60.8585508869632, 45.6978216048549], [-60.858502928879616, 45.69785510721878], [-60.858474344058656, 45.69787507537628], [-60.85840797914946, 45.69796474059124], [-60.85833582196764, 45.69799249649327], [-60.858291954054195, 45.69800936967962], [-60.8582689071853, 45.698037695534516], [-60.85824073875786, 45.69807231601678], [-60.858215178239256, 45.698094483060004], [-60.85818892687467, 45.69811724920608], [-60.85814964155233, 45.69817051818912], [-60.858147658292566, 45.69817435140743], [-60.858135774999596, 45.698197261011984], [-60.85814014574905, 45.698239206489], [-60.85814800810911, 45.69831450303086], [-60.85814093104579, 45.69834239930647], [-60.85813438156511, 45.69836825325631], [-60.85811975679581, 45.69839365871322], [-60.85810824147783, 45.698413658902595], [-60.85801602158908, 45.69857485567661], [-60.858012612191885, 45.69858071436277], [-60.85796376181323, 45.69866478519406], [-60.857938074070276, 45.69868825492732], [-60.85792517592611, 45.69870006528194], [-60.857909275185136, 45.698716499815355], [-60.85787301958142, 45.69875399282963], [-60.8578504225379, 45.69880045498211], [-60.857807501697145, 45.69888867840678], [-60.85780647081399, 45.698915661968265], [-60.85782731363572, 45.69918309362262], [-60.85782888282592, 45.69920321321493], [-60.85783064738739, 45.69921115816489], [-60.857840940765975, 45.699257445201205], [-60.85790461746449, 45.69933874826121], [-60.85796798924496, 45.699429046530845], [-60.85800672480215, 45.69945677599997], [-60.85804390605367, 45.69949257717124], [-60.85808887514224, 45.699511809608516], [-60.85817155848856, 45.69954717704335], [-60.85822135619834, 45.69958897540284], [-60.858236279525784, 45.69960149660465], [-60.858324702351055, 45.69967426257173], [-60.85835766286751, 45.69969782417817], [-60.858400976273295, 45.69972879870361], [-60.858414539096636, 45.69973591179015], [-60.85845260849689, 45.6997558697814], [-60.85850261362141, 45.69979191128839], [-60.858566991742975, 45.69985522519411], [-60.85857914095514, 45.69987345494748], [-60.858591530422366, 45.69991869209994], [-60.85860463260582, 45.69994594068546], [-60.858663807459465, 45.700010966157954], [-60.858679876664226, 45.70002746021102], [-60.8586932967413, 45.70004571378186], [-60.858692953241906, 45.70005470830575], [-60.85874313443601, 45.7001537597601], [-60.858754939932865, 45.700180993014584], [-60.858906567163004, 45.70041515178497]]}, "properties": {"OBJECTID": 193442, "FEAT_CODE": "WARV50", "FEAT_DESC": "River - Single Line", "RIVNAME_1": " ", "RIVNAME_2": " ", "ZVALUE": 9999, "FID": null, "SHAPE_Length": 505.71139132115445}}, {"type": "Feature", "id": 194022, "geometry": {"type": "LineString", "coordinates": [[-60.850657651616224, 45.701943373732234], [-60.850670833078944, 45.701934620862055], [-60.850696601935084, 45.701899102009186], [-60.85070161606538, 45.70189128453359], [-60.85074850598494, 45.701818170120326], [-60.850774881654964, 45.70180066459704], [-60.850786304929315, 45.701780807438325], [-60.85080102964527, 45.70175525179544], [-60.85089249033428, 45.70164806140447], [-60.85093549541158, 45.70158881629467], [-60.85099691705708, 45.70150421098825], [-60.85104461501556, 45.701438483445195], [-60.85108778276673, 45.70137900731254], [-60.85110829935842, 45.70134678289213], [-60.85112743463503, 45.701316746712465], [-60.851142577037415, 45.7012809557864], [-60.851154258711674, 45.70125334462065]]}, "properties": {"OBJECTID": 194022, "FEAT_CODE": "WARV50", "FEAT_DESC": "River - Single Line", "RIVNAME_1": " ", "RIVNAME_2": " ", "ZVALUE": 9999, "FID": null, "SHAPE_Length": 86.32970993258068}}, {"type": "Feature", "id": 197733, "geometry": {"type": "LineString", "coordinates": [[-60.851154258711674, 45.70125334462065], [-60.85116019172218, 45.70122992774186], [-60.85116787988395, 45.701199595144864], [-60.85124625294344, 45.70106515529889], [-60.851253505881814, 45.70104282536459], [-60.85127246087914, 45.700984639750885], [-60.85129726699003, 45.70087835506029], [-60.85131241927044, 45.70081347317708], [-60.85131307490852, 45.700767202551994], [-60.85131398828726, 45.70070549112026], [-60.85131005493312, 45.700687793221896], [-60.8513019364265, 45.70065125856526], [-60.851281286711526, 45.700606855303015], [-60.85127701376635, 45.700597683928464], [-60.85125247032032, 45.70053421535939], [-60.851249856120965, 45.70053237497788], [-60.85122621625463, 45.70051571942302], [-60.85117550020367, 45.700497663280515], [-60.851016326873065, 45.70046290361136], [-60.8510086326867, 45.700461219654414], [-60.85100232293734, 45.70045894068328], [-60.8509060030522, 45.70042418451962], [-60.85077859250137, 45.70039658397021], [-60.85070189783937, 45.70038703965138], [-60.85056038039736, 45.70035917335028], [-60.85055666270033, 45.70035897736104], [-60.85036806460298, 45.70034925268445], [-60.85022715418069, 45.70033939932746], [-60.85017190483862, 45.7003297003034], [-60.85012380106767, 45.70032125189605], [-60.850008929868174, 45.700301987422186], [-60.84997626038401, 45.700297717952274], [-60.8497916445583, 45.70027359374536], [-60.84936790277315, 45.7002359111152], [-60.849084319275, 45.70026117338518], [-60.84892993900221, 45.700276645461884], [-60.848917985269914, 45.70027784244615], [-60.84878920824066, 45.7002862267981], [-60.84875970368319, 45.70028618404728], [-60.848686462331905, 45.70028608243332], [-60.84866110925376, 45.70027660384457], [-60.84835301094423, 45.700238395698996], [-60.84819956317864, 45.7002201937416], [-60.8481228561125, 45.7002106555554], [-60.848083754185375, 45.700191916792264], [-60.848075002073976, 45.70019236393264], [-60.84807088343331, 45.700192574351426], [-60.848022199821145, 45.70017916359943], [-60.84796919472382, 45.70016455526838], [-60.84789189489729, 45.70013699662291], [-60.84780209138236, 45.70010020040849], [-60.84763591795759, 45.70004576299289], [-60.847623427037384, 45.70003652659756], [-60.847593725634624, 45.70002354544618], [-60.84756531281975, 45.70001112863308], [-60.847535293586716, 45.69999772743134], [-60.847521111279185, 45.69999139345909], [-60.84742621138577, 45.69995720117602], [-60.84729178076873, 45.699908762178204], [-60.847150957071406, 45.69986290278795], [-60.84692034403974, 45.699780246579564], [-60.84689087686209, 45.699769870940024], [-60.846817683931135, 45.69974410728209], [-60.84671729916737, 45.69968785763079], [-60.84657499027216, 45.69960811688497], [-60.84648275827266, 45.69957740349174], [-60.84640884125587, 45.69955277803935], [-60.84628143541353, 45.69952516354837], [-60.846176811892065, 45.69948431514037], [-60.84614097153619, 45.69947031772702], [-60.84612872845816, 45.699464002154926], [-60.8459999032433, 45.69939744039447], [-60.84595273643509, 45.6993586206329], [-60.84591149684383, 45.69932467416913], [-60.8458093810431, 45.699207535518305], [-60.84578383545385, 45.699189384724264], [-60.84574561077906, 45.69916222779738], [-60.84545192411024, 45.69901627205583], [-60.84544453541342, 45.69901099309942], [-60.84541441857574, 45.69898946162096], [-60.84537788285802, 45.69895646780481], [-60.8453635193662, 45.698943496430815], [-60.845325075959934, 45.698907667302294], [-60.84530009539711, 45.698889194024076], [-60.845288366309966, 45.698885219310036], [-60.84527473465033, 45.69888061463191], [-60.8452488771604, 45.69887225988627], [-60.84515927594982, 45.698843332245], [-60.84510049100765, 45.698829765636496], [-60.84508288276266, 45.69882568896122], [-60.845031539188824, 45.69882472007843], [-60.84498515317449, 45.69882477182751], [-60.84494161880302, 45.69882482336699], [-60.844873634255705, 45.698814998451226], [-60.844812598576475, 45.6988061867341], [-60.84475552054588, 45.69879232812686], [-60.844736227293446, 45.69878764353452], [-60.844634309344585, 45.698732614237294], [-60.84459906674687, 45.698701417767445], [-60.844583376438386, 45.69868754815744], [-60.84453313546491, 45.69862448417635], [-60.84448187837085, 45.6985875218041], [-60.84448010028552, 45.69858632711664], [-60.844469366904455, 45.69857917576878], [-60.844455160952826, 45.69856411902833], [-60.84444344826477, 45.69855170162789], [-60.8444390172907, 45.69854199595318], [-60.84441856799667, 45.69849721717177], [-60.84439261553295, 45.698470624475426], [-60.8443291930423, 45.69841632155171], [-60.84429172302799, 45.69838861131813], [-60.84422760913066, 45.69835229722358], [-60.84411211765892, 45.6983159132507], [-60.843930547537234, 45.69826392503829], [-60.843920268894266, 45.698260985676654], [-60.8437284205154, 45.698206057786486], [-60.84368991329442, 45.698205330677624], [-60.84367593075697, 45.69820284341104], [-60.84363888163724, 45.698196266184766], [-60.843618314734066, 45.69820299758453], [-60.84361285143165, 45.69820477562239], [-60.84358002611094, 45.69822731526341], [-60.84353502337115, 45.69825821186289], [-60.84349897541061, 45.69827970951866], [-60.84344431197191, 45.698312304849374], [-60.84336939105977, 45.698343248448865], [-60.84331508024103, 45.69836567028058], [-60.84325147128256, 45.69838337098881], [-60.84310907027876, 45.69844548843454], [-60.842985790516515, 45.69848769669744], [-60.84287737529055, 45.698524821036834], [-60.842747909914955, 45.698551178504026], [-60.84262042046758, 45.69855956221428], [-60.842592163403, 45.698560171503104], [-60.84228616989446, 45.69856675753768], [-60.84219663073594, 45.698556964799586], [-60.84208089509456, 45.69849357124939], [-60.84200523035223, 45.698457037632295], [-60.84194033040665, 45.69844151763857], [-60.8419275897961, 45.698438468564596], [-60.8418553789057, 45.69843802199816], [-60.841786327004094, 45.6984375990847], [-60.84169302650002, 45.69842675375858], [-60.84162008510644, 45.69841825537092], [-60.84155562673449, 45.69839093423222], [-60.841468478555875, 45.69833439007391], [-60.84140273530963, 45.69829173391223], [-60.84137031736413, 45.69826162494597], [-60.841314683309044, 45.69820996083443], [-60.84123818369495, 45.69812840607511], [-60.84114850233024, 45.698055603035016], [-60.840932473204184, 45.69792820554142], [-60.840766748168896, 45.697828770718594], [-60.84067741460173, 45.69774696390874], [-60.84066561807817, 45.6977197379363], [-60.840651874147525, 45.69771172821464], [-60.84058898349532, 45.69767508416167], [-60.84045991656561, 45.69760840353613], [-60.84044792675726, 45.6976022091539], [-60.84030815394451, 45.697529358252524], [-60.84028836482219, 45.697519559977984], [-60.84017958704644, 45.697465720091735], [-60.84012893777244, 45.69744676019091], [-60.840090153109834, 45.697435576491706], [-60.84006541835629, 45.6974284569349], [-60.840030765407406, 45.69742505619529], [-60.83987219087174, 45.69740950034714], [-60.83984088106772, 45.697398340945], [-60.839821507107494, 45.697391439754234], [-60.839806242913426, 45.697383887224504], [-60.83978369354309, 45.69737272250568], [-60.83938703479879, 45.69719960942072], [-60.839308145061004, 45.69715652328639], [-60.83900460113753, 45.69699074225275], [-60.83897933389129, 45.69697278421397], [-60.8389408389685, 45.69694543085943], [-60.838876730263756, 45.696909113843866], [-60.83859649890823, 45.69678140596342], [-60.83858743008136, 45.696776418795096], [-60.83843046976588, 45.69669005384138], [-60.83831462644228, 45.69666264929572], [-60.83821233737811, 45.69661750827976], [-60.838186036419486, 45.6965980543356], [-60.8381748716306, 45.696589796106856], [-60.83813608978266, 45.69656223902549], [-60.83811111059328, 45.696544484267534], [-60.83810447015505, 45.69653981306276], [-60.838084849959145, 45.696525985166275], [-60.838015256412255, 45.69648903276835], [-60.83798289527444, 45.69647184930107], [-60.837894504329675, 45.69639906811004], [-60.837862695101336, 45.6963735691581], [-60.837804795407045, 45.69632716199199], [-60.83773052265937, 45.696293316167285], [-60.83766466960536, 45.69626330212168], [-60.837613987610936, 45.69624524057698], [-60.837520920629295, 45.69623511633136], [-60.83743364792702, 45.69622562379521], [-60.83735728275023, 45.696207075759496], [-60.83731908890813, 45.69619826055894], [-60.83716664632912, 45.69617735348273], [-60.83711339162174, 45.69617005315728], [-60.83702090216545, 45.69614229753455], [-60.83695975078426, 45.69612393838608], [-60.83690370750767, 45.696105684964024], [-60.83681895823611, 45.696078066791216], [-60.83670379778523, 45.69603268059547], [-60.836612050829544, 45.69596704460796], [-60.83659006400585, 45.69595131741721], [-60.83657814055513, 45.69594475484331], [-60.83642402781351, 45.69585996222534], [-60.83634675267722, 45.695832395297444], [-60.83629641855254, 45.69580533878291], [-60.83625561337624, 45.695776329568034], [-60.83623266028789, 45.69576001693788], [-60.83619193310142, 45.69571866884259], [-60.83605467167802, 45.69557933408826], [-60.835940824268626, 45.695434061185225], [-60.83587713310665, 45.69535273651247], [-60.83573786220819, 45.69523489361731], [-60.83571064781357, 45.69520952614704], [-60.83569942752859, 45.695199061383164], [-60.835677043803095, 45.69518032016629], [-60.83562352938751, 45.69513551616044], [-60.83547079693985, 45.69499941584258], [-60.83542032822572, 45.694909322557876], [-60.83536310694862, 45.69486805755462], [-60.83531910747638, 45.69483631416016], [-60.835279385908215, 45.69477294140625], [-60.835268290912914, 45.69475524219005], [-60.83521805040015, 45.69469219206812], [-60.83515430709695, 45.69464686989465], [-60.83513650538213, 45.69464020473231], [-60.835128984602065, 45.69463738886634], [-60.835106602095365, 45.69463459728728], [-60.83505228799898, 45.694627833973264], [-60.83491110600404, 45.69459185369892], [-60.83477098789332, 45.6945279903971], [-60.834667804161825, 45.69447292814586], [-60.834540881216675, 45.69440032278718], [-60.83428599533151, 45.69428206784479], [-60.83423049881439, 45.694248395798446], [-60.83419563445091, 45.69422724834925], [-60.83405553126548, 45.69416337544584], [-60.83402770227639, 45.69415328857058], [-60.833979529950966, 45.69413584006616], [-60.833953824387436, 45.6941359555517], [-60.833940991031504, 45.69413600916029], [-60.83392734589921, 45.694131141837374], [-60.83386370668809, 45.694108440365646], [-60.83381826903522, 45.69409534613302], [-60.83380019318766, 45.694090133719456], [-60.833570425520435, 45.69395346059352], [-60.83355832554671, 45.69394217784074], [-60.83353198026648, 45.69391762741973], [-60.83350918152313, 45.69371017241982], [-60.83349563455541, 45.6935731005561], [-60.83348609426691, 45.69347660910097], [-60.83346224058976, 45.69329613699593], [-60.83345004441312, 45.69324645423486], [-60.83343782675712, 45.69319666305286], [-60.83340065020676, 45.69306184314496], [-60.833337698463495, 45.69296253809382], [-60.83324942557073, 45.692853751582795], [-60.833232989068286, 45.692824735592964], [-60.833224176002815, 45.69280916769689], [-60.83322428254206, 45.6927731658054], [-60.83320181956274, 45.692556725100225], [-60.83319752170214, 45.69251770531652], [-60.83317803924053, 45.69234114148303], [-60.83318737893487, 45.69228922103574], [-60.833192752319, 45.692259511751864], [-60.833192739458894, 45.69225485800172], [-60.83319261791582, 45.69219650234845], [-60.83318329662867, 45.69203252566045], [-60.83318191255657, 45.692008178751905], [-60.833171028896345, 45.69189095950398], [-60.83313343442145, 45.691800236351334], [-60.83307152700982, 45.69167394800992], [-60.833053662691206, 45.691632699566135], [-60.83302082341662, 45.691556864217816], [-60.832983541808986, 45.69145805506674], [-60.83289457681308, 45.6913672570806], [-60.83287975147596, 45.691351404038656], [-60.83284400754665, 45.69131319161659], [-60.83283186855528, 45.69129495928436], [-60.83280756335179, 45.69115948331424], [-60.832832990634714, 45.69113296293098], [-60.83287198208073, 45.69108778889675], [-60.833014481249606, 45.69098969110677], [-60.83315955821853, 45.69090597161306], [-60.8333376332049, 45.69080320188082]]}, "properties": {"OBJECTID": 197733, "FEAT_CODE": "WARV50", "FEAT_DESC": "River - Single Line", "RIVNAME_1": " ", "RIVNAME_2": " ", "ZVALUE": 9999, "FID": null, "SHAPE_Length": 2133.9232511964733}}, {"type": "Feature", "id": 198887, "geometry": {"type": "LineString", "coordinates": [[-60.856113620426555, 45.70327906415246], [-60.85611361664309, 45.703279163092], [-60.85611327647478, 45.703288058656064], [-60.856090001274644, 45.70329606459593], [-60.856061206472134, 45.70330597412019], [-60.856008891557885, 45.703328277431304], [-60.855958039459225, 45.70334995111254], [-60.85585449423645, 45.703403812966066], [-60.85579018235967, 45.70343950937635], [-60.85575098321739, 45.7034567752715], [-60.85559777516481, 45.70346559966676], [-60.8555332114944, 45.70347428832203], [-60.85547461707714, 45.703456221171045], [-60.85544306625308, 45.70344649269296], [-60.855426446406646, 45.703441707102584], [-60.85537953479835, 45.703428197763635], [-60.85531540784569, 45.70339188969351], [-60.85529130621233, 45.70338287713467], [-60.85529007788129, 45.70338241301855], [-60.85528933264582, 45.70338241702434], [-60.85525153274944, 45.70338258019872], [-60.85525085593382, 45.70338281051331], [-60.855225514265825, 45.70339110150078], [-60.85520009162175, 45.70341762690829], [-60.855173694599635, 45.703436042145775], [-60.85514712601776, 45.70344517416435], [-60.85512162417311, 45.70345395717312], [-60.85508414541779, 45.70342625034842], [-60.85506782164956, 45.70340298229341], [-60.85505856414359, 45.70338976601944], [-60.85503550793237, 45.70338197017027], [-60.855033199813036, 45.70338118873799], [-60.85490579323059, 45.703353592891965], [-60.854789987336595, 45.703325314729035], [-60.85477710307776, 45.70332597279121], [-60.854687302649666, 45.70328918208029], [-60.85462317631535, 45.70325287363142], [-60.85458604213922, 45.703216172154306], [-60.85457334409016, 45.703144826002465], [-60.85457403248401, 45.703126837012924], [-60.85457021139704, 45.703121616675965], [-60.85456061306496, 45.70310858297791], [-60.85453562790733, 45.70309010265052], [-60.85449664515083, 45.703078884138584], [-60.854472096822704, 45.70307181622223], [-60.854382297004655, 45.703035025280755], [-60.85434384501233, 45.70299919905934], [-60.85430667710487, 45.702963387951], [-60.8542867157628, 45.70290662186302], [-60.854281189472985, 45.702890910358676], [-60.85427881751817, 45.70285420487375], [-60.85427069785875, 45.70272869591357], [-60.854231995195526, 45.70266586205682], [-60.85416934022358, 45.702557573299444], [-60.85415261281595, 45.702524729502535], [-60.85413228731651, 45.70248486934863], [-60.85412060244096, 45.70246862806524], [-60.85410668583161, 45.7024492755156], [-60.8540864060868, 45.70232733643721], [-60.85408266912195, 45.702304817814216], [-60.85408045794558, 45.70230083384153], [-60.85405743326221, 45.70225933878191], [-60.85401932627039, 45.702214517966844], [-60.85399051697091, 45.702173463247384], [-60.853981563618916, 45.70216070264701], [-60.85397011355409, 45.70213564481655], [-60.853956672530515, 45.702106220106664], [-60.85395532315407, 45.70209750881946], [-60.853932987772176, 45.70195276764109], [-60.853933829630215, 45.7018851322242], [-60.85393422040683, 45.70185378021271], [-60.85394638726091, 45.701828563137624], [-60.85398583452401, 45.70174673861277], [-60.85398686734685, 45.70171975513218], [-60.853987993718924, 45.701706436871724], [-60.85400115774275, 45.70154810528002], [-60.85401301037677, 45.70153176624286], [-60.85402692432944, 45.70151258563222], [-60.85405363028003, 45.701486084594244], [-60.85406681111663, 45.70147733131989], [-60.85405484982478, 45.70138709691177], [-60.85403102073216, 45.701170625989036], [-60.854018966148715, 45.70111639367605], [-60.85401905954547, 45.70108039157485], [-60.85403623672909, 45.701051128197825], [-60.85404517015171, 45.701035877421276], [-60.85409792746965, 45.70099996485855], [-60.85415196110959, 45.700969971886], [-60.85416223753367, 45.7009642693564], [-60.85420084018954, 45.70092899086493], [-60.8542096241634, 45.70091999293724], [-60.85422758019385, 45.700901590327625], [-60.854227329226, 45.70087458271888], [-60.85421422023822, 45.70084823360146], [-60.85419483199459, 45.700833908793555], [-60.85418922299719, 45.70082976196485], [-60.85417520078731, 45.70082727524147], [-60.85413819993371, 45.70082070233677], [-60.85405912282232, 45.70079517479974], [-60.85402270538939, 45.700783428265375], [-60.85397266937587, 45.70077543122363], [-60.85390781017434, 45.700765067365474], [-60.85371490999935, 45.700737139431986], [-60.85349574419095, 45.700735963391146], [-60.853380991373285, 45.70073536354025], [-60.85334974508001, 45.70073819654779], [-60.85329075776121, 45.70074356839198], [-60.85326615736122, 45.70074325895824], [-60.85323997259294, 45.70076151572794], [-60.853213272444926, 45.70078652252737], [-60.853201335024494, 45.70079769333578], [-60.853161792598904, 45.700823952858485], [-60.85313603864007, 45.70085947255219], [-60.85311712605789, 45.70087265444988], [-60.85310962970064, 45.70087787809377], [-60.853087838693874, 45.70088135683835], [-60.8530592232082, 45.700885931407214], [-60.85304635233437, 45.70088658952537], [-60.85291766879365, 45.700858967435586], [-60.85272863420444, 45.7008394544083], [-60.85272544689222, 45.70083916045122], [-60.85262298223167, 45.70083902492075], [-60.85251981759036, 45.700882989862585], [-60.85247333337769, 45.70089226879962], [-60.85242920467343, 45.70090108796123], [-60.85235146258712, 45.700918527948765], [-60.85228246440824, 45.70095015583488], [-60.852236400593384, 45.70097126084827], [-60.85220887589591, 45.70098558576162], [-60.852132856050744, 45.70102512835664], [-60.85196478472693, 45.701086774004395], [-60.85193458672153, 45.70109006738997], [-60.85188738685134, 45.7010952191858], [-60.85179649583175, 45.70110916210596], [-60.85177238410296, 45.7011128579711], [-60.85172119977376, 45.70113047308711], [-60.851720314486634, 45.7011307804677], [-60.851154258711674, 45.70125334462065]]}, "properties": {"OBJECTID": 198887, "FEAT_CODE": "WARV50", "FEAT_DESC": "River - Single Line", "RIVNAME_1": " ", "RIVNAME_2": " ", "ZVALUE": 9999, "FID": null, "SHAPE_Length": 687.9145713104759}}, {"type": "Feature", "id": 223769, "geometry": {"type": "LineString", "coordinates": [[-60.85553971140084, 45.70733402117369], [-60.85554031950293, 45.70735204350464], [-60.85550030263857, 45.70742419077662], [-60.85547487822323, 45.70745071619739], [-60.85545112039043, 45.70748304252198], [-60.85542202288489, 45.70752263134617], [-60.85538031990386, 45.70757974231781], [-60.85531763000735, 45.707665586221665], [-60.855275332104384, 45.70773152491864], [-60.85526571391791, 45.707746519890435], [-60.855134497180686, 45.707952877591914], [-60.855056454112244, 45.708078334213724], [-60.855019063485805, 45.70814863143658], [-60.85500384921351, 45.70817724772888], [-60.85500069261566, 45.70818789057242], [-60.85499057395429, 45.70822200314736], [-60.85497661028478, 45.708284747541626], [-60.85497388121392, 45.70854037737918], [-60.85497364311332, 45.70856372138096], [-60.85497189442138, 45.708743707607624], [-60.85497180144423, 45.708779709675234], [-60.85496842468117, 45.70896866626833], [-60.85496131048858, 45.70900215119879], [-60.85494178065857, 45.70909417914088], [-60.85482432454702, 45.709309795875406], [-60.854801342939204, 45.70933590797852], [-60.85478537207315, 45.70935406891916], [-60.8547230387956, 45.70939124202295], [-60.85469465285497, 45.709408170619014], [-60.8546679047107, 45.7094195673871], [-60.854591473750915, 45.70945213711769], [-60.85446774146146, 45.70948259398478], [-60.85444880526461, 45.70948726074347], [-60.854408106093096, 45.70949458793404], [-60.854204299895166, 45.70953127184352], [-60.854078236382726, 45.70956589692979], [-60.85388229106723, 45.70961973077938], [-60.853807336499884, 45.70963419081096], [-60.853792982950345, 45.70963694537404], [-60.85357359248513, 45.709662534125165], [-60.85335548602396, 45.709688137589794], [-60.85326485901217, 45.70970623607522], [-60.85325597839048, 45.70970899444262], [-60.85312312843931, 45.709750376626985], [-60.85311653672645, 45.70975140482663], [-60.853071430075516, 45.70975840565518], [-60.85296957994116, 45.70976729195692], [-60.85253289115588, 45.70976448149715], [-60.85222364380019, 45.709754165251695], [-60.852005845365504, 45.70975293108949], [-60.85181260648414, 45.70975183447363], [-60.851479917920216, 45.709750085206935], [-60.85132543030484, 45.70975797070234], [-60.851144601434775, 45.70978337123409], [-60.85100656808948, 45.70978866761018], [-60.850940021737635, 45.70979122270935], [-60.85089760447788, 45.70979609505927], [-60.85078516707993, 45.70980901061494], [-60.85047612045564, 45.70986079998425], [-60.85023126566204, 45.70991379694715], [-60.85005101685538, 45.709957208570785], [-60.84993530526325, 45.70999283405705], [-60.849818558400216, 45.710055442790676], [-60.84954827374254, 45.71013496233236], [-60.84950576627035, 45.7101465291747], [-60.84948335678556, 45.71015263286156], [-60.84934162191879, 45.71019677763653], [-60.84931468729843, 45.71019926769581], [-60.8492526560559, 45.71020501217291], [-60.849200521020066, 45.71021669461092], [-60.84917490039302, 45.710222440726916], [-60.849149439329, 45.71023306835859], [-60.84911092157419, 45.71024913866658], [-60.84899417327647, 45.710311746528454], [-60.8489275485344, 45.710342102919164], [-60.8488006415356, 45.71039991074079], [-60.84860672942617, 45.71049796850558], [-60.848566800385015, 45.71051531718], [-60.84850350918318, 45.71054282881759], [-60.8484125686061, 45.71056901839814], [-60.848116947643035, 45.710639056232054], [-60.84801347891591, 45.71065690856233], [-60.847902157259846, 45.710694909953816], [-60.8478585580132, 45.71070979496034], [-60.847833541589814, 45.71071418401703], [-60.84775637294494, 45.71072767124903], [-60.84770393979055, 45.71074341581463], [-60.84764069291031, 45.71076239490625], [-60.84757210479178, 45.71076957205223], [-60.847472996023924, 45.710779936269695], [-60.847406203606596, 45.71078953241567], [-60.847356722742674, 45.710796646553156], [-60.84728708709818, 45.710796305988865], [-60.84722827996691, 45.710796025499214], [-60.84681735919717, 45.710856685592]]}, "properties": {"OBJECTID": 223769, "FEAT_CODE": "WARV50", "FEAT_DESC": "River - Single Line", "RIVNAME_1": " ", "RIVNAME_2": " ", "ZVALUE": 9999, "FID": null, "SHAPE_Length": 892.1243933054517}}, {"type": "Feature", "id": 223939, "geometry": {"type": "LineString", "coordinates": [[-60.86780240438164, 45.71557268103912], [-60.86780642596891, 45.71556154095144], [-60.86781532953729, 45.71553690959202], [-60.867862040818906, 45.71546382997548], [-60.867906865776355, 45.71539372143631], [-60.8679502033091, 45.71534176701354], [-60.86795937123906, 45.71533078600686], [-60.867960923418536, 45.71532747563557], [-60.86797195369811, 45.71530401808658], [-60.86799840256351, 45.71525050621184], [-60.868025143027225, 45.71522310250879], [-60.868037041065406, 45.7152143236893], [-60.86808467724151, 45.71518176548851], [-60.868128065339654, 45.71515211627748], [-60.86819662790022, 45.71510008360162], [-60.86825771447754, 45.71505373494106], [-60.8682744691669, 45.715045973852426], [-60.86829696556029, 45.71503555664994], [-60.868345926684135, 45.71501511133831], [-60.868424916730326, 45.714982139141945], [-60.86850275832015, 45.71492868631127], [-60.86854196184578, 45.714911416143295], [-60.86857399856915, 45.714884948249875], [-60.86860696346485, 45.71485772358957], [-60.86869776297419, 45.71476760860147], [-60.86877645663053, 45.71462416204978], [-60.868841249858335, 45.71450835896019], [-60.86888057137263, 45.714454187007526], [-60.868919808652315, 45.7144360172444], [-60.86903858258493, 45.71434850322949], [-60.86910091053465, 45.714302582320116], [-60.86913310792028, 45.71428032070656], [-60.869165568912685, 45.7142578839836], [-60.86922544166718, 45.71423699382444], [-60.86926843826949, 45.71422199940987], [-60.869384796822565, 45.71416926461909], [-60.86947508442356, 45.71416014795193], [-60.869719139588526, 45.714162000567256], [-60.86973288549434, 45.714162058963616], [-60.870091693485094, 45.714163549062526], [-60.870197980769234, 45.71413710638185], [-60.87023308092625, 45.71412838200846], [-60.87033570143212, 45.71408617316885], [-60.87055548246421, 45.71399577968295], [-60.87059603326419, 45.7139792000001], [-60.87062073980081, 45.71396909357815], [-60.87073610522802, 45.71394245063005], [-60.870787839746725, 45.713933505180385], [-60.870788563546675, 45.71393339266225], [-60.87083953973629, 45.71392546815887], [-60.87092753248407, 45.713894894310165], [-60.87099448324759, 45.71387165092083], [-60.87116128955466, 45.713809953763175], [-60.87123870263001, 45.71380149579392], [-60.87125144475536, 45.71379956408931], [-60.87135498407997, 45.71378387023975], [-60.87153520773694, 45.71377551920212], [-60.87169373182653, 45.7137627220467], [-60.87184323402198, 45.71375065663813], [-60.87191297236509, 45.71373350429145], [-60.872023513652344, 45.71370631109595], [-60.87216489880342, 45.71367114160494], [-60.872410482113686, 45.71356499660457], [-60.87258124595437, 45.71348630531031], [-60.872643258490115, 45.71345773040865], [-60.87282324267426, 45.71338727535892], [-60.87284559570277, 45.713374163305375], [-60.87291391735405, 45.713334058551936], [-60.87296539081586, 45.71329811341899], [-60.87303037352022, 45.71324441798513], [-60.87309513471522, 45.71316371555356], [-60.873186572819264, 45.71305650707666], [-60.873277021097955, 45.71297537383175], [-60.87332973061982, 45.71294036064755], [-60.87347122838273, 45.712868287757495], [-60.87351665483596, 45.71283287783892], [-60.87356258448318, 45.71279707222927], [-60.87365231448522, 45.71273484529728], [-60.873717308711996, 45.712681149683284], [-60.873794446812916, 45.71264568202379], [-60.87392402539925, 45.71258328769323], [-60.8739489024384, 45.71255747707362], [-60.8740015981153, 45.71250282325618], [-60.874038542243206, 45.71248473505248], [-60.8740919290704, 45.712458600054894], [-60.87413207876926, 45.71244000443559], [-60.87417039751262, 45.71242225681133], [-60.87426530087467, 45.71240076496822], [-60.87432461738633, 45.71238732356082], [-60.874415208455545, 45.71237010778258], [-60.87442380621757, 45.7123697097538], [-60.874594117332684, 45.71236173644473], [-60.87491523482529, 45.712364111172775], [-60.87501835797265, 45.71235522987115], [-60.875172838087934, 45.71234730315436], [-60.875267615978345, 45.71233453005967], [-60.87530198066846, 45.71232990387466], [-60.87533958953373, 45.712320702549846], [-60.875370061468026, 45.71230251150213], [-60.875443440317135, 45.71225872792113], [-60.875508773243176, 45.71219603663996], [-60.87568586516733, 45.712009483064556], [-60.8757295858469, 45.71196342841592], [-60.875793634528975, 45.71190070407959], [-60.875832216943444, 45.71186987342507], [-60.87587179258886, 45.71183826014753], [-60.87589759772785, 45.71180182724538], [-60.87590768056221, 45.711784615956425], [-60.87592368360172, 45.71175730770795], [-60.87595081772344, 45.71168580482152], [-60.87595520379853, 45.71129884568579], [-60.87595534662909, 45.71128388876826], [-60.8759573058994, 45.71107386110208], [-60.87595846599876, 45.71097578135265], [-60.87596083809112, 45.71077689552737], [-60.87599644620764, 45.71069874551494], [-60.876014103830435, 45.710659973812916], [-60.876014524183965, 45.710614976891016], [-60.87601693947405, 45.71035628955644], [-60.87601704660434, 45.710344986357754], [-60.87601911283458, 45.71032605978923], [-60.87603080519525, 45.710219237975004], [-60.876032248037404, 45.7101472572212], [-60.876045927399915, 45.71005750215374], [-60.87613727490961, 45.70998630238256], [-60.876136332200076, 45.70997727490024], [-60.87614901129415, 45.70995120993216], [-60.87616280472043, 45.7099228614437], [-60.876168455701965, 45.70990053617414], [-60.876176404424484, 45.70986910867254], [-60.876254390533475, 45.70974363661811], [-60.876398306341734, 45.7095735126956], [-60.876463374088495, 45.709483795064294], [-60.876529122101694, 45.70937611514763], [-60.87656843249884, 45.7093219403062], [-60.87658177001554, 45.70924117975765], [-60.876582572652495, 45.709130798031204], [-60.87658268880907, 45.70911518354278], [-60.87658531127095, 45.708944214252526], [-60.87657361914378, 45.7088458864895], [-60.87657352421456, 45.70881210415749], [-60.876573423771944, 45.70878287620374], [-60.87657697633155, 45.70877863080525], [-60.876625925680116, 45.70871994567174], [-60.87665309651228, 45.708691836852864], [-60.87667807391242, 45.7086660094897], [-60.876780973201726, 45.7085950149743], [-60.87689870987824, 45.70850539421632], [-60.876952344975074, 45.70846408688153], [-60.877015175180134, 45.70841574970073], [-60.877055789167954, 45.70837359718624], [-60.87709272471019, 45.70833528268899], [-60.87718311199546, 45.708255063264176], [-60.87745522378846, 45.708058490869426], [-60.877533387363016, 45.7079960458715], [-60.87768174600908, 45.70786817232388], [-60.877688771732096, 45.707862110238246], [-60.87769842881537, 45.707855430983805], [-60.877844451327164, 45.707754291638416], [-60.877856840609454, 45.707737204037116], [-60.877870205652606, 45.70771877542312]]}, "properties": {"OBJECTID": 223939, "FEAT_CODE": "WARV50", "FEAT_DESC": "River - Single Line", "RIVNAME_1": " ", "RIVNAME_2": " ", "ZVALUE": 9999, "FID": null, "SHAPE_Length": 1313.5032046287417}}]}