{"type": "FeatureCollection", "features": [{"type": "Feature", "id": 125514, "geometry": {"type": "LineString", "coordinates": [[-60.66892161640543, 45.75640184108445], [-60.66924164806196, 45.75646210006087], [-60.66931840290556, 45.7564765469633], [-60.66953633574096, 45.75652329906856], [-60.66963618062842, 45.75652425655411], [-60.66970342909447, 45.75652490881201], [-60.66972596921984, 45.756528942141024], [-60.66980553555117, 45.75654319406189], [-60.670053265993204, 45.75661950016558], [-60.67007468374865, 45.756626093788554], [-60.67045837555303, 45.7567374322809], [-60.67061223380847, 45.75680987794121], [-60.6708672146732, 45.75689338688907], [-60.670900955631446, 45.756910375737746], [-60.67095664913824, 45.75693841539366], [-60.671047891625115, 45.75698573093111], [-60.671097610630596, 45.75701149744982], [-60.671198932437115, 45.7570486673723], [-60.67153288472661, 45.75714998695021], [-60.67161022237767, 45.75717765753657], [-60.67163425735611, 45.75718625742941], [-60.671714481345425, 45.75722336575101], [-60.67181340230244, 45.757269118053635], [-60.671825155636725, 45.757274668221406], [-60.67185123461072, 45.75728699111596], [-60.67198604883693, 45.75732089176436], [-60.672108290099494, 45.75735163765287], [-60.67218409503926, 45.75737412807971], [-60.67223532165767, 45.75738933075445], [-60.672262341362796, 45.757395426095165], [-60.67227480025361, 45.7573982363183], [-60.67254325730623, 45.75743611153445], [-60.67262447519984, 45.75744872997728], [-60.67272338823042, 45.757464094234756], [-60.67298470939338, 45.757537214581326], [-60.67305642380377, 45.75755728083314], [-60.67332578018557, 45.75760417344685], [-60.673440002715566, 45.75764070413035], [-60.6735044423938, 45.75766811964827], [-60.67352901632304, 45.75769562304237], [-60.673732343116434, 45.757877074271626], [-60.673833296999184, 45.75798534157964], [-60.673921678626755, 45.75814827628739], [-60.67394570614126, 45.75821986394008], [-60.67394549543044, 45.75825586330648], [-60.673948264214225, 45.75831205840886], [-60.67395525846811, 45.75845405528819], [-60.67395165076397, 45.758674765225784], [-60.673950254229545, 45.75876001143838], [-60.67392025477614, 45.75911043600053], [-60.673905652591564, 45.759245152260156], [-60.67388588627719, 45.75931880913898], [-60.67386456858816, 45.75939823100009], [-60.673836791677445, 45.75947867339723], [-60.6737717168257, 45.75955926509412], [-60.67375603521341, 45.75959096189231], [-60.67371836905809, 45.75966708038641], [-60.67367861694075, 45.75975717979477], [-60.673663014510986, 45.759783567654], [-60.67365233534851, 45.75980164895504], [-60.67363589522839, 45.7598515841341], [-60.673625842749324, 45.7598821174604], [-60.67362473171031, 45.7599570814277], [-60.67362371404023, 45.76002608869239], [-60.67362828739722, 45.76003671292876], [-60.67363544059997, 45.760053330323764], [-60.67370004612956, 45.76010775183385], [-60.67369935609115, 45.76014042908973], [-60.67369871337827, 45.76017073106872], [-60.673693184659555, 45.76018586598548], [-60.67368565399665, 45.76020646867734], [-60.673659545742936, 45.76021583781085], [-60.67364680544337, 45.76021575828524], [-60.67359527891396, 45.76021542865145], [-60.67357031708143, 45.760196918292465], [-60.67355221128786, 45.76018083383629], [-60.67351948374113, 45.760151778204104], [-60.673505951585, 45.760146930048606], [-60.67349286314298, 45.760142234945995], [-60.67333802193758, 45.76018588495994]]}, "properties": {"OBJECTID": 125514, "FEAT_CODE": "WALK20", "FEAT_DESC": "Lake - Water to the right line", "RIVNAME_1": " ", "RIVNAME_2": " ", "ZVALUE": 83.8, "FID": null, "SHAPE_Length": 716.6570766272552}}, {"type": "Feature", "id": 125515, "geometry": {"type": "LineString", "coordinates": [[-60.67333802193758, 45.76018588495994], [-60.67320328318867, 45.760140709326414], [-60.673146516419386, 45.76012167683082], [-60.67308976371772, 45.7601053988727], [-60.673018168675746, 45.76008485803677], [-60.672953889167765, 45.76008444825751], [-60.672902832151095, 45.76007530698443], [-60.67289341671763, 45.76007289188666], [-60.67286467382299, 45.76006552845771], [-60.672823303950075, 45.76005072496691], [-60.67281397807454, 45.76004739359461], [-60.67279283464249, 45.76003478447108], [-60.67273743584197, 45.760001729225394], [-60.67271960059702, 45.75998934952512], [-60.672698690698454, 45.759974836949944], [-60.672584164707104, 45.75988429388038], [-60.67252364371071, 45.75979663360626], [-60.67247135904502, 45.75972087836438], [-60.67241214202837, 45.75965752006904], [-60.67239502928768, 45.759639214441236], [-60.67238091923226, 45.75962538946303], [-60.67229371406875, 45.75953993943464], [-60.67216670230139, 45.759440149517765], [-60.672134668106715, 45.75941454596676], [-60.67205221604671, 45.75934869762278], [-60.671988884979555, 45.759294301152636], [-60.67197833219133, 45.75927595817797], [-60.671926527351985, 45.759185919010406], [-60.67176114431329, 45.75906267305015], [-60.67164714843645, 45.758977702397345], [-60.6715856849159, 45.758920472486274], [-60.67151964062859, 45.758858990714586], [-60.67143117608038, 45.75875998596076], [-60.6713968857892, 45.75871043876659], [-60.67135597239779, 45.75865133254582], [-60.671318776582844, 45.75852546132809], [-60.67128120634144, 45.758470689687016], [-60.67123051255917, 45.75845255415405], [-60.67114577018845, 45.75841305811964], [-60.67071964013986, 45.75821440255819], [-60.670514760193015, 45.75813192434504], [-60.67047231432714, 45.75811521685436], [-60.67025920100855, 45.75803130109164], [-60.67014445692114, 45.7579767547516], [-60.670142579771905, 45.757976131393185], [-60.669978321472726, 45.75792115971029], [-60.66960704565486, 45.75781997401609], [-60.669466244824434, 45.757773905154515], [-60.669401807470344, 45.75774647840045], [-60.66932618098453, 45.75770984032744], [-60.669197467138076, 45.75768200165641], [-60.66888048461459, 45.75757740329817], [-60.66874970914583, 45.7575342474802], [-60.66854424617021, 45.75749674939327], [-60.66840469405362, 45.7574506867103], [-60.668288693186895, 45.757396130836824], [-60.6682420620415, 45.75737589870389], [-60.66822554163968, 45.7573687296706], [-60.66816222939107, 45.75731433143832], [-60.66808517241893, 45.757250651576655], [-60.66807530552458, 45.75723316832636], [-60.66806001591893, 45.75720603336626], [-60.66803528460015, 45.757151522823975], [-60.66804984601649, 45.75707981284806], [-60.66802436550688, 45.75704327983649], [-60.66798637394893, 45.756998408500046], [-60.66796125511632, 45.75695289094353], [-60.66796315926156, 45.75681927520747], [-60.667964589485486, 45.7567189351838], [-60.66800582335989, 45.75659375539887], [-60.66801185774561, 45.756578856097946], [-60.66803159689483, 45.75653038421385], [-60.66811008248624, 45.75643757633227], [-60.66813709237887, 45.75640562557128], [-60.66817663638297, 45.75635152746568], [-60.66818985868065, 45.756342796545816], [-60.66822790350354, 45.75632467148139], [-60.66823341707859, 45.756322884872105], [-60.66825397329923, 45.75631620289314], [-60.66835720310449, 45.75630750962465], [-60.66840724548246, 45.75631559711918], [-60.66842106592317, 45.75631781450083], [-60.668449412715255, 45.75632783524034], [-60.66852370684379, 45.75635411364806], [-60.66861292756396, 45.75637303697051], [-60.66877078914255, 45.756381102280386], [-60.66881822577184, 45.75638352882679], [-60.668837525351364, 45.75638694712189], [-60.66892161640543, 45.75640184108445]]}, "properties": {"OBJECTID": 125515, "FEAT_CODE": "WALK20", "FEAT_DESC": "Lake - Water to the right line", "RIVNAME_1": " ", "RIVNAME_2": " ", "ZVALUE": 83.8, "FID": null, "SHAPE_Length": 711.6860462830439}}, {"type": "Feature", "id": 193043, "geometry": {"type": "LineString", "coordinates": [[-60.67333802193758, 45.76018588495994], [-60.673348839450334, 45.7602006598373], [-60.67335140723179, 45.76020415950399], [-60.67335770822075, 45.76022426090742], [-60.67336275969424, 45.760240394452794], [-60.67336283286924, 45.76025316823792], [-60.67336292254729, 45.76026740050697], [-60.67336693990377, 45.7602734589638], [-60.673375023021215, 45.760285648870514], [-60.67342586920825, 45.76033078928409], [-60.67349031192632, 45.76035820485794], [-60.67352463190845, 45.76038267547244], [-60.673553993922376, 45.760403606720864], [-60.67356265162108, 45.7604100207335], [-60.67356648130283, 45.76041286203421], [-60.67361697430269, 45.760430938425394], [-60.67366873503096, 45.76045904063294], [-60.67370654400271, 45.760476921594254], [-60.67379556228372, 45.76053184036574], [-60.673836205089486, 45.76057435149931], [-60.673847332812045, 45.76058600033017], [-60.673875709304006, 45.760613320068664], [-60.673922767871055, 45.76065864413072], [-60.67394700063569, 45.760687274586616], [-60.673960753043, 45.76070353133027], [-60.67406241018246, 45.760794701977446], [-60.674151629929256, 45.760875727213346], [-60.67422669189927, 45.7609573641211], [-60.67426501436267, 45.76099414826573], [-60.6743109663359, 45.76103362603768], [-60.67432832385542, 45.761048543015015], [-60.6743742386247, 45.761114284660955], [-60.67439144865998, 45.76113893761023], [-60.674392428466135, 45.76114042471281], [-60.67440354965109, 45.76115718587234], [-60.67445478413418, 45.761193332816994]]}, "properties": {"OBJECTID": 193043, "FEAT_CODE": "WARV50", "FEAT_DESC": "River - Single Line", "RIVNAME_1": " ", "RIVNAME_2": " ", "ZVALUE": 9999, "FID": null, "SHAPE_Length": 144.64999820163914}}, {"type": "Feature", "id": 194697, "geometry": {"type": "LineString", "coordinates": [[-60.66124437817262, 45.75574261254811], [-60.66130770590123, 45.75573490861055], [-60.66139808814604, 45.75572595851766], [-60.66148880862604, 45.75570891445175], [-60.66155330137742, 45.75567333138387], [-60.66156154728442, 45.7556677036512], [-60.66159300798138, 45.75564625063968], [-60.66174887663201, 45.75548561661798], [-60.6618405666137, 45.75541458660229], [-60.66190505880248, 45.755379003323064], [-60.661931504821894, 45.75536154296085], [-60.66202471202163, 45.75532681757033], [-60.66209869237478, 45.75529925924178], [-60.662131635286975, 45.755291868861754], [-60.66225315272664, 45.75526460858042], [-60.66230801730761, 45.755245866719434], [-60.6623575080272, 45.755228950021674], [-60.66247412700109, 45.75517643165541], [-60.6625452715782, 45.75513363943659], [-60.662563817080375, 45.75512246186777], [-60.662720385186745, 45.755006854432565], [-60.6627988375389, 45.754944553618095], [-60.66286355917672, 45.75487297080841], [-60.66287673092969, 45.75485068408069], [-60.66288984715167, 45.75482849522497], [-60.66291196098129, 45.75476912769153], [-60.66294342829155, 45.754684685995485], [-60.66298371430021, 45.75461260301593], [-60.66304902849791, 45.75449602761866], [-60.663067885839524, 45.75446413622792], [-60.663075315386955, 45.75445156996997], [-60.663090196633604, 45.75441697793743], [-60.66312942997761, 45.75432575540424], [-60.663151591569246, 45.75425845898589], [-60.663155934630765, 45.754245289504944], [-60.66317034334205, 45.754146574225445], [-60.66317684107055, 45.75411783223703], [-60.6631845344829, 45.754083858178], [-60.66321178068121, 45.754033047473854], [-60.66323752181516, 45.75398502325284], [-60.66332829787889, 45.753904981407175], [-60.663339988431666, 45.753888595921765], [-60.6633542466579, 45.75386860860127], [-60.663425015550786, 45.753814124943624], [-60.66345786962675, 45.75378882052713], [-60.66353195967494, 45.75376349573882], [-60.66356222178842, 45.75375315179697], [-60.66360506677908, 45.753743542343685], [-60.66371667663014, 45.753718508039505], [-60.66374808978634, 45.75371878168317], [-60.663793795426905, 45.75371918570459], [-60.663939823656705, 45.753736394579796], [-60.66396012906387, 45.753738790172065], [-60.66401039723415, 45.753744787005694], [-60.66411493816776, 45.75375725856355], [-60.664397719872824, 45.75375944232387], [-60.664441118321804, 45.75376491142024], [-60.66455120697911, 45.75377878317619], [-60.664702373356405, 45.75379642919307], [-60.664794322286475, 45.75380715746257], [-60.66501336645429, 45.75382693820244], [-60.665090485450904, 45.75382761499478], [-60.66516348028124, 45.753836227231915], [-60.665256807091104, 45.7538472173251], [-60.665399688320065, 45.75386313586254], [-60.665514054731865, 45.75387587902008], [-60.66571823078631, 45.75391334729287], [-60.665809143571344, 45.75392241539559], [-60.665958080700925, 45.753923857525365], [-60.66597622883603, 45.753924030441986], [-60.66607643799139, 45.75392230721831], [-60.666335208323424, 45.75391786578956], [-60.666398279034944, 45.75391841662023], [-60.666412340343655, 45.753918541954256], [-60.66645129370831, 45.753909436965046], [-60.666542384850494, 45.75388339553303], [-60.66668436642436, 45.753839491953926], [-60.66673230086726, 45.75383424275578], [-60.66676057578472, 45.753831148108844], [-60.66685095424042, 45.75382219361955], [-60.66712088971861, 45.75382410815833], [-60.66717613984547, 45.753833364697535], [-60.66723708448439, 45.753843583625695], [-60.66727820886219, 45.75384963525144], [-60.66730098176601, 45.75385298974763], [-60.667364440366285, 45.75385317893003], [-60.667403832253505, 45.75385329051612], [-60.66745014804183, 45.75386312049959], [-60.66749304823048, 45.75387222362991], [-60.66760567832634, 45.75388406513541], [-60.66767355333358, 45.75389120305307], [-60.6677373952494, 45.75389175989384], [-60.66775067252209, 45.753891878050766], [-60.66791738307468, 45.75390248352222], [-60.667949665391745, 45.75390257573869], [-60.668071658982136, 45.75390293380998], [-60.66811309534411, 45.75389502207571], [-60.66816108959047, 45.753885867098674], [-60.66819039177576, 45.753876015380605], [-60.6682393333781, 45.7538595529656], [-60.66832988841275, 45.75381549731714], [-60.66843917284917, 45.75375519030717], [-60.66845886097652, 45.75374432313862], [-60.668602566352334, 45.75362844499651], [-60.66882245409681, 45.753504220898705], [-60.66884166950647, 45.75349265994357], [-60.66892664167298, 45.753441541138535], [-60.66899150179948, 45.7533969604385], [-60.66928343245562, 45.75326093867233], [-60.669315373796195, 45.75324605501002], [-60.669457190611425, 45.75317514185059], [-60.669522173671396, 45.75315846621516], [-60.66962486180997, 45.75313175890302], [-60.66980616594141, 45.75306975196364], [-60.66988312279121, 45.75304341944184], [-60.66993600771404, 45.75300849486215], [-60.670206578923434, 45.75290239500755], [-60.67046729619889, 45.75272411311443], [-60.67059647664461, 45.75261692806256], [-60.67064923611326, 45.75255410673248], [-60.67072731520491, 45.75250078476313], [-60.67076433089376, 45.75247919050063], [-60.67081824042161, 45.75244773376281], [-60.67093489616928, 45.75239430739709], [-60.67108955543171, 45.75232365413593], [-60.67113422753063, 45.75229294495105], [-60.67115441255211, 45.752279072140496], [-60.67115735645064, 45.75227568482471], [-60.671193576363734, 45.75223396613157], [-60.67125833398169, 45.75217539461303], [-60.67127240257463, 45.75216266617883], [-60.67134994392607, 45.75209133996992], [-60.671467309401486, 45.752020825777024], [-60.67153177883828, 45.75198523658366], [-60.671647697468586, 45.751949796303364], [-60.671803684962114, 45.751926901050126], [-60.671879258964935, 45.7519158225537], [-60.67209854829468, 45.75189868191068], [-60.67214267866953, 45.75189024757258], [-60.67218798779201, 45.75188160322205], [-60.672381907279444, 45.751855853039864], [-60.67255801330995, 45.75185002754281], [-60.67260078484608, 45.751848604054146], [-60.67261611785906, 45.75184874554204], [-60.67275501760588, 45.751849956227595], [-60.67288414286654, 45.75180578291735], [-60.67300299920533, 45.75179149929129], [-60.673024992614415, 45.751788851147914], [-60.673206077783234, 45.751762838032114], [-60.67332088703741, 45.7517314688674], [-60.67333482898703, 45.751727648512336], [-60.67347717352058, 45.75167475194829], [-60.67369757994852, 45.751568530850555], [-60.67377417200593, 45.7515511891939], [-60.67381509515699, 45.751543498957595], [-60.67386488265792, 45.751534126084465], [-60.6739648690129, 45.75153456061901], [-60.67403199849497, 45.75153483887012], [-60.67406798355707, 45.75153521179796], [-60.67412196115196, 45.75153577116845], [-60.67417874789783, 45.75154205831046], [-60.674211550066936, 45.75154569670719], [-60.674275983238175, 45.75157311168801], [-60.67435123048465, 45.75161875771918], [-60.67441582768411, 45.75167316972996], [-60.674452728938945, 45.751712760215405], [-60.67446629346696, 45.75172730292008], [-60.67449219692046, 45.751778766662994], [-60.67451617511447, 45.7518264378078], [-60.674544325753104, 45.75186745222465], [-60.67455375758034, 45.75188119968623], [-60.67455706050401, 45.75188340016618], [-60.67456626780691, 45.75188955527641], [-60.67461781761936, 45.75191760779641], [-60.67462631845609, 45.7519206521981], [-60.67466849387473, 45.751935741489454], [-60.67498984489023, 45.75193778429545], [-60.67506733528599, 45.7519294609846], [-60.67510360042718, 45.75192464575532], [-60.67513199156694, 45.75192088533186], [-60.67517591222713, 45.75190603689416], [-60.675234985841726, 45.7518860693708], [-60.67533618195453, 45.751886491327475], [-60.67540211604657, 45.75188677143968], [-60.67547209206196, 45.75189065315251], [-60.67558170644945, 45.75189672781631], [-60.67572966789736, 45.75194289892182], [-60.675760676714056, 45.75195257599367], [-60.67586368824882, 45.751979875183764], [-60.675965750979316, 45.7519990631414], [-60.676001158280165, 45.75199942370058], [-60.67605571484827, 45.75199998493756], [-60.676312796114836, 45.75200161613733], [-60.67645167080532, 45.75200282181129], [-60.676467029957266, 45.75200295431245], [-60.676827332095186, 45.751995883473796], [-60.67699329264137, 45.75202446227454], [-60.67707096053591, 45.75204314398066], [-60.67724995732185, 45.75209809026556], [-60.67725627932448, 45.75210035207676], [-60.677377929522095, 45.752143897641034], [-60.677608686769254, 45.75219089520431], [-60.6778642764169, 45.75222849625875], [-60.67796799854781, 45.7522387062444], [-60.67806972709218, 45.75226597735095], [-60.67814700973496, 45.75229365141141], [-60.678254610413674, 45.752349529665835], [-60.67837608110115, 45.75241262051472], [-60.67846624812712, 45.752439656212815], [-60.6785554663262, 45.75245857172133], [-60.67863026678991, 45.75246798612854], [-60.67863221128487, 45.75246822367729], [-60.6786357953109, 45.75246861156698], [-60.67881271560389, 45.75248720346464], [-60.6789456132517, 45.752515368379136], [-60.67899115284386, 45.752525024885344], [-60.67902226047191, 45.752529860581554], [-60.67917127167842, 45.75255299719109], [-60.679257293374, 45.752568390831485], [-60.67927338721212, 45.75257127416563], [-60.679439143830734, 45.752635848942816], [-60.67944994094779, 45.75264119887897], [-60.67956764515914, 45.75269966644976], [-60.67974609262559, 45.75279960225013], [-60.679886889690174, 45.75284566738536], [-60.68001686153633, 45.75286690390175], [-60.68023298824649, 45.75290220374203], [-60.68044312332353, 45.75294340308329], [-60.680565867941326, 45.752967471474726], [-60.68069130045074, 45.75299649082664], [-60.68084732368223, 45.75303259397112], [-60.680888141950255, 45.75303271186778], [-60.68089873560118, 45.75303273799023], [-60.68110379437653, 45.753080106661855], [-60.681123624380454, 45.75308653995891], [-60.68113043744865, 45.7530887485202], [-60.68120717056033, 45.753098407501945], [-60.681297362154154, 45.75311063494215], [-60.68134782813925, 45.75311747423805], [-60.681656340396195, 45.75311922856942], [-60.68199050888966, 45.75312241195657], [-60.68205440778532, 45.75313181884741], [-60.68210363592243, 45.75313967678918], [-60.68217064454099, 45.753150370860894], [-60.68227217240524, 45.753151531471204], [-60.682414884897085, 45.75315172766555], [-60.68253054475815, 45.75315316585604], [-60.68264607367668, 45.75312671642204], [-60.68269979220433, 45.75312705045247], [-60.68277461728133, 45.75312752472557], [-60.68284653894994, 45.75313911917786], [-60.6828895692316, 45.75314605893587], [-60.68300539636247, 45.75317451179948], [-60.68303547717694, 45.753181494787675], [-60.68304360239796, 45.753183378821994], [-60.68318272219884, 45.75330141320928], [-60.68323431461762, 45.75332857159732], [-60.68328495784487, 45.753347600876545], [-60.68331560683683, 45.753352975152026], [-60.6833372949686, 45.753356772486946], [-60.683428966518456, 45.753361845530726], [-60.683516892355314, 45.75336670750324], [-60.683696452219785, 45.75337755056847], [-60.68373311599985, 45.75337770919012], [-60.683863574625775, 45.753378240077375], [-60.68415920409342, 45.75338063543492], [-60.68458300581008, 45.753392829680635]]}, "properties": {"OBJECTID": 194697, "FEAT_CODE": "WARV50", "FEAT_DESC": "River - Single Line", "RIVNAME_1": " ", "RIVNAME_2": " ", "ZVALUE": 9999, "FID": null, "SHAPE_Length": 2095.916344550427}}, {"type": "Feature", "id": 194846, "geometry": {"type": "LineString", "coordinates": [[-60.66323331380582, 45.767139780940475], [-60.66321987987305, 45.76712240432126], [-60.66313596462572, 45.76701368436063], [-60.66309422639699, 45.766959616875106], [-60.66308233859743, 45.76694032768418], [-60.66304363809652, 45.76687758246599], [-60.66301814940292, 45.76684060717807], [-60.662993922354794, 45.76680544888418], [-60.6629638339804, 45.76677513913003], [-60.66293098074934, 45.7667420545096], [-60.66286141840209, 45.76664320504489], [-60.662854498325174, 45.76663337844182], [-60.66283743577832, 45.76660374028534], [-60.66279215097809, 45.766524991623626], [-60.662751054076224, 45.766477444788684], [-60.662729585696184, 45.76645260393136], [-60.66265250965106, 45.76638892910236], [-60.66262240573826, 45.766359924069185], [-60.66257709531811, 45.76631626932624], [-60.66245218950216, 45.766227384890946], [-60.66242472556924, 45.76620783979169], [-60.66241313490438, 45.7662002217851], [-60.66227200529073, 45.76610750369094], [-60.6622149953099, 45.766066849619776], [-60.66214463474677, 45.76601668726898], [-60.662095576310854, 45.76598641195502], [-60.66205561937458, 45.7659617685074], [-60.661991771073986, 45.765889345134134], [-60.6618910580324, 45.76574507776854], [-60.66186633180156, 45.76571173619165], [-60.6617900079167, 45.765608886222964], [-60.661703921901825, 45.765513757105516], [-60.66162651470719, 45.765428220588625], [-60.66158862269733, 45.765319433773236], [-60.661564013944805, 45.76529282721271], [-60.66138680153038, 45.76510197928698], [-60.66134843417667, 45.76506609900462], [-60.66121353952833, 45.764999690911246], [-60.661144296815465, 45.76496559944647], [-60.66108076411692, 45.76494719646267], [-60.661044006254244, 45.76493834276519], [-60.66100309709621, 45.76492850393549], [-60.66087527941888, 45.76490969318205], [-60.66086790842644, 45.764907895029715], [-60.6607988978413, 45.76489101784545], [-60.66064372084744, 45.76488063829502], [-60.660610548973956, 45.76486876160722], [-60.66059303782384, 45.76486249827462], [-60.66011869503401, 45.76479607404977], [-60.66008014688213, 45.76479528417486], [-60.66001532943445, 45.76477686327204], [-60.65998329252897, 45.76476429858668], [-60.65987488419045, 45.7647217620039], [-60.65977334954246, 45.76465848407599], [-60.659741150175435, 45.764635357927204], [-60.65969720124311, 45.76460381814772], [-60.6595309012555, 45.764521201856134], [-60.65931371309174, 45.764394337889], [-60.659144991755554, 45.7642983140504], [-60.659072552016355, 45.76425708107193], [-60.65894058960062, 45.76416312459896], [-60.65891894741468, 45.76414772140405], [-60.658914901693436, 45.764144830179085], [-60.658856507915345, 45.76410323695207], [-60.65879232672933, 45.76403891475655], [-60.65874222892559, 45.76397579036171], [-60.65870350124856, 45.7639488847015], [-60.6585373599536, 45.7638932819337], [-60.65853424272526, 45.76389217391149], [-60.658434712982455, 45.7638569557226], [-60.65835833295573, 45.763838296780214], [-60.658281564041594, 45.763828621720755], [-60.6582094846762, 45.76382826871176], [-60.65816585929343, 45.76382804913749], [-60.65762686866347, 45.76377018974078], [-60.65758832128678, 45.763769399038814], [-60.657455217144054, 45.76376881986122], [-60.657421169691595, 45.76376867046877], [-60.65741990520501, 45.76376877054171], [-60.65721475550964, 45.76378422888083], [-60.6570609842298, 45.76380178511272], [-60.65704123111005, 45.76380516021327], [-60.65700917338087, 45.7638106230852], [-60.65694388486963, 45.76383266785962], [-60.65690612084138, 45.763845412367004], [-60.65685393323276, 45.76386324344841], [-60.65666675115525, 45.76390535213703], [-60.656582598359485, 45.763924282318705], [-60.656529040716464, 45.763939816907055], [-60.65640294410536, 45.7639764010525], [-60.65636102741172, 45.764004766741834], [-60.656350002661235, 45.76401221825215], [-60.656246090334704, 45.76412889757092], [-60.65618205993316, 45.764162641910836], [-60.65618033712261, 45.764163551645744], [-60.65617425146099, 45.76416607300498], [-60.65611620788897, 45.764190138196874], [-60.65605154733575, 45.764198711986644], [-60.65599811738189, 45.76419829933447], [-60.655910117819694, 45.764197609083936], [-60.65556300080967, 45.7641949836204], [-60.655485466129846, 45.764204192868796], [-60.65519106857681, 45.76420174855702], [-60.65516920379021, 45.764201497611126], [-60.655088237263904, 45.764200537099704], [-60.65488238271931, 45.76417201632781], [-60.65483132565017, 45.76416285797045], [-60.65468677737911, 45.76416191452434], [-60.654638474699034, 45.76416159753856], [-60.654510284488175, 45.76415176390474], [-60.65448454449798, 45.764150695157696], [-60.6542522421819, 45.76414106297665], [-60.654206639363366, 45.764153645566864], [-60.65418848923064, 45.764158655264545], [-60.654063212960004, 45.76418544268436], [-60.65390430105952, 45.76421942372715]]}, "properties": {"OBJECTID": 194846, "FEAT_CODE": "WARV50", "FEAT_DESC": "River - Single Line", "RIVNAME_1": " ", "RIVNAME_2": " ", "ZVALUE": 9999, "FID": null, "SHAPE_Length": 918.6514713180269}}, {"type": "Feature", "id": 283242, "geometry": {"type": "LineString", "coordinates": [[-60.672090429885806, 45.76634138261703], [-60.67208667474032, 45.76633859679446], [-60.672077954320834, 45.76633212739215], [-60.67207088596844, 45.76629986807328], [-60.672066065201136, 45.76627787959965], [-60.672057736052, 45.76625953697831], [-60.67204132628132, 45.76622336985167], [-60.67204879948495, 45.766122604058765], [-60.67205597223671, 45.76602565752344], [-60.672070170222725, 45.7659629316257], [-60.672075347832866, 45.765944207281784], [-60.67209741682112, 45.765864477109204], [-60.67212336583272, 45.76582810237727], [-60.67218861249668, 45.76577452690311], [-60.67226708298791, 45.76571222004046], [-60.67230763884671, 45.765691669570955], [-60.67231831955183, 45.765686261715594], [-60.67235006044902, 45.76565626061896], [-60.67242273847607, 45.7655875799504], [-60.67250046003203, 45.76554325947123], [-60.67256645438797, 45.76547169720826], [-60.672574157618776, 45.76544604861435], [-60.67257989003323, 45.76542696651679], [-60.67259353744479, 45.76534623651785], [-60.67259381746333, 45.76532436102377], [-60.672594123419906, 45.765301243933315], [-60.67256975856552, 45.76523774101048], [-60.67256082560142, 45.76522154633393], [-60.67254464537699, 45.76519222464095], [-60.672537554461016, 45.76516606749992], [-60.67253238180639, 45.76514697016203], [-60.672520642164315, 45.76511199639352], [-60.67250835348693, 45.765075382269316], [-60.672433924793246, 45.76488573731819], [-60.67239561316002, 45.76478684654913], [-60.67236048225755, 45.76464211597637], [-60.67237354362772, 45.76460637858136], [-60.67237450396121, 45.764552392716915], [-60.67238793950918, 45.76450766204012], [-60.67245323384062, 45.764391081030894], [-60.67250159122291, 45.76429952833326], [-60.67258585494451, 45.764139958504636], [-60.67260379135858, 45.7641236633891], [-60.672624614721336, 45.76410474483878], [-60.67263377699643, 45.76408667773348], [-60.672638623970535, 45.76407712754585], [-60.67262561220136, 45.76404985963487], [-60.67258267591813, 45.76401298092203], [-60.672562288270456, 45.76399546367211], [-60.6725496133154, 45.763960101800286], [-60.67254466111938, 45.763932926137976], [-60.67253809832745, 45.76389686075604], [-60.67250034824764, 45.76381508317685], [-60.672482094609784, 45.763788932532336], [-60.67243723654048, 45.763724687837595], [-60.6724253101059, 45.76367133939174], [-60.67241922734437, 45.76363795705531], [-60.672413795305566, 45.76360809833588], [-60.67242098844106, 45.76359872199056], [-60.67242739291315, 45.763590373675115], [-60.67244613708732, 45.76355837046143], [-60.67247999919731, 45.763500536744246], [-60.67251742945463, 45.763428959348055], [-60.67254565340079, 45.76337496209318], [-60.6725336147867, 45.76329370855432], [-60.6724969501943, 45.763185850456296], [-60.672497161981305, 45.7631498511396], [-60.672498658678236, 45.76311387801168], [-60.67251171956523, 45.76307814058343], [-60.672548584498244, 45.76302107011601], [-60.67256395103934, 45.76299729687697], [-60.672589697856026, 45.762945958394205], [-60.67260461819847, 45.76291621745388], [-60.67264337708519, 45.762881003758054], [-60.67273886730989, 45.76279339983242], [-60.67279980927942, 45.76273747703184], [-60.672981901248484, 45.762595373070205], [-60.67299096026861, 45.762579779078465], [-60.67300822217668, 45.76255000479143], [-60.673034717074124, 45.76246953650567], [-60.67307347574922, 45.76243431365678], [-60.673138729911585, 45.76238074677118], [-60.67316466370041, 45.76234437147594], [-60.673178634804835, 45.76231765342396], [-60.67318230976524, 45.76207470374827], [-60.67317063163122, 45.76198445669712], [-60.67317073269012, 45.76196718601041], [-60.67317084294955, 45.76194845736372], [-60.673121117353695, 45.76187634595339], [-60.673106130890446, 45.76185791274796], [-60.673069733684706, 45.76181318364222], [-60.67307001419289, 45.761791290144], [-60.67307031912754, 45.761768191021474], [-60.673071815384056, 45.76173221787017], [-60.67309912706731, 45.76169486256197], [-60.67311135865241, 45.761678118082266], [-60.67312405757369, 45.76165137411172], [-60.67317531451617, 45.7616245157149], [-60.673279101425784, 45.76157172488107], [-60.673344504705604, 45.761545154640636], [-60.673370707739835, 45.761537542689], [-60.67343432055619, 45.761519081741405], [-60.67347703610819, 45.76151268827559], [-60.673550782112564, 45.761501652440174], [-60.67358349642409, 45.76149424509937], [-60.67362737508592, 45.761484310912174], [-60.6738177576277, 45.76145039441877], [-60.6738722356792, 45.76144069405266], [-60.67395928865256, 45.76141456446045], [-60.67410533146849, 45.76137073440377], [-60.67416946211237, 45.761344137769306], [-60.674411223507285, 45.76121635212245], [-60.67445478413418, 45.761193332816994]]}, "properties": {"OBJECTID": 283242, "FEAT_CODE": "WARV50", "FEAT_DESC": "River - Single Line", "RIVNAME_1": "Toms Brook", "RIVNAME_2": " ", "ZVALUE": 9999, "FID": null, "SHAPE_Length": 685.17863594231}}, {"type": "Feature", "id": 283244, "geometry": {"type": "LineString", "coordinates": [[-60.67445478413418, 45.761193332816994], [-60.67454436604706, 45.76126536420469], [-60.674798578888705, 45.76142985683627], [-60.674801428787184, 45.76143183205921], [-60.67483732605031, 45.76145674843177], [-60.674925599471685, 45.76152965296455], [-60.67503998181769, 45.76159318799966], [-60.675080990677785, 45.761608055338726], [-60.67514259944123, 45.76163038076556], [-60.675170732818, 45.761635417974986], [-60.67519365827302, 45.76163952106919], [-60.67527041472286, 45.76164918449648], [-60.67539935116251, 45.761641008177385], [-60.67550184262826, 45.76165029523093], [-60.67555413620848, 45.76166036059818], [-60.6755904101801, 45.76166569842067], [-60.67561805679901, 45.761669762514444], [-60.675771607341886, 45.76168818942107], [-60.67583514153721, 45.76170658426091], [-60.67601451207062, 45.76177460030275], [-60.67610353926375, 45.761808356301344], [-60.67619138012795, 45.76184405028715], [-60.67628310369761, 45.761881317364384], [-60.67629805391652, 45.761889812409805], [-60.676347188945364, 45.76191772495008], [-60.67639494708821, 45.761952162114376], [-60.67643582576249, 45.761981634791695], [-60.67656040051584, 45.76207663584175], [-60.676614087292904, 45.7621175751837], [-60.67665156377139, 45.76214444030568], [-60.67665811538791, 45.76214801194899], [-60.676703111066, 45.76217249177914], [-60.67680845148511, 45.762203626819456], [-60.67685682790641, 45.76221792333185], [-60.67698460783082, 45.76223762451008], [-60.67704142300463, 45.76224132752323], [-60.677125684910614, 45.76224679493792], [-60.677155520559225, 45.76225420651974], [-60.67716514325763, 45.76225659847765], [-60.67719807177829, 45.76227624218916], [-60.67724169223551, 45.76230225999112], [-60.677316956441, 45.76234789532089], [-60.67742037433115, 45.76236619139895], [-60.67745889558782, 45.76236697486887], [-60.677651382271826, 45.7623771812262], [-60.67767334340159, 45.76237230830586], [-60.677729259443865, 45.76235988106463], [-60.67775461098216, 45.76235542811171], [-60.67777975543964, 45.76235100694567], [-60.67783348198129, 45.76232038029585], [-60.67785749399294, 45.76230668315014], [-60.6778979447267, 45.7622616010738], [-60.677910014998396, 45.762253358660736], [-60.677936326592885, 45.76223537882219], [-60.67795265873903, 45.76222979732658], [-60.67798850632013, 45.76221753793962], [-60.67808654999731, 45.76219335685854], [-60.67813011477913, 45.76218261347763], [-60.67827191395811, 45.76217469544359], [-60.67852925011422, 45.762140323145765], [-60.67860714030091, 45.76212300464765], [-60.678687123979756, 45.76210915799848], [-60.67870945466585, 45.7621052914918], [-60.67905788979445, 45.76204485796293], [-60.67915289216867, 45.762023602454335], [-60.67929022307742, 45.761992874049625], [-60.67940653114147, 45.76194843292643], [-60.679495598940576, 45.76194034187476], [-60.67952552955258, 45.761933686346154], [-60.679651352461406, 45.761905702960235], [-60.679702632320485, 45.761878842100096], [-60.679718129585105, 45.76187012907344], [-60.67984481892275, 45.7617989227124], [-60.679879126577916, 45.761780366811074], [-60.679910592467024, 45.76176335532507], [-60.68005107983116, 45.76175540842818], [-60.68025921967784, 45.76175123890908], [-60.68038572265075, 45.7617487050966], [-60.68064284922252, 45.761750327410255], [-60.68074530466075, 45.761760509110616], [-60.6808229744509, 45.761779188258906], [-60.68088613733847, 45.761806582652255], [-60.6809467168817, 45.761843870552305], [-60.68098896360441, 45.76186986802482], [-60.68099900876269, 45.76187199821121], [-60.681078197650294, 45.76188878183971], [-60.6811023161074, 45.76189576125976], [-60.68114173393242, 45.76190717376381], [-60.681194489723644, 45.7619129434952], [-60.68123262574061, 45.761917120211955], [-60.68125853121721, 45.761917286193665], [-60.68129690759845, 45.76191752537162], [-60.681396924354495, 45.76190712589665], [-60.68146351589243, 45.76190020611399], [-60.681550707476134, 45.76189083323916], [-60.68161852280262, 45.76188355117304], [-60.681862801597205, 45.76188490089879], [-60.68188849942669, 45.76188542255857], [-60.6819657035418, 45.761902939358585], [-60.68205410577494, 45.761923005642736], [-60.68212324692509, 45.761944868127074], [-60.68216962832401, 45.761959544934335], [-60.68227437663783, 45.7620115540155], [-60.68229815388982, 45.76202335974492], [-60.68234836838174, 45.762056332114014], [-60.682450887437945, 45.76212366933884], [-60.68250120293176, 45.76215079309957], [-60.68252690089493, 45.762151314618094], [-60.682632855297975, 45.76215187165163], [-60.682706898413244, 45.76215226708148], [-60.68277932330444, 45.76215261162474], [-60.682822600924474, 45.76215281473066], [-60.68284152453076, 45.76214892328526], [-60.68298993008967, 45.76211840614637], [-60.68309337380904, 45.762073700249566], [-60.68312716383014, 45.76206234259809], [-60.683171622580055, 45.76204737600256], [-60.683227820232474, 45.76201879515048], [-60.68327540083971, 45.76199458491139], [-60.68343023951021, 45.76195093037255], [-60.683532193408624, 45.761942188486415], [-60.68375073716853, 45.76194392121656], [-60.683761538101955, 45.76194395127579], [-60.683853603203225, 45.761944207453375], [-60.683903028901945, 45.7619366140482], [-60.683905371315646, 45.76193625651611], [-60.68390825412223, 45.76193527087972], [-60.68395754896327, 45.761918412862435], [-60.68396618875738, 45.76191131535643], [-60.68402277984785, 45.761864830284985], [-60.68412987558539, 45.761791205588835], [-60.68415249667268, 45.76177565172649], [-60.68430174032769, 45.76174037939609], [-60.68466806990409, 45.761653792933394]]}, "properties": {"OBJECTID": 283244, "FEAT_CODE": "WARV50", "FEAT_DESC": "River - Single Line", "RIVNAME_1": "Toms Brook", "RIVNAME_2": " ", "ZVALUE": 9999, "FID": null, "SHAPE_Length": 885.7045317263955}}]}