{ "type": "FeatureCollection", "features": [{"type":"Feature","geometry":{"type":"Point","coordinates":[-61.52771310547528,46.050491532273604]},"properties":{"gaz_map":"011K04","admin_loc":"Inverness","concise_ds":"Lake","orig_narr":null,"objectid":"1524","generic_cd":"953","locn_narr":"Expansion of Dorseys Brook","county":"Inverness","generic_tm":"Pond (1)","cgndb_key":"CBLFB","tmod_date":"20130205","concise_cd":"LAKE","status_cd":"1348","ordec_date":"19760108","jurr_narr":null,"fmod_date":"20151125","nad83_lon":"-61.52771","nts_map":"011K04","status_ds":"Official - Official","decis_date":"19760108","nad83_lat":"46.050489","geoname":"Sutherlands Pond"}},{"type":"Feature","geometry":{"type":"Point","coordinates":[-61.57074730374721,46.0243390986243]},"properties":{"gaz_map":"011K04","admin_loc":"Inverness","concise_ds":"Shoal","orig_narr":null,"objectid":"1643","generic_cd":"2024","locn_narr":"N. of Port Hood Island","county":"Inverness","generic_tm":"Rock (1)","cgndb_key":"CBIEI","tmod_date":"20130205","concise_cd":"SHL","status_cd":"1348","ordec_date":"19760108","jurr_narr":null,"fmod_date":"20151125","nad83_lon":"-61.570744","nts_map":"011K04","status_ds":"Official - Official","decis_date":"19760108","nad83_lat":"46.024337","geoname":"Shag Rock"}},{"type":"Feature","geometry":{"type":"Point","coordinates":[-61.53901628847167,46.020962278499795]},"properties":{"gaz_map":"011K04","admin_loc":"Inverness","concise_ds":"Conservation area","orig_narr":"Port Hood Beach was adopted on 17 June 2009 on 11K/04.","objectid":"2148","generic_cd":"5006","locn_narr":"E. of Port Hood Island","county":"Inverness","generic_tm":"Protected Beach","cgndb_key":"CBVPJ","tmod_date":"20130226","concise_cd":"PARK","status_cd":"1348","ordec_date":"20090512","jurr_narr":"Port Hood Beach was adopted on 17 June 2009 on 11K/04.","fmod_date":"20151125","nad83_lon":"-61.539013","nts_map":"011K04","status_ds":"Official - Official","decis_date":"20090512","nad83_lat":"46.02096","geoname":"Port Hood Beach"}},{"type":"Feature","geometry":{"type":"Point","coordinates":[-61.5473822645368,46.02811627199422]},"properties":{"gaz_map":"011K04","admin_loc":"Inverness","concise_ds":"Cape","orig_narr":"Isthmus Point was adopted 7 July 1949 on 11K/3. Changed to Murphys Point 8 January 1976 on 11K/4.","objectid":"3687","generic_cd":"1604","locn_narr":"SW. of Inverness","county":"Inverness","generic_tm":"Point (1)","cgndb_key":"CBAVK","tmod_date":"20130205","concise_cd":"CAPE","status_cd":"1348","ordec_date":"19760108","jurr_narr":null,"fmod_date":"20151125","nad83_lon":"-61.547379","nts_map":"011K04","status_ds":"Official - Official","decis_date":"19760108","nad83_lat":"46.028114","geoname":"Murphys Point"}},{"type":"Feature","geometry":{"type":"Point","coordinates":[-61.511243965786775,46.06337271247513]},"properties":{"gaz_map":"011K04","admin_loc":"Inverness","concise_ds":"River","orig_narr":null,"objectid":"5463","generic_cd":"601","locn_narr":"Flows NW. into Northumberland Strait","county":"Inverness","generic_tm":"Brook","cgndb_key":"CBHNW","tmod_date":"20130205","concise_cd":"RIV","status_cd":"1348","ordec_date":"19760108","jurr_narr":null,"fmod_date":"20151125","nad83_lon":"-61.511241","nts_map":"011K04","status_ds":"Official - Official","decis_date":"19760108","nad83_lat":"46.06337","geoname":"Schoolhouse Brook"}},{"type":"Feature","geometry":{"type":"Point","coordinates":[-61.56208530799943,46.021951144157114]},"properties":{"gaz_map":"011K04","admin_loc":"Inverness","concise_ds":"Shoal","orig_narr":null,"objectid":"7990","generic_cd":"2002","locn_narr":"N. of Port Hood Island","county":"Inverness","generic_tm":"Reef","cgndb_key":"CAXMK","tmod_date":"20130205","concise_cd":"SHL","status_cd":"1348","ordec_date":"19760108","jurr_narr":null,"fmod_date":"20151125","nad83_lon":"-61.562082","nts_map":"011K04","status_ds":"Official - Official","decis_date":"19760108","nad83_lat":"46.021949","geoname":"Margarets Reef"}},{"type":"Feature","geometry":{"type":"Point","coordinates":[-61.55201119808894,46.04120330635556]},"properties":{"gaz_map":"011K04","admin_loc":"Inverness","concise_ds":"Cape","orig_narr":"Formerly approved as Cape Linzee 7 July 1949. Changed to Black Point 8 Jan. 1976 on 11K/4.","objectid":"7787","generic_cd":"1604","locn_narr":"SW. of Inverness","county":"Inverness","generic_tm":"Point (1)","cgndb_key":"CAEBG","tmod_date":"20130205","concise_cd":"CAPE","status_cd":"1348","ordec_date":"19760108","jurr_narr":null,"fmod_date":"20151125","nad83_lon":"-61.552008","nts_map":"011K04","status_ds":"Official - Official","decis_date":"19760108","nad83_lat":"46.041201","geoname":"Black Point"}},{"type":"Feature","geometry":{"type":"Point","coordinates":[-61.5121189612708,46.064455712933004]},"properties":{"gaz_map":"011K04","admin_loc":"Inverness","concise_ds":"Bay","orig_narr":null,"objectid":"12567","generic_cd":"1407","locn_narr":"SW. of Inverness","county":"Inverness","generic_tm":"Cove (2)","cgndb_key":"CAWUZ","tmod_date":"20130205","concise_cd":"BAY","status_cd":"1348","ordec_date":"19760108","jurr_narr":null,"fmod_date":"20151125","nad83_lon":"-61.512116","nts_map":"011K04","status_ds":"Official - Official","decis_date":"19760108","nad83_lat":"46.064453","geoname":"MacLeans Cove"}},{"type":"Feature","geometry":{"type":"Point","coordinates":[-61.5166459868002,46.0631236746036]},"properties":{"gaz_map":"011K04","admin_loc":"Inverness","concise_ds":"Beach","orig_narr":"Royal Gazette, December 29, 1976, page 3500.","objectid":"10863","generic_cd":"1900","locn_narr":"NW. of Colindale","county":"Inverness","generic_tm":"Beach","cgndb_key":"CAHNQ","tmod_date":"20130205","concise_cd":"BCH","status_cd":"1348","ordec_date":"19761229","jurr_narr":null,"fmod_date":"20151125","nad83_lon":"-61.516643","nts_map":"011K04","status_ds":"Official - Official","decis_date":"19761229","nad83_lat":"46.063121","geoname":"Colindale Beach"}},{"type":"Feature","geometry":{"type":"Point","coordinates":[-61.544732256311484,46.02917929745091]},"properties":{"gaz_map":"011K04","admin_loc":"Inverness","concise_ds":"Lake","orig_narr":"Murphy Pond was adopted 4 March 1954 on C.4462. Changed to Murphys Pond 8 January 1976 on 11K/4.","objectid":"13687","generic_cd":"953","locn_narr":"SW. of Inverness","county":"Inverness","generic_tm":"Pond (1)","cgndb_key":"CBAVM","tmod_date":"20130205","concise_cd":"LAKE","status_cd":"1348","ordec_date":"19760108","jurr_narr":null,"fmod_date":"20151125","nad83_lon":"-61.544729","nts_map":"011K04,C.4462","status_ds":"Official - Official","decis_date":"19760108","nad83_lat":"46.029177","geoname":"Murphys Pond"}},{"type":"Feature","geometry":{"type":"Point","coordinates":[-61.52710409253423,46.052200544865784]},"properties":{"gaz_map":"011K04","admin_loc":"Inverness","concise_ds":"Conservation area","orig_narr":"Colindale Beach was adopted on 4 May 2009 on 11K/04.","objectid":"13486","generic_cd":"5006","locn_narr":"SW. of West Mabou Beach Provincial Park","county":"Inverness","generic_tm":"Protected Beach","cgndb_key":"CBVLX","tmod_date":"20130205","concise_cd":"PARK","status_cd":"1348","ordec_date":"20090504","jurr_narr":"Colindale Beach was adopted on 4 May 2009 on 11K/04.","fmod_date":"20151125","nad83_lon":"-61.527101","nts_map":"011K04","status_ds":"Official - Official","decis_date":"20090504","nad83_lat":"46.052198","geoname":"Colindale Beach"}},{"type":"Feature","geometry":{"type":"Point","coordinates":[-61.50012888994748,46.06876281529241]},"properties":{"gaz_map":"011K03","admin_loc":"Inverness","concise_ds":"River","orig_narr":"Headwaters at 46 03 - 61 29 on 11K/3.","objectid":"17014","generic_cd":"601","locn_narr":"Flows NW. into Northumberland Strait","county":"Inverness","generic_tm":"Brook","cgndb_key":"CAFLV","tmod_date":"20130521","concise_cd":"RIV","status_cd":"1348","ordec_date":"19760108","jurr_narr":null,"fmod_date":"20151125","nad83_lon":"-61.500126","nts_map":"011K03","status_ds":"Official - Official","decis_date":"19760108","nad83_lat":"46.06876","geoname":"Burkes Brook"}},{"type":"Feature","geometry":{"type":"Point","coordinates":[-61.527528095469535,46.05196854080226]},"properties":{"gaz_map":"011K04","admin_loc":"Inverness","concise_ds":"Beach","orig_narr":null,"objectid":"16324","generic_cd":"1900","locn_narr":"SW. of Inverness","county":"Inverness","generic_tm":"Beach","cgndb_key":"CAXCQ","tmod_date":"20130205","concise_cd":"BCH","status_cd":"1348","ordec_date":"19760108","jurr_narr":null,"fmod_date":"20151125","nad83_lon":"-61.527525","nts_map":"011K04","status_ds":"Official - Official","decis_date":"19760108","nad83_lat":"46.051966","geoname":"MacQuarries Beach"}},{"type":"Feature","geometry":{"type":"Point","coordinates":[-61.52607611437936,46.048406530989936]},"properties":{"gaz_map":"011K04","admin_loc":"Inverness","concise_ds":"River","orig_narr":null,"objectid":"16513","generic_cd":"601","locn_narr":"Flows NW. into Northumberland Strait","county":"Inverness","generic_tm":"Brook","cgndb_key":"CAJSP","tmod_date":"20130205","concise_cd":"RIV","status_cd":"1348","ordec_date":"19760108","jurr_narr":null,"fmod_date":"20151125","nad83_lon":"-61.526073","nts_map":"011K04","status_ds":"Official - Official","decis_date":"19760108","nad83_lat":"46.048404","geoname":"Dorseys Brook"}},{"type":"Feature","geometry":{"type":"Point","coordinates":[-61.52892808633109,46.05413254350218]},"properties":{"gaz_map":"011K04","admin_loc":"Inverness","concise_ds":"Bay","orig_narr":null,"objectid":"18457","generic_cd":"1407","locn_narr":"SW. of Inverness","county":"Inverness","generic_tm":"Cove (2)","cgndb_key":"CBLEV","tmod_date":"20130205","concise_cd":"BAY","status_cd":"1348","ordec_date":"19760108","jurr_narr":null,"fmod_date":"20151125","nad83_lon":"-61.528925","nts_map":"011K04","status_ds":"Official - Official","decis_date":"19760108","nad83_lat":"46.05413","geoname":"Sutherlands Cove"}},{"type":"Feature","geometry":{"type":"Point","coordinates":[-61.54325321085841,46.03764135591815]},"properties":{"gaz_map":"011K04","admin_loc":"Inverness","concise_ds":"Unincorporated area","orig_narr":"Generic altered to Locality following the NS Civic Address Project review, September 2005.  Located within the Community of Port Hood (D.Wills). Application altered 27 May 2008 on 11K04 from 46º02'15\"-61º32'34\" to 46º02'15\"-61º33'24\" on 11K04.","objectid":"21474","generic_cd":"108","locn_narr":"SW. of Inverness","county":"Inverness","generic_tm":"Locality","cgndb_key":"CAXLJ","tmod_date":"20191008","concise_cd":"UNP","status_cd":"1348","ordec_date":"19760108","jurr_narr":"Marble Hill (Dispersed Rural Community) became Marble Hill (Locality) by decision 26-June-2007 at 46 02 15 -61 32 34 on 011K04.  Located within the Community of Port Hood.","fmod_date":"20250522","nad83_lon":"-61.54325","nts_map":"011K04","status_ds":"Official - Official","decis_date":"20070626","nad83_lat":"46.037639","geoname":"Marble Hill"}},{"type":"Feature","geometry":{"type":"Point","coordinates":[-61.51930311973876,46.04493555338116]},"properties":{"gaz_map":"011K04","admin_loc":"Inverness","concise_ds":"Unincorporated area","orig_narr":"Generic altered to Locality following the NS Civic Address Project review, September 2005.  Located within the Community of Colindale.(D.Wills) Application altered 14 May 2008 on 11K04 from 46º02'41\"-61º31'10\" to 46º02'41\"-61º32'50\" on 11K04.","objectid":"22277","generic_cd":"108","locn_narr":"SW. of Inverness","county":"Inverness","generic_tm":"Locality","cgndb_key":"CBRLK","tmod_date":"20191008","concise_cd":"UNP","status_cd":"1348","ordec_date":"19490707","jurr_narr":"Little Mabou (Dispersed Rural Community) became Little Mabou (Locality) by decision 26-June-2007 at 46 02 41 -61 31 10 on 011K04.  Located within the Community of Colindale.","fmod_date":"20250522","nad83_lon":"-61.5193","nts_map":"011K04","status_ds":"Official - Official","decis_date":"20070626","nad83_lat":"46.044933","geoname":"Little Mabou"}}], "crs" : { "type": "name", "properties": { "name": "urn:ogc:def:crs:OGC:1.3:CRS84" } } }