{ "type": "FeatureCollection", "features": [{"type":"Feature","geometry":{"type":"Point","coordinates":[-61.47359264170386,46.087831026058524]},"properties":{"gaz_map":"011K03","admin_loc":"Inverness","concise_ds":"River","orig_narr":"Coordinates validated using Toporama at 46 04 23 - 61 21 47.","objectid":"7103","generic_cd":"600","locn_narr":"Flows NW. into Mabou Harbour","county":"Inverness","generic_tm":"River","cgndb_key":"CAWDJ","tmod_date":"20130205","concise_cd":"RIV","status_cd":"1348","ordec_date":"19490707","jurr_narr":null,"fmod_date":"20210215","nad83_lon":"-61.47359","nts_map":"011K03","status_ds":"Official - Official","decis_date":"19490707","nad83_lat":"46.087828","geoname":"Mabou River"}},{"type":"Feature","geometry":{"type":"Point","coordinates":[-61.33589552807823,46.014173922879976]},"properties":{"gaz_map":"011K03","admin_loc":"Inverness","concise_ds":"Unincorporated area","orig_narr":"Named after the Island or Sound of this name in Hebredes, Scotland, by the settlers of Scotch origin. (D. McDonald PM).","objectid":"513","generic_cd":"108","locn_narr":"S. of Inverness","county":"Inverness","generic_tm":"Locality","cgndb_key":"CBARE","tmod_date":"20130205","concise_cd":"UNP","status_cd":"1348","ordec_date":"19490707","jurr_narr":"Confirmed as a Locality following the NS Civic Address Review, 6 September 2005.  Located within the community of Mabou(D.Wills). Applicaton altered 30 May 2008 on 11K03 from 46º00'52\"-61º20'10\" to 46º00'51\"-61º21'50\" on 11K03.\r\n\r\n(1)Named after the","fmod_date":"20250522","nad83_lon":"-61.335893","nts_map":"011K03","status_ds":"Official - Official","decis_date":"19490707","nad83_lat":"46.014171","geoname":"Mull River"}},{"type":"Feature","geometry":{"type":"Point","coordinates":[-61.320610394746794,46.04080603778492]},"properties":{"gaz_map":"011K03","admin_loc":"Inverness","concise_ds":"River","orig_narr":"Headwaters at 45 58 - 61 17 on 11F/14.","objectid":"6805","generic_cd":"600","locn_narr":"Flows NE. into Mabou River","county":"Inverness","generic_tm":"River","cgndb_key":"CBARF","tmod_date":"20130205","concise_cd":"RIV","status_cd":"1348","ordec_date":"19490707","jurr_narr":null,"fmod_date":"20151125","nad83_lon":"-61.320608","nts_map":"011K03,011F14","status_ds":"Official - Official","decis_date":"19490707","nad83_lat":"46.040803","geoname":"Mull River"}},{"type":"Feature","geometry":{"type":"Point","coordinates":[-61.08969707949111,45.859306930486646]},"properties":{"gaz_map":"011F14","admin_loc":"Inverness","concise_ds":"River","orig_narr":"River Denys was adopted in the 18th Report, 1924 and confirmed 3 May 1951 on 11F/14.\n\n(1) 18th Report: After Nicholas Denys, sieur de Fronsae, appointed in 1654, Governor of Cape Breton, Prince Edward Island, and part of Newfoundland. Or maybe after Nico","objectid":"5675","generic_cd":"600","locn_narr":"Flows SE. into Denys Basin","county":"Inverness","generic_tm":"River","cgndb_key":"CAJJB","tmod_date":"20130205","concise_cd":"RIV","status_cd":"1348","ordec_date":"19510503","jurr_narr":"18th Report: After Nicholas Denys, sieur de Fronsae, appointed in 1654, Governor of Cape Breton, Prince Edward Island, and part of Newfoundland. Or maybe after Nicolas Denys or an Indian. Dr. G.F.M. Smith, Director of Mapping & Charting (Marine), Dept. o","fmod_date":"20151125","nad83_lon":"-61.089694","nts_map":"011F14","status_ds":"Official - Official","decis_date":"19510503","nad83_lat":"45.859305","geoname":"River Denys"}},{"type":"Feature","geometry":{"type":"Point","coordinates":[-61.17762272043806,45.83708767651297]},"properties":{"gaz_map":"011F14","admin_loc":"Inverness","concise_ds":"Unincorporated area","orig_narr":"River Denys and River Denys Station were adopted in the 18th Report, 1924 and confirmed 3 May 1951 on 11F/14. River Denys Station became part of River Denys 31 March 1967 on 11F/14. Named after the first French governor of Cape Breton. (1904)","objectid":"6129","generic_cd":"121","locn_narr":"W. of Bras d'Or Lake","county":"Inverness","generic_tm":"Community (2)","cgndb_key":"CBFTS","tmod_date":"20130205","concise_cd":"UNP","status_cd":"1348","ordec_date":"19670331","jurr_narr":"River Denys and River Denys Station were adopted in the 18th Report, 1924 and confirmed 3 May 1951 on 11F/14. River Denys Station became part of River Denys 31 March 1967 on 11F/14. \r\nChange in the Form of a Name: Generic altered to 'community' following","fmod_date":"20250522","nad83_lon":"-61.177619","nts_map":"011F14","status_ds":"Official - Official","decis_date":"19670331","nad83_lat":"45.837086","geoname":"River Denys"}},{"type":"Feature","geometry":{"type":"Point","coordinates":[-61.12877742457938,45.968083356061655]},"properties":{"gaz_map":"011F14","admin_loc":"Inverness","concise_ds":"River","orig_narr":"Approval on above date on 11F/14. Approval on July 7, 194 9 on 11K/3. Shown on 11F/14-1952 ed. Shown on 11K/3-1952 ed.","objectid":"20361","generic_cd":"600","locn_narr":"Flows SE. into Whycocomagh Bay","county":"Inverness","generic_tm":"River","cgndb_key":"CBIXS","tmod_date":"20130205","concise_cd":"RIV","status_cd":"1348","ordec_date":"19510503","jurr_narr":null,"fmod_date":"20151125","nad83_lon":"-61.128775","nts_map":"011F14,011K03","status_ds":"Official - Official","decis_date":"19510503","nad83_lat":"45.968081","geoname":"Skye River"}}], "crs" : { "type": "name", "properties": { "name": "urn:ogc:def:crs:OGC:1.3:CRS84" } } }