{ "type": "FeatureCollection", "features": [{"type":"Feature","geometry":{"type":"Point","coordinates":[-60.89431423885459,46.28078329105277]},"properties":{"gaz_map":"011K07","admin_loc":"Victoria","concise_ds":"River","orig_narr":null,"objectid":"3267","generic_cd":"601","locn_narr":"Flows E. into Middle River","county":"Victoria","generic_tm":"Brook","cgndb_key":"CAKDD","tmod_date":"20130205","concise_cd":"RIV","status_cd":"1348","ordec_date":"19510405","jurr_narr":null,"fmod_date":"20151125","nad83_lon":"-60.89431","nts_map":"011K07","status_ds":"Official - Official","decis_date":"19510405","nad83_lat":"46.280786","geoname":"Duncan Brook"}}], "crs" : { "type": "name", "properties": { "name": "urn:ogc:def:crs:OGC:1.3:CRS84" } } }