{ "type": "FeatureCollection", "features": [{"type":"Feature","geometry":{"type":"Point","coordinates":[-60.521643552675926,46.74227232024573]},"properties":{"gaz_map":"011K10","admin_loc":"Victoria","concise_ds":"Lake","orig_narr":null,"objectid":"14616","generic_cd":"951","locn_narr":"S. of Aspy Bay","county":"Victoria","generic_tm":"Lake","cgndb_key":"CARRN","tmod_date":"20130205","concise_cd":"LAKE","status_cd":"1348","ordec_date":"19371102","jurr_narr":null,"fmod_date":"20151125","nad83_lon":"-60.521636","nts_map":"011K10","status_ds":"Official - Official","decis_date":"19371102","nad83_lat":"46.742272","geoname":"Lake of Islands"}},{"type":"Feature","geometry":{"type":"Point","coordinates":[-66.08795284917814,43.94313539804223]},"properties":{"gaz_map":"020O16","admin_loc":null,"concise_ds":"Lake","orig_narr":"Wellington Lake was adopted 6 March 1929 on 20O/16. Changed to Sunday Lake 10 July 1974 on 20O/16.","objectid":"3091","generic_cd":"951","locn_narr":"NE. of Yarmouth","county":"Yarmouth","generic_tm":"Lake","cgndb_key":"CBLBU","tmod_date":"20130205","concise_cd":"LAKE","status_cd":"1348","ordec_date":"19740710","jurr_narr":null,"fmod_date":"20151125","nad83_lon":"-66.087953","nts_map":"020O16","status_ds":"Official - Official","decis_date":"19740710","nad83_lat":"43.943131","geoname":"Sunday Lake"}},{"type":"Feature","geometry":{"type":"Point","coordinates":[-60.61585563680841,46.735446175142094]},"properties":{"gaz_map":"011K10","admin_loc":"Victoria","concise_ds":"Lake","orig_narr":null,"objectid":"18613","generic_cd":"951","locn_narr":"SW. of Aspy Bay","county":"Victoria","generic_tm":"Lake","cgndb_key":"CBLBV","tmod_date":"20130205","concise_cd":"LAKE","status_cd":"1348","ordec_date":"19371102","jurr_narr":null,"fmod_date":"20151125","nad83_lon":"-60.615849","nts_map":"011K10","status_ds":"Official - Official","decis_date":"19371102","nad83_lat":"46.735446","geoname":"Sunday Lake"}},{"type":"Feature","geometry":{"type":"Point","coordinates":[-65.78925453967038,44.10893088698333]},"properties":{"gaz_map":"021A04","admin_loc":null,"concise_ds":"Lake","orig_narr":"Sunday Lake was approved 17 Dec. 1931 on 21A/SW.","objectid":"18318","generic_cd":"951","locn_narr":"SW. of Lake Rossignol","county":"Yarmouth","generic_tm":"Lake","cgndb_key":"CBLBW","tmod_date":"20130205","concise_cd":"LAKE","status_cd":"1348","ordec_date":"19311217","jurr_narr":null,"fmod_date":"20151125","nad83_lon":"-65.789253","nts_map":"021A04","status_ds":"Official - Official","decis_date":"19311217","nad83_lat":"44.108927","geoname":"Sunday Lake"}}], "crs" : { "type": "name", "properties": { "name": "urn:ogc:def:crs:OGC:1.3:CRS84" } } }