{ "type": "FeatureCollection", "features": [{"type":"Feature","geometry":{"type":"Point","coordinates":[-60.42894118676967,46.249294872648726]},"properties":{"gaz_map":"011K01","admin_loc":"Victoria","concise_ds":"Lake","orig_narr":null,"objectid":"974","generic_cd":"951","locn_narr":"Boularderie Island","county":"Victoria","generic_tm":"Lake","cgndb_key":"CAIUU","tmod_date":"20130205","concise_cd":"LAKE","status_cd":"1348","ordec_date":"19531203","jurr_narr":null,"fmod_date":"20151125","nad83_lon":"-60.428936","nts_map":"011K01,011K08","status_ds":"Official - Official","decis_date":"19531203","nad83_lat":"46.249295","geoname":"Dalem Lake"}},{"type":"Feature","geometry":{"type":"Point","coordinates":[-60.416492112347996,46.25251693995894]},"properties":{"gaz_map":"011K08","admin_loc":"Cape Breton Regional Municipality","concise_ds":"Unincorporated area","orig_narr":"So named following the NS Civic Address Project review and on the advice of Cape Breton Regional Municipality 30 June 2005.   D.Wills","objectid":"16786","generic_cd":"121","locn_narr":"W. of North Sydney","county":"Cape Breton","generic_tm":"Community (2)","cgndb_key":"CBVHJ","tmod_date":"20130205","concise_cd":"UNP","status_cd":"1348","ordec_date":"20050630","jurr_narr":null,"fmod_date":"20250522","nad83_lon":"-60.416487","nts_map":"011K08","status_ds":"Official - Official","decis_date":"20050630","nad83_lat":"46.252517","geoname":"Dalem Lake"}}], "crs" : { "type": "name", "properties": { "name": "urn:ogc:def:crs:OGC:1.3:CRS84" } } }