{"type": "FeatureCollection", "features": [{"type": "Feature", "id": 17361, "geometry": {"type": "LineString", "coordinates": [[-59.965751884355356, 45.89894026716784], [-59.96563197847283, 45.89898048264027], [-59.9655181393073, 45.899018663018076], [-59.965493685721405, 45.89903494373249], [-59.96542582346365, 45.89908011561718], [-59.96540588973392, 45.89909034184013], [-59.96537411246416, 45.89910664388527], [-59.96529633543491, 45.89911447748967], [-59.96526002947447, 45.89912919198028], [-59.965231738475495, 45.89914066316922], [-59.96519213927632, 45.8991576123278], [-59.9651906684629, 45.8991845848998], [-59.96520429037163, 45.89919436192751], [-59.9652167220559, 45.899203270232526], [-59.96524774831781, 45.89921445498637], [-59.96531913110703, 45.89924019578458], [-59.965326178891765, 45.89925067113742], [-59.96535609697234, 45.89929518370088], [-59.96535413663721, 45.89933113515095], [-59.965348300153344, 45.899335327443], [-59.96534206081439, 45.89933981505684], [-59.965321732223536, 45.89935775353216], [-59.965301432306134, 45.899375638760674], [-59.965292253688986, 45.899378707110095], [-59.96527648390329, 45.89938396749106], [-59.96510854560659, 45.89939031341944], [-59.96500497303208, 45.89939836119466], [-59.96495294215042, 45.89940686998839], [-59.964861617754515, 45.89945035570871], [-59.9648410930688, 45.899464085469944], [-59.96478267660025, 45.89950316246091], [-59.964722811661616, 45.899527430453574], [-59.964718078953254, 45.89952934783086], [-59.96467873721854, 45.89956520552309], [-59.964665002939284, 45.89962249107017], [-59.96466373291431, 45.89962781283346], [-59.9646695365126, 45.899662044497475], [-59.96467444905779, 45.89969110396251], [-59.96467438241203, 45.89969327140487], [-59.96467328536717, 45.899736077468766], [-59.9647109733763, 45.89975418114627], [-59.96476331204657, 45.89976367342249], [-59.96487921927582, 45.899765854758364], [-59.96505134643547, 45.89976049360624], [-59.965097461486295, 45.8997590552217], [-59.96514726389886, 45.89975004608028], [-59.965188602206275, 45.89974258509928], [-59.965344635743236, 45.89971792083805], [-59.96553825835059, 45.899666361694294], [-59.96557957168906, 45.899659592976384], [-59.965642321417015, 45.89964932558157], [-59.96583890604736, 45.89960869072319], [-59.96592786872861, 45.899590307942574], [-59.966054682368785, 45.899550626764906], [-59.96617443978225, 45.89951315217489], [-59.96631730415098, 45.89947014385587], [-59.966629122047, 45.89940192154633], [-59.966637763571605, 45.89938978392504], [-59.966641700440555, 45.89938425396856], [-59.96663375828522, 45.89923951567755], [-59.96663329338003, 45.89923101548698], [-59.96663927261107, 45.899223019545886], [-59.966659711629916, 45.89919571384449], [-59.96669577462656, 45.899163926767734], [-59.96670033866105, 45.899159898618876], [-59.966724556067895, 45.89914747275275], [-59.966752062472544, 45.89913336108963], [-59.96677587914369, 45.89912402987246], [-59.96681660976728, 45.89910807331889], [-59.966908288764124, 45.89908169714337], [-59.96706500359743, 45.899021063074166], [-59.967077581762716, 45.899003395441746], [-59.967081053985964, 45.89886847434472], [-59.96705646978956, 45.898822816804774], [-59.967035791692545, 45.898807677033446], [-59.96696845161807, 45.89875837237093], [-59.966891605917404, 45.89874913011536], [-59.966826019133734, 45.89874784668909], [-59.966762827698304, 45.89874660886355], [-59.9666564203105, 45.89875513187615], [-59.96656860716709, 45.89876215064192], [-59.966414292612775, 45.89877875245094], [-59.96639488637727, 45.89878285425633], [-59.96629691703991, 45.898803545325165], [-59.966258054379225, 45.89883040640311], [-59.96610037223101, 45.89890901543823], [-59.96606201125883, 45.89892690689343], [-59.966049587611536, 45.898928727954285], [-59.96601002946599, 45.898934526385766], [-59.96581307771966, 45.89893890519995], [-59.965751884355356, 45.89894026716784]]}, "properties": {"OBJECTID": 17361, "FEAT_CODE": "WACOIS10", "FEAT_DESC": "Coastal Island - Water to the right line", "RIVNAME_1": " ", "RIVNAME_2": " ", "ZVALUE": 0.6, "FID": null, "SHAPE_Length": 509.87515762645023}}, {"type": "Feature", "id": 18472, "geometry": {"type": "LineString", "coordinates": [[-59.96131007674017, 45.895056156471696], [-59.96144590857061, 45.895026594422895], [-59.961582732273065, 45.89499680658479], [-59.96162551633812, 45.89498004244467], [-59.96164727687192, 45.89497152166084], [-59.96171334226271, 45.8949183743977], [-59.96173238579121, 45.894909799292535], [-59.9617529889258, 45.894900518614676], [-59.961904642906745, 45.894864707419686], [-59.961934508865106, 45.894857653398816], [-59.96199940830334, 45.894849479418944], [-59.96202796071112, 45.89483531571612], [-59.96205108059059, 45.894823851731005], [-59.96218105083147, 45.89478050547577], [-59.96222069676177, 45.894762658511524], [-59.96226000030403, 45.894727700722264], [-59.962264220135886, 45.894709901221475], [-59.96227507999625, 45.89466420460459], [-59.962263005774275, 45.89460176815676], [-59.962251605374774, 45.89457446212939], [-59.962227026911755, 45.89452880366596], [-59.962216756453714, 45.89452330986768], [-59.96217567464208, 45.89450133466575], [-59.9620869939729, 45.894472872360794], [-59.961954235910405, 45.89444473121792], [-59.9619073284322, 45.89443478810692], [-59.961881265758976, 45.89441609275843], [-59.96187236788632, 45.89437742214982], [-59.96187084719602, 45.894370802027424], [-59.96187085702878, 45.89436967717712], [-59.96187121570165, 45.89431681545992], [-59.9619108123324, 45.89429986738045], [-59.96192693127111, 45.894296218914334], [-59.96194996744702, 45.89429100834447], [-59.96200093151613, 45.894283543641734], [-59.962001945329995, 45.8942833906016], [-59.962024113528145, 45.89423078520475], [-59.96202859742528, 45.89422019345502], [-59.9620295784916, 45.89420221776931], [-59.961990960525064, 45.89417454748874], [-59.961978717157734, 45.89416576084638], [-59.961914984092644, 45.89412896137214], [-59.96186705275192, 45.89410944104706], [-59.961801492650295, 45.89408273689883], [-59.96169816330407, 45.89406288535374], [-59.9616730820467, 45.89402621428223], [-59.961663977383786, 45.893909860416635], [-59.96166446797058, 45.89390087257634], [-59.961587385957344, 45.89387271855479], [-59.961421108383384, 45.89382508884608], [-59.961370100087215, 45.89378826770126], [-59.961333055507986, 45.89376153916186], [-59.96128616762888, 45.89375077723329], [-59.961204474199725, 45.89373201415957], [-59.96115438148657, 45.89371644140213], [-59.96111574620489, 45.89370444992329], [-59.961109274952484, 45.89362157743183], [-59.96110586955677, 45.89357817447118], [-59.961083670586554, 45.89357797061379], [-59.961054346719166, 45.893577703110616], [-59.960824626646875, 45.89357960786891], [-59.96066747378081, 45.89358090581264], [-59.96064969828158, 45.893563429898904], [-59.960630759858006, 45.89354482491328], [-59.960604698286076, 45.89351219591001], [-59.960580084661224, 45.89348137862562], [-59.960550110187626, 45.89347248881405], [-59.960516659446796, 45.8934625793527], [-59.96047167235327, 45.8934618676898], [-59.960349230156595, 45.89345992189788], [-59.9603053599896, 45.89346354233602], [-59.96025858890475, 45.8934674095512], [-59.960180142653854, 45.893511234429376], [-59.96016624078482, 45.8935297571578], [-59.960152998528, 45.89358340994735], [-59.9601496829456, 45.89369133242983], [-59.96011039175195, 45.89372628982562], [-59.960106067805214, 45.89372922599674], [-59.96008363049645, 45.89374447913943], [-59.9599946349405, 45.893768086005295], [-59.95995412632291, 45.893778834520596], [-59.95991121728859, 45.89381536067701], [-59.95986084467398, 45.893858258724556], [-59.9598203373339, 45.89393907920822], [-59.95983110864982, 45.894001481229296], [-59.95982222252763, 45.894025403005], [-59.95981751144632, 45.89403802282172], [-59.9597934499401, 45.89406460078813], [-59.95977772889982, 45.89408196791424], [-59.95974822970582, 45.89410237046611], [-59.95973887900146, 45.89410883612564], [-59.95952847137445, 45.89423195458793], [-59.95951920684398, 45.89424722540119], [-59.959501574114775, 45.8942762247406], [-59.959490598707944, 45.89429166600869], [-59.95948900711312, 45.89429390084779], [-59.95949690347491, 45.89445612728023], [-59.95950343338738, 45.89447558110558], [-59.95950909872778, 45.89449245565062], [-59.95954561399475, 45.894555534305184], [-59.9595951351314, 45.89459148857642], [-59.95964728502313, 45.89462934901466], [-59.95965115137932, 45.894631252158106], [-59.95972260178558, 45.89466645823275], [-59.95983370822146, 45.89473061405394], [-59.959850066169764, 45.8947400595486], [-59.95986191976665, 45.89475220237525], [-59.95991232583591, 45.89480382362887], [-59.95991020470282, 45.89486602634217], [-59.959910176831215, 45.89486677267434], [-59.95989662852743, 45.89490241548502], [-59.959830070574306, 45.89496454947692], [-59.95982611582181, 45.89496638835831], [-59.95979172384152, 45.89498243020756], [-59.95975422252235, 45.89499144055374], [-59.959687213355835, 45.89500754986791], [-59.959621401823355, 45.895018488519334], [-59.95958443182539, 45.8950246146709], [-59.95956787625475, 45.895027990151796], [-59.95954535020131, 45.895032583763246], [-59.959545297991895, 45.89503424753851], [-59.959544170276786, 45.89507754781692], [-59.959568932364434, 45.89509620906254], [-59.959601788705356, 45.89510049541122], [-59.95964700968752, 45.89510638915884], [-59.959675661554556, 45.895106702133326], [-59.959761668647786, 45.89510764238479], [-59.95993057548091, 45.89508333735259], [-59.96004670701806, 45.895057626817746], [-59.96011258862647, 45.89503147827338], [-59.96030630649559, 45.89502493502037], [-59.96039021764688, 45.89503899630399], [-59.960421270922545, 45.8950441975068], [-59.96054794069734, 45.895108775984745], [-59.960568204433706, 45.89512743426492], [-59.960598262033315, 45.89515512015067], [-59.96065010533761, 45.89517359303596], [-59.9607521976855, 45.89519252150693], [-59.960785545945264, 45.895192995229024], [-59.96089388817106, 45.89519449319977], [-59.96096585509776, 45.89518083737954], [-59.96102284250404, 45.89517002310102], [-59.96108106998598, 45.895143814268444], [-59.96110213560932, 45.89513432999737], [-59.961180583029886, 45.89509051352306], [-59.96123988879011, 45.89507477434864], [-59.96131007674017, 45.895056156471696]]}, "properties": {"OBJECTID": 18472, "FEAT_CODE": "WACOIS10", "FEAT_DESC": "Coastal Island - Water to the right line", "RIVNAME_1": " ", "RIVNAME_2": " ", "ZVALUE": 0.6, "FID": null, "SHAPE_Length": 737.6895365137158}}, {"type": "Feature", "id": 20436, "geometry": {"type": "LineString", "coordinates": [[-59.96092230556715, 45.898380665791386], [-59.960691628227366, 45.89833222084563], [-59.960602574315566, 45.89828665477842], [-59.960579069504846, 45.89825225767745], [-59.96057750539492, 45.898249974814824], [-59.96057233242125, 45.89824437355565], [-59.960551945175574, 45.89822229165838], [-59.96055459749044, 45.89815035513619], [-59.96053044789433, 45.898096606942744], [-59.9604871930275, 45.89806481632519], [-59.96047963323266, 45.898059250526224], [-59.96046223684025, 45.89805156865805], [-59.960416693283356, 45.89803147224521], [-59.960274199238505, 45.898020477684376], [-59.960256013310484, 45.89802040751949], [-59.960196865000505, 45.898020218794855], [-59.9601527963262, 45.898025283036155], [-59.96013329798549, 45.89802752713981], [-59.96008126727465, 45.898036042715376], [-59.96005449050098, 45.898054240603436], [-59.96001519651812, 45.898089188876995], [-59.96000098994511, 45.89815480513067], [-59.959999696552295, 45.89816078328651], [-59.95986999633355, 45.898222136025026], [-59.95986852348217, 45.89824909948048], [-59.95991165356298, 45.898288834797086], [-59.95991884743399, 45.898295434993116], [-59.95997281273678, 45.898313577641765], [-59.96008468158456, 45.89835116484386], [-59.96014841808013, 45.89838796540755], [-59.96022551832682, 45.89841612086293], [-59.96022404612847, 45.89844307533855], [-59.96023556580518, 45.898515398189936], [-59.96022534353754, 45.89853993247286], [-59.9602207422922, 45.898551007070644], [-59.960207437665254, 45.898559986749554], [-59.9601297217733, 45.89861248988029], [-59.960140432109284, 45.89867579029869], [-59.96017768550679, 45.89874878034499], [-59.96019572195867, 45.898768585496484], [-59.96020202044241, 45.898775530870125], [-59.960266248386986, 45.89880334355914], [-59.96040745714083, 45.89881430390598], [-59.96051498154043, 45.898815798452915], [-59.96054915680999, 45.89881627625625], [-59.96066528310171, 45.89879056495148], [-59.960795731241475, 45.898739132201875], [-59.96088741173705, 45.8987127699059], [-59.96104215619257, 45.89868808621957], [-59.961119958818585, 45.898680256199455], [-59.961275008917674, 45.8986735821148], [-59.96128759971285, 45.898669173766464], [-59.961301294397934, 45.89866438075712], [-59.961365905401564, 45.89863819767556], [-59.96157249626493, 45.89863198587449], [-59.96159263856016, 45.89862904759209], [-59.961624477786366, 45.898624377399095], [-59.96162613454366, 45.89857041614482], [-59.9614847157735, 45.898528362639624], [-59.961433313780006, 45.898513079207405], [-59.96133170536163, 45.89848517235463], [-59.96111291847097, 45.898455046521], [-59.960985551900116, 45.8984264537293], [-59.96092230556715, 45.898380665791386]]}, "properties": {"OBJECTID": 20436, "FEAT_CODE": "WACOIS10", "FEAT_DESC": "Coastal Island - Water to the right line", "RIVNAME_1": " ", "RIVNAME_2": " ", "ZVALUE": 0.6, "FID": null, "SHAPE_Length": 377.68525010359826}}, {"type": "Feature", "id": 21276, "geometry": {"type": "LineString", "coordinates": [[-59.96818872947026, 45.89891049612077], [-59.967992253038005, 45.898829958933796], [-59.96798444724226, 45.89882676333614], [-59.967997187510534, 45.898853204263986], [-59.96802226214787, 45.89888987373527], [-59.96801963226936, 45.89896181100492], [-59.96795423856381, 45.89897898517838], [-59.96794643923365, 45.89898158632243], [-59.96792929070941, 45.89898731450358], [-59.96791427735772, 45.89904992200009], [-59.967952937928494, 45.89906722235375], [-59.96797846023474, 45.899078638227785], [-59.968016149430554, 45.899096731843386], [-59.96809294687017, 45.89910687214641], [-59.96815736094386, 45.89910768265675], [-59.96831242475495, 45.89910099936141], [-59.96837702030647, 45.89907481190055], [-59.96837913732497, 45.89901985468396], [-59.968380139326456, 45.8989938867243], [-59.968377832043146, 45.898988910971234], [-59.968367447804354, 45.89896654704562], [-59.968278267114606, 45.89894707720226], [-59.968259123972864, 45.89893925113267], [-59.96818872947026, 45.89891049612077]]}, "properties": {"OBJECTID": 21276, "FEAT_CODE": "WACOIS10", "FEAT_DESC": "Coastal Island - Water to the right line", "RIVNAME_1": " ", "RIVNAME_2": " ", "ZVALUE": 0.6, "FID": null, "SHAPE_Length": 114.53231711061224}}]}