{"type": "FeatureCollection", "features": [{"type": "Feature", "id": 10488, "geometry": {"type": "LineString", "coordinates": [[-60.59727575128139, 47.04142078806608], [-60.59731293983101, 47.04142608635992], [-60.59745542244382, 47.041443296088225], [-60.59752311147836, 47.04147090474128], [-60.59755903449048, 47.04148943229199], [-60.59756567048297, 47.04152457867772], [-60.597607507717505, 47.04154303236747], [-60.597618032939074, 47.04155079465997], [-60.597625549975646, 47.041556360988785], [-60.5976629879351, 47.04155317810697], [-60.59766662152616, 47.04153822561837], [-60.59766575287502, 47.041529721090036], [-60.59766414761045, 47.04151387570836], [-60.59766354470549, 47.04150824751967], [-60.59766170559271, 47.04149086735656], [-60.59770742931562, 47.04148580653962], [-60.597716823014245, 47.04148476180234], [-60.59778801371057, 47.041490656599024], [-60.597823488322746, 47.041487513451614], [-60.59785137280319, 47.041488638629986], [-60.59787484222469, 47.041489581149875], [-60.59794015679168, 47.041498250288456], [-60.597998754928376, 47.04150492459259], [-60.598015336423146, 47.04150681144304], [-60.59802186124817, 47.041508676228595], [-60.59807888115077, 47.04152499156868], [-60.598124706150486, 47.04154611153883], [-60.59815857323189, 47.04156059108893], [-60.59816416086887, 47.04156280516919], [-60.59816852005088, 47.04156452550948], [-60.59820009286872, 47.041564135132695], [-60.59820440034421, 47.04157052499912], [-60.59820822516799, 47.041576229793336], [-60.59819947555026, 47.041629186781044], [-60.598183861462395, 47.04165471398517], [-60.598172751680735, 47.04167286632742], [-60.59815076088938, 47.04170290332973], [-60.59814972303385, 47.041704321431205], [-60.59811888547403, 47.04173993230257], [-60.59811950835549, 47.04176974190125], [-60.59810409632911, 47.041787542975925], [-60.598076618231865, 47.041794660704454], [-60.59807118853107, 47.041819123720934], [-60.59807127409567, 47.04182278821259], [-60.598071538238614, 47.04183537471168], [-60.59806631468406, 47.0418693182674], [-60.59808408361302, 47.041869097203254], [-60.59810386449275, 47.041871564137686], [-60.59810861863965, 47.041878854306894], [-60.598109998014536, 47.041880971079806], [-60.59810859659236, 47.041908074419], [-60.59810318621706, 47.04192184672952], [-60.59810109152939, 47.0419271573279], [-60.59811908499171, 47.04193776707151], [-60.598130633985285, 47.04193563362289], [-60.598142660494204, 47.04193342020112], [-60.59815179745438, 47.04191464151194], [-60.59815591743683, 47.04190615168005], [-60.59815940775812, 47.04188441973286], [-60.59816490594459, 47.041866932570805], [-60.59816641908864, 47.041842324368396], [-60.59816467897249, 47.04183475547801], [-60.59816208174941, 47.04182340691377], [-60.5981667334887, 47.041818905910006], [-60.598183358917645, 47.04180281314986], [-60.598190875873264, 47.04178375748264], [-60.59821014680551, 47.0417879055575], [-60.59822061674369, 47.04179015909086], [-60.598215056689874, 47.04180785194031], [-60.59823192901641, 47.04180942088871], [-60.598240765311665, 47.04181023625644], [-60.59827602731776, 47.041808636378505], [-60.59828217439154, 47.04180836039943], [-60.59829427644186, 47.04180710246771], [-60.59831172224243, 47.0418052817201], [-60.598309970338306, 47.04181615205422], [-60.598308678897, 47.041817060877875], [-60.59829247023273, 47.04182856378294], [-60.598310262305525, 47.04183105194449], [-60.59833250982171, 47.04183077182974], [-60.59833987278263, 47.04183068334716], [-60.59834004747535, 47.041838813338245], [-60.59833239972637, 47.0418511078315], [-60.59831692553518, 47.041866189855675], [-60.59831535277522, 47.041868379669616], [-60.598291983439715, 47.04190038560613], [-60.5982845235067, 47.041920810362576], [-60.59828310821144, 47.0419479314109], [-60.59832244109963, 47.04194066641706], [-60.59832467333904, 47.04194079424972], [-60.598342204468565, 47.041941765056244], [-60.5983378605382, 47.04195788156208], [-60.59833670705173, 47.041962168000595], [-60.59836641693324, 47.041967210032965], [-60.5984135766773, 47.041957148482375], [-60.598442887276306, 47.041943229690474], [-60.59844518981478, 47.04193680753971], [-60.5984540870314, 47.04191193130213], [-60.59846775266645, 47.04190223786217], [-60.59846964298761, 47.04190089163969], [-60.59850499299816, 47.0418923191165], [-60.59851821756999, 47.04189215562441], [-60.59854445627866, 47.04189182422042], [-60.598570115080165, 47.041891507641175], [-60.59856581391622, 47.041875299736525], [-60.598552169677895, 47.04185373023249], [-60.59854540948872, 47.041843032272105], [-60.59853837870613, 47.041790275124654], [-60.59854525885917, 47.041741418545904], [-60.598532861636876, 47.04171582553904], [-60.59853335435059, 47.0417051447641], [-60.59853422691838, 47.04168600366179], [-60.59853952617624, 47.04167675562372], [-60.598547537877074, 47.04166280389081], [-60.59856384070976, 47.041656531491455], [-60.598573003476815, 47.041653007044005], [-60.598598971959014, 47.04165458679915], [-60.59862834038514, 47.04165638186897], [-60.59868565815998, 47.041661085118875], [-60.598728991961536, 47.04165647771103], [-60.598774449452, 47.041659987170135], [-60.59878924189541, 47.04165979354477], [-60.59880996046552, 47.04165955325544], [-60.5988174832018, 47.04164182955805], [-60.59882210554698, 47.04161510875513], [-60.59882452469103, 47.04160110267246], [-60.59880954079856, 47.041545739896094], [-60.59873972729096, 47.04151001510642], [-60.59873789460628, 47.04150743886814], [-60.59872142860651, 47.04148450529206], [-60.598697009913025, 47.041449579848134], [-60.59865140592421, 47.04142500003177], [-60.59863314147408, 47.04141514962208], [-60.5986027009074, 47.041407329556705], [-60.59855773684755, 47.04139576705013], [-60.598535630633144, 47.0413770707472], [-60.59853014354978, 47.04137115110231], [-60.598519469696456, 47.041359660084346], [-60.598509361320254, 47.04134759597845], [-60.598544872528834, 47.04134715315147], [-60.59860015964258, 47.04134781817101], [-60.59868122222338, 47.041354945445924], [-60.598726922461005, 47.041370636007606], [-60.59875150078879, 47.04138822323324], [-60.598752980414105, 47.04138928018982], [-60.59881244831753, 47.041402091816586], [-60.598824356389706, 47.0413919564957], [-60.5988318300382, 47.04138558882479], [-60.598835139248905, 47.04135439484134], [-60.5988366367861, 47.04133921751936], [-60.598836752191005, 47.04133811303223], [-60.59883816637032, 47.04131100995057], [-60.59883489940557, 47.04130753969611], [-60.59881798623312, 47.04128958233859], [-60.59875823157323, 47.041263220821534], [-60.598747890175794, 47.041241684633185], [-60.59878539049976, 47.04124121146824], [-60.59881296719685, 47.041239513189026], [-60.59881398195947, 47.041193449299726], [-60.59880156113774, 47.041165156048756], [-60.598790995490546, 47.04113278005795], [-60.59879098768435, 47.04113178097702], [-60.59878998556021, 47.041084018911995], [-60.59880047189495, 47.04102021821346], [-60.59880053647363, 47.041018779687626], [-60.59880185496022, 47.04099175559087], [-60.5988049856298, 47.040990930343035], [-60.598823449558466, 47.04098607113085], [-60.59884654454128, 47.040958693943736], [-60.598886181911986, 47.04096632891003], [-60.598925536784996, 47.0409617819458], [-60.598952870274594, 47.040947902540644], [-60.598965233137534, 47.04094669500586], [-60.598984380082555, 47.040944801851055], [-60.598991421332606, 47.04090407494666], [-60.59900078689733, 47.04088899067778]]}, "properties": {"OBJECTID": 10488, "FEAT_CODE": "WACO20", "FEAT_DESC": "Coast - Water to the right line", "RIVNAME_1": " ", "RIVNAME_2": " ", "ZVALUE": 0.4, "FID": null, "SHAPE_Length": 408.80858862689524}}, {"type": "Feature", "id": 11527, "geometry": {"type": "LineString", "coordinates": [[-60.59900078689733, 47.04088899067778], [-60.59901432302102, 47.04086721745639], [-60.59903580976512, 47.04085542919966], [-60.59905722952943, 47.04084366653166], [-60.599074996527, 47.04084201439252], [-60.599090714481726, 47.040840553249524], [-60.59911060229238, 47.040830072327616], [-60.59914339327952, 47.04081279764595], [-60.59915698550028, 47.040801797691415], [-60.59919092176711, 47.04080622622234], [-60.59920446742199, 47.040807995226864], [-60.599219530721605, 47.0408090941211], [-60.59925188750053, 47.040811464671435], [-60.59929801484232, 47.04081323312036], [-60.599305203296076, 47.04081350988518], [-60.59935646202873, 47.040811525259414], [-60.59939811094666, 47.0408218570189], [-60.59940504187472, 47.040819365605195], [-60.59941377817213, 47.0408162461115], [-60.599411662364716, 47.04079299265945], [-60.599411196524635, 47.04078782631658], [-60.5993964968046, 47.04077715986703], [-60.59938916606938, 47.04077184054153], [-60.59938084480213, 47.04075163367262], [-60.59935298133773, 47.04073978219619], [-60.5993053737235, 47.040728173534205], [-60.59926470307982, 47.04070895299829], [-60.599249569438115, 47.040701796136446], [-60.59924951088539, 47.04069958109178], [-60.59924939500757, 47.04069365715202], [-60.599247792141604, 47.04068918689946], [-60.599243112478106, 47.04067612981688], [-60.59922948605222, 47.04067058843515], [-60.59921724266873, 47.04066561601688], [-60.59923302203627, 47.040665425037425], [-60.59925805238685, 47.04066179239718], [-60.599284154897084, 47.040658029252484], [-60.59929481080166, 47.04064586978379], [-60.599322325141436, 47.040619449123355], [-60.599362015367795, 47.040556386893215], [-60.59949593095588, 47.040476402438706], [-60.59954928131812, 47.04043161614526], [-60.59960256971731, 47.04038410175334], [-60.59966858377086, 47.040325236175335], [-60.5997888382319, 47.04022696637435], [-60.5998959373688, 47.0401613488595], [-60.59996208955962, 47.04012080849071], [-60.59997404311914, 47.04011258184536], [-60.600000137851815, 47.04009460855178], [-60.60003672304062, 47.04006991679402], [-60.600054425973795, 47.040057950014244], [-60.600215760498365, 47.03992455310844], [-60.60030882237189, 47.03984462905154], [-60.60033311588126, 47.039834816238745], [-60.60037455669531, 47.03981808252361], [-60.60041527523942, 47.0397910385037], [-60.60042790525612, 47.039773304781264], [-60.600455757027916, 47.03970999397698], [-60.60044468250656, 47.03957567290493], [-60.600458224305136, 47.039566957549034], [-60.600476614906476, 47.039536133682596], [-60.60048526929958, 47.03952162833246], [-60.600513463585806, 47.039487653265404], [-60.60055206711478, 47.0394411354651], [-60.60056681478932, 47.03942197024303], [-60.600606584683845, 47.03937028430515], [-60.60061836235255, 47.03933163642233], [-60.600620477875594, 47.03932467934987], [-60.600635733640715, 47.039190001328876], [-60.60067618702847, 47.03910986504868], [-60.60070288256014, 47.039069676027275], [-60.60072983252141, 47.03902909636572]]}, "properties": {"OBJECTID": 11527, "FEAT_CODE": "WACO20", "FEAT_DESC": "Coast - Water to the right line", "RIVNAME_1": " ", "RIVNAME_2": " ", "ZVALUE": 0.4, "FID": null, "SHAPE_Length": 286.0305642359871}}, {"type": "Feature", "id": 11556, "geometry": {"type": "LineString", "coordinates": [[-60.60072983252141, 47.03902909636572], [-60.60075738562868, 47.0390017762451], [-60.600797541226086, 47.038957621701876], [-60.60094398793984, 47.038832901943735], [-60.60109122721362, 47.03869020009729], [-60.60110909697433, 47.038669507372084], [-60.601145393555456, 47.03862744064575], [-60.601175922025206, 47.03860714820743], [-60.6012254462247, 47.03857422295125], [-60.60142332723063, 47.03847667836583], [-60.601509394578606, 47.03843874126464], [-60.601583134095435, 47.0384062333018], [-60.60174217468321, 47.038352870545175], [-60.601861574409064, 47.038273479086996], [-60.601927655272796, 47.03823796667011], [-60.601944644865654, 47.038231024234975], [-60.60216635624739, 47.03814037612066], [-60.602272696597396, 47.03808770841089], [-60.60233840028495, 47.03806118711179], [-60.602629288688306, 47.03797368807635], [-60.60291712610907, 47.03787493832983], [-60.60303971994912, 47.03783289645652], [-60.60329115238817, 47.037744569442815], [-60.603437400684484, 47.03768283713243], [-60.603662086405606, 47.03760384844346], [-60.60378122610934, 47.037559546639336], [-60.60387453271526, 47.037533602340716]]}, "properties": {"OBJECTID": 11556, "FEAT_CODE": "WACO20", "FEAT_DESC": "Coast - Water to the right line", "RIVNAME_1": " ", "RIVNAME_2": " ", "ZVALUE": 0.4, "FID": null, "SHAPE_Length": 296.4420977692568}}, {"type": "Feature", "id": 11557, "geometry": {"type": "LineString", "coordinates": [[-60.60387453271526, 47.037533602340716], [-60.60396150471542, 47.03751448178219], [-60.604151069857636, 47.0374727967679], [-60.604283762666576, 47.03741977888352], [-60.604363755728656, 47.037386005140725], [-60.60442999581265, 47.03735804498908], [-60.60445915181184, 47.03733161245517], [-60.60450957371349, 47.03728591662495], [-60.604694467528596, 47.0372429900386], [-60.60494449947614, 47.037244622648], [-60.60505824465002, 47.03725579503672], [-60.605142396903375, 47.037264062310186], [-60.60526043491357, 47.03727373145138], [-60.605299378086485, 47.03725654773006], [-60.605313923666806, 47.03716685949877], [-60.60534227840512, 47.03712155653504], [-60.60542192225124, 47.037077326611076], [-60.60560630479501, 47.037016380345285], [-60.60577847488719, 47.03696329564977], [-60.605877142677436, 47.036946047156526], [-60.60597616870391, 47.03692873407729], [-60.60605216260645, 47.0369292796627], [-60.60610775953101, 47.03692968656626], [-60.6061871214553, 47.03692144723747], [-60.60621274288463, 47.03691720449242], [-60.606240168138434, 47.0369126574954], [-60.60633133782837, 47.036923239479435], [-60.606410394336564, 47.03693241616755], [-60.606528431897196, 47.036942083992145], [-60.60671207199352, 47.036935061958935], [-60.60672622047075, 47.036934520872435], [-60.60672648283253, 47.03690423486417], [-60.60672651427706, 47.0368985299936], [-60.60666192519304, 47.036871090581265], [-60.60656117811201, 47.03684273303836], [-60.60653062921603, 47.03683412987397], [-60.6064904944782, 47.03682618117216], [-60.60643929579235, 47.036816030245696], [-60.60643963283456, 47.03677525266647], [-60.60643988337995, 47.03674405748574], [-60.60644723176019, 47.036734275979406], [-60.60645387954528, 47.036725442741925], [-60.60647628332631, 47.03671044153346], [-60.60652037092003, 47.03668093700515], [-60.60658929100058, 47.036637750911815], [-60.606732995329374, 47.036547694534455], [-60.60686557486513, 47.03646767352324], [-60.60706500685728, 47.03633504552469], [-60.60717168575294, 47.03624548339539], [-60.60719511378888, 47.03623523706804], [-60.60725223935845, 47.03621027947361], [-60.60736426058766, 47.03615753681426], [-60.607384013072505, 47.03614823952833], [-60.60750354864004, 47.036094942872495], [-60.607529073653076, 47.03608136558916], [-60.607637038929724, 47.03602393926168], [-60.60768690412402, 47.03600767596291], [-60.60776928254665, 47.03598080713339], [-60.607900455986126, 47.035990748098094], [-60.60791529768673, 47.03599412703046], [-60.607978650471566, 47.03600858097311], [-60.60803044979454, 47.03602766202804], [-60.608136540820404, 47.03601008076424], [-60.608268421860586, 47.03597504881251], [-60.60845491641718, 47.03589614358399], [-60.60879703835124, 47.03589879202934], [-60.608808228659846, 47.035891097470596], [-60.608836421058925, 47.035871726106144], [-60.60883659263261, 47.03586258644652], [-60.608838211736476, 47.03577276270053], [-60.60885154533977, 47.035710046465844], [-60.608864768311854, 47.03568543976799], [-60.60886590165665, 47.035683348619784], [-60.608875773697456, 47.03567334070298], [-60.60894587295203, 47.03560222613605], [-60.60897257625967, 47.03559378472394], [-60.60911870264913, 47.03550504484599], [-60.60913105222512, 47.03548937413268], [-60.609132656971745, 47.03548733782521], [-60.609149861567225, 47.03519072174471], [-60.609177408398615, 47.03516339946599], [-60.60940167359922, 47.03509338999422], [-60.60948464628219, 47.035052286520155], [-60.60950801406134, 47.0350407155705], [-60.609526112498905, 47.03503660293816], [-60.60958780148112, 47.0350225835925], [-60.609771076888016, 47.03501561204165], [-60.60978422748965, 47.035015886669925], [-60.609800120042685, 47.034925326064624], [-60.60979920666817, 47.03491630773374], [-60.60983986383227, 47.034890150006255], [-60.60992743832089, 47.034868004752084], [-60.60994503825745, 47.03486355767062], [-60.61007703903932, 47.0348555149093], [-60.61012962815086, 47.034856612995405], [-60.61044515133585, 47.03489469816201], [-60.61044589192115, 47.03485336203984], [-60.61044693853342, 47.03479574365204], [-60.610459978743876, 47.03476901812814], [-60.61048484326158, 47.03475192568588], [-60.61049936017979, 47.034741942606516], [-60.61059256562662, 47.034686248182126], [-60.61063324472145, 47.03466194447791], [-60.61065764846729, 47.03464838808624], [-60.61071288099516, 47.034617701717366], [-60.61087273382556, 47.034457261086004], [-60.610939911507884, 47.034367761824214], [-60.61102075069518, 47.03429656418543], [-60.611496924614045, 47.034156214538974], [-60.611615247620065, 47.03412988605931], [-60.611641950187895, 47.034121435010434], [-60.6116769197181, 47.03410264532824], [-60.611708045439485, 47.03408592625105], [-60.611717808193134, 47.034078642583225], [-60.611827849317045, 47.03399663365349], [-60.611881694896226, 47.03396985945606], [-60.611929412646155, 47.033930565402045], [-60.61193498827816, 47.03392596612432]]}, "properties": {"OBJECTID": 11557, "FEAT_CODE": "WACO20", "FEAT_DESC": "Coast - Water to the right line", "RIVNAME_1": " ", "RIVNAME_2": " ", "ZVALUE": 0.4, "FID": null, "SHAPE_Length": 865.5733825899987}}, {"type": "Feature", "id": 11596, "geometry": {"type": "LineString", "coordinates": [[-60.57650701590732, 47.033955792979505], [-60.57652233850366, 47.033925834870146], [-60.57654714978064, 47.03392555029379], [-60.57658166687082, 47.03392515624647], [-60.57666950651875, 47.03392707010419], [-60.57674392000972, 47.03392869963197], [-60.577139179171795, 47.03397523342861], [-60.57764410079106, 47.03400540436567], [-60.57823655682988, 47.03407565417971], [-60.57830002876971, 47.034083179682696], [-60.57832400742466, 47.034084424978204], [-60.57870842634533, 47.03410441910502], [-60.57902812704297, 47.03416362973125], [-60.579114383346436, 47.034179601077646], [-60.57931358420525, 47.03421109111257], [-60.57935093575792, 47.03421700167183], [-60.57957265756715, 47.03429098515881], [-60.57970434821836, 47.034318967981584], [-60.57975209364453, 47.03433254959893], [-60.57976931300584, 47.03433744035192], [-60.58029377506616, 47.03444032191325], [-60.58063570644811, 47.03450604552343], [-60.58083192570658, 47.03455607137223], [-60.58100136511883, 47.034599267400004], [-60.58132970230867, 47.03467370088335], [-60.5813347027008, 47.03467548041673], [-60.581512357023556, 47.034738755668194], [-60.58168334552705, 47.03478177643099], [-60.581695865634885, 47.034784929734435], [-60.581774497394164, 47.03482168826879], [-60.58185093531073, 47.03485049003978], [-60.5819440172104, 47.03488556491415], [-60.58220659161876, 47.03495950641874], [-60.58227786953522, 47.0349862820556], [-60.582402019949015, 47.03503292895182], [-60.58252640466467, 47.0350895428522], [-60.58262387213436, 47.0351339070531], [-60.58271405983032, 47.0351797462889], [-60.582767987706866, 47.035207145102405], [-60.582822812717, 47.03523216903136], [-60.58302850766417, 47.03532603766274], [-60.58314713577317, 47.035380738463175], [-60.583394563025934, 47.03552725144381], [-60.58352379552655, 47.035609182554495], [-60.583539439784296, 47.03562419065593], [-60.583627257377735, 47.035708549986396], [-60.5836920259726, 47.03579001084814], [-60.58372216112847, 47.03583740723633], [-60.58374364420059, 47.03587119405497], [-60.58376731283593, 47.035927120210175], [-60.58379359730487, 47.03598924808131], [-60.583804237044056, 47.03613255204318], [-60.58380263111876, 47.036144793141865], [-60.58379011816742, 47.03624114511926], [-60.58377753461806, 47.03630670911125], [-60.58377462792033, 47.03632181151377], [-60.58377038572289, 47.03633180113696], [-60.58374811415928, 47.03638424665532], [-60.58364017831397, 47.036500758300825], [-60.58358641326736, 47.03655451873491], [-60.583572952760825, 47.0365902406177], [-60.58358579453663, 47.036626499806104], [-60.58360856972191, 47.036658496073315], [-60.58362416583221, 47.03668040558097], [-60.583670261127004, 47.03672592510534], [-60.58368843265309, 47.03674385730362], [-60.58369591880448, 47.03675326659277], [-60.58375320212831, 47.03682532713263], [-60.58377390660294, 47.036844302708914], [-60.58379238629394, 47.03686124247715], [-60.58381728505319, 47.036870416395224], [-60.58381828182841, 47.03687078840883], [-60.58383397117695, 47.036869652734175], [-60.5839239349529, 47.03686311953604], [-60.58397729394171, 47.03681834964056], [-60.58404339759036, 47.03678284800569], [-60.5840888947824, 47.03678303442962], [-60.58414868510041, 47.036783270547794], [-60.58414694607541, 47.03690922356774], [-60.58412990619528, 47.036973784603816], [-60.584118361695474, 47.03701751134053], [-60.584117553642805, 47.037060762755], [-60.584116525567325, 47.03711646450894], [-60.58413467605855, 47.03713749193793], [-60.58415530375931, 47.03716137942216], [-60.584187586173215, 47.03719098445328], [-60.58419448803172, 47.03719730362721], [-60.58424406568952, 47.03722227909888], [-60.58428585680573, 47.03724332851188], [-60.584345739699465, 47.037243566479475], [-60.58439115838373, 47.03724375112506], [-60.58445639661098, 47.037227129445554], [-60.58448067707241, 47.03724650433522], [-60.58453518482473, 47.03728998722475], [-60.58457101331089, 47.037321817806934], [-60.58458707382715, 47.03733607860541], [-60.58463737973483, 47.0374172336881], [-60.58466474658569, 47.03743939144815], [-60.58471611469325, 47.03748099014217], [-60.58476594232321, 47.03753017868297], [-60.58478039690944, 47.03754444156228], [-60.58481226031876, 47.03756088964599], [-60.58483312563507, 47.03757165209177], [-60.58497634157022, 47.03763586905674], [-60.585054081208106, 47.037668619804464], [-60.58510681229421, 47.03769082666516], [-60.58525084098392, 47.037737052903466], [-60.585343077001106, 47.03776419677621], [-60.585348241564745, 47.037767014511005], [-60.58539446369938, 47.037792278658344], [-60.585558883829535, 47.03790644717158], [-60.5855642190676, 47.037910150424764], [-60.585628489653466, 47.03797360111457], [-60.58566692113881, 47.03805540517273], [-60.585653462001055, 47.03809111831952], [-60.58564123466319, 47.03810712206298], [-60.58561288899615, 47.038144258041115], [-60.58554554092364, 47.038206732118226], [-60.58554566493032, 47.03823373252534], [-60.58557115564847, 47.03825226877943], [-60.585621733817064, 47.03826765353752], [-60.58566335213821, 47.0382803114814], [-60.58569846957524, 47.03829263429826], [-60.58571518584967, 47.03829850345488], [-60.585739775053675, 47.038281599553486], [-60.585754582147125, 47.038271436741866], [-60.5857901494652, 47.03821749844309], [-60.585795560876335, 47.038209306265394], [-60.585821806323864, 47.03818195313921], [-60.5858663832941, 47.038164345896824], [-60.58588881947403, 47.038155477889845], [-60.58590326398314, 47.03815159789659], [-60.5859541121171, 47.03813795657752], [-60.58608994149398, 47.03812234586008], [-60.5860996672186, 47.038121228086936], [-60.58611150246102, 47.038122953574046], [-60.58616505777401, 47.038130706510074], [-60.58622203750372, 47.03813112524537], [-60.58623085404144, 47.03813119418834], [-60.58632264501932, 47.038168227070315], [-60.58638853946852, 47.038195714518324], [-60.5864400672397, 47.03823206922397], [-60.58651739089157, 47.03828662441098], [-60.58663491054267, 47.03839529374565], [-60.58681585162504, 47.03858629351506], [-60.58681563061384, 47.038594694166584], [-60.58681392198202, 47.03865824693136], [-60.58668059482307, 47.03878322531255], [-60.58665398524787, 47.038818652292996], [-60.58665286621524, 47.03887263327138], [-60.58669083654406, 47.038935528794234], [-60.586690430922474, 47.03894451950392], [-60.586664185927525, 47.03897186383657], [-60.58661086748321, 47.0390157359005], [-60.58657106540138, 47.03905179361172], [-60.58654314007056, 47.03908720182066], [-60.58655598400077, 47.03912346969983], [-60.5865819793436, 47.03916001488871], [-60.58659161513433, 47.03916702151063], [-60.58659472509907, 47.03916928290696], [-60.58662375320796, 47.0391499886191], [-60.58667479268093, 47.03911607567654], [-60.58670788502612, 47.03909014461368], [-60.586755306277276, 47.03905297860578], [-60.586821312630484, 47.03899047553597], [-60.58684918572517, 47.03897256072353], [-60.58686198348225, 47.03896433524302], [-60.58688873233179, 47.038955000012486], [-60.58689169631286, 47.03895436955984], [-60.58692727682615, 47.03894681338994], [-60.58694311213096, 47.03895237581568], [-60.58695448907822, 47.03895638636439], [-60.58698243183809, 47.03899091168846], [-60.587005611186974, 47.03901955905567], [-60.58703002508466, 47.03909116792351], [-60.58704327491302, 47.03911844504233], [-60.587081917968355, 47.03913725823094], [-60.58726595076595, 47.03920143284644], [-60.58734449428354, 47.03921118785314], [-60.58738825846419, 47.03920664781232], [-60.587423848836494, 47.0392029613782], [-60.587498230551056, 47.03919203824363], [-60.58754178849798, 47.0391856489485], [-60.587577992184954, 47.039185584097524], [-60.587581282876315, 47.03918559046147], [-60.5875972306384, 47.03918866237089], [-60.587633483465275, 47.03919568095685], [-60.58765310299688, 47.0392136610304], [-60.58767267196319, 47.03923159503849], [-60.58767335352909, 47.0392325363274], [-60.58772471762034, 47.03930379512832], [-60.58774867345525, 47.03938529336991], [-60.58775981481802, 47.03954661495541], [-60.5877721685751, 47.03956487384037], [-60.587745518353024, 47.03960120913863], [-60.58771840440495, 47.03961863620923], [-60.58767981898651, 47.039627722162244], [-60.587631467228235, 47.03964115588558], [-60.58758648819666, 47.03965365275895], [-60.58758660005709, 47.03968065289933], [-60.58759892748038, 47.0396989112477], [-60.587631687595625, 47.03971040984253], [-60.587677989167105, 47.03972667546545], [-60.5877170920434, 47.03973559894045], [-60.58775656093246, 47.03973553085527], [-60.587782476853874, 47.03974204355813], [-60.58779562328458, 47.03974535337533], [-60.58786070956186, 47.03979082144985], [-60.587878887501816, 47.03981187584598], [-60.58789949279935, 47.03983573516805], [-60.587912743244765, 47.03986301219443], [-60.58792447086611, 47.03995325194962], [-60.58792724753436, 47.03995736013283], [-60.587936811617, 47.039971510541214], [-60.58796325427047, 47.03999816564818], [-60.587989557501935, 47.03999871995598], [-60.58802854855366, 47.03998064318609], [-60.588144275102415, 47.039919898061235], [-60.58816203317116, 47.03991056206116], [-60.58816559416035, 47.03990632645307], [-60.58821488783401, 47.039847772061954], [-60.58825227794412, 47.03983103836819], [-60.58825519345285, 47.039829731914274], [-60.58833414345399, 47.039830495542006], [-60.588361953370736, 47.03984171863685], [-60.588425938825075, 47.03986752680674], [-60.58852433314164, 47.03990535397634], [-60.58856957061091, 47.03992274872227], [-60.58866017261827, 47.03996727803645], [-60.58869964578163, 47.03998668411388], [-60.588773318554274, 47.040028885842844], [-60.58877792529374, 47.04003152968246], [-60.588987456063165, 47.040114237180106], [-60.58911834267139, 47.04016019066472], [-60.589155967216605, 47.040182941365934], [-60.58920932873442, 47.04021520276745], [-60.58931427707998, 47.04025251035313], [-60.58933413144964, 47.04026033491528], [-60.58935220128075, 47.040267446944085], [-60.589379749723065, 47.04028740256308], [-60.58942809181918, 47.04032238391228], [-60.58950379685528, 47.04035398184368], [-60.5895598733323, 47.040392608738344], [-60.589627852589075, 47.040413073785864], [-60.58963341144044, 47.04041474772297], [-60.589693328877374, 47.04044789389702], [-60.589698843148035, 47.04045873713691], [-60.58969949581275, 47.04046002877591], [-60.58970941685327, 47.04046860700999], [-60.58973969976948, 47.04049478461738], [-60.5898133365645, 47.040522334118045], [-60.58983153262633, 47.040533075429785], [-60.58988529980284, 47.04056482309726], [-60.589945070449865, 47.0405898397163], [-60.58997239181805, 47.040571894531254], [-60.58997309572881, 47.04056357603952], [-60.589975604257745, 47.040533904308475], [-60.59002310185102, 47.04053738821451], [-60.59001087743366, 47.040518574347416], [-60.58998010742805, 47.04049502333889], [-60.58997076676982, 47.04048787923205], [-60.58995815087688, 47.04044736890246], [-60.589935585459244, 47.04040563215231], [-60.58994660261571, 47.04036212773751], [-60.58995218686476, 47.040357394721575], [-60.589975770483406, 47.04033738199542], [-60.58998562357426, 47.040345715794885], [-60.58999787281973, 47.04035608888326], [-60.59003199482811, 47.04038412910273], [-60.5900618710065, 47.0403959622414], [-60.590095811334365, 47.040429497163196], [-60.59010317073175, 47.04043678852864], [-60.59016456007355, 47.040455971598696], [-60.590186667888055, 47.04046287153741], [-60.59024592632393, 47.040462148334846], [-60.59024362879911, 47.04045762733149], [-60.59024181440974, 47.04045407042138], [-60.59024943617925, 47.04043420753873], [-60.590260636009916, 47.040405051758896], [-60.59033616779039, 47.04042852815813], [-60.5904513392658, 47.04045692467545], [-60.590517334408446, 47.040429390374484], [-60.59055194873421, 47.040414946302946], [-60.590587822255685, 47.04041521551809], [-60.59059700025741, 47.04041808150257], [-60.59070464907464, 47.04045187194864], [-60.590717800828294, 47.04045214879049], [-60.590796447211396, 47.040488901357556], [-60.59085991442163, 47.04054233397099], [-60.59086113204349, 47.04054335851775], [-60.59088609058134, 47.04056062247481], [-60.590965818200104, 47.04061575616865], [-60.59097921044757, 47.04062764708504], [-60.5910177159738, 47.040661844769005], [-60.591029168742146, 47.040677924510184], [-60.591056097594425, 47.040715748206736], [-60.591071345391896, 47.0407548379256], [-60.591080882054484, 47.04077926464197], [-60.59108053273813, 47.04082063587735], [-60.59108027354316, 47.040851236897765], [-60.59106981569624, 47.040884970994945], [-60.591066411899895, 47.04089595044483], [-60.591061524901306, 47.04090215606927], [-60.5910524502006, 47.04091365511195], [-60.59102236442338, 47.040933648197324], [-60.59097238409314, 47.04096686542061], [-60.59101204057151, 47.04102169562856], [-60.591089008374986, 47.04106651199085], [-60.59111777688749, 47.041081615266485], [-60.591194465147275, 47.04112182705308], [-60.59128741622614, 47.04117859769692], [-60.59131029064445, 47.041189824193566], [-60.59129885523927, 47.041211649718896], [-60.59129342673794, 47.041237480336314], [-60.591287069952784, 47.04124358304487], [-60.591266278665444, 47.041263564810414], [-60.591276317678094, 47.04127157843595], [-60.591316104513204, 47.04128464572606], [-60.59140781394595, 47.041326901336085], [-60.59146363491162, 47.04135196002794], [-60.59144993343666, 47.0413589161064], [-60.591426411437986, 47.04136733038795], [-60.591422834082856, 47.04138771941796], [-60.59142138729178, 47.04139119868254], [-60.591417179050666, 47.04140133328194], [-60.591389465554904, 47.04140167701092], [-60.591387542124906, 47.04140170852863], [-60.59134389710865, 47.041392753725276], [-60.59131030892235, 47.04139317179026], [-60.59129392954024, 47.04140580402142], [-60.59128889668607, 47.041409693776686], [-60.59128915478003, 47.04142237916114], [-60.59128916811425, 47.04142325236967], [-60.59132319325882, 47.04144587260463], [-60.591411218529565, 47.04150037066159], [-60.59153721395658, 47.04157437709838], [-60.59155675970686, 47.04158585747407], [-60.59172409583032, 47.04163873041869], [-60.59185549421385, 47.041702690023634], [-60.592077796900256, 47.04179465977952], [-60.592038543535246, 47.04173083917658], [-60.592027397834016, 47.04171143627578], [-60.59201289437167, 47.041686203208165], [-60.592013419353506, 47.04167454221762], [-60.59200172318815, 47.041667366721725], [-60.5919853248882, 47.041657320527506], [-60.5919870602757, 47.04164509105132], [-60.59200279888437, 47.04164084154678], [-60.59201553061928, 47.04164782284712], [-60.592048727880524, 47.041666033809875], [-60.59206797072024, 47.04167196418318], [-60.59208251282406, 47.041676454771284], [-60.59208228529448, 47.041664255992444], [-60.59216985315548, 47.04169706462967], [-60.592205818093, 47.04171696263531], [-60.592241623253486, 47.04172871294167], [-60.5922508155827, 47.0417222018686], [-60.5922572063039, 47.04171768368998], [-60.592251483987425, 47.0417076461338], [-60.59224493289782, 47.04169613326351], [-60.5922025405985, 47.041650569170166], [-60.59221432831282, 47.04164635351306], [-60.59224801921179, 47.04165272278191], [-60.59225700670315, 47.04165719549102], [-60.592271969267046, 47.04166462865737], [-60.592291416473785, 47.0416753778941], [-60.59231990582025, 47.04169114093651], [-60.59237185521441, 47.04172033839132], [-60.59243964827542, 47.04175201991095], [-60.59245537413498, 47.04174776107676], [-60.59245614162331, 47.04173860697871], [-60.5924569793242, 47.041728770414046], [-60.59245489158741, 47.041725432771926], [-60.59244269842463, 47.04170589988814], [-60.59240867303703, 47.041683270984585], [-60.59239506654222, 47.04167027782314], [-60.5923764491303, 47.041652499641465], [-60.59237116445116, 47.04164473011027], [-60.592358136887725, 47.04162560263035], [-60.59232981557141, 47.04159206960093], [-60.59230821228653, 47.041574822549094], [-60.592299684326356, 47.041568037702454], [-60.59232337581859, 47.04156638524846], [-60.592366971993755, 47.04157262987335], [-60.592369643472544, 47.04157440492652], [-60.5923969972565, 47.041592582861604], [-60.592423101000406, 47.04161396522873], [-60.592478958364744, 47.041641741962664], [-60.59247912812695, 47.0416423574829], [-60.59248748613758, 47.04167280678452], [-60.592490836677705, 47.04167353420609], [-60.59252319765161, 47.04168049636848], [-60.59253014740913, 47.04168900285747], [-60.59254952487508, 47.04171270951169], [-60.5925756526027, 47.04171952255246], [-60.59258923648239, 47.04172307499709], [-60.59259704152938, 47.04171755163307], [-60.5925967736156, 47.04170420010148], [-60.592596596356, 47.04169585406292], [-60.59262610333233, 47.04168871732801], [-60.592625237316575, 47.04168748421354], [-60.59261389635823, 47.04167124500162], [-60.592604553919166, 47.04165886350827], [-60.592595645907885, 47.04164706710394], [-60.592607014961274, 47.04164952004855], [-60.59261349488512, 47.04165091623747], [-60.59264544675428, 47.04166813791154], [-60.592676165971945, 47.04167823323787], [-60.592701138547675, 47.04168643483737], [-60.59272940220405, 47.04169961024416], [-60.59275495815905, 47.04171152279566], [-60.5927545876667, 47.04170951716873], [-60.59275274127497, 47.041699354172856], [-60.59274837024576, 47.04167771802329], [-60.5927523962053, 47.0416798185302], [-60.59277632170593, 47.0416922727378], [-60.59281240646828, 47.04171448588088], [-60.59283032755757, 47.04172550890387], [-60.59288546189027, 47.04175327023164], [-60.592938073496015, 47.04177975458021], [-60.593021654755454, 47.0418098959369], [-60.59307955064074, 47.04184036102543], [-60.593141523001606, 47.041876194369365], [-60.59315502546216, 47.04188360571494], [-60.593187452749916, 47.04190138618793], [-60.59320880070679, 47.04191963561925], [-60.59322965394998, 47.041937469677336], [-60.593250160509655, 47.04194867298976], [-60.593263613226995, 47.041956020281575], [-60.59326721202113, 47.04193835842264], [-60.593268643818774, 47.041911219777816], [-60.59326172127604, 47.04186114634613], [-60.59326338055377, 47.04183772917686], [-60.59326480718497, 47.041817726832626], [-60.593242609359876, 47.041794959913], [-60.59321359278503, 47.04177920401369], [-60.593198673144165, 47.0417711059288], [-60.59318538396364, 47.041763051126686], [-60.59315268114786, 47.04174320402906], [-60.593143733689956, 47.041726430250094], [-60.593138319771136, 47.04171626423508], [-60.59314088675594, 47.041707489945125], [-60.59314387600582, 47.041697230658244], [-60.593170417101874, 47.04169690684643], [-60.59318930591398, 47.04169666509595], [-60.59324265662837, 47.04169736398057], [-60.59326700944995, 47.04169915395351], [-60.59332177760787, 47.041703167334596], [-60.593387094586674, 47.041709139349216], [-60.59344869199395, 47.041704737971315], [-60.59345612736334, 47.0417042103622], [-60.59348351602586, 47.0416903154226], [-60.59352234905457, 47.041657303697924], [-60.59356352344265, 47.04164188973495], [-60.59359825938841, 47.041647857612375], [-60.59361507244608, 47.04165073988783], [-60.593648133910605, 47.04165032807008], [-60.5936881234795, 47.04164983691597], [-60.593729573033684, 47.04165405605448], [-60.593759386017965, 47.04165708562024], [-60.593775080761674, 47.041651467063126], [-60.593776655693475, 47.04164806245725], [-60.593784544714886, 47.041631012731635], [-60.59383588834453, 47.04163038225141], [-60.59389486245456, 47.04161610729774], [-60.593977873505814, 47.041619130211366], [-60.59399447517483, 47.0416161764699], [-60.594034952167966, 47.04160894599922], [-60.59407603298147, 47.04158946222168], [-60.594140742410254, 47.04156562450069], [-60.59416004671508, 47.04156316850744], [-60.59417621295125, 47.04156111451181], [-60.59425756892893, 47.04158044508149], [-60.594323016214894, 47.04159317774126], [-60.59451581656627, 47.04165451014411], [-60.59453820984853, 47.04165859846997], [-60.59454357653965, 47.04165957518614], [-60.59455207067951, 47.04167355855773], [-60.59455991466594, 47.0416864843514], [-60.59456065196334, 47.041723072818755], [-60.59457508890707, 47.041722881266566], [-60.594578420836896, 47.041722852298335], [-60.594596189306095, 47.04172264076592], [-60.594608366340786, 47.04173874436276], [-60.59461328934055, 47.04174051268484], [-60.59463024748916, 47.041746610593904], [-60.59463230382652, 47.041750649477926], [-60.59464173521817, 47.04175374544242], [-60.59464422605593, 47.04175456272489], [-60.594658503212216, 47.041776074006876], [-60.59467396093286, 47.04175962424197], [-60.594673629834084, 47.04174268968549], [-60.5946734783875, 47.04173522612052], [-60.59467334641848, 47.041729085855344], [-60.594673000146024, 47.04171219597619], [-60.59468594525591, 47.04166730975667], [-60.59469530186695, 47.04164279443101], [-60.594698723859615, 47.04163344412376], [-60.59470278942298, 47.041622370484724], [-60.594743610684894, 47.04163880603957], [-60.59476237253351, 47.04164636371526], [-60.59478441841589, 47.041655250294646], [-60.59478661836231, 47.04165785231294], [-60.594794538742114, 47.04166732398185], [-60.59481191886965, 47.04167106392749], [-60.594824305411464, 47.04167372701705], [-60.59482425898185, 47.041671539222435], [-60.59482379097187, 47.04164798733692], [-60.5948076812783, 47.041633268001014], [-60.59477578602882, 47.0416174070103], [-60.59474175083537, 47.04159614648405], [-60.59475869674144, 47.041590806063866], [-60.59477318506304, 47.04158625092775], [-60.594798637728104, 47.041576463647104], [-60.59485056989686, 47.04158470034589], [-60.5948699547515, 47.04158777146805], [-60.59488575332438, 47.04159038025968], [-60.59492345327941, 47.04159659900194], [-60.59494322277527, 47.04161278110926], [-60.59494955886651, 47.04161796282963], [-60.59504680230842, 47.041641154381345], [-60.59505041876474, 47.04162484272653], [-60.59505988267764, 47.04161813915136], [-60.59506209923263, 47.04161656585905], [-60.59511578989889, 47.04163488255447], [-60.59512382002272, 47.04163225250857], [-60.59513736765626, 47.04162783054877], [-60.595178385239215, 47.0416056452713], [-60.5951927995278, 47.04160215043867], [-60.59520196964418, 47.04159993130711], [-60.595202641829644, 47.04160020640843], [-60.59525972420304, 47.041623606882375], [-60.595304696106965, 47.041641425333815], [-60.59533934688276, 47.04165514824991], [-60.59537427461685, 47.0416676890724], [-60.59540500454581, 47.041678728810915], [-60.59545498555826, 47.04170928739091], [-60.5954772743478, 47.041713652314236], [-60.59550058132633, 47.041718209609], [-60.59550217854369, 47.04171723524658], [-60.59552789385944, 47.041701603806246], [-60.59553759765274, 47.041679606498306], [-60.59554111589254, 47.04167162607493], [-60.59556372556024, 47.04161848348619], [-60.59556528505018, 47.04159814193433], [-60.595556693016576, 47.04156436722101], [-60.595533087507434, 47.04153570366181], [-60.59553238857979, 47.04153485204836], [-60.59553765828802, 47.04150225946017], [-60.59558119749465, 47.04150714277444], [-60.595606543096736, 47.04149299742595], [-60.595608527777344, 47.04149189621261], [-60.595609725910904, 47.041489842553844], [-60.595618070557954, 47.0414755290485], [-60.595665995911084, 47.04150203068683], [-60.59568244677643, 47.041534350611194], [-60.59568229339522, 47.041544498548504], [-60.59568158922394, 47.041588571104995], [-60.59571316204737, 47.04158818141498], [-60.595740554819365, 47.04157564491005], [-60.59574200282951, 47.041549874463605], [-60.59576848659363, 47.041546138127146], [-60.595773508004754, 47.04154542467216], [-60.59577752735599, 47.04154679599384], [-60.59583116843184, 47.04156504831657], [-60.59586880750715, 47.041569987573965], [-60.59586933248858, 47.04156855872027], [-60.595874417238996, 47.041555013654275], [-60.59591669612699, 47.04155630666327], [-60.59596924274806, 47.04155790531054], [-60.596006043294594, 47.04156216996492], [-60.596032576259226, 47.04156524703634], [-60.59606021053726, 47.04156490951724], [-60.596119623434916, 47.04157366272648], [-60.59620072581804, 47.04158078359644], [-60.59621684001085, 47.041573148681785], [-60.596230049508804, 47.04156687464423], [-60.59623737507125, 47.04155033487467], [-60.59624515319314, 47.04153280569173], [-60.5962628454777, 47.04153194435418], [-60.59628260910196, 47.041530982526076], [-60.596317342990574, 47.0415270413546], [-60.59634957577963, 47.0415233896201], [-60.59636531864121, 47.0415213804197], [-60.59638504613288, 47.04151887894262], [-60.59644890488862, 47.041514532437375], [-60.596457976722434, 47.04151391300862], [-60.59651086663292, 47.041492930487564], [-60.596535669140906, 47.04149262338181], [-60.596560208203506, 47.04149231973791], [-60.59660554912281, 47.0414890421746], [-60.59666873927769, 47.04148961309863], [-60.59670206385918, 47.04147836182157], [-60.59674504318232, 47.04145615418023], [-60.59677628017137, 47.04143950449213], [-60.59679984434232, 47.0414392163244], [-60.59682364565414, 47.041438924131626], [-60.596871144830885, 47.04143273102384], [-60.59689254397015, 47.041429940583846], [-60.59690290956859, 47.04142718846229], [-60.59695145972793, 47.04141430394353], [-60.59699856546489, 47.04140016518033], [-60.59703769649678, 47.041384788062494], [-60.597113095343545, 47.04140282162902], [-60.597160183796866, 47.04140694192322], [-60.597208006753625, 47.04141112261367], [-60.59727575128139, 47.04142078806608]]}, "properties": {"OBJECTID": 11596, "FEAT_CODE": "WACO20", "FEAT_DESC": "Coast - Water to the right line", "RIVNAME_1": " ", "RIVNAME_2": " ", "ZVALUE": 0.4, "FID": null, "SHAPE_Length": 2598.8846845024777}}, {"type": "Feature", "id": 180951, "geometry": {"type": "LineString", "coordinates": [[-60.603598531552656, 47.030441805981525], [-60.6035981288907, 47.030450796816204], [-60.603597957293545, 47.0304590365505], [-60.60359592682176, 47.03055874189471], [-60.60360458571571, 47.0307380445656], [-60.60360547786562, 47.03075691670534], [-60.6036054669175, 47.030762451024124], [-60.60360528870476, 47.03081991659913], [-60.603617759363125, 47.03084210891209], [-60.60363088937031, 47.03086544893595], [-60.60365557738087, 47.0309019718927], [-60.60365532236709, 47.03093705468698], [-60.6036560138002, 47.030946302409255], [-60.60366597424311, 47.03108126594099], [-60.603665549367804, 47.03111573322798], [-60.603664980218895, 47.03116223851004], [-60.603649628576925, 47.03126990826484], [-60.60364699089877, 47.03143019293071], [-60.603645035686036, 47.03154878929247], [-60.60364433730578, 47.031593770990234], [-60.60366489395315, 47.03166847231104], [-60.60366923998617, 47.03168428501765], [-60.60370803109403, 47.031729193570506], [-60.60373523325257, 47.03176807295339], [-60.603746379344706, 47.03178399202797], [-60.60386461912472, 47.031847662457345], [-60.603917976572404, 47.03187885503325], [-60.603942859847216, 47.03189339680811], [-60.603972249924325, 47.03190370427853], [-60.60404652817493, 47.03192976420976], [-60.60425949401412, 47.03201436059649], [-60.604347859226856, 47.03204946247836], [-60.60445001067703, 47.032081505113574], [-60.604464664823524, 47.03208610447359], [-60.60449137321914, 47.03209928044265], [-60.604687447246015, 47.03219606745648], [-60.60472710087269, 47.03221291600831], [-60.604752029722, 47.03222350788282], [-60.60485573052068, 47.032259470258445], [-60.604857014247116, 47.03225990208919], [-60.60496131320405, 47.0323330798366], [-60.60507778601238, 47.03241481853967], [-60.605107774605045, 47.03244264180463], [-60.605156136724226, 47.03248754313978], [-60.605218873671305, 47.03254034960061], [-60.605285491775255, 47.03259643196877], [-60.60534991374568, 47.03268688152634], [-60.60535643394888, 47.03270030085332], [-60.605363171540056, 47.03271415669266], [-60.60536175929431, 47.03276365008245], [-60.60536086535891, 47.032795092798025], [-60.60534642872383, 47.03291179015164], [-60.60533385452639, 47.03298922669395], [-60.60533188463236, 47.03300147847019], [-60.605304847212594, 47.03304680901408], [-60.605294277240375, 47.033064172419294], [-60.60527783683737, 47.03309124019113], [-60.60523036588092, 47.03313110360242], [-60.605224512281374, 47.03313602071251], [-60.60505138874264, 47.03326918704389], [-60.60490324964018, 47.03340287594121], [-60.60477038001789, 47.03351888567277], [-60.60467645088797, 47.03361770268274], [-60.604596515766495, 47.03369794104277], [-60.604436835141094, 47.03379537274283], [-60.60433085431733, 47.033839959658685], [-60.60410538030866, 47.03393693167887], [-60.60400023174048, 47.033962628263794], [-60.60374861764533, 47.03399695746553], [-60.60364388465425, 47.0340136631631], [-60.603484858931886, 47.03406702886904], [-60.60340469585473, 47.034104992096594], [-60.60339206779754, 47.03411098216173], [-60.60331242684023, 47.03415521074373], [-60.60325908039659, 47.034182495327784], [-60.602861135166954, 47.034386040103556], [-60.602755179435455, 47.03442971716206], [-60.60274275176523, 47.03443798816565], [-60.60267514776066, 47.03448293637799], [-60.60258121266174, 47.034581760542416], [-60.60252801784402, 47.034652640379754], [-60.60250798436203, 47.0346981619661], [-60.60250017137223, 47.0347159518322], [-60.6024848160933, 47.03482362130822], [-60.60247898446954, 47.03489823800845], [-60.60246937674795, 47.03502128162049], [-60.60245192265122, 47.03526389602025], [-60.60244047761741, 47.03530427893431], [-60.602423778689484, 47.03536320725569], [-60.60241494497048, 47.035372930394665], [-60.602383627629536, 47.0354073534777], [-60.602344924538855, 47.035458252464906], [-60.60232907633091, 47.035479104727386], [-60.60225040962071, 47.035566729408316], [-60.60220854064435, 47.03561336837137], [-60.60213219249061, 47.03570975282591], [-60.60207459703673, 47.03578244809427], [-60.6020069599507, 47.03588182273524], [-60.60193981938048, 47.03597040862757], [-60.60192631816053, 47.036007022713434], [-60.60192351802706, 47.03618694922252], [-60.6019487569189, 47.03624057365038], [-60.60201304577499, 47.03630400648066], [-60.60208626739165, 47.036362856813234], [-60.602194735360065, 47.03645001022774], [-60.6022800639441, 47.03650071776111], [-60.602285769411914, 47.0365041130138], [-60.602369486583264, 47.03652733898528], [-60.60258740514603, 47.03658782513387], [-60.60291568038352, 47.036635197419116], [-60.60292072159482, 47.036636085933814], [-60.602967921549855, 47.036644390839356], [-60.60299606979606, 47.03665808325817], [-60.603006568662465, 47.03666319872691], [-60.603030013048716, 47.03667229299798], [-60.603242035703346, 47.03675452261567], [-60.603333044224755, 47.03680952395227], [-60.60342489444809, 47.03688335128718], [-60.60350203158987, 47.036945351434625], [-60.603562831090805, 47.037004165694306], [-60.603567637837166, 47.03700881995984], [-60.60359313439039, 47.037027352305785], [-60.603593677190766, 47.03702816460443], [-60.603605479920134, 47.03704560930105], [-60.60364478429672, 47.037108527089856], [-60.60365773262193, 47.03713654289484], [-60.60366998505366, 47.03716305025192], [-60.603720722828925, 47.037235206645924], [-60.60372088786135, 47.03723681196875], [-60.60372163520103, 47.03724422500406], [-60.6037596243393, 47.037307124214], [-60.60375947902049, 47.0373144825634], [-60.603758510311174, 47.037361087430064], [-60.603823945747436, 47.03745836243175], [-60.60387453271526, 47.037533602340716]]}, "properties": {"OBJECTID": 180951, "FEAT_CODE": "WARV50", "FEAT_DESC": "River - Single Line", "RIVNAME_1": " ", "RIVNAME_2": " ", "ZVALUE": 9999, "FID": null, "SHAPE_Length": 1044.3578176920646}}, {"type": "Feature", "id": 263400, "geometry": {"type": "LineString", "coordinates": [[-60.59408515264669, 47.032814213473515], [-60.59409320119025, 47.03301867501139], [-60.59409436591555, 47.033048388074796], [-60.594095016127234, 47.033059686822774], [-60.594104689594765, 47.03322859941068], [-60.594153594010805, 47.03339970452628], [-60.59416492690662, 47.033498934669176], [-60.594163252087704, 47.03361257818983], [-60.594161092523464, 47.03375983277528], [-60.5941602944422, 47.033810949826076], [-60.59415897315135, 47.03389477720747], [-60.59419664695647, 47.033993661096176], [-60.59423683448562, 47.03405684372734], [-60.5942482796866, 47.034074839847065], [-60.59427338044157, 47.03410236523758], [-60.59435170500254, 47.03417510570718], [-60.594533002783464, 47.034329203855904], [-60.59458979770875, 47.03436848237188], [-60.59463768220725, 47.03440159808826], [-60.59467592047456, 47.03442939948257], [-60.59468416304838, 47.034437537052696], [-60.594740198048456, 47.03449284521085], [-60.594765833146525, 47.03453748032154], [-60.594778682120825, 47.03457373839515], [-60.594790420138885, 47.034663986704], [-60.59478759625391, 47.03484391264016], [-60.594796812602894, 47.035078087171364], [-60.59483529674395, 47.035158989329105], [-60.59488642484426, 47.03522215864151], [-60.59497751133581, 47.0353041660999], [-60.59514490161778, 47.03539471518301], [-60.5951471376787, 47.03539592307044], [-60.59514956857311, 47.03539718904713], [-60.59525131319865, 47.03545030760851], [-60.59535164991305, 47.035478819512456], [-60.595381283266356, 47.03548723545167], [-60.595605067190355, 47.03551623476886], [-60.595853980868775, 47.03557185936367], [-60.59589953301631, 47.035579880602384], [-60.595906232814556, 47.03558105624454], [-60.595932116856574, 47.03559059918865], [-60.59595610509434, 47.03560747270285], [-60.595971671701186, 47.035618427794525], [-60.59601086338239, 47.03565433909542], [-60.59604190345408, 47.03570615185317], [-60.59608678130134, 47.03578103237027], [-60.596124863881386, 47.035870924906774], [-60.59615926435459, 47.035977145750195], [-60.596163009290095, 47.03598871645991], [-60.59617357870464, 47.03610502891675], [-60.59623755918393, 47.036204464583285], [-60.59636703347841, 47.03634037275597], [-60.59645772017818, 47.036431369875444], [-60.59646410681764, 47.03644449892598], [-60.59647097425155, 47.03645864598987], [-60.59648261256905, 47.036521885215926], [-60.59653455215708, 47.03656706329002], [-60.59663843038296, 47.03665744634363], [-60.59675582377329, 47.036740004747585], [-60.59685990010839, 47.03676738793409], [-60.59687207489424, 47.03676858848031], [-60.5969647438975, 47.03677768854388], [-60.597122675594086, 47.03677831348022], [-60.59717242852032, 47.03678368662269], [-60.59721569719456, 47.03678835666567], [-60.59725476020738, 47.036797276047245], [-60.597264244456326, 47.03680416159775], [-60.59729301468427, 47.036825076888434], [-60.59731479488708, 47.036862998025306], [-60.59731865297697, 47.036869711469805], [-60.597320749431844, 47.03687403012749], [-60.59733190759319, 47.03689698749258], [-60.59733063271039, 47.036959370597636], [-60.59732969211027, 47.037004932103585], [-60.59732617238367, 47.037229839708864], [-60.59732214511187, 47.03743673813384], [-60.59733499604637, 47.0374730049387], [-60.59737270251494, 47.0375200526598], [-60.59745090805663, 47.03761762640125], [-60.59747732719173, 47.037645178739254], [-60.5976461980837, 47.037754014672856], [-60.59780338916189, 47.037800510335344], [-60.59783641874878, 47.037806324130806], [-60.59785563048887, 47.03780970609256], [-60.597947325364, 47.0378197298306], [-60.598052615927216, 47.03782013062778], [-60.598112808180595, 47.03781495932072], [-60.59814513097424, 47.03781218190142], [-60.59822527625817, 47.037785966015086], [-60.598237931061554, 47.03778381076511], [-60.59827701025557, 47.037777143417735], [-60.59833469969815, 47.037777580009084], [-60.598342806066384, 47.037777633116534], [-60.59834761370501, 47.03777932686477], [-60.59837000672972, 47.03778720312849], [-60.59840870648992, 47.037805113748135], [-60.598487858687086, 47.03785027695527], [-60.59861662983808, 47.037923766913195], [-60.598773523113806, 47.038006252020416], [-60.59877870982118, 47.038008592650336], [-60.5989954454489, 47.03810629973742], [-60.59941452716856, 47.038271677320395], [-60.599425560111925, 47.03827662433332], [-60.599557762761606, 47.038335885372085], [-60.599574976090565, 47.038350366212285], [-60.59962245459303, 47.03839032872266], [-60.59964795038489, 47.038408861930634], [-60.599661865426995, 47.038427908203886], [-60.59967399480502, 47.038444505226444], [-60.59971204524365, 47.03853528676398], [-60.59971164141157, 47.03854428655112], [-60.59971791170083, 47.03855269736248], [-60.59972530066416, 47.03856258051361], [-60.59978958951835, 47.0386260145723], [-60.599821960690335, 47.03867145570913], [-60.59982799186552, 47.038679915495464], [-60.59991868877628, 47.038770901026695], [-60.59995788417793, 47.03880683802035], [-60.59998664378446, 47.038827743399324], [-60.599996115592404, 47.03883462845836], [-60.599997146328676, 47.0388351270321], [-60.59999999350074, 47.03883650962414], [-60.600061707153266, 47.038863172562095], [-60.60010070614538, 47.038880017965404], [-60.6001317505079, 47.03889078405574], [-60.6002057002292, 47.038916416580754], [-60.600278571834764, 47.03892294803107], [-60.600323700450616, 47.03892698994188], [-60.60042829106753, 47.038972388147975], [-60.60072983252141, 47.03902909636572]]}, "properties": {"OBJECTID": 263400, "FEAT_CODE": "WARV50", "FEAT_DESC": "River - Single Line", "RIVNAME_1": "French Brook", "RIVNAME_2": " ", "ZVALUE": 9999, "FID": null, "SHAPE_Length": 970.6893644735691}}]}