{"type": "FeatureCollection", "features": [{"type": "Feature", "id": 2391, "geometry": {"type": "LineString", "coordinates": [[-60.40897060286556, 47.03278317747915], [-60.40913327263327, 47.0327569193841], [-60.4092345998244, 47.032740557599325], [-60.40932556261419, 47.03273409438011], [-60.409340262983314, 47.0327330502516], [-60.40948454317266, 47.03274351571339], [-60.40950157999896, 47.03274532325117], [-60.40966787582794, 47.032762964337806], [-60.40968039079007, 47.032765191463064], [-60.409720076294235, 47.03277224525741], [-60.40973366864885, 47.03279055161281]]}, "properties": {"OBJECTID": 2391, "FEAT_CODE": "WACO20", "FEAT_DESC": "Coast - Water to the right line", "RIVNAME_1": " ", "RIVNAME_2": " ", "ZVALUE": 0.4, "FID": null, "SHAPE_Length": 60.2093533407705}}, {"type": "Feature", "id": 2392, "geometry": {"type": "LineString", "coordinates": [[-60.40973366864885, 47.03279055161281], [-60.409746816704455, 47.03279084919905], [-60.409772741952416, 47.03280291015173], [-60.409785433912106, 47.03280882200793], [-60.40981043340843, 47.03286338395477], [-60.409824025816256, 47.03288169030024], [-60.40982272010382, 47.0329086588151], [-60.409812871774164, 47.032934543050324], [-60.40980914586619, 47.03294434901412], [-60.40978197918801, 47.032961732862105], [-60.40970218559236, 47.03300582357065], [-60.409699423668016, 47.033009855764526], [-60.4096894382456, 47.033024433695566], [-60.409701759364324, 47.03304181134538], [-60.409742544829605, 47.03306366696891], [-60.40975434774295, 47.0330699996744], [-60.40976002861909, 47.03307799368806], [-60.40976668204106, 47.03308737761528], [-60.40977609804154, 47.03312207625904], [-60.40977896874269, 47.03313265247898], [-60.40976451484959, 47.03315932340723], [-60.40977723681324, 47.0331956087668], [-60.40978285591796, 47.03319971365963], [-60.409789949721095, 47.03320489585422], [-60.4098293941956, 47.033205788595], [-60.40990166256693, 47.0331735866233], [-60.40991011110593, 47.03316981811443], [-60.40993246973059, 47.03315278438874], [-60.41000304374532, 47.03309902654848], [-60.410043836844046, 47.03307206073458], [-60.41007013310021, 47.033072655837046], [-60.41008767781757, 47.03308545399423], [-60.41009555940331, 47.03309122095715], [-60.41009059485256, 47.03310703746617], [-60.410081550532475, 47.03313589170708], [-60.410040941228786, 47.0331827142711], [-60.410027195515056, 47.03319856603519], [-60.41002762676704, 47.033216574504976], [-60.41003121129342, 47.03321893246296], [-60.41004038324498, 47.0332249626149], [-60.410079827742095, 47.03322585526971], [-60.41009974287551, 47.03322258922343], [-60.41013289911741, 47.0332171569977], [-60.410157454701036, 47.033253710108276], [-60.41017138531287, 47.03326204377968], [-60.41019782237832, 47.03326272303312], [-60.410204352305236, 47.0332580741454], [-60.41021009091517, 47.03325400130776], [-60.4102594425236, 47.03323459056293], [-60.41027718080585, 47.03322762148787], [-60.41031710398788, 47.03321862560242], [-60.410363213046125, 47.03321263147211], [-60.4103820086707, 47.033210194983184], [-60.41043504587096, 47.03322939379783], [-60.410454357815766, 47.03325599189927], [-60.410460960000684, 47.03326507764736], [-60.41045037606696, 47.03327842718839], [-60.41044694154426, 47.03328275915841], [-60.41033952130405, 47.0334081193189], [-60.410284718411845, 47.03347977398765], [-60.410271146015766, 47.033536909741755], [-60.41026983880316, 47.033542432762864], [-60.41025498160326, 47.03363209010613], [-60.4102672561131, 47.03367735563707], [-60.41029399672316, 47.03369596845031], [-60.41033304992752, 47.033704951581115], [-60.41042426115382, 47.03372411426717], [-60.41049048126818, 47.03371571334998], [-60.41052911362665, 47.033702935452126], [-60.410622912391496, 47.033671904132795], [-60.41084832791043, 47.03358341981171], [-60.41086059903035, 47.03357464407934], [-60.41100920690586, 47.03346826790738], [-60.411058749237625, 47.033418803289614], [-60.41108943862518, 47.033388188784336], [-60.41111235096182, 47.0333784748308], [-60.41112975332638, 47.03337110205323], [-60.411134189059304, 47.03337110340223], [-60.41120872960819, 47.033371088700235], [-60.41122144281174, 47.03338037563404], [-60.411226600089634, 47.03338804275226], [-60.41123372101148, 47.03339865208069], [-60.4112377203169, 47.03341338449574], [-60.41124600902205, 47.03344392681044], [-60.41128463703829, 47.0334888974151], [-60.41130771181816, 47.033505204229606], [-60.41132409160921, 47.0335167879299], [-60.411376728111115, 47.03351707859785], [-60.4114021882684, 47.0335077551919], [-60.41141116205738, 47.033503467491094], [-60.411456086183705, 47.03348197622851], [-60.41148242660233, 47.03348166306951], [-60.41150785272741, 47.03350024586703], [-60.411522859874374, 47.03350701083601], [-60.41154777273108, 47.03351824754205], [-60.41157406923768, 47.03351884230344], [-60.41165344033742, 47.033483740092116], [-60.411693363501115, 47.033474743726], [-60.4117152423805, 47.03348285199768], [-60.41171922506139, 47.03348432797105], [-60.41174465170711, 47.033502901728085], [-60.411757405439374, 47.033538287644376], [-60.411746902618226, 47.033587510562654], [-60.41174210575107, 47.03360993645895], [-60.41174255072655, 47.03362794522987], [-60.41175482916, 47.03364622162451], [-60.411781135801725, 47.033673814628166], [-60.41181975434692, 47.033691786773836], [-60.411823737046184, 47.03369326274389], [-60.411845616034356, 47.0337013709925], [-60.41192454933478, 47.033702256106814], [-60.41193600115773, 47.033707419729005], [-60.41196448278104, 47.0337202579389], [-60.41199083770303, 47.03373950958478], [-60.41200262305052, 47.03374811849545], [-60.412068408111836, 47.03374870618007], [-60.41206841474895, 47.0337662550692], [-60.41206841832269, 47.03377570447103], [-60.41203995704573, 47.033847064697035], [-60.4120399071094, 47.033849457395775], [-60.412039097914324, 47.033892033036075], [-60.41207903153984, 47.033910034831194], [-60.41208949287053, 47.033913907130916], [-60.412104893380096, 47.0339196189939], [-60.41213119009543, 47.033920213631205], [-60.41214481636807, 47.03391063146529], [-60.41221184257667, 47.033831143889635], [-60.412236202023614, 47.03378906476162], [-60.412253494985826, 47.03375919095656], [-60.41226352541033, 47.0337491134989], [-60.412279781307554, 47.0337327872651], [-60.41230699108425, 47.03371450386577], [-60.41231726817558, 47.03371456525255], [-60.41235962780503, 47.03371479408544], [-60.412450849811364, 47.03376096245475], [-60.41247714645595, 47.033761557011104], [-60.41254292153458, 47.033735137138066], [-60.41254540818439, 47.0337359763022], [-60.412568826858056, 47.03374382224384], [-60.412582420434916, 47.03376212828201], [-60.41258155085979, 47.03378010732834], [-60.412579348204964, 47.03378264934316], [-60.41252718532217, 47.03384277359565], [-60.412474638959154, 47.03388959710954], [-60.412447402963494, 47.033913864525374], [-60.412419897745494, 47.033940159701345], [-60.412419727504755, 47.03394422355976], [-60.412418942541805, 47.03398521586305], [-60.412446119319945, 47.033994829678875], [-60.41245795286155, 47.03399509723147], [-60.412470055532104, 47.03399088918997], [-60.41248472790928, 47.03398580331407], [-60.41251232950711, 47.03395942030821], [-60.41259298099197, 47.033870359276754], [-60.41261883285859, 47.033852936039324], [-60.41267190406221, 47.033844245584085], [-60.41272496514329, 47.03380854781719], [-60.41277568482413, 47.03376818942527], [-60.41279204355183, 47.0337551772057], [-60.41283148852538, 47.03375606892036], [-60.41284397843727, 47.03375827713284], [-60.41288369099808, 47.03376533943539], [-60.41288992953683, 47.03376126876594], [-60.412951649737764, 47.03372097898486], [-60.412976465114575, 47.03371518639864], [-60.41299025761461, 47.03371196143306], [-60.413017447947375, 47.03372156642056], [-60.41301659699145, 47.03375631168521], [-60.41301614178105, 47.03377552401304], [-60.41300491683358, 47.03380241232348], [-60.413001254145534, 47.03381119389143], [-60.41298963475523, 47.03383480651889], [-60.412988116479305, 47.03383789497368], [-60.4129880845079, 47.03384127800763], [-60.41298769243168, 47.0338738827992], [-60.41302627876095, 47.03391975180024], [-60.413021974341866, 47.03411764025648], [-60.413027844000354, 47.03412936410405], [-60.4130351769204, 47.03414403681786], [-60.41303808662714, 47.03414511051796], [-60.41306103948718, 47.03415361178015], [-60.41308733633732, 47.034154206200135], [-60.41312636606238, 47.03413619878521], [-60.41316582447553, 47.03413709068738], [-60.413204454609456, 47.034182060680465], [-60.41321228422154, 47.034184829467044], [-60.41323163163517, 47.03419167431412], [-60.41328294085626, 47.03419193410192], [-60.413323800123976, 47.034183183308485], [-60.413362757419804, 47.034174839480286], [-60.41339273019521, 47.03416147792268], [-60.41340311506278, 47.03415686198434], [-60.41342983385885, 47.03414845751053], [-60.41344302800272, 47.03412085772033], [-60.41343025987614, 47.0340854716734], [-60.41343714257147, 47.03407678986585], [-60.41344427758314, 47.03406778978382], [-60.413456433225434, 47.03406357383599], [-60.41347105250609, 47.03405849563307], [-60.41349734931801, 47.034059089958], [-60.4136267472301, 47.03410521123665], [-60.413689185536576, 47.0341151356747], [-60.41374561557505, 47.03412409636135], [-60.41378276436012, 47.03414335753034], [-60.41379826381066, 47.034151384233574], [-60.413818597725474, 47.034168591529415], [-60.41386275680343, 47.03420593779749], [-60.41390046341632, 47.03424279626664], [-60.41392594621876, 47.03428745992294], [-60.41389874780277, 47.034332742017355], [-60.41385888999334, 47.034394836805326], [-60.41381809522101, 47.034448810989474], [-60.413817226040045, 47.0344667900512], [-60.413843101621836, 47.03447637412869], [-60.41384811946215, 47.03447631653143], [-60.413869442104975, 47.03447606941905], [-60.41400231783099, 47.03445027404305], [-60.414019231878996, 47.03445654180902], [-60.41402818029134, 47.03445985778209], [-60.4140273111806, 47.03447783684676], [-60.41399798688391, 47.03450991387568], [-60.41398700767687, 47.034521922904304], [-60.41393316142975, 47.03455371579112], [-60.41388133335437, 47.034584330345766], [-60.41384770127545, 47.03460095709896], [-60.4138273788192, 47.03461100910427], [-60.41378837927815, 47.03462811750465], [-60.413602864902344, 47.03465363196855], [-60.41359043214597, 47.03465785966799], [-60.413550672805556, 47.03467135107567], [-60.4135103578444, 47.03468843865226], [-60.41347001029087, 47.034733423467564], [-60.413465090671295, 47.03474342755146], [-60.41345687261055, 47.034760124599906], [-60.413455568642625, 47.0347870931833], [-60.41349290642509, 47.03488602997201], [-60.41349209304801, 47.03495457764596], [-60.41349205893158, 47.0349580056277], [-60.413477573769626, 47.035012574296324], [-60.41347347216305, 47.03502090498988], [-60.413464436018614, 47.035039275427096], [-60.4134400654974, 47.03505518444524], [-60.413396475970366, 47.03508363614846], [-60.41338418402628, 47.03510373286395], [-60.413369320145726, 47.03512801914192], [-60.41335575846273, 47.035190708082226], [-60.41336705674858, 47.03520749524977], [-60.413368037791116, 47.035208984317094], [-60.413393465819674, 47.03522755772998], [-60.413433835566174, 47.03523656955022], [-60.413460132956054, 47.035237163894955], [-60.41351277344309, 47.0352104556118], [-60.413578970905405, 47.035175054338715], [-60.413618460413204, 47.035175046849865], [-60.41364520338407, 47.03519364992353], [-60.41364189885783, 47.03520155766807], [-60.41363031616484, 47.03522931088677], [-60.413592518727576, 47.03524849823904], [-60.41357768929863, 47.03525601053232], [-60.41357681957776, 47.035273998577615], [-60.41358125463393, 47.035284907028945], [-60.41360270425571, 47.03533757901681], [-60.413589121326915, 47.035346262399415], [-60.413562920521095, 47.03536027621334], [-60.41352291007098, 47.03538167236574], [-60.41349574372621, 47.035399048098725], [-60.413490139992525, 47.03541693815144], [-60.41348174927191, 47.03544373756884], [-60.41348087994777, 47.03546171662265], [-60.413468120128194, 47.03548032687853], [-60.41344095328003, 47.03549771158643]]}, "properties": {"OBJECTID": 2392, "FEAT_CODE": "WACO20", "FEAT_DESC": "Coast - Water to the right line", "RIVNAME_1": " ", "RIVNAME_2": " ", "ZVALUE": 0.4, "FID": null, "SHAPE_Length": 903.1932559167142}}, {"type": "Feature", "id": 2472, "geometry": {"type": "LineString", "coordinates": [[-60.40739917977824, 47.032399314195615], [-60.40741102869574, 47.032453578764425], [-60.40743125412014, 47.032501760538715], [-60.40744878939699, 47.032543527821446], [-60.40746641583059, 47.032565759561805], [-60.407499647157785, 47.03260766641925], [-60.407563268077624, 47.032707209602975], [-60.407582816994314, 47.03272997083893], [-60.40760189243893, 47.03275218138482], [-60.407666377337094, 47.03280673829603], [-60.40777118574673, 47.03287120788973], [-60.40787559428933, 47.03291676968043], [-60.40793989208317, 47.032934991794825], [-60.40800673471507, 47.032953937462395], [-60.40808479611266, 47.032972795197765], [-60.408255372373795, 47.03298386675809], [-60.408363068723055, 47.032978962173814], [-60.40842686364585, 47.0329760511367], [-60.40848843159484, 47.03296286636695], [-60.40850666664, 47.0329589595966], [-60.408718011875045, 47.032862052434346], [-60.40880512588617, 47.032827442490394], [-60.408850877184946, 47.03280926474118], [-60.40897060286556, 47.03278317747915]]}, "properties": {"OBJECTID": 2472, "FEAT_CODE": "WACO20", "FEAT_DESC": "Coast - Water to the right line", "RIVNAME_1": " ", "RIVNAME_2": " ", "ZVALUE": 0.4, "FID": null, "SHAPE_Length": 160.5305561967565}}, {"type": "Feature", "id": 2497, "geometry": {"type": "LineString", "coordinates": [[-60.40516340839729, 47.03038048319346], [-60.40517781040251, 47.030385579400196], [-60.405190581994376, 47.0303900986764], [-60.405308131352385, 47.03043595179629], [-60.405354925040776, 47.030456784307724], [-60.40541248900576, 47.03048242365443], [-60.40553082225911, 47.030539804497934], [-60.40562081341816, 47.03058343964677], [-60.40581511937396, 47.03070213620755], [-60.405893182968626, 47.03074801158698], [-60.40591637925819, 47.03076718405534], [-60.40597037586439, 47.03081184789817], [-60.405995850020375, 47.03085652217176], [-60.406008140291696, 47.03092879562678], [-60.40602042337584, 47.0309740708371], [-60.40608491180364, 47.03105562682455], [-60.40610947091282, 47.031119178985946], [-60.40610946996485, 47.03113684470747], [-60.40610947817103, 47.031146177229395], [-60.406095459319204, 47.031163849206315], [-60.40609503029595, 47.031199845920035], [-60.406120497466674, 47.03121752192569], [-60.40613297217273, 47.031221926373945], [-60.40617225992704, 47.03123579390584], [-60.406212145964204, 47.03125469662647], [-60.406217351426406, 47.03126243706267], [-60.406224421972176, 47.03127297357351], [-60.40622015938505, 47.03127890653555], [-60.40621171745197, 47.03129068435216], [-60.406184550503085, 47.03130806734399], [-60.40611746840028, 47.03136144302227], [-60.406107029215946, 47.031382651888265], [-60.40610434113166, 47.031388143566566], [-60.40610429958111, 47.031390086486425], [-60.40610389939438, 47.031424130991645], [-60.40610953074105, 47.03142824534427], [-60.40611661080325, 47.03143342745846], [-60.40614282815897, 47.03143726144812], [-60.40618195742055, 47.03144299896217], [-60.40626046446535, 47.03145287769657], [-60.406260900279044, 47.031443888214675], [-60.40628718250909, 47.031444483872185], [-60.40635339295971, 47.031409087059075], [-60.40636000399054, 47.03140901190199], [-60.40637973190159, 47.03140878404469], [-60.40640148480212, 47.03141429867026], [-60.406418739159726, 47.031418667417306], [-60.40642631691588, 47.0314263446144], [-60.4064450855279, 47.03144536263348], [-60.406469645227716, 47.0315089147256], [-60.406482364595206, 47.03154520040925], [-60.40648755697582, 47.031552940536194], [-60.40649464075923, 47.0315634773296], [-60.40650601642034, 47.03157100660569], [-60.40652142257057, 47.03158119203578], [-60.40653730135083, 47.03157619725654], [-60.40654815422435, 47.03157278945955], [-60.40666656336164, 47.03154667477644], [-60.406692858798294, 47.03154727063977], [-60.406692423055546, 47.031556260124574], [-60.40671886041002, 47.03160823653703], [-60.40674289397587, 47.0316554968058], [-60.406738160345434, 47.03166788965189], [-60.40672931805174, 47.03169118661226], [-60.4066880957698, 47.03175414795866], [-60.40667711850683, 47.03177206891561], [-60.406660936252024, 47.03179852930688], [-60.40666865008483, 47.031814533977425], [-60.406674091560916, 47.031825825487296], [-60.40668235306796, 47.031838134831624], [-60.406686367851705, 47.03184410238881], [-60.4066881532025, 47.031845285763815], [-60.40671315073652, 47.03186179907437], [-60.40673944632892, 47.03186239493002], [-60.40677526240445, 47.03185285724704], [-60.406804785128195, 47.0318449858216], [-60.40681373263936, 47.03184830234289], [-60.40683064499017, 47.031854571141366], [-60.40683878056446, 47.03185997511285], [-60.40684467184342, 47.03186388833324], [-60.40684656062531, 47.03186972671769], [-60.40685611989701, 47.03189925422949], [-60.406854847707116, 47.031978725734106], [-60.40685482840429, 47.03198021019083], [-60.406859385011785, 47.03198966377105], [-60.40686798385385, 47.03200750635098], [-60.40687482336341, 47.03200923621257], [-60.406906978493396, 47.03201738926867], [-60.40693066291035, 47.0320284101674], [-60.40694560730672, 47.032035363306385], [-60.406985094400866, 47.03203535806142], [-60.40699524930176, 47.032033860270204], [-60.40703812146041, 47.03202756015862], [-60.40707755205764, 47.03204148460789], [-60.40708988502404, 47.032045831742856], [-60.407094361370554, 47.032048794957916], [-60.40711668085674, 47.0320635376254], [-60.407153940657324, 47.03213637665844], [-60.4071806798411, 47.0321549811779], [-60.40721929526418, 47.0321729638182], [-60.40723200791596, 47.032182242188334], [-60.40721888097964, 47.03220894286404], [-60.407192144171795, 47.032244334554065], [-60.407177689261175, 47.032271005138576], [-60.40719084494237, 47.032298301265016], [-60.40720845072415, 47.03230275884729], [-60.40722983985594, 47.032308184077536], [-60.40729476482032, 47.03232675374429], [-60.40736055583258, 47.032354342351205], [-60.40736881801187, 47.03236664266017], [-60.40737283247474, 47.03237261918456], [-60.40738041049991, 47.032380296322636], [-60.40739917977824, 47.032399314195615]]}, "properties": {"OBJECTID": 2497, "FEAT_CODE": "WACO20", "FEAT_DESC": "Coast - Water to the right line", "RIVNAME_1": " ", "RIVNAME_2": " ", "ZVALUE": 0.4, "FID": null, "SHAPE_Length": 354.734821416918}}, {"type": "Feature", "id": 2500, "geometry": {"type": "LineString", "coordinates": [[-60.40200357624375, 47.029235170462734], [-60.402042952150396, 47.02924906842462], [-60.40205533532941, 47.029253444245604], [-60.40211052235556, 47.029271867815645], [-60.40227809179336, 47.029327795909346], [-60.40255263504543, 47.029420412322004], [-60.40270323737591, 47.02947015910213], [-60.40272233134552, 47.02947646902724], [-60.40273200319689, 47.029478407408696], [-60.40281356293155, 47.02949473835311], [-60.40294514079366, 47.029522922559586], [-60.40306264218659, 47.02956968585291], [-60.40312114307515, 47.02959469067012], [-60.40312711286181, 47.029597246962545], [-60.40317887850866, 47.02964251847144], [-60.40330912767465, 47.029724668284246], [-60.403433202144114, 47.02978950706598], [-60.4034657416769, 47.02980651619335], [-60.403583679962644, 47.02984429849529], [-60.40363501044029, 47.02989855028436], [-60.40366313028158, 47.02993829046732], [-60.4036731932889, 47.029952512772994], [-60.403684912897404, 47.029961076064104], [-60.403711326519016, 47.02998037597199], [-60.40374852045492, 47.02999965945564], [-60.403763965450935, 47.03000766829814], [-60.403849241203226, 47.03003125529192], [-60.403934101552814, 47.03005472480627], [-60.4039837727576, 47.03006424796394], [-60.404131012402416, 47.03009248908901], [-60.40434106450219, 47.030103553001936], [-60.404563878078186, 47.03015000345644], [-60.40470584814998, 47.03018432489082], [-60.40471998933156, 47.03018774135954], [-60.4047989237405, 47.030215629520306], [-60.40492190414341, 47.03026753677871], [-60.40499497054837, 47.030298369522924], [-60.40516340839729, 47.03038048319346]]}, "properties": {"OBJECTID": 2500, "FEAT_CODE": "WACO20", "FEAT_DESC": "Coast - Water to the right line", "RIVNAME_1": " ", "RIVNAME_2": " ", "ZVALUE": 0.4, "FID": null, "SHAPE_Length": 278.357973632829}}, {"type": "Feature", "id": 8125, "geometry": {"type": "LineString", "coordinates": [[-60.41344095328003, 47.03549771158643], [-60.41336464049319, 47.035497021745556], [-60.41330936561395, 47.03549653737586], [-60.41317823897109, 47.03548637408379], [-60.41317283906242, 47.03548806989708], [-60.413151506746644, 47.03549476919645], [-60.41314563868576, 47.035498524277216], [-60.413137922836405, 47.03550347050208], [-60.413116933716736, 47.03552239867066], [-60.41309800949402, 47.03553945664849], [-60.41308400195368, 47.035584136774986], [-60.41308340587528, 47.0356217765838], [-60.41308273227611, 47.035665102229665], [-60.41305464978071, 47.03572836283573], [-60.41302015891798, 47.03576925918011], [-60.41298762274257, 47.03580784186974], [-60.41298628326285, 47.0358121312791], [-60.412973571555504, 47.035853420929904], [-60.41297358217909, 47.03588041922082], [-60.41298503549433, 47.03591577558833], [-60.41300435479626, 47.03593655082904], [-60.413036337345126, 47.03597093135101], [-60.41312718360007, 47.03605217912466]]}, "properties": {"OBJECTID": 8125, "FEAT_CODE": "WACO20", "FEAT_DESC": "Coast - Water to the right line", "RIVNAME_1": " ", "RIVNAME_2": " ", "ZVALUE": 0.4, "FID": null, "SHAPE_Length": 91.18258414088706}}, {"type": "Feature", "id": 8126, "geometry": {"type": "LineString", "coordinates": [[-60.41312718360007, 47.03605217912466], [-60.41315305736772, 47.036088761363025], [-60.413135805146105, 47.03612268592352], [-60.41311232783958, 47.036168834877685], [-60.41313688719179, 47.036205378408866], [-60.41320182690028, 47.036277950120656], [-60.41322013785079, 47.03629971045859], [-60.413240414629556, 47.036323828059274], [-60.413276212793825, 47.036394184159704], [-60.413290902383906, 47.036423053114696], [-60.413329534195356, 47.03646802308383], [-60.41340674371289, 47.036531863646026], [-60.413441670624394, 47.0365557273613], [-60.413446245068094, 47.03655885452893], [-60.413457878361875, 47.036564364071], [-60.41360195788186, 47.0366325685842], [-60.41366775750396, 47.03666015371334], [-60.41377083119691, 47.03673357787318], [-60.41382348195899, 47.03676086577324], [-60.41387523933427, 47.03677913411222], [-60.413907639311375, 47.03677930829239], [-60.41392789225866, 47.03677942396675], [-60.41395461187042, 47.03677102838748], [-60.41396777409666, 47.03677132580527], [-60.41404930839289, 47.03669127407344], [-60.4140742342843, 47.03667723134197], [-60.41412914761553, 47.03664628144334], [-60.41415151077277, 47.036637598398336], [-60.414194881635254, 47.03662076862876], [-60.41423516949107, 47.03661025872316], [-60.41426155255248, 47.03660337635827], [-60.41428353029389, 47.0365996702187], [-60.41431329865117, 47.03659464619859], [-60.41435366958865, 47.03660365771561], [-60.414357743314696, 47.0366051626505], [-60.4143795331405, 47.03661324139364], [-60.414378229553, 47.036640209987915], [-60.41435150822333, 47.03667560367284], [-60.41428442711267, 47.03672898412225], [-60.41424749982771, 47.03677263357981], [-60.41423137530212, 47.036791680858904], [-60.41420421923523, 47.03683606403516], [-60.41421243453852, 47.03684829078109], [-60.414216499211605, 47.036854340187325], [-60.41424192830114, 47.03687291342796], [-60.41430816310449, 47.036891508669804], [-60.414356717939185, 47.0369030539153], [-60.41450467248665, 47.03693824522671], [-60.41458318933296, 47.036948118430104], [-60.41460995238318, 47.03693882374441]]}, "properties": {"OBJECTID": 8126, "FEAT_CODE": "WACO20", "FEAT_DESC": "Coast - Water to the right line", "RIVNAME_1": " ", "RIVNAME_2": " ", "ZVALUE": 0.4, "FID": null, "SHAPE_Length": 215.67585729630827}}, {"type": "Feature", "id": 10345, "geometry": {"type": "LineString", "coordinates": [[-60.41460995238318, 47.03693882374441], [-60.414618152521726, 47.03692739983135], [-60.41462266873076, 47.03692111231777], [-60.41464828785258, 47.03690470929423], [-60.41464982279994, 47.036903727042784], [-60.414681005633135, 47.036893407266035], [-60.41472874946424, 47.03687761201189], [-60.41474208175714, 47.036871667634564], [-60.414769109180526, 47.03685962508324], [-60.41481012153591, 47.03683249154636], [-60.414849339083595, 47.03680654136407]]}, "properties": {"OBJECTID": 10345, "FEAT_CODE": "WACO20", "FEAT_DESC": "Coast - Water to the right line", "RIVNAME_1": " ", "RIVNAME_2": " ", "ZVALUE": 0.4, "FID": null, "SHAPE_Length": 23.834561530751948}}, {"type": "Feature", "id": 10443, "geometry": {"type": "LineString", "coordinates": [[-60.414849339083595, 47.03680654136407], [-60.414880669650934, 47.03679343507217], [-60.41495547600285, 47.036762142182646], [-60.41498134127429, 47.036744727718215], [-60.414996513845175, 47.03673148141026], [-60.415022543354084, 47.036708761030766], [-60.41503612834843, 47.03667307048189], [-60.41503621647258, 47.03666906776239], [-60.41503827714214, 47.036574126185535], [-60.41506499797048, 47.036538732329724], [-60.41510534563173, 47.03649374696517], [-60.41510977773801, 47.03649083228832], [-60.41519915804413, 47.036431970430066], [-60.41525135136905, 47.03641425059887], [-60.41527764937522, 47.0364148445375], [-60.41536240154761, 47.036444404616354], [-60.41538250575008, 47.03645141017491], [-60.41538720709534, 47.0364508233997], [-60.41544872860103, 47.03644300644257], [-60.41548838212259, 47.03642109759516], [-60.415528522874574, 47.03639891175781], [-60.41559559040855, 47.0363185322291], [-60.41566310519403, 47.03622916341188], [-60.41566752874383, 47.036214981335974], [-60.41567709763542, 47.03618448263831], [-60.41567789895478, 47.03614228478922], [-60.41567795426096, 47.0361395052394], [-60.41565419484962, 47.03603187646905], [-60.415662673908066, 47.03602066576416], [-60.415668255800284, 47.03601329535387], [-60.41566818318176, 47.03601261876289], [-60.415667374778536, 47.036004285109755], [-60.41568052368512, 47.03600458203011], [-60.41575903873063, 47.03604144343649], [-60.41579852890944, 47.03604143520772], [-60.41582403134421, 47.03603342567841], [-60.41582526102116, 47.036033039474546], [-60.41582705639128, 47.03602939028113], [-60.41583839786977, 47.03600633805855], [-60.41583917782237, 47.035965669614455], [-60.415839254350566, 47.035961360654454], [-60.415838614662455, 47.03595988831585], [-60.41582740828004, 47.03593409512425], [-60.41581914320793, 47.0358855639967], [-60.41581509067977, 47.03586182220141], [-60.4158295555233, 47.035835150772215], [-60.41586859919792, 47.03581713373989], [-60.41593482119466, 47.03580872970846], [-60.41594374409134, 47.035812035954436], [-60.41596068466639, 47.03581831302828], [-60.41597471373356, 47.03582763813612], [-60.41596027511264, 47.03588129022314], [-60.41598483544429, 47.035917851159304], [-60.4160282573514, 47.03593318552049], [-60.416063784385216, 47.03594573180408], [-60.41616683805327, 47.03595883971921], [-60.416287501625135, 47.03597418097096], [-60.41635242119835, 47.03599274533913], [-60.41643759112078, 47.036027281693904], [-60.41644408519583, 47.03602991211558], [-60.41645335431476, 47.03603204722268], [-60.416483141209206, 47.036038893197485], [-60.41651144352278, 47.03603314256133], [-60.41652302214063, 47.036030794125956], [-60.41655980753153, 47.03600965710215], [-60.41661644140044, 47.03597710696942], [-60.41665544194732, 47.03595997963114], [-60.41668145860708, 47.035960125928625], [-60.41670808055106, 47.0359602768835], [-60.41674120838227, 47.0359535461925], [-60.416747961392595, 47.03595217773165], [-60.416768939280914, 47.035937820316214], [-60.41678743897214, 47.03592517083227], [-60.416808043349135, 47.035902192602606], [-60.41682778559359, 47.035880166839384], [-60.416845269597594, 47.035863471712005], [-60.41685537165853, 47.0358538094427], [-60.416867534222256, 47.03584999825967], [-60.41688211666854, 47.03584541375403], [-60.41692160671869, 47.03584540513478], [-60.41693126600762, 47.035846820062346], [-60.41698696045222, 47.03585497959366], [-60.41702640710366, 47.03585586989352], [-60.41705361641557, 47.03583758536082], [-60.41708033554136, 47.03580219099688], [-60.41706717397807, 47.03577489590686], [-60.41706847617143, 47.035747927251286], [-60.417075569264306, 47.03573351739139], [-60.4170816123293, 47.03572122567782], [-60.417108821552446, 47.035702941129884], [-60.41719148524576, 47.03570378079751], [-60.41725354569314, 47.03570440742378], [-60.41727047368166, 47.035710675019864], [-60.41727940892998, 47.03571399943887], [-60.41730483902022, 47.03573256302275], [-60.41733111007229, 47.03574161526902], [-60.417357911556465, 47.035750859466226], [-60.41739653381531, 47.03574183175178], [-60.417411367914845, 47.03573939470254], [-60.41744959307395, 47.035733138807764], [-60.417516696315786, 47.035706746051176], [-60.41753014505277, 47.03570083097511], [-60.417555695952416, 47.03568962738533], [-60.41758286160402, 47.03567224167664], [-60.417609189723, 47.03564493777999], [-60.41762319352394, 47.03560025702616], [-60.417629991653854, 47.03559168105347], [-60.417637210284234, 47.035582574607716], [-60.4176712941257, 47.0355713025499], [-60.41769071688908, 47.03556488329856], [-60.417768338322354, 47.035565734768106], [-60.41777544705734, 47.0355632673531], [-60.41779510058223, 47.03555643032137], [-60.417836295482395, 47.03552137139423], [-60.41785254856777, 47.03551598751946], [-60.417861712149914, 47.03551294550622], [-60.41788232612338, 47.03550829897235], [-60.4179016358892, 47.0355039469859], [-60.417927499630295, 47.03551352896665], [-60.41796651826602, 47.035549461747216], [-60.41797460481704, 47.03555509779532], [-60.41799331339953, 47.035568109971166], [-60.41799815816343, 47.035569731164784], [-60.418019207386436, 47.03557679357845], [-60.41811129248639, 47.03555097308291], [-60.418230559950615, 47.03550686709344], [-60.418244524283544, 47.03549353910272], [-60.418258172303425, 47.03548049195379], [-60.418271307801696, 47.03545379022968], [-60.41825814570312, 47.03542649526492], [-60.41815420037205, 47.03537105418157], [-60.41814505618104, 47.03535814981047], [-60.418141875963826, 47.035353677384066], [-60.41814172207458, 47.03534732037245], [-60.418141428842404, 47.035335668600446], [-60.418155068022095, 47.03532607701392], [-60.41818135240512, 47.03532666997875], [-60.418248021075094, 47.03533626438344], [-60.418340105414885, 47.035337450731205], [-60.41840041851003, 47.035321361526904], [-60.41840544544237, 47.03532002602703], [-60.41841336880474, 47.03531649702663], [-60.41844580277891, 47.03530203774976], [-60.418498861605336, 47.035266337266165], [-60.418511996927506, 47.03523963551013], [-60.41847346315682, 47.03521220023714], [-60.41846109384402, 47.03520338984062], [-60.41842229859668, 47.03518328312092], [-60.41840844212618, 47.035176104051686], [-60.41836986360639, 47.03515723511354], [-60.418369443672844, 47.035140297866306], [-60.418369416407046, 47.03513922632877], [-60.418373131185184, 47.03513453147204], [-60.41838341964849, 47.03512154351382], [-60.41840862833042, 47.035111420935344], [-60.41844920636734, 47.035095129512776], [-60.41847637142729, 47.03507774357869], [-60.418559632104085, 47.035059373117555], [-60.41859478308923, 47.035051616603006], [-60.418596012724564, 47.03505123036846], [-60.41862151472186, 47.035043211207324], [-60.41870165618498, 47.03499018579087], [-60.41874209466746, 47.03497214524333], [-60.41885963847266, 47.03496399711672], [-60.41889371191892, 47.034955109288234], [-60.41892629274998, 47.03494660175677], [-60.41893002061459, 47.03494190717712], [-60.41894029575705, 47.03492891886852], [-60.418929580295135, 47.03491447623187], [-60.41892671284114, 47.03491061383724], [-60.41890123961112, 47.03489294057511], [-60.41887650404657, 47.03488398631413], [-60.4188481975825, 47.034873745598254], [-60.41882272439621, 47.0348560723194], [-60.41883674056069, 47.03483838974033], [-60.41884968606385, 47.03483389405599], [-60.41886351542453, 47.03482908532841], [-60.4189810150945, 47.03482184501661], [-60.41904724915023, 47.034840437503476], [-60.419073156119545, 47.03484912116621], [-60.41911260209462, 47.034850010733095], [-60.41913465829747, 47.034845747472836], [-60.41920428196643, 47.03483227963486], [-60.41921049311976, 47.03482931492441], [-60.41925817676917, 47.03480651493306], [-60.419298520721775, 47.03478851705426], [-60.419311235430925, 47.03477079607055], [-60.419322438839444, 47.03474947726429], [-60.4193257284498, 47.0347432249014], [-60.419312522600514, 47.03471682900473], [-60.41927349656691, 47.034679951581886], [-60.41927479759893, 47.03465298287426], [-60.41930064730727, 47.03463556708356], [-60.41930144106219, 47.0345937380112], [-60.41930150080708, 47.034590589586394], [-60.41927818462878, 47.03458195539765], [-60.41927562414097, 47.03458100672331], [-60.419271328038846, 47.03458001891084], [-60.41923659497032, 47.03457202719725], [-60.41922992195221, 47.03457337960983], [-60.41919670192503, 47.03458013593892], [-60.41917079549664, 47.03457144331637], [-60.419170007172994, 47.034570867579376], [-60.41915808060124, 47.03456215723506], [-60.419144867434376, 47.03454437352978], [-60.419144484549015, 47.03454385193242], [-60.41914578563984, 47.03451688322687], [-60.41915892130979, 47.03449016340434], [-60.419186518652246, 47.03446380569981], [-60.419212398514375, 47.03444549067389], [-60.41927906518083, 47.034428095388606], [-60.4193842831168, 47.03440257001473], [-60.419463637504585, 47.034367462018984], [-60.41955727587897, 47.034296283570164], [-60.41955790456055, 47.034295802781166], [-60.419663569299296, 47.03426127887692], [-60.41991398404058, 47.03422732746019], [-60.41995096601444, 47.03421652503172], [-60.42003414155575, 47.03419223900832], [-60.42007212892429, 47.03418897366194], [-60.420125343136554, 47.03418439567536], [-60.42027048376633, 47.034176868201726], [-60.420380208948266, 47.03416294467966], [-60.42040293563528, 47.034160055189965], [-60.420478016045465, 47.034135217405584], [-60.42058886401679, 47.03409855063849], [-60.42062786195303, 47.03408142188934], [-60.42073394749165, 47.03407090774479], [-60.42087915633973, 47.03405649653513], [-60.4211953118406, 47.03402402382664], [-60.42125818683459, 47.034024369660294], [-60.42130058633161, 47.034024596077266], [-60.42135879099201, 47.03404946783879], [-60.42136507210901, 47.034052147179395], [-60.42137866881438, 47.034070452232], [-60.4213827491451, 47.03408547408703], [-60.42139096558923, 47.03411572603841], [-60.421376532040824, 47.03416939691793], [-60.421375665406885, 47.03418737608766], [-60.42140152913313, 47.03419695818376], [-60.42140805816636, 47.03419695230266], [-60.421441018030606, 47.034196947980796], [-60.42156167061986, 47.03415702743146], [-60.42157344148907, 47.0341531349293], [-60.42158734158548, 47.034158046762585], [-60.42160062008787, 47.03416274660423], [-60.421600186375464, 47.03417174518028], [-60.42159492890957, 47.03418851850775], [-60.421586186734096, 47.034216417513676], [-60.421573876279524, 47.03423915149448], [-60.4215717383512, 47.03424309003842], [-60.421571772764025, 47.03424428772701], [-60.42157218663454, 47.034261098834165], [-60.42165025465792, 47.03427995643069], [-60.4217033254292, 47.03427125277674], [-60.421731950106086, 47.03425987452164], [-60.42183618211243, 47.03421844983348], [-60.42192868320762, 47.03418363629361], [-60.42195135680537, 47.03418075429972], [-60.42206112150393, 47.0341668210562], [-60.42220582656719, 47.034141282619075], [-60.422219210830995, 47.034135320543776], [-60.422246181775485, 47.03412329295555], [-60.42226635009219, 47.03411339797449], [-60.422298760459604, 47.034097479181106], [-60.42233910021502, 47.03405249109328], [-60.42234286262195, 47.03404597931254], [-60.42238073933834, 47.033980534212795], [-60.42238577454591, 47.033970280370866], [-60.42239385924989, 47.033953831665464], [-60.422395638441444, 47.03395269282306], [-60.4224210356199, 47.03393644505142], [-60.42244606102385, 47.033936108747476], [-60.4224570463229, 47.03395889952706], [-60.4224723888791, 47.03399069779413], [-60.42248148023416, 47.03399406132043], [-60.42249823957009, 47.03400027934846], [-60.42251500531154, 47.0340000809833], [-60.42252459300115, 47.03399997293678], [-60.4225640229532, 47.03397386291006], [-60.42259166255195, 47.03394658740544], [-60.42259298169783, 47.033945708179736], [-60.42263109243179, 47.033920477353966], [-60.42266212539697, 47.033906642284585], [-60.4226714473336, 47.033902487533766], [-60.42269774425957, 47.033903079744576], [-60.422748649092476, 47.03393932356856], [-60.42275463736369, 47.03393797352943], [-60.42278857089505, 47.03393032330168], [-60.42280930991195, 47.03391704832269], [-60.422829315515756, 47.033904242789056], [-60.422869221618726, 47.03386824409714], [-60.422960165452956, 47.033808349472324], [-60.422963020596654, 47.033806460905204], [-60.42304237227119, 47.03377134137122], [-60.42314804998327, 47.03373593260914], [-60.42314992658615, 47.03373577687726], [-60.423240578421314, 47.03372811666944], [-60.42325633407722, 47.03372456569471], [-60.42328049998913, 47.03371911622594], [-60.42333261851047, 47.0337022909644], [-60.42338613180623, 47.03365759910291], [-60.42345364618231, 47.03359522373399], [-60.42350753678244, 47.03351454291828], [-60.42354869766726, 47.03345247412907], [-60.423563589033485, 47.03336191595631], [-60.423604300755635, 47.033281838338134], [-60.42362003014752, 47.03320120730453], [-60.42362044745108, 47.03316521030624], [-60.42363405632804, 47.03312861034098], [-60.423687482672385, 47.033057827268735], [-60.42368915355165, 47.033053743181014], [-60.42370239315085, 47.033021256595894], [-60.42370238451801, 47.03300530955604], [-60.423702389333734, 47.03299427646318], [-60.42367214049893, 47.03296642648525], [-60.42366330541108, 47.03295829016779], [-60.42365785372752, 47.03295451370577], [-60.42363784462286, 47.03294061823836], [-60.42358889004706, 47.03292592715239], [-60.42357296930128, 47.03292115905784], [-60.42351988413756, 47.03290286520649], [-60.42350715284775, 47.032866581192465], [-60.42350845166459, 47.032839612386375], [-60.423538370986236, 47.032826471955964], [-60.423547434191434, 47.03282249129605], [-60.423628544465075, 47.03277842059704], [-60.42366801669256, 47.032751402206756], [-60.42367808547899, 47.03271396659599], [-60.423682528564946, 47.032697687801615], [-60.423708294421516, 47.03268032312489], [-60.42372800193079, 47.032675880117765], [-60.42374821512798, 47.032671322499866], [-60.42387225306704, 47.03265556698265], [-60.42388064917558, 47.03265450506787], [-60.42388371334959, 47.03265346712175], [-60.42393283605088, 47.03263678113752], [-60.423927252629106, 47.03262890701907], [-60.423920510332, 47.03261940493063], [-60.42385605197615, 47.032563957898866], [-60.4238472388993, 47.0325515384004], [-60.423843726298365, 47.03254658168433], [-60.423856469098, 47.0325279608929], [-60.423874117490904, 47.032512429308746], [-60.42389631659115, 47.032492869455496], [-60.423910776898694, 47.032466187904284], [-60.42391079940901, 47.032463533603], [-60.42391117689722, 47.032403210463585], [-60.42393523934419, 47.03236162614145], [-60.423952812552564, 47.032331252925815], [-60.42396318481819, 47.032314297639175], [-60.42397995818228, 47.032286867201414], [-60.42398072785474, 47.032220037359224], [-60.42398079137201, 47.0322148911611], [-60.42399567082294, 47.032179228682864], [-60.42402242677756, 47.03214293359115], [-60.42406184146498, 47.032116822703586], [-60.424170697445064, 47.03208503028028], [-60.42418200478974, 47.03208173003401], [-60.42423462380904, 47.03205501634329], [-60.42426178546029, 47.03203762896034], [-60.42427491707259, 47.03201092645737], [-60.42424948707941, 47.03199234641988], [-60.42417360028984, 47.031991385389105], [-60.42415739415228, 47.03199118262088], [-60.42411970492783, 47.03200551623169], [-60.42406355334702, 47.03202686773999], [-60.42398420538233, 47.03206197906597], [-60.42398507107587, 47.03204399985264], [-60.42395919163761, 47.032007419934], [-60.423946027383415, 47.0319801255686], [-60.423953148882084, 47.031959335381764], [-60.4239613527825, 47.03193547378203], [-60.42394904109638, 47.03189019990762], [-60.42394599844352, 47.031881771023926], [-60.42393626644055, 47.031854814895254], [-60.42393705400442, 47.03181330962252], [-60.42393796535893, 47.031764859637825], [-60.42392653257674, 47.03170160684322], [-60.42391420164341, 47.031602336429316], [-60.42390276891611, 47.03153908363195], [-60.42390465025538, 47.031533087416165], [-60.42391676627298, 47.0314944019551], [-60.42393033075818, 47.031458709883], [-60.42395751921736, 47.03141342518878], [-60.42398554629465, 47.03137805864981], [-60.42401301087228, 47.03135546751973], [-60.42410478019309, 47.0312799496891]]}, "properties": {"OBJECTID": 10443, "FEAT_CODE": "WACO20", "FEAT_DESC": "Coast - Water to the right line", "RIVNAME_1": " ", "RIVNAME_2": " ", "ZVALUE": 0.4, "FID": null, "SHAPE_Length": 1375.8447836974576}}, {"type": "Feature", "id": 10444, "geometry": {"type": "LineString", "coordinates": [[-60.42410478019309, 47.0312799496891], [-60.42413194148112, 47.03126256232796], [-60.424306406032116, 47.03111080021734], [-60.42436211830885, 47.0310679302554], [-60.42438705065046, 47.031048719797724], [-60.424493414477745, 47.03098607520445], [-60.42450625634408, 47.03097850777037], [-60.424717443364976, 47.0308925917521], [-60.424745219378714, 47.03088129264006], [-60.424798286310974, 47.0308725874701], [-60.42491294040343, 47.03084988816443], [-60.424969722516785, 47.03083864769861], [-60.4251148536229, 47.03083111388488], [-60.42516748782244, 47.03083139815822], [-60.4252196894026, 47.03084067202468], [-60.42523784605295, 47.03083698580984], [-60.42525956522936, 47.03083256979966], [-60.4252992246314, 47.03081063968942], [-60.425339343136585, 47.03078846791213], [-60.42539109555113, 47.0307797238952], [-60.42549679600526, 47.03077131153186]]}, "properties": {"OBJECTID": 10444, "FEAT_CODE": "WACO20", "FEAT_DESC": "Coast - Water to the right line", "RIVNAME_1": " ", "RIVNAME_2": " ", "ZVALUE": 0.4, "FID": null, "SHAPE_Length": 126.6032607902132}}, {"type": "Feature", "id": 16919, "geometry": {"type": "LineString", "coordinates": [[-60.411495429046475, 47.03380189318735], [-60.41151941373005, 47.033784436964716], [-60.4115328243816, 47.033774688006105], [-60.4115327091305, 47.03374496953372], [-60.411483232921455, 47.03371282071146], [-60.411461449060624, 47.03369268240902], [-60.411415981230945, 47.033678073967096], [-60.41141238696271, 47.033678091662026], [-60.411410056670334, 47.03367810194908], [-60.411408008171776, 47.03365651116143], [-60.411394323379334, 47.03365125198194], [-60.411356528565605, 47.03361898035208], [-60.41133979801744, 47.033611924397164], [-60.41130907129794, 47.03359897225192], [-60.4112755262279, 47.03360454901261], [-60.41127167695983, 47.03362887718933], [-60.41127376784668, 47.033659927259436], [-60.411256124379484, 47.033695129606585], [-60.4112344411931, 47.03371425771871], [-60.41122071887066, 47.03372636642242], [-60.4112192161575, 47.033729131229364], [-60.411208955581166, 47.03374804075529], [-60.41121406040519, 47.0337584244919], [-60.41121889022601, 47.03376823504826], [-60.41123122565832, 47.033767650143076], [-60.41125047473104, 47.03376672666031], [-60.41128005752497, 47.033751637957], [-60.41128792570047, 47.033747622235616], [-60.41129643081673, 47.033747580636806], [-60.41132346083092, 47.03374743610159], [-60.411347146825236, 47.033747305913984], [-60.4113788039613, 47.03376469777627], [-60.41140058874719, 47.0337861770189], [-60.411410505937106, 47.03379558067504], [-60.41142494710243, 47.033802890814464], [-60.4114263213492, 47.03380359684962], [-60.41143363003689, 47.03380488708136], [-60.41145595978542, 47.03380884789867], [-60.41148602956021, 47.03380355245436], [-60.411495429046475, 47.03380189318735]]}, "properties": {"OBJECTID": 16919, "FEAT_CODE": "WACOIS10", "FEAT_DESC": "Coastal Island - Water to the right line", "RIVNAME_1": " ", "RIVNAME_2": " ", "ZVALUE": 0.4, "FID": null, "SHAPE_Length": 79.06553057565125}}, {"type": "Feature", "id": 20781, "geometry": {"type": "LineString", "coordinates": [[-60.41248274555791, 47.03669366325975], [-60.41239060497862, 47.03666638181423], [-60.41237790111534, 47.03668409327747], [-60.41237476424077, 47.036689889928034], [-60.412363447470305, 47.036710764525715], [-60.41236302289842, 47.03674675232392], [-60.412365065304655, 47.036748886352385], [-60.41238933131781, 47.03677434521036], [-60.412428386695645, 47.03678333666214], [-60.412454684824546, 47.03678393125254], [-60.412481448575285, 47.03677462808062], [-60.412495045634856, 47.03676593614992], [-60.412507749480454, 47.03674822467352], [-60.41250861960538, 47.03673023664806], [-60.41248274555791, 47.03669366325975]]}, "properties": {"OBJECTID": 20781, "FEAT_CODE": "WACOIS10", "FEAT_DESC": "Coastal Island - Water to the right line", "RIVNAME_1": " ", "RIVNAME_2": " ", "ZVALUE": 0.4, "FID": null, "SHAPE_Length": 38.19131217201388}}, {"type": "Feature", "id": 20782, "geometry": {"type": "LineString", "coordinates": [[-60.41291408350324, 47.03615805409029], [-60.41273074835701, 47.03616560871361], [-60.412720397565224, 47.03617223221631], [-60.41271716464023, 47.03617430097417], [-60.41268951890648, 47.03620157396226], [-60.41268948725447, 47.03620358910107], [-60.41268823542898, 47.036282539095396], [-60.41267422732767, 47.03632721915595], [-60.41267423215681, 47.03633854944654], [-60.41267422464121, 47.03635421714465], [-60.41266328883839, 47.0363680358956], [-60.412646200603305, 47.036389580984164], [-60.41264564115781, 47.036418564241174], [-60.412645341416, 47.03643455830846], [-60.41265807648485, 47.03649784166784], [-60.41264320909759, 47.036587499044686], [-60.41264191507661, 47.03664146588653], [-60.412654640169954, 47.036677741971324], [-60.41267048010756, 47.0367124865895], [-60.41269154507006, 47.03675867951047], [-60.412704256637966, 47.036794964282535], [-60.412662612737634, 47.036893915594334], [-60.41268853004794, 47.03692959898276]]}, "properties": {"OBJECTID": 20782, "FEAT_CODE": "WACOIS10", "FEAT_DESC": "Coastal Island - Water to the right line", "RIVNAME_1": " ", "RIVNAME_2": " ", "ZVALUE": 0.4, "FID": null, "SHAPE_Length": 102.35446117501273}}, {"type": "Feature", "id": 20783, "geometry": {"type": "LineString", "coordinates": [[-60.41328576360552, 47.03669291744377], [-60.41314015159071, 47.03673643180986], [-60.41311124887802, 47.03676519737591], [-60.413086231878296, 47.036790100052976], [-60.413089472710325, 47.03679467298311], [-60.41309855493235, 47.03680747736535], [-60.413190641950536, 47.03680865891529], [-60.41321730188496, 47.03682735919879], [-60.413203367018966, 47.0368449439357], [-60.41317475206658, 47.03686884737391], [-60.41314986841058, 47.03688963137681], [-60.41314770539895, 47.03696157727605], [-60.41317449254243, 47.036979281516615], [-60.41342445627104, 47.03698223141479], [-60.41344759939778, 47.03696586269281], [-60.41345035245589, 47.03696391805932], [-60.41345719391729, 47.0369552803178], [-60.41346437095083, 47.036946236189976], [-60.41346524032562, 47.03692825714109], [-60.41345251506081, 47.03689197214639], [-60.41336297103512, 47.03678375603229], [-60.41334416400788, 47.03676163353258], [-60.41328576360552, 47.03669291744377]]}, "properties": {"OBJECTID": 20783, "FEAT_CODE": "WACOIS10", "FEAT_DESC": "Coastal Island - Water to the right line", "RIVNAME_1": " ", "RIVNAME_2": " ", "ZVALUE": 0.4, "FID": null, "SHAPE_Length": 106.56805169430984}}, {"type": "Feature", "id": 20784, "geometry": {"type": "LineString", "coordinates": [[-60.41268853004794, 47.03692959898276], [-60.412713958627194, 47.03694817255305], [-60.4127339861544, 47.03695458288695], [-60.412741167276494, 47.036956887075696], [-60.41275234923786, 47.03695703187331], [-60.41283195276984, 47.036958039490294], [-60.412884603250866, 47.03698532781638], [-60.41294954394845, 47.037057890684785], [-60.4129754074516, 47.03706747467891], [-60.41301491149735, 47.03706746772304], [-60.41302848268581, 47.037058766145115], [-60.41302867985617, 47.03702964870949], [-60.413028895758984, 47.03699578904039], [-60.41299242706428, 47.03687887307873], [-60.412980136900195, 47.03683359851653], [-60.41295382814236, 47.036806005759644], [-60.41295442779057, 47.03678380892119], [-60.41295551315275, 47.03674394834055], [-60.41298183099113, 47.036716645272854], [-60.41302216125336, 47.036699549228985], [-60.41307254655522, 47.03668820605682], [-60.413102011559594, 47.0366815646112], [-60.413155470375045, 47.0366640993235], [-60.41320765826139, 47.036647055251606], [-60.413214120096505, 47.03664599539495], [-60.41326074575648, 47.03663835588729], [-60.41328228434381, 47.036631211262026], [-60.413286163640514, 47.03662993104176], [-60.4132895140524, 47.036625705079594], [-60.413300182096705, 47.03661224919095], [-60.41328932100142, 47.03658124393132], [-60.4132874701599, 47.03657596447697], [-60.41327516665451, 47.03653068964358], [-60.413160619085744, 47.0363679121244], [-60.41309611320008, 47.03628636884543], [-60.41291408350324, 47.03615805409029]]}, "properties": {"OBJECTID": 20784, "FEAT_CODE": "WACOIS10", "FEAT_DESC": "Coastal Island - Water to the right line", "RIVNAME_1": " ", "RIVNAME_2": " ", "ZVALUE": 0.4, "FID": null, "SHAPE_Length": 159.71820383270634}}, {"type": "Feature", "id": 22605, "geometry": {"type": "LineString", "coordinates": [[-60.42028096160325, 47.03427403636942], [-60.420197887814226, 47.034233979522945], [-60.42016135384559, 47.03421174652169], [-60.420158323485424, 47.03420989633956], [-60.4201110985832, 47.03423985252989], [-60.42009352272478, 47.034245656873374], [-60.4200362614739, 47.03426455156908], [-60.42000875656082, 47.03428900369972], [-60.42000457649622, 47.034303623401314], [-60.420001028590434, 47.034316052513454], [-60.42000109534291, 47.0343321358544], [-60.4200011907021, 47.034348444823934], [-60.42001700903267, 47.03435915967534], [-60.42006758369264, 47.034360461780636], [-60.420103841753765, 47.0343613961328], [-60.420137179966204, 47.03436310159246], [-60.42015118952666, 47.03436383137098], [-60.42020644812417, 47.03436353812454], [-60.42026933392608, 47.034319994921795], [-60.42028096160325, 47.03427403636942]]}, "properties": {"OBJECTID": 22605, "FEAT_CODE": "WACOIS10", "FEAT_DESC": "Coastal Island - Water to the right line", "RIVNAME_1": " ", "RIVNAME_2": " ", "ZVALUE": 0.4, "FID": null, "SHAPE_Length": 61.15854205154891}}, {"type": "Feature", "id": 180009, "geometry": {"type": "LineString", "coordinates": [[-60.422504677646366, 47.0278016708589], [-60.42256788890902, 47.02791018682198], [-60.422606636639166, 47.027977654703555], [-60.42268203114791, 47.02810894336798], [-60.422775218403636, 47.02826021526414], [-60.42281020302076, 47.0283170150864], [-60.42281537530093, 47.028325761944124], [-60.42284792813908, 47.02838086011009], [-60.422964205547146, 47.02848067153747], [-60.42300096706741, 47.028528457960284], [-60.42304099861189, 47.028580493703515], [-60.423118641944185, 47.02863533818956], [-60.423253153071556, 47.02875802226512], [-60.42328758445069, 47.02878943130012], [-60.423364795434765, 47.02885326523522], [-60.42337823475406, 47.02886280115105], [-60.423455153848636, 47.02891739511514], [-60.4235123684064, 47.028957542421765], [-60.42352008370923, 47.02896295374152], [-60.42354472280698, 47.028986717775226], [-60.42362321633586, 47.02906246855205], [-60.423765807483086, 47.029189869583334], [-60.423782274024376, 47.02921936216708], [-60.423791252668146, 47.02923543914248], [-60.423894819134375, 47.029325964114136], [-60.42407518224278, 47.02951631051878], [-60.424103408774066, 47.02954430387708], [-60.42413924778543, 47.029579848036875], [-60.42420413574812, 47.02962630525858], [-60.424257217954185, 47.02964459874292], [-60.42433824887321, 47.02968408473792], [-60.42442567139463, 47.029726684305416], [-60.424478279432904, 47.02975756610821], [-60.424503764538684, 47.029772520604865], [-60.42452186197694, 47.02978783080401], [-60.424568262744394, 47.02982708626129], [-60.424584970275156, 47.0298469368427], [-60.424606856394014, 47.02987295152298], [-60.42465360788769, 47.02996480704982], [-60.424657359423925, 47.029972180946146], [-60.42466529962973, 47.02998796450139], [-60.42472102685202, 47.03009870463354], [-60.42478512725498, 47.030216238673646], [-60.42482289927035, 47.03027918413774], [-60.42487376256839, 47.030343324094076], [-60.424887835538755, 47.030351740168186], [-60.424951483512785, 47.03042426717316], [-60.425015983376504, 47.03047882360626], [-60.425032574479985, 47.03048496548815], [-60.42504184645645, 47.030488395873135], [-60.42507109981674, 47.030503552016484], [-60.42514714837312, 47.03054295232513], [-60.42523792700918, 47.030571101816534], [-60.42528332765393, 47.03057837778035], [-60.42535547738823, 47.030589945236734], [-60.42538971788036, 47.03059418928858], [-60.425435289331304, 47.03059983115265], [-60.425473866790746, 47.03061870669608], [-60.42547943871115, 47.030629829247985], [-60.425487074783234, 47.0306451019383], [-60.42548577706266, 47.03067207079672], [-60.42549679600526, 47.03077131153186]]}, "properties": {"OBJECTID": 180009, "FEAT_CODE": "WARV50", "FEAT_DESC": "River - Single Line", "RIVNAME_1": " ", "RIVNAME_2": " ", "ZVALUE": 9999, "FID": null, "SHAPE_Length": 415.35670170504335}}, {"type": "Feature", "id": 180010, "geometry": {"type": "LineString", "coordinates": [[-60.42000168393691, 47.02858761057255], [-60.42000158220879, 47.0285916309913], [-60.420000397868876, 47.02864157771479], [-60.42000041219052, 47.02866857610513], [-60.420000416154494, 47.02868596294991], [-60.42000042651161, 47.02869557449537], [-60.420076766442946, 47.02877738973866], [-60.420140841115995, 47.028867918794006], [-60.42019220134785, 47.02894917984358], [-60.42023125867422, 47.02900581128311], [-60.42024272739079, 47.02902235864229], [-60.42030798497066, 47.029058882135764], [-60.42039969665618, 47.029095146942716], [-60.42047404723808, 47.029119150212225], [-60.420543551016195, 47.02914158629479], [-60.42064751621181, 47.02916911873061], [-60.42076503264431, 47.02921587312319], [-60.420876579837376, 47.02927588390964], [-60.42093437374923, 47.02930698321568], [-60.42103874384713, 47.02935343206193], [-60.42106305971285, 47.02937050282771], [-60.421103672105964, 47.02939899202657], [-60.421168415599844, 47.02943910318096], [-60.42122124813489, 47.029471836416754], [-60.42122647812179, 47.02947665192795], [-60.42126030206883, 47.02950781390203], [-60.42129783425476, 47.02953467673654], [-60.42132392911284, 47.02955334441936], [-60.42141558775225, 47.02961750520608], [-60.42148392260187, 47.02966531055099], [-60.42159767371075, 47.02974489887846], [-60.42171085377465, 47.02981995655036], [-60.42179152364038, 47.02987345721303], [-60.42196046386781, 47.03000055414733], [-60.42202172369868, 47.030065190566695], [-60.422089472709494, 47.03013665064481], [-60.42211935321393, 47.03016062304126], [-60.42227068267064, 47.030282022198826], [-60.422451863451926, 47.03042829273774], [-60.4226141946517, 47.030580357026636], [-60.42264579244132, 47.030609947555725], [-60.42276204531457, 47.03068276053621], [-60.42280577113877, 47.03072097553735], [-60.42281384211139, 47.03072802379501], [-60.4228460978768, 47.03075680114425], [-60.42286558254602, 47.03077418569573], [-60.4229577187964, 47.03080145863674], [-60.42299801500169, 47.030818519853554], [-60.42308801249055, 47.03085658874777], [-60.42314479421706, 47.030883623420486], [-60.423205089131784, 47.030912321052774], [-60.42329634719579, 47.03095756364928], [-60.42333538616666, 47.03099444900833], [-60.42333644728416, 47.030995372834106], [-60.42338715745478, 47.031039711428704], [-60.42343715736915, 47.03107529563986], [-60.42343807370438, 47.03107594622456], [-60.423464404879105, 47.03108782422061], [-60.4234780088371, 47.03109395307256], [-60.423490723703324, 47.03110323867743], [-60.42358472598442, 47.03113332491967], [-60.42360868068388, 47.03114098268245], [-60.423765734088036, 47.03118682414496], [-60.423843365214935, 47.031214678777886], [-60.42388200967049, 47.03123298040691], [-60.42388325817222, 47.03123356647022], [-60.4239214697447, 47.03124035717159], [-60.42398766163638, 47.03125211535697]]}, "properties": {"OBJECTID": 180010, "FEAT_CODE": "WARV50", "FEAT_DESC": "River - Single Line", "RIVNAME_1": " ", "RIVNAME_2": " ", "ZVALUE": 9999, "FID": null, "SHAPE_Length": 437.18742321521216}}, {"type": "Feature", "id": 180618, "geometry": {"type": "LineString", "coordinates": [[-60.405612916218416, 47.029036270367726], [-60.40558603157873, 47.02906196603145], [-60.40558531436612, 47.029062642723105], [-60.40557130294853, 47.02910731289574], [-60.40553008757561, 47.02919729008787], [-60.40548978877735, 47.02926836238508], [-60.40543681090621, 47.0293210674981], [-60.405435856237006, 47.029322026784946], [-60.40532890499285, 47.02941050456437], [-60.40522147427451, 47.02950886167143], [-60.405213429614705, 47.02951950550552], [-60.40518068799706, 47.02956283301718], [-60.405152952625755, 47.02960388919921], [-60.405126791651774, 47.029642605240745], [-60.40511330309271, 47.02970009330259], [-60.40511187683491, 47.02970616253079], [-60.40509787117372, 47.02977783985856], [-60.40509839120231, 47.02978068644883], [-60.405109281295296, 47.029841094106935], [-60.40511342570307, 47.029863650484835], [-60.40512073416695, 47.0299034673854], [-60.4051446102839, 47.02998134026612], [-60.40514573529704, 47.02998501051592], [-60.405145299318306, 47.02999399999217], [-60.40514529167457, 47.02999497174992], [-60.40514444094866, 47.03006597542177], [-60.40513085762774, 47.03007466679622], [-60.40513077090629, 47.0300783545681], [-60.40512869128068, 47.03017361065197], [-60.405128255296205, 47.03018260012781], [-60.40512695412307, 47.030236566792816], [-60.40512696090401, 47.03026356503032], [-60.4051528264899, 47.030300148948314], [-60.40516340839729, 47.03038048319346]]}, "properties": {"OBJECTID": 180618, "FEAT_CODE": "WARV50", "FEAT_DESC": "River - Single Line", "RIVNAME_1": " ", "RIVNAME_2": " ", "ZVALUE": 9999, "FID": null, "SHAPE_Length": 161.25764207765093}}, {"type": "Feature", "id": 181047, "geometry": {"type": "LineString", "coordinates": [[-60.418852355368614, 47.0294949267087], [-60.41886467787336, 47.02951232140293], [-60.418934333333674, 47.0295670785689], [-60.418981314907796, 47.029604027573484], [-60.419063682725074, 47.029676017143316], [-60.4190849000337, 47.02969455734132], [-60.41917568817315, 47.02974970094385], [-60.41921338477092, 47.029767406828945], [-60.41925419629323, 47.02978656884499], [-60.419358609578815, 47.029832111262856], [-60.41956695847783, 47.02993311132754], [-60.41959238628533, 47.02995168337121], [-60.41970022665704, 47.03000695905324], [-60.41978890379467, 47.030052407259525], [-60.41984681973722, 47.03008698451333], [-60.41986566448882, 47.03009823559356], [-60.42003588684718, 47.03017136816229], [-60.42017973057989, 47.03021780771803], [-60.420266014643865, 47.030235924564174], [-60.42027093976841, 47.03023696251734], [-60.42034061147239, 47.030258673553405], [-60.42059770720646, 47.03033882108561], [-60.42066483258947, 47.03035902563647], [-60.42078193252084, 47.03039426943556], [-60.42087270889884, 47.0304224133516], [-60.42087821416729, 47.03042643413928], [-60.4208854231459, 47.030431699235], [-60.421043586613955, 47.030463431488215], [-60.42121391300973, 47.03049759743715], [-60.421304746277436, 47.03052484235512], [-60.42144267313674, 47.030580758300225], [-60.421488076340765, 47.03059916802986], [-60.42161878804123, 47.03064530988861], [-60.421665356436364, 47.03066330483042], [-60.42176220128948, 47.03070073709574], [-60.42190476163483, 47.030774143612575], [-60.42197012549214, 47.03081071352938], [-60.42203273310578, 47.03084002183948], [-60.42208725728475, 47.030865548290585], [-60.422231117895755, 47.0309119856297], [-60.42232195267948, 47.03095042496193], [-60.42236139792309, 47.030967116261714], [-60.422492559916414, 47.03103126595926], [-60.42260927526468, 47.03112208820743], [-60.422611861237044, 47.031123325361065], [-60.422686473045886, 47.031158924221], [-60.42286897393652, 47.031277325809526], [-60.422946605133355, 47.03130517205436], [-60.423051427022564, 47.03134262985567], [-60.423108099936, 47.031362642599476], [-60.4231303731975, 47.031370505584356], [-60.42316942705942, 47.03137948434586], [-60.423219344797644, 47.03138835672674], [-60.4232738305315, 47.03139803388428], [-60.42336590880812, 47.03139920706785], [-60.42352421616288, 47.03139196292357], [-60.42363035094852, 47.03137456270992], [-60.42372283279289, 47.03133974728893], [-60.42382000385608, 47.031307863145514], [-60.423881975843315, 47.03128753370889], [-60.42398766163638, 47.03125211535697]]}, "properties": {"OBJECTID": 181047, "FEAT_CODE": "WARV50", "FEAT_DESC": "River - Single Line", "RIVNAME_1": " ", "RIVNAME_2": " ", "ZVALUE": 9999, "FID": null, "SHAPE_Length": 460.66992222730937}}, {"type": "Feature", "id": 181191, "geometry": {"type": "LineString", "coordinates": [[-60.42398766163638, 47.03125211535697], [-60.42410478019309, 47.0312799496891]]}, "properties": {"OBJECTID": 181191, "FEAT_CODE": "WARV50", "FEAT_DESC": "River - Single Line", "RIVNAME_1": " ", "RIVNAME_2": " ", "ZVALUE": 9999, "FID": null, "SHAPE_Length": 9.425497334579875}}, {"type": "Feature", "id": 181192, "geometry": {"type": "LineString", "coordinates": [[-60.41290121035772, 47.02842191770544], [-60.412909434877896, 47.02844018334281], [-60.41291309688606, 47.02844828455556], [-60.41291354228606, 47.028466293343484], [-60.412869129480114, 47.02856577618924], [-60.41285746844556, 47.02859190769658], [-60.412857414213946, 47.02859439029382], [-60.412856596254784, 47.028636893776], [-60.41288032533711, 47.02879941867135], [-60.41289133702507, 47.028830814385735], [-60.41289304851632, 47.02883570373052], [-60.412892894742946, 47.02884133385312], [-60.41289132060184, 47.0288986601828], [-60.41288320816518, 47.028919994259155], [-60.41287774996119, 47.028934341839076], [-60.41284971656749, 47.028969714541084], [-60.41266251500226, 47.02911217196801], [-60.41266103196844, 47.029113173365666], [-60.412583609574746, 47.02916528412635], [-60.41256107047506, 47.029186103022376], [-60.41251610174754, 47.0292276532826], [-60.412488948378325, 47.0292720361521], [-60.412421450784954, 47.02936140355983], [-60.41237894321858, 47.02947833404499], [-60.41236085773611, 47.029502583362735], [-60.41232546155896, 47.02955002858464], [-60.41226743341267, 47.02960795926978], [-60.4122452512345, 47.02963010008006], [-60.412224644131086, 47.029656956167884], [-60.41220451532019, 47.02968317511336], [-60.412163735843805, 47.029737149082784], [-60.4121102437461, 47.02978183621039], [-60.41204277040589, 47.029830130869115], [-60.41194936533015, 47.02989698969684], [-60.41177664342291, 47.02998487703266], [-60.41171044834049, 47.03004727540059], [-60.41159013180219, 47.03017687177358], [-60.41149522494983, 47.03027909973866], [-60.411405376933224, 47.0303613644831], [-60.41138781709774, 47.0303774541187], [-60.4112931513095, 47.03048420504565], [-60.411198876612026, 47.03058286531852], [-60.41116684912102, 47.03062158501025], [-60.411117779465414, 47.03068092367493], [-60.41099940399983, 47.03077741869903], [-60.41094375831282, 47.030822776509076], [-60.410914712028536, 47.030842313947936], [-60.4108906991234, 47.03085847350155], [-60.410883060857216, 47.03086699407621], [-60.410850352429904, 47.03090345743366], [-60.41082688175271, 47.030937240983874], [-60.41076972466714, 47.031019533875636], [-60.41071092811097, 47.031144401602326], [-60.41067288754402, 47.031225219091844], [-60.410658009126195, 47.03128787796107], [-60.410615515077076, 47.031458804222886], [-60.410601053328044, 47.03148674399215], [-60.410587936999065, 47.03151217638251], [-60.410580463958574, 47.03152734220042], [-60.410574785604894, 47.03153887688726], [-60.410538086408785, 47.03157211808138], [-60.4104274912927, 47.031672325299695], [-60.410350608011136, 47.03178197063377], [-60.410345489952896, 47.03178927029114], [-60.410335057060315, 47.03182533761751], [-60.41031703736523, 47.031887619378736], [-60.410260510342766, 47.03207622666603], [-60.41021980613118, 47.032156299771614], [-60.410166575988214, 47.03221506690759], [-60.410139126738535, 47.032245367521796], [-60.41011106905324, 47.0323086280014], [-60.4100550234395, 47.03246034871436], [-60.410035040269314, 47.03249330208802], [-60.410000665156176, 47.03255002102769], [-60.40996076120784, 47.03261300437341], [-60.40996032599762, 47.03262199387978], [-60.40995701283564, 47.032624906683836], [-60.409920455882194, 47.032657088973146], [-60.40978036554468, 47.03275718598346], [-60.40977113527177, 47.03276378058608], [-60.409745339482434, 47.03278221238037], [-60.40973366864885, 47.03279055161281]]}, "properties": {"OBJECTID": 181192, "FEAT_CODE": "WARV50", "FEAT_DESC": "River - Single Line", "RIVNAME_1": " ", "RIVNAME_2": " ", "ZVALUE": 9999, "FID": null, "SHAPE_Length": 559.1804844886162}}]}