{"type": "FeatureCollection", "features": [{"type": "Feature", "id": 36100, "geometry": {"type": "LineString", "coordinates": [[-60.61148603140713, 46.73434461827259], [-60.611499505563025, 46.73433590901108], [-60.611520972966666, 46.73432907660647], [-60.61152631701554, 46.734327514272785], [-60.61156493240598, 46.73433636636501], [-60.61157757804222, 46.73433426353379], [-60.6116176786947, 46.73432756823285], [-60.611652869435794, 46.734320311406655], [-60.611657307907, 46.734319396130495], [-60.6116657152726, 46.73431337993504], [-60.61168298892599, 46.73430103313805], [-60.61172222094111, 46.73430185236757], [-60.6117346201799, 46.73434710952398], [-60.61173473641293, 46.73437411089647]]}, "properties": {"OBJECTID": 36100, "FEAT_CODE": "WALK20", "FEAT_DESC": "Lake - Water to the right line", "RIVNAME_1": " ", "RIVNAME_2": " ", "ZVALUE": 487, "FID": null, "SHAPE_Length": 28.040623784410236}}, {"type": "Feature", "id": 36101, "geometry": {"type": "LineString", "coordinates": [[-60.61173473641293, 46.73437411089647], [-60.61172172281025, 46.73439847119162], [-60.611720467546604, 46.734400811887355], [-60.61169482620875, 46.73441827575179], [-60.61166823497601, 46.734427611091625], [-60.611629002871226, 46.73442679184193], [-60.611614968770816, 46.73442358289073], [-60.611590127844075, 46.73441788935154], [-60.61157566518618, 46.73441252952975], [-60.61156437031004, 46.73440835181494], [-60.6115478991142, 46.734396902281794], [-60.61151230222294, 46.73437216584315], [-60.611486147516004, 46.73437161964304], [-60.61148603140713, 46.73434461827259]]}, "properties": {"OBJECTID": 36101, "FEAT_CODE": "WALK20", "FEAT_DESC": "Lake - Water to the right line", "RIVNAME_1": " ", "RIVNAME_2": " ", "ZVALUE": 487, "FID": null, "SHAPE_Length": 27.231122449743673}}, {"type": "Feature", "id": 36218, "geometry": {"type": "LineString", "coordinates": [[-60.60953564396566, 46.73517503661177], [-60.60956179902382, 46.7351755832648], [-60.609628136649555, 46.73518506940894], [-60.609641214181835, 46.735185342725686], [-60.60965389418958, 46.73519460738105], [-60.609613186617075, 46.735256754141034], [-60.60960492316974, 46.73526246720537], [-60.60957402935361, 46.73528383466051], [-60.60954241152667, 46.735296412318185], [-60.60950740917171, 46.735310341172145], [-60.609483183069734, 46.73533040801958], [-60.60945441888536, 46.73535423185953]]}, "properties": {"OBJECTID": 36218, "FEAT_CODE": "WALK20", "FEAT_DESC": "Lake - Water to the right line", "RIVNAME_1": " ", "RIVNAME_2": " ", "ZVALUE": 487, "FID": null, "SHAPE_Length": 33.63911427363297}}, {"type": "Feature", "id": 36219, "geometry": {"type": "LineString", "coordinates": [[-60.60945441888536, 46.73535423185953], [-60.60945481644547, 46.73534524052099], [-60.60944345678369, 46.735246906924154], [-60.6094573692013, 46.73522829845092], [-60.609456406171944, 46.735220178638976], [-60.609470331655466, 46.73520157043721], [-60.609474926660944, 46.73519859759799], [-60.60948380674342, 46.73519285243307], [-60.60953564396566, 46.73517503661177]]}, "properties": {"OBJECTID": 36219, "FEAT_CODE": "WALK20", "FEAT_DESC": "Lake - Water to the right line", "RIVNAME_1": " ", "RIVNAME_2": " ", "ZVALUE": 487, "FID": null, "SHAPE_Length": 23.367477519784686}}, {"type": "Feature", "id": 37410, "geometry": {"type": "LineString", "coordinates": [[-60.6090102984911, 46.73533324876509], [-60.60903689100793, 46.735323905070175], [-60.60908769106984, 46.73528958941402], [-60.609128641478726, 46.73526192556913], [-60.60918218423697, 46.73523514591237], [-60.60919526177711, 46.7352354192803], [-60.60922022406523, 46.73526294002318], [-60.609229773988794, 46.73527579315355], [-60.60923381417586, 46.735281223397614], [-60.609260009038735, 46.73528087098683], [-60.60929884450761, 46.73529067340634], [-60.609324641396746, 46.73529932130986], [-60.609324960739, 46.7352997959666], [-60.60933692379569, 46.73531757733747], [-60.609336486705246, 46.735372754043546], [-60.60933635867156, 46.735389562709926]]}, "properties": {"OBJECTID": 37410, "FEAT_CODE": "WALK20", "FEAT_DESC": "Lake - Water to the right line", "RIVNAME_1": " ", "RIVNAME_2": " ", "ZVALUE": 487, "FID": null, "SHAPE_Length": 41.65895119798366}}, {"type": "Feature", "id": 37411, "geometry": {"type": "LineString", "coordinates": [[-60.60933635867156, 46.735389562709926], [-60.60932438060168, 46.735401722854526], [-60.60931031851792, 46.7354160173515], [-60.609074762571744, 46.73541470224838], [-60.60905909085517, 46.73540915484028], [-60.60904769767532, 46.73540512781631], [-60.60902309328265, 46.73536951483468], [-60.60901640552792, 46.735350547762465], [-60.6090102984911, 46.73533324876509]]}, "properties": {"OBJECTID": 37411, "FEAT_CODE": "WALK20", "FEAT_DESC": "Lake - Water to the right line", "RIVNAME_1": " ", "RIVNAME_2": " ", "ZVALUE": 487, "FID": null, "SHAPE_Length": 32.41330850597695}}, {"type": "Feature", "id": 139421, "geometry": {"type": "LineString", "coordinates": [[-60.61820494865224, 46.73719452832842], [-60.61820026001574, 46.73719755356519], [-60.61819146134105, 46.737203247101924], [-60.618191526195425, 46.73721663092045], [-60.61819158075023, 46.737230248515175], [-60.61816419690076, 46.73725756814196], [-60.61811118458355, 46.737302371324944], [-60.61796588680621, 46.737391141694765], [-60.617874142482194, 46.73745312838604], [-60.61778799894822, 46.73747861211507], [-60.617754774977456, 46.73748844069488], [-60.61766291110886, 46.73752342580074], [-60.617578257080645, 46.73754748245526], [-60.61757144336485, 46.73754941944216], [-60.61756382197357, 46.737551564595655], [-60.61741371321976, 46.7375938228964], [-60.6173136762537, 46.73762029479545], [-60.617281266526376, 46.73762887125088], [-60.6170781225317, 46.73762702394357], [-60.6168232784912, 46.73762473800403], [-60.61673927814593, 46.737613466063394], [-60.616680132305916, 46.737605546867464], [-60.616640910140404, 46.73759435296429], [-60.61661550762567, 46.737587100884], [-60.61656808546776, 46.737576033068095], [-60.61645872844687, 46.737550535056585], [-60.616420837298485, 46.73753023417868], [-60.61640629726004, 46.7375224434578], [-60.61626382559075, 46.73745827664212], [-60.61624663072156, 46.737451024546225], [-60.61606848726922, 46.73737590842291], [-60.61597754929209, 46.73733080565388], [-60.61593633366533, 46.73730189465689], [-60.61591278036995, 46.73728536633497], [-60.61581037688646, 46.737203134899204], [-60.61578876047718, 46.73718424402204], [-60.61575869979944, 46.73715795939774], [-60.61570662625288, 46.737121775250934], [-60.6156972517763, 46.737117367992674], [-60.615628396678204, 46.73708504580403], [-60.61559774524634, 46.737072455278074], [-60.615538396975865, 46.73704807092065], [-60.61541753596513, 46.7369875394497], [-60.615356535885134, 46.73695698280154], [-60.615213273728784, 46.73691079747036], [-60.615193977318356, 46.73691083610557], [-60.61517400045527, 46.73691086954894], [-60.61512506594218, 46.73691511398924], [-60.61508201773635, 46.73691886017433], [-60.61505511616273, 46.73691118050253], [-60.61501738137073, 46.73690041303822], [-60.61494444849439, 46.73688072189957], [-60.61491259994659, 46.736872129065986], [-60.614871828192236, 46.73686492507876], [-60.6148606450008, 46.73686294593528], [-60.614834436279104, 46.73686329934276], [-60.61482964544835, 46.73686151650066], [-60.61480869007354, 46.73685376278131], [-60.61471698683282, 46.736825751365274], [-60.61466820312528, 46.73680047092264], [-60.614664517599415, 46.73679855813139], [-60.6146426904705, 46.73677229193169], [-60.61462722761885, 46.7367536821634], [-60.61460135080121, 46.73671714389812], [-60.614588434340206, 46.736653876999334], [-60.614589624514, 46.73662690288884], [-60.61460218809364, 46.73660916562888], [-60.614709550077684, 46.73651960836506], [-60.61480208967837, 46.736439641497675], [-60.614922014398985, 46.73633234673236], [-60.61492912102636, 46.7363276261216], [-60.614974604679034, 46.73629744482692], [-60.61499187601917, 46.73629137923725], [-60.61500119669999, 46.73628809973607], [-60.61505350810178, 46.73628919055759], [-60.61517117017499, 46.7362628451512], [-60.615224822499016, 46.736233833043975], [-60.615236877728094, 46.73622731667097], [-60.61523722569443, 46.73622684694512], [-60.61526335170729, 46.73619097012396], [-60.61526389080702, 46.73616391043314], [-60.615264423559985, 46.73613699460418], [-60.61525170308736, 46.73612862069666], [-60.615212747923415, 46.73609181887556], [-60.6151354313147, 46.736064107762324], [-60.615113569765576, 46.73605909809326], [-60.61509655489297, 46.736055197442546], [-60.615077590889825, 46.73605512599332], [-60.61504420405174, 46.73605500578226], [-60.614873716741265, 46.73606225017218], [-60.614761433506224, 46.73606162751511], [-60.61475593726297, 46.73606159388873], [-60.614716307586164, 46.73606975805637], [-60.614650599501466, 46.73610529522697], [-60.61453186495888, 46.736185615599446], [-60.61446524596643, 46.73621212502021], [-60.61436026476381, 46.73624773384748], [-60.61425492632802, 46.73629143480727], [-60.614195685419666, 46.73630232159433], [-60.61416254816589, 46.73630840708765], [-60.61391283716379, 46.73636079556364], [-60.61389083227758, 46.73636704122638], [-60.61382136972315, 46.73638678621318], [-60.61366375689357, 46.736458194879404], [-60.613531031341566, 46.73652922265335], [-60.6134510667681, 46.736591451599544], [-60.61342541182937, 46.73660891556415]]}, "properties": {"OBJECTID": 139421, "FEAT_CODE": "WALK20", "FEAT_DESC": "Lake - Water to the right line", "RIVNAME_1": " ", "RIVNAME_2": " ", "ZVALUE": 481.3, "FID": null, "SHAPE_Length": 580.6844353635962}}, {"type": "Feature", "id": 139422, "geometry": {"type": "LineString", "coordinates": [[-60.61342541182937, 46.73660891556415], [-60.613389266959636, 46.73658379030425], [-60.613373340004095, 46.736572739381636], [-60.61336913295049, 46.73657167063199], [-60.613334503623896, 46.73656292033453], [-60.61324434977249, 46.73649984144819], [-60.61309502954226, 46.736498435259705], [-60.61308733577751, 46.7364983646919], [-60.613085631683035, 46.736498419124835], [-60.61283830022216, 46.736505766692666], [-60.61270137783753, 46.73650461875208], [-60.61269436412322, 46.73650456235238], [-60.61268313292374, 46.73650041307873], [-60.61266860540465, 46.736495025045684], [-60.612630009519606, 46.73645012116121], [-60.61261970102824, 46.73642092712887], [-60.612604414626176, 46.736377589741366]]}, "properties": {"OBJECTID": 139422, "FEAT_CODE": "WALK20", "FEAT_DESC": "Lake - Water to the right line", "RIVNAME_1": " ", "RIVNAME_2": " ", "ZVALUE": 481.3, "FID": null, "SHAPE_Length": 77.03792701751672}}, {"type": "Feature", "id": 139423, "geometry": {"type": "LineString", "coordinates": [[-60.612604414626176, 46.736377589741366], [-60.61257167000841, 46.73632586924661], [-60.61255302148855, 46.736296420121086], [-60.61255063266838, 46.73629093447059], [-60.61254113484029, 46.736269173060236], [-60.61251536318282, 46.736259635448256], [-60.612475334405005, 46.736239774611434], [-60.61242442972591, 46.736214538926426], [-60.61238468269289, 46.73619570989867], [-60.61238627103069, 46.73615974447282], [-60.612396449251854, 46.73612667625827], [-60.61240002645367, 46.73611503339512], [-60.612400287516905, 46.736093412695794], [-60.61240098462363, 46.73603405658371], [-60.61238896849591, 46.73597980786451], [-60.61239169207512, 46.735799871796615], [-60.61240422837848, 46.735787210006116], [-60.61247115606895, 46.735719633842294], [-60.61253061076808, 46.7356650681282], [-60.61257756925454, 46.73562195907827], [-60.61263554589414, 46.73557299623509], [-60.612683624729236, 46.73553237643006], [-60.61270009077425, 46.73552172255675], [-60.61272404872343, 46.73550622125377], [-60.61273261799838, 46.735488535818554], [-60.612737009648804, 46.735479492842266], [-60.61274154887353, 46.73543894518318], [-60.612752171971664, 46.73534391465256], [-60.612792349220975, 46.73526375642066], [-60.61282013247878, 46.735227428759636], [-60.61298292868173, 46.73511801592466], [-60.61309802490254, 46.735040645101364], [-60.61331009176322, 46.73486237777895], [-60.61335715175705, 46.73480478109284], [-60.61339034678206, 46.734764156393055], [-60.61353630855164, 46.73463039842517], [-60.61357542331359, 46.73460422462853], [-60.613619430506745, 46.734585532609415], [-60.6137208245573, 46.734542460907974], [-60.61381391586545, 46.734479605663594], [-60.613947836230395, 46.734346972892226], [-60.61401238662313, 46.734283054079825], [-60.614119587687206, 46.73416739501316], [-60.614139090415435, 46.73415168347912], [-60.614186086820254, 46.73411388434792], [-60.61438041956796, 46.733967742826806], [-60.61441082697498, 46.733944878986776], [-60.61455571116001, 46.733865104123424], [-60.61458488844159, 46.73384964828992], [-60.61462272385267, 46.733829603210836], [-60.61470071264445, 46.73381233046688], [-60.614871907989745, 46.73375920290999], [-60.615009029281886, 46.73374856287499], [-60.61508205600032, 46.73374288594053], [-60.61515976589665, 46.73376160565978], [-60.61525106766938, 46.73379860802155], [-60.6153284208017, 46.73382541986987], [-60.61545344883399, 46.733857788463474], [-60.61547207152732, 46.7338626135499], [-60.615576847492044, 46.73389089692064], [-60.615666711111466, 46.73390293994252], [-60.61571998384242, 46.73391008026929], [-60.61598089479587, 46.73392992748953], [-60.61605335072849, 46.733941355365666], [-60.61609918455147, 46.733948592451725], [-60.61609997790056, 46.73394900497212], [-60.61615034448827, 46.73397574875386], [-60.61617610266871, 46.73398528526922], [-60.61617616466809, 46.733999020023084], [-60.61617622112682, 46.73401228667977], [-60.61618495147775, 46.73402149528799], [-60.61630505066985, 46.7341481665145], [-60.616391133203386, 46.734223424678], [-60.61640840030402, 46.7342385169556], [-60.61644806524503, 46.73426692750198], [-60.61647311299142, 46.73428486381366], [-60.616648842054545, 46.73434683456487], [-60.616785027873036, 46.734394859597565], [-60.61686068023604, 46.73441307629943], [-60.61686275201393, 46.73441358744962], [-60.616872709871224, 46.73441365994124], [-60.61692816603883, 46.73441404146486], [-60.6171109724802, 46.734424150009666], [-60.617151864382066, 46.73442443497918], [-60.617176399206656, 46.73442461314699], [-60.617255695858105, 46.73440736590801], [-60.61726764504243, 46.734405616923816], [-60.61737425164392, 46.73439002750311], [-60.617557585292786, 46.73432905811099], [-60.61768990404467, 46.73426701683485], [-60.61780823354126, 46.73419568438895], [-60.61790088346403, 46.73414272524132], [-60.61792709375826, 46.734125073845945], [-60.61796698317674, 46.73409819471198], [-60.61807314623185, 46.73403560824898], [-60.61827156254414, 46.73392904462544], [-60.618310674951786, 46.73390286016293], [-60.618389957422856, 46.73388561184275], [-60.61849387605085, 46.733903975071144], [-60.61865060663395, 46.733941437099745], [-60.61867596925326, 46.73395996446093], [-60.618681311327535, 46.73396616844669], [-60.618714568543446, 46.73400486638254], [-60.6187271057511, 46.734017996904214], [-60.61874084294962, 46.734032412358836], [-60.61877880432139, 46.734052569949064], [-60.61879200394142, 46.73405957649607], [-60.61885674503768, 46.73410502262783], [-60.61887754541949, 46.7341127183843], [-60.61888251685749, 46.73411455881555], [-60.6190004121771, 46.734142212204404], [-60.61902609902284, 46.734145950818665], [-60.61906544267479, 46.73415166565803], [-60.61912261494548, 46.73415230683274], [-60.619157023878316, 46.734152672122285], [-60.61924876466982, 46.734179780807786], [-60.619282268647474, 46.7341834570913], [-60.61933995002918, 46.73418977853127], [-60.61947496999075, 46.7341908969329], [-60.61948388044094, 46.73419097439561], [-60.61950967892721, 46.73419961103184], [-60.61954863536465, 46.7342364204205], [-60.619577406158, 46.734264954122565], [-60.61961259868307, 46.734299849223824], [-60.61966479285973, 46.7343630240525], [-60.61967747404566, 46.734372296617096], [-60.61966750242958, 46.734390970344826], [-60.6196632090646, 46.73439899867159], [-60.61966307438835, 46.73441662617385], [-60.619662933406914, 46.73443499151573], [-60.61966860981778, 46.73444341632546], [-60.61967521915591, 46.73445324649621], [-60.619679823311564, 46.73445540323594], [-60.61975344784949, 46.73448997317045], [-60.61987175335564, 46.73450863454711], [-60.61992329810826, 46.73452680651457], [-60.62001489306738, 46.734527812575855], [-60.62004067872434, 46.73453644882424], [-60.620046821870744, 46.73454914015908], [-60.62005387658466, 46.734563722388124], [-60.62006031633689, 46.73465085595684], [-60.62006454473051, 46.734707938693646], [-60.620076830675266, 46.73472619363382], [-60.620094375097366, 46.73474660991106], [-60.62011543166989, 46.734771095108606], [-60.620155789387, 46.73481444918572], [-60.6201666753172, 46.734826150242526], [-60.62016864732449, 46.73482744222573], [-60.620179409351536, 46.734834523885525], [-60.62019254576496, 46.73485219353264], [-60.620192990040344, 46.73485280575301], [-60.620191802734226, 46.73487977998182], [-60.62017884561756, 46.73490650931158], [-60.62015185935761, 46.7349248470469], [-60.62013474404495, 46.73493244660154], [-60.62011314284144, 46.73494204072877], [-60.620058834164276, 46.73497861917064], [-60.62004704418508, 46.734986563514894], [-60.62005220919047, 46.735025342463025], [-60.62005786739001, 46.73506778552891], [-60.62004463473381, 46.73513050768631], [-60.62002981923847, 46.73522918648159], [-60.61997466321122, 46.735381941653834], [-60.6199064295376, 46.73553441565483], [-60.61989872574131, 46.73555271360946], [-60.61988011884153, 46.73559686563765], [-60.61982826690256, 46.73565195336215], [-60.61981283164888, 46.73566836248372], [-60.619791840384615, 46.73569382661517], [-60.61974645619745, 46.73574887790777], [-60.61972628615071, 46.73578571666758], [-60.619692366598464, 46.7358476482691], [-60.61962452737464, 46.73599113066059], [-60.61955735944988, 46.73608962876574], [-60.61953311962811, 46.736119300067564], [-60.61947711340634, 46.7361878546297], [-60.61930251839151, 46.73642126215596], [-60.61923649344086, 46.73650953326694], [-60.61908943297194, 46.736698164407706], [-60.61898302912244, 46.73679584539311], [-60.61895738890106, 46.73681331090178], [-60.618950234257845, 46.736819722695266], [-60.61887698129911, 46.73688543401285], [-60.618771645089716, 46.736929139173576], [-60.6185732184852, 46.73703570342838], [-60.61840257128115, 46.73710594725605], [-60.61839482555435, 46.73710853985797], [-60.61834942713939, 46.73712373987839], [-60.61827672133878, 46.73712322483766], [-60.61821856747996, 46.73712280579658], [-60.61820494865224, 46.73719452832842]]}, "properties": {"OBJECTID": 139423, "FEAT_CODE": "WALK20", "FEAT_DESC": "Lake - Water to the right line", "RIVNAME_1": " ", "RIVNAME_2": " ", "ZVALUE": 481.3, "FID": null, "SHAPE_Length": 1207.526867289978}}, {"type": "Feature", "id": 179115, "geometry": {"type": "LineString", "coordinates": [[-60.61132939982466, 46.73676405213118], [-60.611317326424, 46.73677570651085], [-60.61130205214652, 46.73679047991328], [-60.61128948705634, 46.736808225780635], [-60.611183579520535, 46.736834803701875], [-60.61112930975653, 46.73683951097611], [-60.61109160994264, 46.73684278239065], [-60.61102629631411, 46.736869317074564], [-60.610998734679875, 46.73688310481293], [-60.61097273970716, 46.736896097301575], [-60.61093323736217, 46.73693127075447], [-60.6108974063786, 46.73695564031198], [-60.61088059110007, 46.736967069599245], [-60.6108636921282, 46.73696884051626], [-60.610801686159284, 46.73697532095804], [-60.61070268802929, 46.73697853569358], [-60.610565739339606, 46.73698299142605], [-60.610475247566605, 46.73699484334148], [-60.61043539306507, 46.73700006744474], [-60.61038446984239, 46.73700812915421], [-60.61032993462289, 46.737016763348116], [-60.61031685664127, 46.73701649010194], [-60.61021146614345, 46.73702513263291], [-60.61014723651885, 46.73703364517554], [-60.61002858461112, 46.737023066184015], [-60.60987192712028, 46.7370134927808], [-60.60981135547221, 46.73702690538753], [-60.609793932255606, 46.73703076210819], [-60.609737474714514, 46.737060667007505], [-60.60972691245113, 46.73706626004025], [-60.609568537041355, 46.737154746457186], [-60.6094770662894, 46.73718073356473], [-60.60937196507067, 46.737189336370164], [-60.60928117444265, 46.73717033930834], [-60.60920334696452, 46.737124614211346], [-60.60915207242857, 46.737070462476005], [-60.60908732397065, 46.73702499270066], [-60.60896904330792, 46.73700632068741], [-60.60893474079026, 46.73701475621245], [-60.60886448149106, 46.737032033629674], [-60.608820735979435, 46.73705745202579], [-60.60877177777071, 46.73708589329927], [-60.60863967183272, 46.73720191758804], [-60.60854066762715, 46.73727509357206], [-60.60850705221432, 46.737299949690204], [-60.608348674173946, 46.73738843436451], [-60.60819097680833, 46.73743193482475], [-60.60807183211795, 46.737521239566505], [-60.60800910978549, 46.737593886907796], [-60.607964213562155, 46.73764588386269], [-60.60787456615121, 46.73771848998869], [-60.6077659920799, 46.73780643155695], [-60.60766881240617, 46.737867018443644], [-60.60758022150219, 46.737922241122625], [-60.607409557811, 46.737992468217605], [-60.60721218559632, 46.73804503697143], [-60.607054769607686, 46.73805254317076], [-60.606936410558276, 46.73809681993997], [-60.60681863455839, 46.73812319049248], [-60.6067331160246, 46.738107505598215], [-60.60671347000063, 46.738103899629714], [-60.60660846677068, 46.73813950988387], [-60.606562979387554, 46.738145388733635], [-60.60654263819182, 46.73814802294193], [-60.606477320829555, 46.738174554951215], [-60.606442474463606, 46.738227769583766], [-60.60643660727002, 46.73823670044117], [-60.606421743863244, 46.73824924987862], [-60.60638357177239, 46.738281488716716], [-60.606354338791306, 46.7383081458499], [-60.60634401216692, 46.73831756835113], [-60.60629089020122, 46.73833444687348], [-60.606256275514276, 46.73832832263571], [-60.60623894855652, 46.738325260102364], [-60.6062258702976, 46.73832498638286], [-60.60616517113352, 46.73831107146713], [-60.606148117419835, 46.73830715967262], [-60.60614361693503, 46.73830503155709], [-60.606108371148736, 46.73828832848154], [-60.60609195907107, 46.73827672641175], [-60.60603094303623, 46.73823360994169], [-60.60596782061854, 46.73818899140581], [-60.60595351508041, 46.73817889135182], [-60.605862571059106, 46.738133789393515], [-60.60583864167449, 46.73812492781579], [-60.60583681284134, 46.738124250558286], [-60.60578866148553, 46.738124070571644], [-60.605784460195736, 46.73812405462209], [-60.60574205842855, 46.738143020224854], [-60.60570566607382, 46.73815930372341], [-60.605694022058195, 46.73816300181221], [-60.60567911141992, 46.73816774747183], [-60.60552205337089, 46.73816715937242], [-60.60546974051668, 46.73816606416059], [-60.605311202290316, 46.738228442304134], [-60.605245598874895, 46.738290966205], [-60.60522594928285, 46.73830724012376], [-60.60519260218795, 46.73833485477785], [-60.60514846742258, 46.73836426846167], [-60.60505906451806, 46.73842385501493], [-60.604926661398046, 46.73857587637397], [-60.604899398359706, 46.738594096721755], [-60.60488619154818, 46.73860292779841], [-60.60482837816476, 46.73862640313449], [-60.604820872851384, 46.73862945883423], [-60.60470164720903, 46.73869085946888], [-60.60459676763761, 46.738753460403785], [-60.60457562992591, 46.738757814512056], [-60.60455713417647, 46.7387616299731], [-60.604540879642315, 46.73876183851539], [-60.60453093843423, 46.73876196329179], [-60.60442655695084, 46.738724696436066], [-60.60422541597865, 46.73863355575417], [-60.60420582036087, 46.738624676618166], [-60.604140289668294, 46.73859720494967], [-60.604122041226866, 46.7385945547754], [-60.604075256796584, 46.73858774296372], [-60.604036021892085, 46.738586921055436], [-60.60400944000712, 46.738596263810535], [-60.603983781123794, 46.738613725576805], [-60.60397041657877, 46.73864944418563], [-60.60392954768231, 46.738685486558396], [-60.60391561174815, 46.73869481522822], [-60.6038904249492, 46.73871166588788], [-60.60381445107141, 46.73873197036081], [-60.603759275168116, 46.738746725758666], [-60.6035092574649, 46.73883507468658], [-60.60345570836388, 46.73886185155298], [-60.60343004917706, 46.738879313188576], [-60.603349671043176, 46.738950526059455], [-60.60331762670371, 46.73896496498526], [-60.60330958529291, 46.73896859432904], [-60.60325768386568, 46.73895849808217], [-60.603193049386874, 46.738940044297856], [-60.60314018548957, 46.73892183714636], [-60.60310221834032, 46.73892194145014], [-60.603022990690846, 46.73895066387521], [-60.60298247969159, 46.73896533025164], [-60.602943204675285, 46.73896540709268], [-60.60287688401652, 46.73895575544243], [-60.60281313854771, 46.73894648171498], [-60.60277390341921, 46.73894565936919], [-60.60277350469857, 46.738954650658165], [-60.60277361637392, 46.73898165193676], [-60.60281175399895, 46.73903644915516], [-60.60283358922602, 46.73905681401994], [-60.602889703796215, 46.73910917110093], [-60.602889304693825, 46.7391181713817], [-60.602885266828, 46.739123324547506], [-60.60287542886295, 46.739135879854594], [-60.602861951731626, 46.73914459703636], [-60.60282267658649, 46.73914467383355], [-60.60274188223095, 46.73914377239184], [-60.602731087746875, 46.73914365413611], [-60.60272844088126, 46.739143121676655], [-60.60249624293002, 46.73909642422058], [-60.602439508851276, 46.739083427410016], [-60.602418489883625, 46.73907860396999], [-60.6022741488778, 46.73908637767641], [-60.602142886243286, 46.739094425390846], [-60.60203872926914, 46.73911114093724], [-60.60200686059624, 46.739118068474674], [-60.60195942121707, 46.73912837739186], [-60.60185362873357, 46.73918195702739], [-60.601814118848615, 46.73921712717562], [-60.601748098247114, 46.739288639970106], [-60.60166839093821, 46.73931486749723], [-60.60162871676767, 46.739323935162986], [-60.60158995150734, 46.73934202152076], [-60.60156299633321, 46.73935946456067], [-60.60152347344923, 46.739394625336], [-60.601415283758676, 46.739508109935755], [-60.60140402558637, 46.739519915360916], [-60.60136314125487, 46.73955595649303], [-60.60121794764576, 46.739671706736104], [-60.601148310458136, 46.739725864011525], [-60.6011379644422, 46.73973392668986], [-60.60110576668539, 46.73975563349205], [-60.60098006416576, 46.739840410475594], [-60.60089531586321, 46.73989731051555], [-60.600873471225896, 46.739911971704856], [-60.600728041256986, 46.73997371849357], [-60.60071013167031, 46.73998053351131], [-60.60063616261759, 46.7400086896228], [-60.60057123930562, 46.74002622688166], [-60.60049232858629, 46.74003447101003], [-60.60036186173212, 46.740024534087254], [-60.600217569684325, 46.74000666623791], [-60.60020432901368, 46.74000502947589], [-60.60017831308066, 46.74000011877741], [-60.60000051184611, 46.739966554140025], [-60.59995636398273, 46.73995842802371], [-60.5999380601518, 46.73995230215672], [-60.59993055300351, 46.73994978671645], [-60.59988843384799, 46.73994196413485], [-60.59982668320361, 46.73993049869283], [-60.599748184447954, 46.73992976030619], [-60.59970233503284, 46.739929590068286], [-60.59969583018547, 46.73992956155027], [-60.599642677414664, 46.73994734530399], [-60.59956765704625, 46.73998088744834], [-60.59956387714783, 46.73998258104746], [-60.59947130881456, 46.74006254399572], [-60.59940438820282, 46.74012504590098], [-60.59939790988932, 46.74012500892332], [-60.599299679715116, 46.740124639052084], [-60.59927352246013, 46.7401240900095], [-60.599226386303506, 46.740129013370534], [-60.59919461143464, 46.740132333235806], [-60.59916926456283, 46.740139180889635], [-60.599129674458375, 46.74014986938985], [-60.59906345573488, 46.74016737860057], [-60.598945777887515, 46.7401937071111], [-60.59885378847612, 46.740201666546696], [-60.598827631192435, 46.74020111740151], [-60.59874788084299, 46.74022825095489], [-60.598587670804406, 46.74022657920151], [-60.59857777855524, 46.74022647949736], [-60.598447311677006, 46.740216540388374], [-60.598442244058305, 46.74021598399908], [-60.59835612071491, 46.74020652589633], [-60.59826409086519, 46.74021539297251], [-60.59820415394357, 46.740214962307896], [-60.59819865771921, 46.74021491888675], [-60.598132825066116, 46.74022343601999], [-60.59806750121608, 46.74024996309292], [-60.59792246680311, 46.740302714978014], [-60.5978987884145, 46.74030795045661], [-60.59784446365322, 46.74031997598606], [-60.59776031307298, 46.74034153564997], [-60.59760743858228, 46.740380694995], [-60.59749074305104, 46.74039579308439], [-60.59747575921299, 46.74039773724745], [-60.59744957537663, 46.740398078194204], [-60.597306538239394, 46.740405873022524], [-60.59727181284397, 46.74041136228294], [-60.59720106953155, 46.740422556608955], [-60.59707253795825, 46.74045447794478], [-60.59699060042359, 46.74047483258655], [-60.59663629385262, 46.74055288464336], [-60.59655698209136, 46.74057011727544], [-60.596488897759826, 46.74057420331818], [-60.596412597361635, 46.7405787646329], [-60.596354188058726, 46.74058312591489], [-60.596308834960695, 46.74058650160798], [-60.59625138852033, 46.74058628425374], [-60.5962041253143, 46.74058610089948], [-60.59611201311889, 46.7405670656092], [-60.59610773243483, 46.74056794760023], [-60.5960724033077, 46.740575232736305], [-60.595967388585876, 46.74061083298453], [-60.595958236506064, 46.74061704836399], [-60.59594173967176, 46.74062828415793], [-60.595915142365016, 46.740637624708576], [-60.59588789346477, 46.74069104982444], [-60.59587492253079, 46.74071778511633], [-60.595823938937734, 46.740747384229664], [-60.595782200213684, 46.74077162487256], [-60.595729085379375, 46.74078850764124], [-60.59557172846343, 46.74082389818468], [-60.5955098446138, 46.74082925694969], [-60.59547973758581, 46.740831854875836], [-60.59534926955973, 46.74082192120761], [-60.595308612925805, 46.740812120766265], [-60.595271557000984, 46.740803187984916], [-60.59523178594626, 46.74078525245578], [-60.595211591015264, 46.740781326982294], [-60.595179857884, 46.74077516098223], [-60.59516072195789, 46.740775091615824], [-60.595127489823206, 46.74077495984473], [-60.59502784533736, 46.74077457456479], [-60.59502279334194, 46.7407745493316], [-60.595021500824096, 46.7407747651438], [-60.59491732288813, 46.74079123977526], [-60.59489303393226, 46.74079106200455], [-60.59485188915006, 46.74079076376194], [-60.59483274456822, 46.740795301977734], [-60.59481352071066, 46.740799856522486], [-60.594781675841084, 46.74081179535125], [-60.59472032913028, 46.740834795292464], [-60.594548799897204, 46.740923884264205], [-60.59436543176367, 46.740984825065745], [-60.59418112858456, 46.74103764622303], [-60.59414699110316, 46.74105226354361], [-60.59414107873888, 46.74105480307221], [-60.59410970286519, 46.74106943347398], [-60.59410230980845, 46.7410728868166], [-60.594048461035875, 46.74113565156433], [-60.59392972459525, 46.7412150685612], [-60.59387616932057, 46.741241822816214], [-60.59374251148912, 46.74128617807546], [-60.593718049468954, 46.741294294088554], [-60.59368447855007, 46.74131323402154], [-60.59355956907315, 46.741383674106444], [-60.59345421787951, 46.74142734665127], [-60.59339402341023, 46.74145178307018], [-60.59338890383905, 46.741453862260244]]}, "properties": {"OBJECTID": 179115, "FEAT_CODE": "WARV50", "FEAT_DESC": "River - Single Line", "RIVNAME_1": " ", "RIVNAME_2": " ", "ZVALUE": 9999, "FID": null, "SHAPE_Length": 1650.0133394729696}}, {"type": "Feature", "id": 181023, "geometry": {"type": "LineString", "coordinates": [[-60.612604414626176, 46.736377589741366], [-60.612536836498776, 46.73648507482791], [-60.6125285575907, 46.73649677254382], [-60.61252425920278, 46.73650281157629], [-60.61245776850858, 46.736556321442684], [-60.61242188454894, 46.73658072637009], [-60.61240513668158, 46.73659212128996], [-60.61239311744824, 46.73660374091513], [-60.61237778960964, 46.736618549341415], [-60.61233767437082, 46.736726607610095], [-60.61230992929667, 46.73676204498074], [-60.61225729796298, 46.736797826770584], [-60.61223616331999, 46.73680925607918], [-60.61219158781016, 46.73683335348627], [-60.612153279617765, 46.73684210233319], [-60.61215191710003, 46.736842424873245], [-60.612125172253805, 46.73684217248969], [-60.61168087244753, 46.73683798940443], [-60.61165027131899, 46.736832580583865], [-60.611628918538166, 46.736828795824735], [-60.61151181556097, 46.73678316110064], [-60.61132939982466, 46.73676405213118]]}, "properties": {"OBJECTID": 181023, "FEAT_CODE": "WARV50", "FEAT_DESC": "River - Single Line", "RIVNAME_1": " ", "RIVNAME_2": " ", "ZVALUE": 481.3, "FID": null, "SHAPE_Length": 128.9077262578097}}, {"type": "Feature", "id": 181024, "geometry": {"type": "LineString", "coordinates": [[-60.60715065870651, 46.73144970638524], [-60.607151056595285, 46.731440715055655], [-60.60716278352169, 46.73153093894231], [-60.60718812956069, 46.731604150422186], [-60.60721267284548, 46.731675095187576], [-60.60722038995619, 46.73170005968329], [-60.60723786059947, 46.73175661902303], [-60.6072749712918, 46.73186449128172], [-60.607376102551314, 46.732063699363714], [-60.60741121519018, 46.732107290250084], [-60.60742697207661, 46.73212686113073], [-60.60754377745408, 46.73220850149058], [-60.6075472775391, 46.73221163458786], [-60.60759539010104, 46.732254579384865], [-60.607698053079886, 46.7323899216728], [-60.60783660772175, 46.73251488199527], [-60.607839024602455, 46.73251705646368], [-60.6079805081427, 46.73266221908882], [-60.6079949100185, 46.73268254451931], [-60.60800637859254, 46.73269875875713], [-60.608011296583484, 46.73271629393842], [-60.608018814165725, 46.732743117130234], [-60.60801325072539, 46.73307598789374], [-60.60801832200015, 46.733098935070046], [-60.60802524843768, 46.733130245722414], [-60.608063515454006, 46.7332120338921], [-60.60812786163042, 46.73326647752475], [-60.608179926355426, 46.73330266498228], [-60.60837444222617, 46.73340302890435], [-60.60855240749771, 46.733478090400546], [-60.60856975418787, 46.73348540983599], [-60.60858060267709, 46.73349049647928], [-60.60876466910296, 46.73357678178078], [-60.608807336234044, 46.73360113592115], [-60.60882850358879, 46.733613224013645], [-60.6088674526007, 46.733650027910606], [-60.608883731382164, 46.73368919273406], [-60.608893478692735, 46.73371266961049], [-60.608898541793536, 46.73372426801452], [-60.60890534989861, 46.73373991674377], [-60.6089095839098, 46.73386556838164], [-60.60891384474517, 46.73399209354387], [-60.608930347866135, 46.73403181202714], [-60.60893987143817, 46.73405472624246], [-60.60893947381038, 46.734063717579666], [-60.60894746692089, 46.73407358630486], [-60.60904248823411, 46.73419096627047], [-60.609045484481626, 46.734193953792996], [-60.60910643894209, 46.734254400721554], [-60.60919732653508, 46.73430039891756], [-60.60920578800817, 46.73430293370057], [-60.60928776761117, 46.73432748844328], [-60.609313922254834, 46.73432803514543], [-60.60935409107027, 46.73433697445418], [-60.60947183983071, 46.73433853563832], [-60.60951071402664, 46.73434744783282], [-60.60952566770152, 46.73435383513953], [-60.60957494824322, 46.73437488034735], [-60.60960430214725, 46.73439247618652], [-60.60966674627334, 46.734429905844905], [-60.60971755382512, 46.73446556233594], [-60.60973150608094, 46.73447535755311], [-60.60977195831996, 46.734496839148704], [-60.609782675875, 46.73450252591652], [-60.60981048293197, 46.734507444868484], [-60.60983461493463, 46.734511702035256], [-60.6098428049465, 46.73451179219299], [-60.609913118516126, 46.73451245161083], [-60.609939273261126, 46.73451299817171], [-60.610005199618584, 46.73453147515422], [-60.61014795104903, 46.73455965708781], [-60.610213492795474, 46.73458713456158], [-60.610242511533464, 46.73462860829997], [-60.610263970926255, 46.734659277499844], [-60.610367311192476, 46.73474963322458], [-60.61038050417603, 46.73477690781453], [-60.61041758327759, 46.734885678290276], [-60.610433287471444, 46.734988224399515], [-60.610440945558, 46.73503826044752], [-60.610441808130204, 46.735039475422134], [-60.61046681876708, 46.735074799597136], [-60.61059563613327, 46.73521068562221], [-60.61076265032086, 46.73540046734994], [-60.610907340436846, 46.735635734708396], [-60.61094094862015, 46.73569038061445], [-60.611132250345726, 46.73595266627727], [-60.61123237964973, 46.73612022509142], [-60.61123462148825, 46.736123997767336], [-60.611240935965974, 46.736146988750946], [-60.61124703375267, 46.7361692552367], [-60.61124602069773, 46.736236029452925], [-60.61124567656903, 46.73625922335349], [-60.61124403844847, 46.73638517518605], [-60.61121680646938, 46.73643861330284], [-60.61121495309516, 46.73644115749198], [-60.61119032967796, 46.73647495885887], [-60.611196940702854, 46.736504273788796], [-60.61120237133903, 46.73652830827152], [-60.61121475750015, 46.736573565196394], [-60.61121369465703, 46.73662754087248], [-60.61132939982466, 46.73676405213118]]}, "properties": {"OBJECTID": 181024, "FEAT_CODE": "WARV50", "FEAT_DESC": "River - Single Line", "RIVNAME_1": " ", "RIVNAME_2": " ", "ZVALUE": 9999, "FID": null, "SHAPE_Length": 726.3925988307205}}, {"type": "Feature", "id": 181315, "geometry": {"type": "LineString", "coordinates": [[-60.62570528640252, 46.7410754142696], [-60.62568838679114, 46.741081354197505], [-60.62567869335269, 46.74108477082471], [-60.625639974032644, 46.74110196631204], [-60.62560719648207, 46.74112128305413], [-60.625533805266485, 46.74116455963516], [-60.62546958276045, 46.74120772053187], [-60.62542858868222, 46.74123527229874], [-60.62533628857526, 46.74128015409908], [-60.62518865963989, 46.741319504208455], [-60.625138933540335, 46.7413327541399], [-60.625130956640305, 46.74133672834119], [-60.625033185228546, 46.74138545613088], [-60.624946924345736, 46.74143320790761], [-60.624809113173974, 46.74150949790266], [-60.62472932072267, 46.741544100382534], [-60.62462495858025, 46.741589370086416], [-60.62447993165937, 46.74164216477594], [-60.62420192032608, 46.74180197455424], [-60.624174979566504, 46.741818334252], [-60.62407010745701, 46.741882033106165], [-60.62398289965603, 46.74192001788174], [-60.623805841021046, 46.741997138274456], [-60.62355679089696, 46.74209365975986], [-60.623506657048914, 46.742103354654326], [-60.623464365841386, 46.742111538552265], [-60.62344657047027, 46.74211520962818], [-60.623424732494996, 46.742119714664035], [-60.623372791344124, 46.742126447065466], [-60.62329306932492, 46.74213677799485], [-60.623097004133896, 46.742189401316836], [-60.62302198049357, 46.74219469990557], [-60.62297881546818, 46.7421977446725], [-60.62295742592707, 46.74220455384538], [-60.62292572029845, 46.742214640472916], [-60.6228603929376, 46.74224117261767], [-60.622769644627155, 46.74229741513792], [-60.62270158743032, 46.74233957681552], [-60.622635877028785, 46.742375109503875], [-60.62260847992926, 46.74238545659171], [-60.62245083038705, 46.74244506004911], [-60.62229241946369, 46.74253446324753], [-60.62223944509616, 46.74257836014163], [-60.6221994843791, 46.74262342752098], [-60.62211935417642, 46.742748656467455], [-60.62209989682619, 46.74279991884119], [-60.62205123763069, 46.74292813292845], [-60.62199583032652, 46.74301898420994], [-60.621969403067475, 46.74306232596436], [-60.621954077119405, 46.74310091272937], [-60.621901681191424, 46.743232810902946], [-60.621888052694416, 46.74330452460153], [-60.62186039261346, 46.743367846880055], [-60.621820333161516, 46.74341394702858], [-60.62180661274282, 46.74342972608793], [-60.62179957095103, 46.743456470571545], [-60.62179246733825, 46.743483429760374], [-60.621792516043755, 46.743497497198824], [-60.62179254887599, 46.743511330316736], [-60.62179030346465, 46.743681376681145], [-60.62176224742952, 46.743753690332376], [-60.621745625749845, 46.74378631036676], [-60.62173502215138, 46.743807122022844], [-60.62168383945578, 46.743869766145345], [-60.62165476799886, 46.743905349155085], [-60.62164149505917, 46.743968970543094], [-60.621651136988035, 46.744011667301145], [-60.62165354846156, 46.744022319012025], [-60.62166583694453, 46.74404057380315], [-60.621736436511185, 46.744082027192434], [-60.621743685030275, 46.74408629074509], [-60.62191246142215, 46.74417799643046], [-60.621979206398144, 46.744224346320244], [-60.621989953877275, 46.74423180547692], [-60.62199740012222, 46.74423960997943], [-60.62201623475122, 46.744259350777874], [-60.62201852857975, 46.744265239229456], [-60.62204092020511, 46.744322861428365], [-60.62204860463071, 46.744343999333374], [-60.62205377832986, 46.74435822731929], [-60.622065913874415, 46.74443947630516], [-60.62206560497826, 46.74446107799761], [-60.62206457395188, 46.74452944475921], [-60.622088085889864, 46.74461992989162], [-60.62209658602379, 46.744640382779934], [-60.62211413221022, 46.74468256885206], [-60.622126645709024, 46.74469601346672], [-60.62216538693341, 46.744737623213545], [-60.622193938167335, 46.74476594464072], [-60.622229364933375, 46.74480105972346], [-60.62232045546615, 46.74487315048908], [-60.62234444726544, 46.74489024455214], [-60.62237250127125, 46.74491023093907], [-60.622515026265035, 46.74497349114992], [-60.62258020381286, 46.74498943434614], [-60.62263161259001, 46.74500201344166], [-60.62278920865292, 46.74502058841616], [-60.62285381790082, 46.745039930504085], [-60.62307578936546, 46.7451129408306]]}, "properties": {"OBJECTID": 181315, "FEAT_CODE": "WARV50", "FEAT_DESC": "River - Single Line", "RIVNAME_1": " ", "RIVNAME_2": " ", "ZVALUE": 9999, "FID": null, "SHAPE_Length": 664.4214181995193}}, {"type": "Feature", "id": 183828, "geometry": {"type": "LineString", "coordinates": [[-60.61941412607268, 46.73770748313438], [-60.61935919801153, 46.73763112084796], [-60.61933382028155, 46.73760962345681], [-60.619280341607514, 46.73759101499887], [-60.61927283818864, 46.737588401911594], [-60.61920103109851, 46.73756003427825], [-60.61909728417906, 46.73753671649191], [-60.61906640884252, 46.73753304988317], [-60.61904015646759, 46.73752992948574], [-60.61900729881412, 46.73749161797301], [-60.61895033745458, 46.737492052097316], [-60.618889903401104, 46.737497327700936], [-60.61885930494441, 46.73748797002727], [-60.61883614685591, 46.73748087316327], [-60.61876051066491, 46.737440483008854], [-60.61870663994274, 46.73741919322516], [-60.618696965358005, 46.73740792223858], [-60.61867376991157, 46.737380872357825], [-60.61861273755405, 46.73735723750781], [-60.618572896779476, 46.73732620517682], [-60.61853276400094, 46.737280704327006], [-60.61850003345878, 46.73724962202505], [-60.618494994767985, 46.73724751918867], [-60.618431776156825, 46.73722121982281], [-60.618396477905364, 46.73723594620048], [-60.61839387990861, 46.737244108775776], [-60.618386467132325, 46.737267371488336], [-60.618362261093814, 46.73730130007357], [-60.61833067671836, 46.737323240481814], [-60.61829502213498, 46.737321094078936], [-60.61828802563799, 46.73731648456256], [-60.61826973384991, 46.737304413120214], [-60.618254723795, 46.737268362970646], [-60.61820948212674, 46.737201264472105], [-60.61820494865224, 46.73719452832842]]}, "properties": {"OBJECTID": 183828, "FEAT_CODE": "WARV50", "FEAT_DESC": "River - Single Line", "RIVNAME_1": " ", "RIVNAME_2": " ", "ZVALUE": 9999, "FID": null, "SHAPE_Length": 131.56776731395126}}, {"type": "Feature", "id": 183829, "geometry": {"type": "LineString", "coordinates": [[-60.62139995784603, 46.73897594480512], [-60.621437193333946, 46.738951709173165], [-60.62151033376489, 46.738933179000114], [-60.62156581937297, 46.738930022015744], [-60.621575596123655, 46.73892946935425], [-60.62161215976872, 46.7389202040927], [-60.6216718618292, 46.73887893127064], [-60.621695329741826, 46.73883943386961], [-60.62170839381786, 46.73878974852837], [-60.621708979287284, 46.73877673822523], [-60.62171028588076, 46.738747336575486], [-60.6217120034934, 46.73870888983557], [-60.62171252092247, 46.738697426055346], [-60.621744973582246, 46.73868102855095], [-60.621745829988384, 46.738680605376366], [-60.62176851650185, 46.7386585690102], [-60.62175901081437, 46.738630049491064]]}, "properties": {"OBJECTID": 183829, "FEAT_CODE": "WARV50", "FEAT_DESC": "River - Single Line", "RIVNAME_1": " ", "RIVNAME_2": " ", "ZVALUE": 483.2, "FID": null, "SHAPE_Length": 54.366088620635146}}, {"type": "Feature", "id": 183830, "geometry": {"type": "LineString", "coordinates": [[-60.62088815396118, 46.739183046159425], [-60.62089289672686, 46.73916540652609], [-60.620896827234745, 46.73915075587607], [-60.6209385642973, 46.73910663484559], [-60.62098491966308, 46.73908042014631], [-60.6210238648883, 46.73905838912459], [-60.621070818959815, 46.739059320754066], [-60.62112455360908, 46.739070373992675], [-60.62115557616191, 46.73905138201387], [-60.621187756290084, 46.739031667132366], [-60.62127205553785, 46.73900587249774], [-60.62127583278076, 46.739004817101076], [-60.621330646979295, 46.73898955075267], [-60.62137700812948, 46.73898045332759], [-60.62139995784603, 46.73897594480512]]}, "properties": {"OBJECTID": 183830, "FEAT_CODE": "WARV50", "FEAT_DESC": "River - Single Line", "RIVNAME_1": " ", "RIVNAME_2": " ", "ZVALUE": 483.2, "FID": null, "SHAPE_Length": 49.68082337049554}}, {"type": "Feature", "id": 183831, "geometry": {"type": "LineString", "coordinates": [[-60.619115387955404, 46.73997277387354], [-60.619142770055795, 46.73985634857209], [-60.61915802437363, 46.73974777948368], [-60.61917770853973, 46.73967832503639], [-60.61918592251162, 46.73964935518812], [-60.619174860251036, 46.73951413033586], [-60.619154555067, 46.739425295208946], [-60.61912547086786, 46.739298010864125], [-60.619089123874, 46.73917215925806], [-60.619051099689734, 46.73905437239897], [-60.61903898266192, 46.73897312340118], [-60.61905352544785, 46.73891042866344], [-60.6190803546877, 46.738865988968875], [-60.619097344054545, 46.73885444510928], [-60.61910734332136, 46.73884765154106], [-60.619107486145644, 46.738829250250944], [-60.61910761948628, 46.73881165873097], [-60.61900532506585, 46.73866733495003], [-60.61900527311052, 46.7386542483919], [-60.61900520527495, 46.738640333536274], [-60.6190583507235, 46.73862254063703], [-60.61922805384464, 46.7386332729444], [-60.6192415282808, 46.7386245537819], [-60.61924179127097, 46.73858856069629], [-60.619232158665085, 46.7385742487532], [-60.61922951786319, 46.73857030593894], [-60.61919055863887, 46.738533496413496], [-60.61916515415481, 46.73851586827689], [-60.61891654524228, 46.738513392820856], [-60.61890760545577, 46.73851039882147], [-60.618890744427866, 46.7385047650119], [-60.61887354618268, 46.73850054612258], [-60.61885061083394, 46.73849492084208], [-60.61884508528682, 46.738491088954746], [-60.618825193402934, 46.738477292359924], [-60.61880539842041, 46.73845654105705], [-60.618798916880735, 46.73844974638195], [-60.61879542796534, 46.738444552949595], [-60.61878663057569, 46.738431491307715], [-60.618778207977385, 46.73841408164215], [-60.618773432492326, 46.738404217608846], [-60.6187755952352, 46.738310837368445], [-60.618776361548726, 46.738278283623565], [-60.61880319067984, 46.73823384398795], [-60.618855027951014, 46.73821602394762], [-60.61893132989411, 46.7381946633586], [-60.61894780409318, 46.73819005651824], [-60.618949852197225, 46.73818873121039], [-60.61896127845998, 46.73818133738694], [-60.618948752613555, 46.73810907949847], [-60.618949083995204, 46.73808669529101], [-60.61894942488067, 46.73806409528996], [-60.61896016092948, 46.73805037834942], [-60.61896329523205, 46.73804638476116], [-60.61897457663201, 46.7380336601332], [-60.619003241992054, 46.73800131819472], [-60.61904196107605, 46.737984124944084], [-60.619095382401085, 46.73793033020726], [-60.61912884970454, 46.73790814079689], [-60.61914931868655, 46.73789456344603], [-60.61925532851716, 46.73780587375632], [-60.619291319362375, 46.73777304525324], [-60.619294878894124, 46.73776979847753], [-60.61941412607268, 46.73770748313438]]}, "properties": {"OBJECTID": 183831, "FEAT_CODE": "WARV50", "FEAT_DESC": "River - Single Line", "RIVNAME_1": " ", "RIVNAME_2": " ", "ZVALUE": 9999, "FID": null, "SHAPE_Length": 321.7542469087871}}, {"type": "Feature", "id": 185874, "geometry": {"type": "LineString", "coordinates": [[-60.62175901081437, 46.738630049491064], [-60.621740463178, 46.73862525399751], [-60.62172738469889, 46.73862498204822], [-60.62170159722806, 46.73861633715351], [-60.621663139872354, 46.738597538189374], [-60.621625795213156, 46.73857159863756], [-60.621611060522916, 46.73856136563274], [-60.62154709036314, 46.73849792886296], [-60.6214182374702, 46.73836205459475], [-60.62136611963453, 46.738335690731], [-60.62132731932431, 46.73831606555273], [-60.62126334938721, 46.738252637624626], [-60.621223558119596, 46.738234710732115], [-60.621198179577846, 46.738216183623585], [-60.62110644444939, 46.73818906765585], [-60.621078175007995, 46.738183583867645], [-60.621054526255634, 46.738178997149014], [-60.620988819973455, 46.73821452898794], [-60.62096183228536, 46.7382328668793], [-60.62093398480382, 46.73822582589508], [-60.62092299284917, 46.738223059356116], [-60.62084436231926, 46.73819532479826], [-60.620818741811085, 46.73817724255376], [-60.62080627478634, 46.7381684335601], [-60.62079967630755, 46.738158639686084], [-60.620793987855095, 46.738150178689395], [-60.62080722052118, 46.738087456473245], [-60.620799840574314, 46.738066567786255], [-60.62079441719905, 46.738051191580325], [-60.62076901239852, 46.738033563793216], [-60.620757716030575, 46.738029386961855], [-60.62074325146593, 46.73802402826812], [-60.620678611736224, 46.73800558427534], [-60.62063863762264, 46.737991820207284], [-60.6206257425347, 46.73798738511321], [-60.62057422077524, 46.73796831399441], [-60.62050878965528, 46.737967852721795], [-60.620455249541955, 46.73799463772414], [-60.620446200354834, 46.73799799531489], [-60.620429965395, 46.738004011292276], [-60.62036405754997, 46.73798464077388], [-60.62034445575513, 46.73797436033827], [-60.62026041887682, 46.73793028654052], [-60.62021079233464, 46.73790176906913], [-60.62011742520527, 46.737848114405004], [-60.620092060306916, 46.737829587332314], [-60.620022555855876, 46.737802123097325], [-60.620000708783664, 46.737793487813384], [-60.6199424102954, 46.7377930666419], [-60.61986984700493, 46.73779256458237], [-60.61971244590893, 46.737800088525546], [-60.61963986993451, 46.73779957705635], [-60.619581571053764, 46.73779916469224], [-60.619514963551694, 46.737762697802], [-60.61941412607268, 46.73770748313438]]}, "properties": {"OBJECTID": 185874, "FEAT_CODE": "WARV50", "FEAT_DESC": "River - Single Line", "RIVNAME_1": " ", "RIVNAME_2": " ", "ZVALUE": 9999, "FID": null, "SHAPE_Length": 233.3995131531549}}, {"type": "Feature", "id": 222830, "geometry": {"type": "LineString", "coordinates": [[-60.62268345784624, 46.739388219456494], [-60.622612528737044, 46.739387717112436], [-60.622552605120305, 46.73938729949577], [-60.62254162371124, 46.7393822024268], [-60.622514106979345, 46.73936940893779], [-60.62247474986391, 46.739341582910335], [-60.622423460572975, 46.73928741887866], [-60.622346409590556, 46.73922371964757], [-60.62232494227333, 46.739196607450104], [-60.62228192050237, 46.73914228223509], [-60.622260945832245, 46.739127482771984], [-60.62224383158652, 46.739115391454334], [-60.622191395802965, 46.73908730243181], [-60.62216599006083, 46.73906967494063], [-60.6221381116685, 46.738990708500346], [-60.62212757676939, 46.73896088066816], [-60.6220946114198, 46.73887405976809], [-60.62209003641908, 46.73886200413196], [-60.62207472704301, 46.73884013170675], [-60.62203953898892, 46.738789857108145], [-60.62200018213908, 46.73876203991847], [-60.621884131653964, 46.73866243091878], [-60.62183054720147, 46.73864856427221], [-60.62175901081437, 46.738630049491064]]}, "properties": {"OBJECTID": 222830, "FEAT_CODE": "WARV50", "FEAT_DESC": "River - Single Line", "RIVNAME_1": " ", "RIVNAME_2": " ", "ZVALUE": 9999, "FID": null, "SHAPE_Length": 118.00570657047237}}, {"type": "Feature", "id": 222831, "geometry": {"type": "LineString", "coordinates": [[-60.621862195371996, 46.73931224368585], [-60.62186417998684, 46.73930105340267], [-60.62186703885498, 46.739284868498935], [-60.62185447814922, 46.739242174036804], [-60.62180229339763, 46.73919618077566], [-60.62175229932232, 46.73917061722256], [-60.62172099696783, 46.73915461295109], [-60.621678302715424, 46.739147308427945], [-60.62163846677951, 46.73914049530866], [-60.62160656648545, 46.73913986795338], [-60.62156620433708, 46.73913906462445], [-60.62151564009035, 46.739138067122916], [-60.621499158347994, 46.73912856274318], [-60.621466284057234, 46.739109609829235], [-60.621446504327174, 46.739066765193485], [-60.62142762906251, 46.739003960165874], [-60.62139995784603, 46.73897594480512]]}, "properties": {"OBJECTID": 222831, "FEAT_CODE": "WARV50", "FEAT_DESC": "River - Single Line", "RIVNAME_1": " ", "RIVNAME_2": " ", "ZVALUE": 483.2, "FID": null, "SHAPE_Length": 58.84014010335642}}, {"type": "Feature", "id": 223184, "geometry": {"type": "LineString", "coordinates": [[-60.62340434043115, 46.739286205657635], [-60.623391261776426, 46.73928593389558], [-60.62320729061053, 46.73930281015657], [-60.62303806228732, 46.739310092909925], [-60.622919497630726, 46.73932742801659], [-60.622801819214786, 46.73935378105784], [-60.62276855676121, 46.739366265186725], [-60.62270863429142, 46.73938874275372], [-60.62269556869719, 46.73938847118354]]}, "properties": {"OBJECTID": 223184, "FEAT_CODE": "WARV50", "FEAT_DESC": "River - Single Line", "RIVNAME_1": " ", "RIVNAME_2": " ", "ZVALUE": 9999, "FID": null, "SHAPE_Length": 55.97834896933555}}, {"type": "Feature", "id": 295410, "geometry": {"type": "LineString", "coordinates": [[-60.61416247159857, 46.73794330779954], [-60.61411144585222, 46.737872415164105], [-60.61408806163923, 46.73782952103984], [-60.61408216473706, 46.737819282427964], [-60.614044462817425, 46.73775377950126], [-60.6140434945101, 46.73772856030061], [-60.61404109608715, 46.737666340731884], [-60.614051260927674, 46.73759915445197], [-60.61402805111586, 46.73750396702358], [-60.61402373992182, 46.7374862737844], [-60.61401213512171, 46.7374680414065], [-60.613956207109986, 46.73738010909832], [-60.613954906511715, 46.737352039075844], [-60.6139543718082, 46.737340130392006], [-60.61394818283661, 46.737324350898305], [-60.613921907399096, 46.737257106380746], [-60.61387491995186, 46.73717629927329], [-60.6138304543751, 46.73712050977135], [-60.61381005493202, 46.73709571314188], [-60.613782463128736, 46.73706215379289], [-60.613731530794084, 46.737007264291925], [-60.61370901083539, 46.73698217141177], [-60.61370323511993, 46.736975715157705], [-60.61369381334693, 46.73696408003337], [-60.613672424954096, 46.73693766980787], [-60.61366231983451, 46.7369219435844], [-60.613631887224535, 46.73687445647401], [-60.61360533442931, 46.736821515525634], [-60.61357463475394, 46.73678097055238], [-60.6135498535295, 46.73676381314273], [-60.613511570940645, 46.73673729337142], [-60.61347093907144, 46.73672307207943], [-60.613451126040154, 46.73671613391529], [-60.61341649907719, 46.736683012654446], [-60.6134101782468, 46.736674673084345], [-60.61338579962004, 46.73664246763368], [-60.61342541182937, 46.73660891556415]]}, "properties": {"OBJECTID": 295410, "FEAT_CODE": "WARV55", "FEAT_DESC": "River - Single Line Indefinite", "RIVNAME_1": " ", "RIVNAME_2": " ", "ZVALUE": 481.3, "FID": null, "SHAPE_Length": 165.61184105971537}}]}