{"type": "FeatureCollection", "features": [{"type": "Feature", "id": 10612, "geometry": {"type": "LineString", "coordinates": [[-60.35068488944862, 46.62684257949745], [-60.350684903577765, 46.62684309281861], [-60.3506724847849, 46.62688901948274], [-60.35064170015767, 46.62700394571428], [-60.350556430139136, 46.627150377935024], [-60.35054758926092, 46.62716556287317], [-60.350521040633645, 46.62720094720531], [-60.350480094275945, 46.62723689786666], [-60.35045760079902, 46.627245682484606], [-60.35041483776567, 46.627262385257104], [-60.35039031482037, 46.62728464066429], [-60.350375196183464, 46.62729836611856], [-60.3503542675737, 46.6273122899196], [-60.350334688620705, 46.62732532700683], [-60.35033428977113, 46.62735757336883], [-60.35033378667883, 46.62739730522321], [-60.35032313388338, 46.62741481512287], [-60.35030679882239, 46.627441679215565], [-60.350226693180026, 46.6275037219081], [-60.350200112347586, 46.627513005738216], [-60.350133043794436, 46.62760234118804], [-60.350093458282345, 46.62763743226152], [-60.35009258026133, 46.62765541169051], [-60.350132624030174, 46.627664439697575], [-60.35018482006873, 46.627665649439656], [-60.350236633082226, 46.6276479505127], [-60.350316738933714, 46.62758590781879], [-60.35036941732578, 46.62757723777679], [-60.35039507678721, 46.62758682332301], [-60.35045367572535, 46.62761020405804], [-60.35048605665546, 46.627623131309804], [-60.35060222480587, 46.62765192301424], [-60.350654027022806, 46.62768822298443], [-60.3506478223233, 46.627699716062466], [-60.35063964819123, 46.627714889457316], [-60.35062465713323, 46.62773509782059], [-60.35058650655752, 46.627786557114355], [-60.35059954371866, 46.62781385889334], [-60.35061456718285, 46.627818940973214], [-60.350625246786706, 46.62782255440861], [-60.35069009702846, 46.627832157052175], [-60.35073181092645, 46.62782919069712], [-60.35079495921625, 46.62782468701692], [-60.35089946421907, 46.62779830884218], [-60.35093861136848, 46.627799215890576], [-60.35093915097287, 46.62779966938781]]}, "properties": {"OBJECTID": 10612, "FEAT_CODE": "WACO20", "FEAT_DESC": "Coast - Water to the right line", "RIVNAME_1": " ", "RIVNAME_2": " ", "ZVALUE": 0.5, "FID": null, "SHAPE_Length": 197.86333214289647}}, {"type": "Feature", "id": 10615, "geometry": {"type": "LineString", "coordinates": [[-60.35156731824891, 46.61970847690762], [-60.351552954755434, 46.61973515287383], [-60.35149805669198, 46.61986977961561], [-60.351484379377354, 46.61999133940027], [-60.35148190553308, 46.62001339484284], [-60.35147429358882, 46.62004705812532], [-60.35145358395506, 46.62013873732994], [-60.35143820633006, 46.62028014749088], [-60.351436993453675, 46.620291351266346], [-60.351436982152414, 46.620318350699236], [-60.35139823519327, 46.620309353170036], [-60.35139299752674, 46.62031041981864], [-60.351358654739265, 46.620317436124985], [-60.351133131735295, 46.620468809498576], [-60.35112503149178, 46.62049025758122], [-60.35111963425057, 46.62050449637101], [-60.35115836985258, 46.62054049342535], [-60.35120356813608, 46.62056772129549], [-60.35123450401382, 46.6205863568133], [-60.35139024823808, 46.62068716385718], [-60.35141550899042, 46.62070485786189], [-60.35142766809787, 46.6207501300305], [-60.351419508204785, 46.62076048887726], [-60.35141374336373, 46.62076780724299], [-60.35136815597365, 46.62082135352465], [-60.351307049048515, 46.62089313403368], [-60.351266384472694, 46.6209338614691], [-60.3512534880484, 46.62094679253956], [-60.35124669669221, 46.62095426711279], [-60.3512134569561, 46.6209908645944], [-60.351212287677285, 46.62103864495976], [-60.35121212935685, 46.62104483322121], [-60.3512167209177, 46.6210599514272], [-60.35123688522072, 46.62112640583818], [-60.35124770482663, 46.6212526550647], [-60.351242412617985, 46.62148421680457], [-60.351241931267325, 46.62150451841993], [-60.35124016796633, 46.62151201048191], [-60.3512271304258, 46.62156717479491], [-60.351197479632965, 46.62174648577938], [-60.351196483481814, 46.621790985188476], [-60.35119526303445, 46.62184543328624], [-60.351181714701255, 46.621902763732635], [-60.35118044898148, 46.6219080893465], [-60.35115297063331, 46.621989351774964], [-60.35115204485806, 46.622049269634964], [-60.35115116814423, 46.622106308664385], [-60.351136252395484, 46.62214802860259], [-60.35112244179216, 46.62218664217969], [-60.35108235424009, 46.622258612552905], [-60.35106752839417, 46.62234826800987], [-60.350987788658486, 46.62242707754305], [-60.3509865538081, 46.62242829091732], [-60.35094647747851, 46.622473261814186], [-60.350954723537725, 46.622483892756165], [-60.35095999676814, 46.62249066586063], [-60.3509930406333, 46.62255043480235], [-60.35101040918549, 46.62258184186784], [-60.35102217252595, 46.62263522280364], [-60.350992586714035, 46.62289399529219], [-60.35099025977951, 46.62291437113956], [-60.35098537514843, 46.623148255233914], [-60.35096649862226, 46.62320875615364], [-60.35095750088122, 46.62323760833561], [-60.3509296058743, 46.623273861570254], [-60.350897810246366, 46.62334560100194], [-60.35086209453003, 46.62342619548741], [-60.350768057780314, 46.62352596733435], [-60.3507284505637, 46.6235679970551], [-60.35069941619558, 46.623597077915086], [-60.35067488624714, 46.62362165520077], [-60.350639941953666, 46.62365352406292], [-60.35052860126025, 46.62375506370268], [-60.35047503655736, 46.62380872174521], [-60.35038010911298, 46.62396042001855], [-60.35033075215399, 46.62402581237069], [-60.350258602425654, 46.62412139309199], [-60.35019198951563, 46.6242017572737], [-60.35017842728838, 46.62424141147295], [-60.35016453923223, 46.62428212010612], [-60.35011185154678, 46.62431779851565], [-60.35007222407391, 46.62432677992743], [-60.35004612766116, 46.62432617506663], [-60.3500082681664, 46.62427219817764], [-60.34995563505341, 46.62425298742741], [-60.34994300848623, 46.6242445858531], [-60.34982639588184, 46.62422478303712], [-60.349799816615985, 46.624234066810786], [-60.349817705747235, 46.624264172133365], [-60.349837236873974, 46.624297033482215], [-60.3498695320718, 46.62433146867908], [-60.34988813137458, 46.6243513125728], [-60.34989606357223, 46.62435686937293], [-60.349914667686164, 46.6243699274538], [-60.35003266337419, 46.624438190663675], [-60.35012047405728, 46.624488996343], [-60.35012206302568, 46.62449069815142], [-60.350171382066726, 46.62454327561783], [-60.35020916094687, 46.62465214993095], [-60.35022049839824, 46.624714511957606], [-60.35021158328313, 46.624752626881445], [-60.3502056384023, 46.624778066795756], [-60.350181407007724, 46.62481417075599], [-60.35015210418799, 46.62485782507912], [-60.35011246382317, 46.62489381488551], [-60.35004586172226, 46.624920161868864], [-60.350035020363116, 46.624847911442295], [-60.350009801663354, 46.62482932713122], [-60.34990312009737, 46.62490065350418], [-60.349872095465344, 46.62491830315361], [-60.34981040854403, 46.624953403828776], [-60.34977032930088, 46.624998374236604], [-60.34978380445989, 46.625016686381855], [-60.34979054719916, 46.62501637468598], [-60.34979688368285, 46.62501608957219], [-60.34994007760981, 46.62502660865964], [-60.34999095414276, 46.62505478759111], [-60.35002967904788, 46.62509078475163], [-60.35005279801178, 46.62512374721794], [-60.350067552148374, 46.6251447619413], [-60.350079259459505, 46.62522603232503], [-60.35007862254452, 46.62524870629216], [-60.35007749146829, 46.6252889905954], [-60.35010269832346, 46.625334574292836], [-60.35010045416949, 46.62546052077311], [-60.350215333541584, 46.62556938206188], [-60.350295871397044, 46.625656810593284], [-60.350407622206966, 46.62577812702617], [-60.35048712087262, 46.625871066268985], [-60.350508957973865, 46.625896583021124], [-60.35054121439089, 46.62594709092468], [-60.35058419737944, 46.62601442518875], [-60.350596839140145, 46.62604981771536], [-60.35059904511014, 46.626057077747625], [-60.35062159602862, 46.626131390429705], [-60.35060631569499, 46.62623004414258], [-60.35059150118102, 46.62631969075582], [-60.350581265164145, 46.62636345402186], [-60.350576641095884, 46.626383245626116], [-60.350589531597386, 46.626406053068195], [-60.35060189273437, 46.62642793025285], [-60.35068928036507, 46.626618052977065], [-60.35068926361987, 46.626620536558875], [-60.35068881784343, 46.62668104149388], [-60.35069582183931, 46.62672033531658], [-60.35070011271981, 46.6267442934556], [-60.350685005925854, 46.626841799206034], [-60.35068488944862, 46.62684257949745]]}, "properties": {"OBJECTID": 10615, "FEAT_CODE": "WACO20", "FEAT_DESC": "Coast - Water to the right line", "RIVNAME_1": " ", "RIVNAME_2": " ", "ZVALUE": 0.5, "FID": null, "SHAPE_Length": 957.1127133567372}}, {"type": "Feature", "id": 10616, "geometry": {"type": "LineString", "coordinates": [[-60.35093915097287, 46.62779966938781], [-60.350939866242015, 46.62780027095342], [-60.350946161442025, 46.627805654748784], [-60.35100257179932, 46.627853806184774], [-60.351066095778414, 46.62794436788612], [-60.35113017137839, 46.628000886751536], [-60.351168784638624, 46.6280349459413], [-60.351173715426256, 46.62804526605163], [-60.35118182171114, 46.62806225664983], [-60.35116077611873, 46.62810319555295], [-60.35115439578209, 46.62811561157706], [-60.35115394532621, 46.628151600695254], [-60.35116655562285, 46.628160892740425], [-60.35132279425933, 46.628171712287724], [-60.35134477912619, 46.628187269415385], [-60.351387194752945, 46.62821730366813], [-60.35150074150123, 46.62838013205881], [-60.35155253196216, 46.628416431342174]]}, "properties": {"OBJECTID": 10616, "FEAT_CODE": "WACO20", "FEAT_DESC": "Coast - Water to the right line", "RIVNAME_1": " ", "RIVNAME_2": " ", "ZVALUE": 0.5, "FID": null, "SHAPE_Length": 91.43913088117303}}, {"type": "Feature", "id": 10748, "geometry": {"type": "LineString", "coordinates": [[-60.35155253196216, 46.628416431342174], [-60.351585530322694, 46.628424485642206], [-60.35162999353639, 46.628435325473404], [-60.35170127764606, 46.62842929076978], [-60.3517218206417, 46.628427552640005], [-60.35185197481015, 46.628437767258795], [-60.35193073963417, 46.6284296917078], [-60.351957332469084, 46.62842230672994], [-60.352023444102805, 46.628403939177055], [-60.35209608049733, 46.62840419046884], [-60.352114876293626, 46.62840425678044], [-60.35228328776742, 46.62843335670537], [-60.35235652059602, 46.62845271040561], [-60.352387745180565, 46.628460975393864], [-60.35260794828281, 46.62852637374442], [-60.352672801943, 46.628562974999575], [-60.352705819061256, 46.628586716213135], [-60.352775036102315, 46.62863644127853], [-60.35280117850184, 46.6286361465861], [-60.352810531219085, 46.62863777611807], [-60.35285427319186, 46.62864546681106], [-60.353285175047425, 46.62865005183798], [-60.3533887361762, 46.62866954896079], [-60.35344511574314, 46.628687323845504], [-60.35350581852642, 46.62870645875825], [-60.353538812511275, 46.628706844487375], [-60.35358415814641, 46.62870737211113], [-60.35361273146083, 46.6287008965792], [-60.353623788322565, 46.62869838954203]]}, "properties": {"OBJECTID": 10748, "FEAT_CODE": "WACO20", "FEAT_DESC": "Coast - Water to the right line", "RIVNAME_1": " ", "RIVNAME_2": " ", "ZVALUE": 0.5, "FID": null, "SHAPE_Length": 168.62453070071192}}, {"type": "Feature", "id": 10750, "geometry": {"type": "LineString", "coordinates": [[-60.353623788322565, 46.62869838954203], [-60.35371429768028, 46.62869058460489], [-60.35378002913897, 46.628709205771656], [-60.35384400425835, 46.62873678613746], [-60.3539300479539, 46.62873750856475], [-60.354026826076776, 46.62873831735616], [-60.354034213086585, 46.628742484262894], [-60.35409166792725, 46.62877491752805], [-60.35410705821557, 46.62878588456138], [-60.35413080573535, 46.62880282292355], [-60.354132049159624, 46.628806793649225], [-60.354142101628454, 46.6288390838792], [-60.35411600585548, 46.628865479628715], [-60.354108290888654, 46.6288704490224], [-60.354089017391495, 46.628882854826756], [-60.35408715885073, 46.62888480079053], [-60.35406286468462, 46.628910149235146], [-60.354075037293434, 46.62892843071363], [-60.35423176106685, 46.62892935762477], [-60.35426067283967, 46.62892639071891], [-60.35431053937437, 46.62892128074383], [-60.35445417994539, 46.628895804927325], [-60.354638326647446, 46.62884337550457], [-60.35474451867337, 46.628808923950224], [-60.354917209446725, 46.62877736075882], [-60.35498046814888, 46.62876578340637], [-60.35510132927567, 46.62874181375549], [-60.355281235261295, 46.62870614198158], [-60.35543922909575, 46.628680996946116], [-60.35570547078053, 46.628648086458256], [-60.355844039216684, 46.62863096047876], [-60.35596202165466, 46.62862288914028], [-60.356157879550736, 46.62862471841949], [-60.35629503673143, 46.628607595258345], [-60.35641944403804, 46.62859206710664], [-60.35646788579677, 46.628587499239416], [-60.3565113142491, 46.62858340043065]]}, "properties": {"OBJECTID": 10750, "FEAT_CODE": "WACO20", "FEAT_DESC": "Coast - Water to the right line", "RIVNAME_1": " ", "RIVNAME_2": " ", "ZVALUE": 0.5, "FID": null, "SHAPE_Length": 251.1661504044064}}, {"type": "Feature", "id": 10751, "geometry": {"type": "LineString", "coordinates": [[-60.3565113142491, 46.62858340043065], [-60.356916105741895, 46.62858735004977], [-60.35702011912781, 46.62859785444573], [-60.35735958994876, 46.628655200773125], [-60.35745749188564, 46.62867880234259], [-60.357632041385806, 46.62872089707167], [-60.35773188606699, 46.62874350831777], [-60.35784007842219, 46.62876800436606], [-60.35803751362107, 46.628827871128955], [-60.358177375870866, 46.62887029745454], [-60.3582299608179, 46.62889520919841], [-60.35825527017151, 46.628907196851024], [-60.3583323410719, 46.62893417729593], [-60.3584750756992, 46.62898067457055], [-60.35851466665789, 46.62899958904176], [-60.35850563637704, 46.629005554329815], [-60.35846068768671, 46.62903524144479], [-60.3584741974824, 46.629052653356325], [-60.35849984565465, 46.62906224581306], [-60.358511028062416, 46.62906574412664], [-60.358589935628395, 46.62909042685999], [-60.35868254664918, 46.62909553637448], [-60.35878667589678, 46.62910127189522], [-60.358838042269795, 46.629119558291286], [-60.358889400892394, 46.629164844137605], [-60.359107412124764, 46.62932917801128], [-60.35912720525329, 46.629338554084704], [-60.3591852946815, 46.629366076496524], [-60.35926364096353, 46.62939398575517], [-60.35934115814896, 46.62938497628755], [-60.359381619206765, 46.629358911133345], [-60.35938483951012, 46.62935233459545], [-60.35939468930877, 46.629332213348874], [-60.359396001796796, 46.62930524401071], [-60.35937240527481, 46.62926261556853], [-60.35937077229383, 46.62925966189063], [-60.35937079768419, 46.62925752950458], [-60.359371217340716, 46.629223672634026], [-60.35937611875653, 46.62921744991939], [-60.35938514181448, 46.6292059944668], [-60.35955532490661, 46.62914512572574], [-60.35962191529439, 46.629118763939154], [-60.35968678932786, 46.62910136236129], [-60.35971641822707, 46.62910164159376], [-60.35981737137509, 46.6291025778892], [-60.35989614927092, 46.62909449714669], [-60.36023872956007, 46.628980908906684], [-60.36038696438476, 46.628950095778194], [-60.36048816264643, 46.62892906842391], [-60.36069708461146, 46.62893119151486], [-60.36081349768861, 46.62896478439683], [-60.360825917308425, 46.628968365041935], [-60.360929475280074, 46.62901485489413], [-60.361110980427426, 46.629070343675636], [-60.36115017253676, 46.629070348269565]]}, "properties": {"OBJECTID": 10751, "FEAT_CODE": "WACO20", "FEAT_DESC": "Coast - Water to the right line", "RIVNAME_1": " ", "RIVNAME_2": " ", "ZVALUE": 0.5, "FID": null, "SHAPE_Length": 418.49978435299704}}, {"type": "Feature", "id": 19934, "geometry": {"type": "LineString", "coordinates": [[-60.354145897950254, 46.62927026628405], [-60.35414804257974, 46.62926754394995], [-60.35415982411186, 46.629252588788994], [-60.354161587697526, 46.629189630399324], [-60.354145833392884, 46.62917353401505], [-60.354135455177484, 46.62916292597421], [-60.354083257532935, 46.629161718004944], [-60.354076070970166, 46.62916683462322], [-60.3540575430604, 46.62918002266709], [-60.35405622792657, 46.62920699188968], [-60.35408148367798, 46.6292516758143], [-60.354145897950254, 46.62927026628405]]}, "properties": {"OBJECTID": 19934, "FEAT_CODE": "WACOIS10", "FEAT_DESC": "Coastal Island - Water to the right line", "RIVNAME_1": " ", "RIVNAME_2": " ", "ZVALUE": 0.5, "FID": null, "SHAPE_Length": 33.32911827758186}}, {"type": "Feature", "id": 20224, "geometry": {"type": "LineString", "coordinates": [[-60.35007424652267, 46.6270798397888], [-60.35005396336447, 46.62710355237618], [-60.35003995658791, 46.627119922525054], [-60.350036302903156, 46.6271623713216], [-60.35002866650706, 46.627198364883945], [-60.350025020719755, 46.627215506171495], [-60.3500187128588, 46.62723472773089], [-60.35001367858619, 46.62725007285703], [-60.34997930062751, 46.62726894979309], [-60.34997761615851, 46.62728979949466], [-60.34997564785716, 46.627314053575724], [-60.3500101716914, 46.62732964060112], [-60.34997208152609, 46.62737771713476], [-60.349951691620134, 46.62740628716972], [-60.34994162178252, 46.62742041758777], [-60.3499263866117, 46.627418336474776], [-60.349868832836755, 46.627410477504405], [-60.34984943350154, 46.627341727671045], [-60.349803186253304, 46.62726526358793], [-60.34975893009597, 46.62726786467613], [-60.34974960195189, 46.62726841343617], [-60.34968529529158, 46.62729718038876], [-60.3496770013565, 46.62730089407863], [-60.34966945110923, 46.62732388477256], [-60.349665645933506, 46.62733546042169], [-60.34967741451966, 46.62740958633003], [-60.349690263197495, 46.62743886382218], [-60.349700596466555, 46.62746240407265], [-60.34971662028563, 46.627486319230634], [-60.3497429563284, 46.62752564724411], [-60.34976114508476, 46.62755231254692], [-60.34976989692927, 46.62756516926287], [-60.3498006053755, 46.6275834488749], [-60.349848646434694, 46.627580926502745], [-60.34986184854715, 46.6275802335341], [-60.349881680968394, 46.627556393535436], [-60.34988852286486, 46.62754817322833], [-60.34988834764888, 46.627505752685934], [-60.349945774284244, 46.627502574834196], [-60.34998621938993, 46.62752317705407], [-60.34999178964483, 46.62752601513045], [-60.350049258824015, 46.6275307941153], [-60.350156235170495, 46.627474135272095], [-60.35021722826025, 46.627407284723596], [-60.35022093436514, 46.6273942577781], [-60.35023233934922, 46.62735412159769], [-60.35023584437737, 46.62732381020266], [-60.35023602427368, 46.6273222663909], [-60.350237256381746, 46.62732164695445], [-60.35026277173902, 46.62730876546589], [-60.35032385107407, 46.62726047463178], [-60.35033038069302, 46.62724901610043], [-60.350339052449115, 46.62723381825975], [-60.35033893348538, 46.62720200989118], [-60.35031317762533, 46.62717781527557], [-60.35030818106325, 46.62717312753312], [-60.350288843132354, 46.62712558293779], [-60.35024280044315, 46.62709949615833], [-60.3501508075186, 46.62707913929825], [-60.35007424652267, 46.6270798397888]]}, "properties": {"OBJECTID": 20224, "FEAT_CODE": "WACOIS10", "FEAT_DESC": "Coastal Island - Water to the right line", "RIVNAME_1": " ", "RIVNAME_2": " ", "ZVALUE": 0.5, "FID": null, "SHAPE_Length": 209.3692659316266}}, {"type": "Feature", "id": 21630, "geometry": {"type": "LineString", "coordinates": [[-60.349445527620055, 46.62429335297523], [-60.34943118678207, 46.62426174587426], [-60.34942076083863, 46.62423877943191], [-60.34937431285989, 46.62421676884067], [-60.34934287981336, 46.62420186526128], [-60.34930788902614, 46.624186789189764], [-60.34927891190038, 46.62417429150433], [-60.349246922389376, 46.6241739908252], [-60.34921362718484, 46.62417367786392], [-60.34916093900159, 46.6242093558249], [-60.34915926319284, 46.62421210693716], [-60.349133951897606, 46.62425372957549], [-60.34913363253811, 46.62426989498077], [-60.349133061127596, 46.62429870839321], [-60.34916122654911, 46.62432648711544], [-60.34917044925007, 46.62433557484635], [-60.34923617382361, 46.62435419849733], [-60.34925065684092, 46.624359358230386], [-60.34928751931689, 46.62437248873678], [-60.349339756064225, 46.624372799828016], [-60.34941810206863, 46.624346707521454], [-60.34943129440372, 46.62432105767136], [-60.349445527620055, 46.62429335297523]]}, "properties": {"OBJECTID": 21630, "FEAT_CODE": "WACOIS10", "FEAT_DESC": "Coastal Island - Water to the right line", "RIVNAME_1": " ", "RIVNAME_2": " ", "ZVALUE": 0.5, "FID": null, "SHAPE_Length": 72.21670095380868}}, {"type": "Feature", "id": 21631, "geometry": {"type": "LineString", "coordinates": [[-60.34956186212038, 46.62496024208329], [-60.349655069912025, 46.62489760358091], [-60.34965544573211, 46.624896595305025], [-60.34966856957158, 46.624861916948625], [-60.34965949143993, 46.624841573743836], [-60.34965679401759, 46.62483555328438], [-60.34961722274409, 46.624816627172265], [-60.349586044693766, 46.624812007451574], [-60.349552363251924, 46.62480702369153], [-60.349521482468504, 46.62481530769179], [-60.34948751751069, 46.624824420172935], [-60.34943647371489, 46.62484139860261], [-60.349381286799805, 46.624859756938676], [-60.349345063909816, 46.62489637470354], [-60.34932906859074, 46.62491254566845], [-60.34932784579469, 46.624961917733266], [-60.34932773885177, 46.624966514199336], [-60.34937865890858, 46.62499379442455], [-60.34943085234837, 46.62499500445788], [-60.349459232319425, 46.62499138744929], [-60.34949657712833, 46.62498662828031], [-60.34956186212038, 46.62496024208329]]}, "properties": {"OBJECTID": 21631, "FEAT_CODE": "WACOIS10", "FEAT_DESC": "Coastal Island - Water to the right line", "RIVNAME_1": " ", "RIVNAME_2": " ", "ZVALUE": 0.5, "FID": null, "SHAPE_Length": 73.23703833570055}}, {"type": "Feature", "id": 191455, "geometry": {"type": "LineString", "coordinates": [[-60.35988841000271, 46.61827105002213], [-60.359777836997715, 46.61829510029925], [-60.359731315898294, 46.61830522184593], [-60.35971394897257, 46.61831398267697], [-60.35962552101474, 46.6183585869861], [-60.35954118732882, 46.6184151476494], [-60.35949321455828, 46.6184473213206], [-60.359427491751156, 46.61848270297413], [-60.35936767634497, 46.61851237109812], [-60.359321753446046, 46.61853516015022], [-60.359214639246744, 46.618570521642994], [-60.35916378350627, 46.61858731075993], [-60.358979668149345, 46.61866675687486], [-60.35896803848639, 46.61866980919034], [-60.358913514880555, 46.61868412849484], [-60.35870331256952, 46.61873597184478], [-60.35864221939033, 46.618748132269204], [-60.35853316947005, 46.6187698405581], [-60.358432481673425, 46.61880088584458], [-60.35836210740457, 46.61882258756938], [-60.35829038574226, 46.61884433011708], [-60.35819108920658, 46.61887442634883], [-60.35794345065592, 46.61889031265842], [-60.35785164042472, 46.618898090853726], [-60.357746739424144, 46.61890646642689], [-60.35770228834955, 46.618921269935406], [-60.35766839253615, 46.61893255541838], [-60.357563058630134, 46.6189769204075], [-60.35720748970144, 46.6190902093964], [-60.35709927892039, 46.619111557719386], [-60.35690547398361, 46.61914981797283], [-60.356840187322874, 46.619176190325575], [-60.35675867071191, 46.61922604614198], [-60.35668132812758, 46.61927333443487], [-60.35657640882076, 46.619335707895615], [-60.356524315446606, 46.61936768604986], [-60.356404064627576, 46.61944152172829], [-60.35623298958791, 46.61952126494694], [-60.35613985549842, 46.61958301053884], [-60.35596750064235, 46.619715823157776], [-60.35587295689001, 46.619786382830256], [-60.35584820563126, 46.61980486318172], [-60.355836835467606, 46.61981357311572], [-60.355754601914235, 46.61987649748466], [-60.35566146667004, 46.61993824265944], [-60.35554305590055, 46.61998230333127], [-60.35541790742894, 46.62003355194549], [-60.355372472781816, 46.62005215675351], [-60.355319363979966, 46.620069828033365], [-60.35515737070627, 46.62010358325086], [-60.355031692443426, 46.62012977247332], [-60.354978583898514, 46.62014743460099], [-60.35478009524163, 46.62025355011795], [-60.35463742125514, 46.620322383186824], [-60.354543330917934, 46.62036777053894], [-60.35445150800616, 46.62040254540329], [-60.35442541589611, 46.62040939355271], [-60.35438535082332, 46.62041992331367], [-60.35434825962425, 46.62042464494501], [-60.354319632676386, 46.62042829344873], [-60.35428781489873, 46.62042799815039], [-60.354254352283824, 46.620427682779216], [-60.354172450733394, 46.62042720041938], [-60.35414988613302, 46.62042706522071], [-60.35410400534506, 46.6203998767241], [-60.354072444910486, 46.620381173531946], [-60.35400760283477, 46.62037157296808], [-60.35385094761967, 46.62036974728434], [-60.35373255323168, 46.62042413834297], [-60.35371862408603, 46.620431474851365], [-60.35369238485861, 46.62043490846733], [-60.35365419664603, 46.620439892478295], [-60.35361457256623, 46.620448875194434], [-60.35359713077854, 46.620454582398644], [-60.35353494248011, 46.62047494065219], [-60.35341833961353, 46.62048213239482], [-60.35339692140925, 46.62048205958456], [-60.353326920717855, 46.620481816109766], [-60.353235994454415, 46.620444611577156], [-60.353158115615244, 46.62040770903298], [-60.353068460974114, 46.620344434102535], [-60.353041938504425, 46.620325820262416], [-60.35298167097114, 46.62029875722483], [-60.352938403863064, 46.62027932368343], [-60.35286047103166, 46.62027031936714], [-60.35281304753282, 46.62026968932775], [-60.35276909636095, 46.62026910366875], [-60.35270857174749, 46.620255885376466], [-60.352613754664404, 46.62021330731346], [-60.35259496649564, 46.62020992929111], [-60.352534714489046, 46.62020156816372], [-60.352379180443165, 46.62020247539093], [-60.35228869385463, 46.62015628038363], [-60.35222386331163, 46.62011967937775], [-60.35216033757752, 46.620083108553686], [-60.35212497524366, 46.62005024992831], [-60.35212160160927, 46.62004711182934], [-60.35208290954837, 46.62001021611862], [-60.35207297044896, 46.6199922561248], [-60.352057690241764, 46.619964632534426], [-60.352048042139444, 46.61995088223052], [-60.352045489391685, 46.619947250147334], [-60.35196805067824, 46.619901357080316], [-60.35187712634902, 46.61986415150272], [-60.35181745760711, 46.61983045979033], [-60.35181229643425, 46.619827550274685], [-60.35177442697868, 46.619800573399836], [-60.35174922107106, 46.619754990055675], [-60.35173530785037, 46.61974566787926], [-60.35156731824891, 46.61970847690762]]}, "properties": {"OBJECTID": 191455, "FEAT_CODE": "WARV50", "FEAT_DESC": "River - Single Line", "RIVNAME_1": " ", "RIVNAME_2": " ", "ZVALUE": 9999, "FID": null, "SHAPE_Length": 749.1996117773903}}, {"type": "Feature", "id": 191456, "geometry": {"type": "LineString", "coordinates": [[-60.35678092198795, 46.625086868391534], [-60.35677959964638, 46.625140837160686], [-60.35679133794117, 46.62516160128759], [-60.356804855920004, 46.62518552051928], [-60.3568046308641, 46.62519684617771], [-60.35680220296328, 46.62532044853442], [-60.35679822675502, 46.62550936329234], [-60.356821232615474, 46.625653893390364], [-60.35683250398759, 46.62577114352953], [-60.356833432192516, 46.6257724699722], [-60.35693388955367, 46.625915685617514], [-60.35694091390705, 46.62597047732978], [-60.356944301991845, 46.62599693432843], [-60.35693123592728, 46.62605063160563], [-60.35690940912566, 46.626085991576076], [-60.35687592360451, 46.626140251778075], [-60.356850415969376, 46.626214973155065], [-60.35684849509517, 46.626220616677244], [-60.35681926245089, 46.6263648390686], [-60.35677878494384, 46.62644490227352], [-60.356778378480264, 46.62647765247025], [-60.356778338280506, 46.62648089150066], [-60.356777891615515, 46.62651688072759], [-60.35678298642633, 46.62652063446915], [-60.356790502534665, 46.626526172166706], [-60.35688011902842, 46.62661734285615], [-60.35688535898283, 46.62663367279221], [-60.3568914601666, 46.62665270460454], [-60.35690080567013, 46.626856435119954], [-60.35690096243608, 46.62685992170065], [-60.35691047786799, 46.62698614010546], [-60.3569874885753, 46.627095019058956], [-60.35701274586191, 46.627139702380234], [-60.35703618627157, 46.627248242895526], [-60.357060099373086, 46.627320794782406], [-60.35705700842282, 46.62746472152435], [-60.357055668867986, 46.627572689202026], [-60.35705474771356, 46.62761976431612], [-60.357053900106976, 46.62766264718282], [-60.357013855396005, 46.62770672091608], [-60.35694769472571, 46.62775109089309], [-60.35694550533665, 46.62779603971346], [-60.35690629672339, 46.627850032612365], [-60.35685215868297, 46.62789512146412], [-60.3568000907273, 46.62793847617034], [-60.35677261305543, 46.62799274022647], [-60.35673217793008, 46.62801880506122], [-60.356714102845444, 46.62803907791546], [-60.35669207540759, 46.62806378633271], [-60.356657167512104, 46.628113423632406], [-60.35659804653104, 46.62819750166382], [-60.35654403624406, 46.62828715175931], [-60.35651749088685, 46.628322537547525], [-60.35651717058422, 46.62833876593639], [-60.356516606022545, 46.62836751651917], [-60.356514475156544, 46.62846301004145], [-60.3565143983248, 46.62846646422125], [-60.35651429258769, 46.62847051172517], [-60.3565113142491, 46.62858340043065]]}, "properties": {"OBJECTID": 191456, "FEAT_CODE": "WARV50", "FEAT_DESC": "River - Single Line", "RIVNAME_1": " ", "RIVNAME_2": " ", "ZVALUE": 9999, "FID": null, "SHAPE_Length": 409.783938698988}}, {"type": "Feature", "id": 191458, "geometry": {"type": "LineString", "coordinates": [[-60.35384114134476, 46.62700064151298], [-60.35384072630862, 46.627034066494346], [-60.35384024407839, 46.62707261985701], [-60.35384413219003, 46.627117457293124], [-60.353851114174304, 46.62719796989489], [-60.3538482899509, 46.62730785616843], [-60.35384669958153, 46.62736886560361], [-60.353845514945796, 46.62742209052549], [-60.353844487136, 46.62746781316976], [-60.353816871560284, 46.62750368656132], [-60.35377786251116, 46.62754817013231], [-60.3536720467296, 46.62762851992777], [-60.353632450822964, 46.62766360298196], [-60.35362617709748, 46.627674113634804], [-60.35360542164593, 46.62770887677839], [-60.35359060846663, 46.62777153311786], [-60.35359014659035, 46.627807521979044], [-60.35358839285265, 46.62784348093753], [-60.35358794358287, 46.62787947909003], [-60.35356097158537, 46.6279238452098], [-60.35354743975212, 46.627933440863096], [-60.353533052269185, 46.627987098159444], [-60.353532973581444, 46.6279948722411], [-60.35353171869327, 46.628095065943704], [-60.35352861869045, 46.62823898338848], [-60.353537617585786, 46.62827250927216], [-60.35354077967035, 46.628284282319406], [-60.353603415841576, 46.62836582215443], [-60.353602520805644, 46.62846480019709], [-60.353600910584774, 46.628522191205754], [-60.35360075663169, 46.62852775857237], [-60.353623788322565, 46.62869838954203]]}, "properties": {"OBJECTID": 191458, "FEAT_CODE": "WARV50", "FEAT_DESC": "River - Single Line", "RIVNAME_1": " ", "RIVNAME_2": " ", "ZVALUE": 9999, "FID": null, "SHAPE_Length": 197.1065178996752}}]}