{"type": "FeatureCollection", "features": [{"type": "Feature", "id": 34263, "geometry": {"type": "LineString", "coordinates": [[-60.491788597928604, 46.76090965991606], [-60.49180400703117, 46.76091483965687], [-60.491814400480585, 46.76091832546237], [-60.49187946745448, 46.76095485103944], [-60.49194421217019, 46.76102736816275], [-60.49197390748893, 46.76105937416411], [-60.49199534622745, 46.76108248743186], [-60.492035610407356, 46.7611108193198], [-60.49212469836106, 46.7611735205208], [-60.49218770488309, 46.761254999050955], [-60.492317070833934, 46.761346032220935], [-60.49244688455477, 46.761455074382916], [-60.49247934555305, 46.761492963666356], [-60.492485395886305, 46.76150001705379], [-60.492536529598326, 46.761527237115665], [-60.492608581694505, 46.7615529628213], [-60.49269241038654, 46.7615828525034], [-60.49277057462406, 46.76161966468552], [-60.492912568678726, 46.76171997365899], [-60.49295115002516, 46.76179191668806], [-60.4929363693058, 46.76182849130625], [-60.492870176797496, 46.76187203865218], [-60.492805611368524, 46.76188053194855], [-60.4927135310377, 46.761889303997954], [-60.492648479754045, 46.76187976923301], [-60.49237916416183, 46.76180120157028], [-60.492361642990716, 46.7617960925969], [-60.492296548523456, 46.76175956669939], [-60.49212836380302, 46.76165868267598], [-60.49210340522705, 46.761648190777976], [-60.4920628517898, 46.76163115614965], [-60.492039433421155, 46.761624441870005], [-60.491998231492424, 46.76161263080172], [-60.49193089070154, 46.76161208108225], [-60.491867320257256, 46.76161156000656], [-60.49167428238582, 46.76158480048815], [-60.491659123216415, 46.76158269509686], [-60.49165697680806, 46.761582666022846], [-60.49151512931401, 46.76158133697848], [-60.49121354390583, 46.76156122347483], [-60.49100409457095, 46.76155932888756], [-60.49086847059091, 46.76158641250382], [-60.49083357292727, 46.76159338661868], [-60.49082050325166, 46.76159309988973], [-60.490782967135374, 46.76160274300297], [-60.49064952193827, 46.76163704689061], [-60.490611471939964, 46.761645346723], [-60.490492069954065, 46.761671381861255], [-60.490477993049616, 46.76168375351741], [-60.490451108553124, 46.76170739071801], [-60.49044078649577, 46.76171476894793], [-60.49043891674193, 46.761716113870044], [-60.49042962746527, 46.76172634965376], [-60.49039888759135, 46.76176024285941], [-60.49024057047005, 46.76181346679159], [-60.490231193556966, 46.7618196687874], [-60.49013383231292, 46.76188402178542], [-60.49009501478244, 46.76190206923652]]}, "properties": {"OBJECTID": 34263, "FEAT_CODE": "WALK20", "FEAT_DESC": "Lake - Water to the right line", "RIVNAME_1": " ", "RIVNAME_2": " ", "ZVALUE": 396.7, "FID": null, "SHAPE_Length": 380.0311473356793}}, {"type": "Feature", "id": 34264, "geometry": {"type": "LineString", "coordinates": [[-60.49009501478244, 46.76190206923652], [-60.49015783717383, 46.76184344710105], [-60.49026748983397, 46.76174116923132], [-60.49030914810346, 46.76163407839823], [-60.4903092958247, 46.761619907171244], [-60.490309510808316, 46.761598087706986], [-60.49029726354779, 46.761579819639316], [-60.4902638835867, 46.761556948003644], [-60.49025793159107, 46.76155285754477], [-60.49018099636147, 46.76148907161998], [-60.49017796807057, 46.76148040148907], [-60.49016827642891, 46.761452793840064], [-60.490168554526, 46.761425107980244], [-60.490168639221444, 46.76141680315004], [-60.490158370941494, 46.76129958220185], [-60.49015860308682, 46.761288949694475], [-60.49016076758429, 46.76119163883794], [-60.49016359376699, 46.76118972093073], [-60.49021350273307, 46.76115589744516], [-60.49030291969591, 46.761110008356674], [-60.49033290420764, 46.76109461990655], [-60.49049372692808, 46.761048866545444], [-60.49060894927454, 46.76101607995287], [-60.490664910213155, 46.76098897680654], [-60.49070139122265, 46.760971309883054], [-60.49074577243481, 46.760934682988655], [-60.49075450169775, 46.76092747677851], [-60.490821516424695, 46.760838050406846], [-60.49088769565242, 46.76076660499285], [-60.49091460647708, 46.76074295026627], [-60.49092865561158, 46.7607306049453], [-60.49094573102832, 46.76072697468824], [-60.49096701221434, 46.76072245572863], [-60.49103246714062, 46.7607229826488], [-60.49108548825624, 46.760735476322814], [-60.49115034909324, 46.7607507675904], [-60.491368634243, 46.76081273857947], [-60.49141144346453, 46.76082489112002], [-60.491418485364946, 46.76082779046995], [-60.491501393128694, 46.760861962673445], [-60.491569736988815, 46.76086260664515], [-60.49164538511249, 46.76086332077204], [-60.49168343403736, 46.76087194893854], [-60.491724424333945, 46.76088125357571], [-60.49175300191856, 46.76089389484759], [-60.491788597928604, 46.76090965991606]]}, "properties": {"OBJECTID": 34264, "FEAT_CODE": "WALK20", "FEAT_DESC": "Lake - Water to the right line", "RIVNAME_1": " ", "RIVNAME_2": " ", "ZVALUE": 396.7, "FID": null, "SHAPE_Length": 238.3451876586837}}, {"type": "Feature", "id": 136980, "geometry": {"type": "LineString", "coordinates": [[-60.49416751501327, 46.75618028403904], [-60.49411477205493, 46.75618812812211], [-60.494098938614584, 46.756182804394385], [-60.49408898442275, 46.75617946341171], [-60.49406465984798, 46.756179344437484], [-60.494036617213816, 46.75617920699069], [-60.49385225532404, 46.75625797239581], [-60.49374757679616, 46.75628447754091], [-60.49340724921651, 46.75628151920632], [-60.49331520676536, 46.7562894015865], [-60.49320393225748, 46.75628872666707], [-60.49314503521015, 46.75628837171512], [-60.49310495589573, 46.75630550156717], [-60.49306954159292, 46.75632989739406], [-60.49306572661064, 46.75633253167273], [-60.493054256276736, 46.75634747169192], [-60.493011370981, 46.75640333757523], [-60.492891580488376, 46.756501508031754], [-60.49288242193896, 46.75652334745671], [-60.49286507125989, 46.75656482457109], [-60.49284788888127, 46.75658377020362], [-60.492825048465406, 46.75660894556797], [-60.492790001453756, 46.75662062382908], [-60.49277183284577, 46.7566266783054], [-60.49274607353774, 46.75663094643603], [-60.492719060626975, 46.75663542107054], [-60.49270509421826, 46.756640091712], [-60.49269380143592, 46.75664386699929], [-60.49252073775688, 46.756732769477395], [-60.49251275467694, 46.75674084715223], [-60.49249463078747, 46.756759196111204], [-60.49250234680585, 46.75677069585971], [-60.4925068777748, 46.756777463950705], [-60.49254375975512, 46.75679988974811], [-60.49261130939487, 46.756840951204616], [-60.49263145600268, 46.756910213337264], [-60.492635025208784, 46.75692246813485], [-60.49263496329634, 46.75692916253019], [-60.49263466421295, 46.75695845889087], [-60.492589179166735, 46.75698878056078], [-60.49255493689971, 46.75701160898122], [-60.492543322249304, 46.75702711276351], [-60.49252841249694, 46.757047026137805], [-60.49252799518736, 46.757056016656215], [-60.49258000259125, 46.757092255548336], [-60.49259272324831, 46.75712853309658], [-60.49259236221727, 46.75716452385071], [-60.49258568735982, 46.757171217263014], [-60.49253879840122, 46.75721823851542], [-60.4925052508089, 46.75725374468223], [-60.492471317269214, 46.757289665361824], [-60.49241478837013, 46.757327979527865], [-60.492365857566014, 46.75736115045258], [-60.49236464727604, 46.75738722295121], [-60.49242975109122, 46.7574516480183], [-60.492527719381144, 46.75751419266264], [-60.49255821774616, 46.75753366160273], [-60.49257238093923, 46.75754337676092], [-60.4925975480391, 46.75756062288869], [-60.49261026880542, 46.75759690043464], [-60.492596150601464, 46.75760878546764], [-60.492557108374626, 46.75764163328213], [-60.492526734897915, 46.75766122563358], [-60.49251662403903, 46.75766774471495], [-60.49243766094279, 46.757675913142435], [-60.49230766312703, 46.75768386252037], [-60.492300172420144, 46.757685561211964], [-60.49226795854868, 46.7576928915953], [-60.49224707936386, 46.757699498533306], [-60.49224137752489, 46.75770130844154], [-60.49222490711154, 46.757693621576365], [-60.492202925043, 46.75768336594752], [-60.49215102820463, 46.75767322834567], [-60.49213746197128, 46.75767547778249], [-60.49209822870385, 46.75768197022732], [-60.49208913663572, 46.75768798063021], [-60.49204419007034, 46.75771768391324], [-60.492073949759714, 46.75774516448723], [-60.492083128999575, 46.7577536364608], [-60.49218708974895, 46.757827013398355], [-60.49214700939996, 46.75784413389186], [-60.49196379403781, 46.75786981525937], [-60.49188526108732, 46.757868993071654], [-60.4918463911769, 46.75786004097077], [-60.49178088426006, 46.75783250536804], [-60.49167691098567, 46.75775912778483], [-60.4915865070523, 46.75773194601121], [-60.491527183577325, 46.757723256184754], [-60.49145644024411, 46.75771289390689], [-60.49129848418934, 46.75770222958647], [-60.49121794832271, 46.757701399004915], [-60.49114141883799, 46.75770058425305], [-60.49107722062672, 46.757673077852445], [-60.491012131913386, 46.75763655131321], [-60.490972789716416, 46.75760958021907], [-60.49095464626389, 46.757589706917], [-60.49083196760671, 46.75745530544481], [-60.490779974150634, 46.75741906606268], [-60.49074090242372, 46.75739755461966], [-60.49072890000409, 46.757390946526755], [-60.49071462507663, 46.75736588425389], [-60.49070347467741, 46.75734629033132], [-60.49070160000391, 46.75734238834389], [-60.49069033763372, 46.75731900310317], [-60.49067887108493, 46.75725575385237], [-60.49068048625174, 46.75719279161328], [-60.49068523783705, 46.75718155628122], [-60.490706956597705, 46.75713037469307], [-60.49077813813159, 46.7570123127881], [-60.49078782833352, 46.75699624498264], [-60.49078991590453, 46.75695130144038], [-60.49067326857919, 46.756868645201116], [-60.490656308182736, 46.756853756622334], [-60.49062170648621, 46.7568234155379], [-60.49062233522086, 46.75679465739235], [-60.49062289098214, 46.756769443515054], [-60.49064941647253, 46.75673402682058], [-60.49066242294646, 46.75672042569691], [-60.4906755660761, 46.75670670157464], [-60.490731934191, 46.7566820102352], [-60.4907557676815, 46.7566715625331], [-60.49076879388109, 46.756644849312835], [-60.49075312527797, 46.75662836914844], [-60.49074257540687, 46.756617275090115], [-60.49072608165081, 46.756605591641275], [-60.49070454180692, 46.75659034160707], [-60.49070537701882, 46.756572360593886], [-60.490718240330466, 46.75657424475277], [-60.490770408895564, 46.756581887063966], [-60.490851780702016, 46.75656891281348], [-60.490874630019725, 46.756565274243854], [-60.490916106207436, 46.75657757773496], [-60.49096633979782, 46.75659248523816], [-60.490992502897086, 46.75659305918866], [-60.49101403477671, 46.75658338891115], [-60.4910326244058, 46.75657504003462], [-60.49104093209336, 46.756563360716264], [-60.49104523293734, 46.75655731638923], [-60.49104581999748, 46.75652324752212], [-60.49104599944529, 46.756512334860446], [-60.49103234977717, 46.75649298403046], [-60.491007923728766, 46.75645839344819], [-60.490943671204235, 46.756403894865336], [-60.490865920160715, 46.75635809077967], [-60.490696501797494, 46.75628417646525], [-60.490697337420755, 46.7562661864607], [-60.490763203695344, 46.756257740904154], [-60.491012294408094, 46.75625150594222], [-60.49116939732995, 46.756252251421344], [-60.4913255678243, 46.756244877430106], [-60.49141801482465, 46.756228005856656], [-60.491439546483164, 46.75621833549415], [-60.49145813592134, 46.756209986544256], [-60.49152394668985, 46.756174531325534], [-60.491555788661174, 46.756150093624754], [-60.49161628191155, 46.756103659126424], [-60.49166200520973, 46.75609019944586], [-60.49173576763639, 46.75606848999726], [-60.49202361450863, 46.75601719546866], [-60.49214184813448, 46.75600898846621], [-60.492325488827866, 46.75600221545269], [-60.4924044781305, 46.75599314771458], [-60.49252219638051, 46.75596782964841], [-60.49278602146189, 46.75589801620871], [-60.49295650910906, 46.755836055865494], [-60.492976736411144, 46.75583190941779], [-60.4929961704829, 46.75582792557245]]}, "properties": {"OBJECTID": 136980, "FEAT_CODE": "WALK20", "FEAT_DESC": "Lake - Water to the right line", "RIVNAME_1": " ", "RIVNAME_2": " ", "ZVALUE": 402.6, "FID": null, "SHAPE_Length": 836.0413100640218}}, {"type": "Feature", "id": 156364, "geometry": {"type": "LineString", "coordinates": [[-60.4894957582279, 46.76589106583151], [-60.48947089903583, 46.76589052017125], [-60.4891680910428, 46.76592437154808], [-60.48907604470126, 46.7659322504595], [-60.488991506237284, 46.76595329863273], [-60.48886668712025, 46.76598435195701], [-60.4887472311958, 46.76604652672228], [-60.48841674382144, 46.766196763913165], [-60.48821889155358, 46.766311214510836], [-60.48812685648201, 46.76634699184452], [-60.4877967301271, 46.76646123654358], [-60.48774370018051, 46.766484865796436], [-60.48763891030943, 46.76653156714818], [-60.48756371056515, 46.76655370136862], [-60.48751941174139, 46.76656673172295], [-60.48745497577795, 46.7665911632431], [-60.48733540987291, 46.766636495759315], [-60.487242677505094, 46.76664838997182], [-60.48720365010252, 46.76665340032464], [-60.486889114310145, 46.76671398698404], [-60.48675777264173, 46.76672190056509], [-60.48662935008302, 46.766720842486485], [-60.48656140082746, 46.76672028524686], [-60.48641696206987, 46.76672791061937], [-60.486337918873275, 46.76672708243752], [-60.48625988398289, 46.76672625836245], [-60.48621590470693, 46.76671918999992], [-60.486142855548984, 46.766707486842066], [-60.48605723950864, 46.76668692174454], [-60.485986143304864, 46.76666984361807], [-60.485866058369496, 46.766643021933], [-60.48581633427506, 46.76663191228419], [-60.485699698332375, 46.76657715030406], [-60.48569444369248, 46.76657383091223], [-60.485569926155556, 46.7664951004393], [-60.4855643407642, 46.76649100879909], [-60.485557260870245, 46.766485822343256], [-60.48551528026357, 46.76645102470388], [-60.48548033761899, 46.76642203356449], [-60.48533826711613, 46.766294714759816], [-60.48524738139255, 46.766249518120375], [-60.485154471391816, 46.76620588783722], [-60.48513074686101, 46.76619475558387], [-60.48498789267673, 46.766112417399285], [-60.48492410666566, 46.766075916096], [-60.48482054627626, 46.76599354179504], [-60.48477184712522, 46.76595903711444], [-60.48474320585912, 46.765938742997], [-60.48449601856788, 46.765846900970544], [-60.48442058778085, 46.765799478674026], [-60.484263161374386, 46.765700493682466], [-60.48422797916475, 46.76568397941285], [-60.48414652904565, 46.765645730179784], [-60.48405303110542, 46.7656060459099], [-60.48401681329827, 46.76559067874985], [-60.48398708892783, 46.7655781813192], [-60.48388578945486, 46.76553559839466], [-60.48375649313722, 46.76547155623367], [-60.48370843654646, 46.76544155606127], [-60.48365340623942, 46.76540719059806], [-60.48359321125357, 46.765383322076545], [-60.483562104522534, 46.76537098311308], [-60.48348787308038, 46.76535547237925], [-60.48337921738382, 46.76533276939055], [-60.48332733914793, 46.765332509842395], [-60.48327446530393, 46.76533225536189], [-60.48317002946504, 46.76533085722977], [-60.483169152026775, 46.765330855920745], [-60.48314355914085, 46.76533116570468], [-60.483067001152705, 46.76529701020053], [-60.48303962173925, 46.76528478911704], [-60.48291116511019, 46.76520276514947], [-60.48288968039561, 46.76518265505975], [-60.4828333579299, 46.76512994645023], [-60.48268341411893, 46.7650408075746], [-60.48266513931968, 46.76502994774536], [-60.48257388041467, 46.76499284944113], [-60.48239361323973, 46.76489510504094], [-60.4823541670613, 46.76487371751], [-60.48232026561844, 46.7648558808917], [-60.4822506223729, 46.76481923114721], [-60.482231924604214, 46.764807614964994], [-60.48213352357645, 46.764746464979744], [-60.48200960609277, 46.76468540112887], [-60.48183521912932, 46.764599502854246], [-60.4817317042387, 46.76454917451642], [-60.48162775393152, 46.764498638503994], [-60.481611830169996, 46.76448736228918], [-60.481589719613815, 46.76447170200319], [-60.48153630545207, 46.76444654175196], [-60.48151154618279, 46.764434881974644], [-60.48148753906371, 46.76442478669631], [-60.48144603694241, 46.764407340427034], [-60.481335070905764, 46.76434352814759], [-60.481239411810854, 46.7642884945379], [-60.481198960772566, 46.764260028738875], [-60.48117474107764, 46.76424298097289]]}, "properties": {"OBJECTID": 156364, "FEAT_CODE": "WARV10", "FEAT_DESC": "Double Line River - Water to the left line", "RIVNAME_1": "Black Brook", "RIVNAME_2": " ", "ZVALUE": 9999, "FID": null, "SHAPE_Length": 756.6876726605432}}, {"type": "Feature", "id": 156502, "geometry": {"type": "LineString", "coordinates": [[-60.50378165147595, 46.765107589188865], [-60.503637647247245, 46.76510624614982], [-60.50347969961134, 46.76512349785], [-60.50334880758007, 46.765121540688085], [-60.5029953104072, 46.765119223550876], [-60.50266802508145, 46.765115668719176], [-60.5023944215324, 46.765113303213326], [-60.50230233649283, 46.765122091894206], [-60.50214447826404, 46.76516543369611], [-60.5019722876405, 46.76523547920942], [-60.50194980224127, 46.765243078797525], [-60.50176207089135, 46.76530648481235], [-60.501656171665566, 46.76535907853438], [-60.501550647404514, 46.76540356266228], [-60.50146050976729, 46.765463664228605], [-60.50143172493023, 46.7654828616496], [-60.501426959137056, 46.765485376437574], [-60.50136460045648, 46.76551829384189], [-60.50127215905746, 46.765563072520614], [-60.50112708649669, 46.76566970781435], [-60.501057498257154, 46.76571988142683], [-60.50096720590132, 46.76578500102976], [-60.50087397322699, 46.765846861437694], [-60.500845589956036, 46.76587265523111], [-60.50083432412145, 46.765882893660965], [-60.50070319807826, 46.76596434613961], [-60.50064958239779, 46.76599765219632], [-60.50064862657865, 46.76599849527612], [-60.5006086246377, 46.76603365574405], [-60.50051811738506, 46.766127731177455], [-60.500462777699695, 46.766185262533945], [-60.50039529599707, 46.76625667595996], [-60.500335652116, 46.76629400796511], [-60.50021051002485, 46.76637234178258], [-60.50007762541974, 46.766470233470784], [-60.499999800052066, 46.76653872968182], [-60.499997058797234, 46.766541360659595], [-60.499957449794906, 46.76657650248875], [-60.499949257180226, 46.766584288103864], [-60.49989169114119, 46.766638962626736], [-60.49979799789093, 46.7667107117054], [-60.499758389049354, 46.76674584446919], [-60.49968281797591, 46.76679279057788], [-60.49957229204173, 46.76686147160015], [-60.49945975695882, 46.76694553399355], [-60.499452905931406, 46.766950649008066], [-60.49933391709989, 46.76700295440392], [-60.4990705804278, 46.76711778290911], [-60.49887797490394, 46.76718440748471], [-60.49876709720744, 46.76722275121], [-60.49873877680627, 46.7672324454771], [-60.498715194326394, 46.767240515418464], [-60.498609443740875, 46.76728777277592], [-60.49859616293275, 46.7672937100819], [-60.49853982985566, 46.76730730047926], [-60.49849019816205, 46.76731929148339], [-60.498453074930396, 46.767330143099464], [-60.498398584295416, 46.76734608663465], [-60.49830610698131, 46.767362963209635], [-60.49826683880994, 46.76736300426602], [-60.498227573037546, 46.76736214539618], [-60.498201779443995, 46.76735348151258], [-60.49812394177131, 46.767327740822346], [-60.498032792043844, 46.76729758703609], [-60.497888723695596, 46.7672692364063], [-60.49774756382535, 46.767244828075036], [-60.49761456346752, 46.767221840041515], [-60.49753684992345, 46.767203040397376], [-60.497353904575085, 46.767165738789345], [-60.49721114580058, 46.76713740695798], [-60.497047891463836, 46.7671192100212], [-60.49704045124559, 46.76711838122674], [-60.49702109545247, 46.76711211687179], [-60.49692431905618, 46.76708074110599], [-60.49683258848139, 46.76705353453239], [-60.49677016649554, 46.76702131755991], [-60.49669060528256, 46.76698022975749], [-60.49652156264726, 46.76689733286741], [-60.4963521199993, 46.76685132554726], [-60.49620847064138, 46.76681398230976], [-60.49609703449598, 46.76680220115313], [-60.496025989189064, 46.76679468802977], [-60.495843518029346, 46.766747494757055], [-60.495805057981606, 46.76672955335211], [-60.49579109551661, 46.76672024799421], [-60.495649820608094, 46.766574951193626], [-60.495612194200866, 46.76653903766792], [-60.49557248075706, 46.76652016877336], [-60.495526708472504, 46.766509095889226], [-60.495494755897035, 46.76650136748608], [-60.49542929423635, 46.76650083399367], [-60.49507537235674, 46.766507482726304], [-60.49503172348708, 46.76650682375029], [-60.49494447767193, 46.766505515885115], [-60.49486099825578, 46.76652155178561], [-60.49485197263832, 46.76652328002382], [-60.494799623587056, 46.766522133410064], [-60.49478651055547, 46.76652275515353], [-60.494658125474785, 46.766502546656156], [-60.49442114474487, 46.76646525274895], [-60.49402957008449, 46.76640807580035], [-60.4940164861285, 46.76640778912732], [-60.49383444994913, 46.76637951044096], [-60.49374601060659, 46.76635651333783], [-60.49369079103784, 46.76634215481864], [-60.4934296669959, 46.76626803508137], [-60.493318344677924, 46.76624932396899], [-60.49331270465356, 46.766248372391246], [-60.49329934561475, 46.76624498372566], [-60.492947661774096, 46.76615577458399], [-60.492750728443916, 46.766112696177764], [-60.492687055011295, 46.76609876382714], [-60.49254384212385, 46.76608032481188], [-60.49232207024882, 46.766033164255845], [-60.49217884353811, 46.76598682554503], [-60.49211880454836, 46.76597755339201], [-60.491995501886656, 46.76595850629671], [-60.49183881693794, 46.76594787066969], [-60.49144688697098, 46.76592667658263], [-60.491027899107294, 46.765895887040585], [-60.490752972215596, 46.7658934556337], [-60.49075069438144, 46.765893432659404], [-60.490622050687755, 46.76589238321245], [-60.49056381941548, 46.7658859307966], [-60.49053084010652, 46.7658822823181], [-60.4904575208204, 46.76587216892975], [-60.49032131912744, 46.765853385979185], [-60.49022969085779, 46.76585227533596], [-60.48998093186361, 46.76585041628294], [-60.48981164964396, 46.76585750073182], [-60.48954755094294, 46.76588556991884], [-60.4894957582279, 46.76589106583151]]}, "properties": {"OBJECTID": 156502, "FEAT_CODE": "WARV10", "FEAT_DESC": "Double Line River - Water to the left line", "RIVNAME_1": "Black Brook", "RIVNAME_2": " ", "ZVALUE": 9999, "FID": null, "SHAPE_Length": 1225.5854969256854}}, {"type": "Feature", "id": 156503, "geometry": {"type": "LineString", "coordinates": [[-60.48117474107764, 46.76424298097289], [-60.481109651978656, 46.76420643982059], [-60.481032737241975, 46.76414264819241], [-60.48098031187552, 46.76411539453502], [-60.48073281188888, 46.76405864510494], [-60.480668192453024, 46.76404012237063], [-60.480588762097526, 46.76403027300915], [-60.48047905580433, 46.764029611280485], [-60.48041986241943, 46.76402925226102], [-60.48035261114686, 46.764032054570556], [-60.48023615173619, 46.76403690462523], [-60.48009224333622, 46.76403554300839], [-60.48007906851183, 46.76403525273531], [-60.480066708353796, 46.76403097555954], [-60.480026224675555, 46.76401698008238], [-60.47999270478395, 46.76400053712281], [-60.47998781396098, 46.76399813444784], [-60.47997559366964, 46.76399142143498], [-60.479871609689916, 46.76393436731507], [-60.47983766031773, 46.763922639669865], [-60.47981873901968, 46.76391611197355], [-60.4795708478646, 46.763868351063884], [-60.47942764601993, 46.76384989581721], [-60.479140500804945, 46.76382915883694], [-60.47900957155821, 46.76382808192348], [-60.47898518166826, 46.7638295692474], [-60.47876002585461, 46.7638432804337], [-60.47862869038126, 46.763851184793815], [-60.47849251799682, 46.763854410537206], [-60.47835335592122, 46.76385771419755], [-60.47822379989849, 46.763861445481865], [-60.478105496100504, 46.76386484875006], [-60.47797416050982, 46.76387275235546], [-60.47783058141352, 46.763862386485116], [-60.47773950167822, 46.76385100929301], [-60.47767303076931, 46.763842712648014], [-60.47760230520034, 46.763833818150175], [-60.47759490965189, 46.76383289007581], [-60.47758782661953, 46.76383284186081], [-60.477424702513964, 46.76383183606265], [-60.47732041513988, 46.76382143618415]]}, "properties": {"OBJECTID": 156503, "FEAT_CODE": "WARV10", "FEAT_DESC": "Double Line River - Water to the left line", "RIVNAME_1": "Black Brook", "RIVNAME_2": " ", "ZVALUE": 9999, "FID": null, "SHAPE_Length": 307.5935667122943}}, {"type": "Feature", "id": 156504, "geometry": {"type": "LineString", "coordinates": [[-60.47732041513988, 46.76382143618415], [-60.47718949953745, 46.76382034848582], [-60.47700662930383, 46.76381001486393], [-60.476941738092556, 46.763812201251554], [-60.47679675279902, 46.76381708449208], [-60.476661673567456, 46.76383755752911], [-60.47657381506161, 46.76385086455988], [-60.47651007212296, 46.763876124180214], [-60.47650712319287, 46.763877292069985], [-60.47650021318586, 46.76387914653456], [-60.47644213349632, 46.76389475743305], [-60.47641263912171, 46.7639045822668], [-60.47625721059068, 46.763956374645055], [-60.47615211780828, 46.763990954255554], [-60.47596423863311, 46.76402165490533], [-60.47583671145731, 46.76404249162322], [-60.47577394814436, 46.76405434495258], [-60.47552091323756, 46.764102119170765], [-60.47519846058165, 46.764116375628916], [-60.47516788213046, 46.764117725524564], [-60.475082093302156, 46.76413072611172], [-60.47494496842269, 46.76415150294838], [-60.47477355493553, 46.76417650838574], [-60.47464267229617, 46.76420242649585], [-60.47444587736094, 46.764209780650205], [-60.474358296546356, 46.764219645239145], [-60.47407854274593, 46.764251166823676], [-60.473842502178115, 46.76428556115774], [-60.47371116556078, 46.76429345084346], [-60.473641862097374, 46.76429279300136], [-60.47356716581983, 46.76429206999096], [-60.47350837973377, 46.76428467864892], [-60.47348904491875, 46.76428224461615], [-60.473421050279725, 46.76426620812351], [-60.47337116559444, 46.76425443251876], [-60.47331726112709, 46.76423535935588], [-60.473241043581126, 46.76420836849717], [-60.473072139629735, 46.76417943782606], [-60.47301976474194, 46.76417918062042], [-60.47295511113279, 46.76418747176849], [-60.472888007622, 46.76419605973544], [-60.4727972240724, 46.76417696343263], [-60.47262654936792, 46.76415789260819], [-60.472559682167564, 46.764148837257764], [-60.4724833915681, 46.764138529659874], [-60.472470308378156, 46.76413824053429], [-60.47235127845265, 46.76411824066447], [-60.472131151624275, 46.7640812468132], [-60.472017189162436, 46.76406295153673], [-60.47201416056327, 46.76406246161108], [-60.47197303625261, 46.76405436189623], [-60.47187011579848, 46.76403407862094], [-60.471805091864255, 46.764024541591404], [-60.471608280759, 46.7640039915308], [-60.471560690332154, 46.76400085153439], [-60.47146466119765, 46.763994507730004], [-60.47140669857535, 46.7639994720537], [-60.47137261574428, 46.76400238139678], [-60.47116278359999, 46.76403644066114], [-60.47080811022353, 46.76408709593628], [-60.47067806860316, 46.76409501977177], [-60.47059022071642, 46.76409743284192], [-60.47044203698271, 46.76410150831219], [-60.47023253841382, 46.76410046554343], [-60.47015707001785, 46.76409358545075], [-60.47011516902596, 46.76408976972803], [-60.470106729998065, 46.7640898710484], [-60.47008896060322, 46.764090089969585], [-60.4698794590335, 46.764061156515666], [-60.46981400119195, 46.76406060842127], [-60.46953908671364, 46.764058126208944], [-60.469528473882896, 46.76405934034893], [-60.46947324976491, 46.764065669233005], [-60.46938162804993, 46.76409244097542], [-60.46923720789491, 46.76410004502926], [-60.46908305818164, 46.76409839793134], [-60.469001584867094, 46.76409753096706], [-60.468946906258076, 46.76409724791279], [-60.46889683544534, 46.76409701280661], [-60.46880436859018, 46.7641138657483], [-60.4686730756451, 46.76414875861429], [-60.46862116642649, 46.76416650903507], [-60.46856182563582, 46.76418577788544], [-60.46851477339689, 46.76420105285393], [-60.46847719064048, 46.764207933718254], [-60.46827830895478, 46.76424441698666], [-60.46798997675164, 46.76430463171603], [-60.46769991406647, 46.76437380707304], [-60.46756819825198, 46.7644176889772], [-60.46753398017892, 46.76442514801379], [-60.467410737390246, 46.76445200098253], [-60.46737022917265, 46.764458699707966], [-60.4673579407679, 46.76446073151167], [-60.467094886252376, 46.76451250405843], [-60.46699389320943, 46.76452458588334], [-60.466885471846105, 46.7645375560585], [-60.46679300324875, 46.764554416335656], [-60.46650416087368, 46.764597516650326], [-60.46642524053192, 46.76463266707849], [-60.46640429397415, 46.764636954894165], [-60.46638556901829, 46.76464078793823], [-60.46632889207291, 46.76464344725448], [-60.466216246773385, 46.76464873650233], [-60.46613686189475, 46.764665868103094], [-60.46607521278298, 46.76466535725026], [-60.46600594458091, 46.76466477655495], [-60.46596203109047, 46.764674261230375], [-60.46592655877412, 46.76468192598853], [-60.46585430431782, 46.764687209818675], [-60.465822750518626, 46.764689516567316], [-60.46577127889697, 46.764689258054176], [-60.4657179870168, 46.76468899518295], [-60.465377189550836, 46.764694942734096], [-60.465154225713256, 46.764701700953324], [-60.464970933599446, 46.764700338386874], [-60.46485112606928, 46.76469944676154], [-60.464787641507094, 46.76469897552678], [-60.464525849965476, 46.7646958721771], [-60.464491539801045, 46.76469300564116], [-60.46440843845227, 46.76468606953288], [-60.463989956796205, 46.76467319131776], [-60.46370109930364, 46.764688385239914], [-60.463618114991995, 46.76468146915117], [-60.46358370107483, 46.7646785820422]]}, "properties": {"OBJECTID": 156504, "FEAT_CODE": "WARV10", "FEAT_DESC": "Double Line River - Water to the left line", "RIVNAME_1": "Black Brook", "RIVNAME_2": " ", "ZVALUE": 9999, "FID": null, "SHAPE_Length": 1075.252249200343}}, {"type": "Feature", "id": 170752, "geometry": {"type": "LineString", "coordinates": [[-60.49970202737373, 46.766916505737996], [-60.49955647261824, 46.76700512018952], [-60.49947938666245, 46.7670369676282], [-60.49945098464775, 46.76704871220786], [-60.499239971249885, 46.767164694019264], [-60.49913282437572, 46.76722882267673], [-60.49910797036977, 46.76724370463173], [-60.498923073287045, 46.76730535903239], [-60.498642460010544, 46.76738792299157], [-60.49856719743611, 46.7674100720696], [-60.49851843036123, 46.767424601898085], [-60.498448998474515, 46.76744528548209], [-60.498382702597155, 46.76746273474281], [-60.49832918542616, 46.76746218517582], [-60.49830414233649, 46.76746191640675], [-60.49828026591069, 46.76745766830559], [-60.49825218018001, 46.76745268015362], [-60.4982391090131, 46.767452394244664], [-60.498096335476106, 46.76742407220041], [-60.49793964892021, 46.76737547539013], [-60.49788717486475, 46.76735919904401], [-60.497833502168255, 46.767342221477236], [-60.497771000296495, 46.76732244982649], [-60.49752220619349, 46.767277390114494], [-60.49735277151892, 46.767246710868605], [-60.49731620170501, 46.76724674764339], [-60.49731347727643, 46.7672467510266], [-60.497294140167845, 46.767244320978996], [-60.49715721744152, 46.767227123357884], [-60.49707908694478, 46.767217322930044], [-60.49701314936812, 46.76719878062766], [-60.49692276863711, 46.76717070370231], [-60.4968699022546, 46.76715244737723], [-60.496803970976394, 46.767123600489015], [-60.49676593401815, 46.76710697361933], [-60.49666199455179, 46.76706060043048], [-60.496545404299454, 46.76703284951588], [-60.49638833093906, 46.766988129952544], [-60.49635020978853, 46.766977278877945], [-60.49633882438009, 46.766975382715735], [-60.4962319232388, 46.766957590198366], [-60.49619305914998, 46.76694863973371], [-60.49615957834713, 46.76693290437026], [-60.49599822442012, 46.76685707775444], [-60.49591545567175, 46.76682501783636], [-60.49585540910665, 46.76680175302504], [-60.495794907867044, 46.76677304243618], [-60.49570034388214, 46.76672816059036], [-60.49551817787715, 46.76664587482768], [-60.495426490066855, 46.76661777709039], [-60.49538593774937, 46.76660965334772], [-60.49533565291004, 46.766599579527565], [-60.49512618316521, 46.76659770110138], [-60.49477270676719, 46.766594450034916], [-60.49475962275863, 46.766594163445966], [-60.49443273080016, 46.76658251106992], [-60.49441683198613, 46.76658050684222], [-60.4943545895528, 46.76657269053947], [-60.4941976389936, 46.76654910183248], [-60.493976111263244, 46.76651580031651], [-60.49393685931921, 46.7665149402731], [-60.49381896376853, 46.766487148967265], [-60.493714903217636, 46.76645503488344], [-60.493636886387804, 46.76643097013368], [-60.49328450830069, 46.76634765059613], [-60.493102514906326, 46.76631846271429], [-60.49294616108901, 46.76627273721138], [-60.49292657637746, 46.76627029199576], [-60.4927104693223, 46.7662432716039], [-60.492656197589206, 46.76622627846321], [-60.49259299205724, 46.766206497542235], [-60.4924895311059, 46.76617813933947], [-60.492280855839695, 46.76613126583049], [-60.492149865093914, 46.76610318567643], [-60.491993568548466, 46.76608445908892], [-60.49167820580438, 46.766037557889206], [-60.491667084679484, 46.76603590104726], [-60.491664256899206, 46.76603587503003], [-60.491274318868804, 46.766032687352], [-60.491156885807065, 46.76602290274839], [-60.49091093890023, 46.76599658334238], [-60.49088191567551, 46.76599348073468], [-60.490866864966044, 46.76599296156159], [-60.49051577756419, 46.76598094805792], [-60.4905026937468, 46.76598066098518], [-60.49031309276158, 46.76597911067192], [-60.49010992819562, 46.76597745139085], [-60.48979528991036, 46.7659840458475], [-60.48954746301975, 46.76599029700117], [-60.48941612338027, 46.76599821367844], [-60.489350015667654, 46.76600821011791], [-60.48924465450419, 46.766024148570295], [-60.4890615061668, 46.76607592580436], [-60.48905873486158, 46.76607665693371], [-60.48899520917909, 46.76609336959982], [-60.48882975022633, 46.76616467709091], [-60.48877067671815, 46.76619013605382], [-60.488652056399154, 46.766234329751356], [-60.48848069451747, 46.76631426379172], [-60.48845768857208, 46.766325683152445], [-60.488374781261335, 46.76636683592447], [-60.488189701407805, 46.76642855896741], [-60.48792526415543, 46.76657025564821], [-60.487796068071276, 46.76660948235588], [-60.48775387523211, 46.76662228906875], [-60.48759647315219, 46.76668362913295], [-60.48752861058697, 46.76670654547877], [-60.48749135307777, 46.76671911852271], [-60.48737227189026, 46.76674530145517], [-60.487309632709724, 46.766763481605615], [-60.48725409632563, 46.7667796038513], [-60.487149394196386, 46.7668061024518], [-60.487011442236195, 46.766826875598476], [-60.486925167454544, 46.7668398744008], [-60.48681618015768, 46.766851501103666], [-60.486610576780315, 46.76687346911698], [-60.48629639399498, 46.76687015533725], [-60.48623093219516, 46.766869616571924], [-60.48619575458409, 46.76685860180634], [-60.48611345827256, 46.7668328359162], [-60.48599687437266, 46.76680507435994], [-60.485921691342675, 46.766788284349], [-60.48582706491323, 46.766767143034386], [-60.48571002317189, 46.76672137180428], [-60.4856683131259, 46.766701573600976], [-60.485554972570114, 46.766647765883896], [-60.4855045809114, 46.76661808412816], [-60.48547719877154, 46.76660195772268], [-60.48545487594373, 46.766587157494875], [-60.48545051793552, 46.766584271788744], [-60.48542206397129, 46.76656416195586], [-60.48523115792967, 46.76642915458468], [-60.48508830298158, 46.76634681651356], [-60.48497250581442, 46.766274072911145], [-60.48483090784462, 46.76616476317767], [-60.48471380303676, 46.76609199055327], [-60.48461626590165, 46.76604367724406], [-60.484584504393084, 46.76602794928917], [-60.48446744209496, 46.765954277378206], [-60.48423490996336, 46.7657727695125], [-60.48413098425144, 46.7657263851827], [-60.484054050686254, 46.7656625952028], [-60.484047855149925, 46.76565951602699], [-60.48396318062463, 46.76561738887706], [-60.48385883615498, 46.765580003745185], [-60.48372875364493, 46.76556094255908], [-60.483584685064315, 46.765532573847786], [-60.483496045799335, 46.7655168001207], [-60.483480783128435, 46.76551408839279], [-60.483454615861156, 46.76551351264166], [-60.48336991907397, 46.76550644723685], [-60.48333719833791, 46.765503729334206], [-60.483194413257294, 46.76544838938978], [-60.4829889404854, 46.765379682171684], [-60.48297258848911, 46.76537421050608], [-60.482969624935585, 46.765373164323904], [-60.48292103718296, 46.76535597664592], [-60.48279174331416, 46.765291915441985], [-60.48274553969554, 46.765275563130906], [-60.48271316104838, 46.76526410490752], [-60.48266120395128, 46.765254861659244], [-60.48265525647754, 46.76525236384553], [-60.48259569311961, 46.76522732074308], [-60.48255601996963, 46.76520461433739], [-60.482531909801914, 46.765190818152064], [-60.482455517959544, 46.76513119685144], [-60.482415648467196, 46.765100062391504], [-60.48231293205926, 46.7649997050461], [-60.482304169662356, 46.76499353638509], [-60.482248259988026, 46.76495418306871], [-60.482131148245344, 46.76488140761628], [-60.482056625108626, 46.76485167006142], [-60.48201415573258, 46.764834733686705], [-60.48191236104825, 46.76479019417101], [-60.4819101918653, 46.764789246447236], [-60.48188667885723, 46.76477557126728], [-60.481768654731056, 46.76470693319553], [-60.48166601814308, 46.76465714611788], [-60.481599600967364, 46.764624913843896], [-60.48150918200768, 46.76456983385342], [-60.48149609862237, 46.76456954575763], [-60.48126237592818, 46.76444198552629], [-60.4812544774142, 46.76443639378733], [-60.48118504096001, 46.76438719341223], [-60.48109415354741, 46.764314094447144], [-60.481030359249466, 46.76427759076589], [-60.48098794525335, 46.76426257215429], [-60.480951780234356, 46.764249761082056]]}, "properties": {"OBJECTID": 170752, "FEAT_CODE": "WARV20", "FEAT_DESC": "Double Line River - Water to the right line", "RIVNAME_1": "Black Brook", "RIVNAME_2": " ", "ZVALUE": 9999, "FID": null, "SHAPE_Length": 1610.7146621444385}}, {"type": "Feature", "id": 170894, "geometry": {"type": "LineString", "coordinates": [[-60.480951780234356, 46.764249761082056], [-60.480935642573264, 46.764242232920466], [-60.480913327086995, 46.7642318147923], [-60.480835993194354, 46.76417701346268], [-60.48075740134589, 46.76414918336145], [-60.48072790352778, 46.76414393479544], [-60.48070544568532, 46.764139939250285], [-60.48063192724798, 46.76413923780357], [-60.480561445811105, 46.764138567210665], [-60.480312737856224, 46.76413578824167], [-60.480169115545436, 46.764126324328124], [-60.48011631311734, 46.76410716166299], [-60.48005211375708, 46.764079639171754], [-60.4799477331204, 46.76404314961451], [-60.47991496041807, 46.76403483179252], [-60.479765231237764, 46.76399682987263], [-60.47958277163501, 46.76394961080341], [-60.479453127408, 46.763921554724774], [-60.479424981240484, 46.76391485066453], [-60.47937410399717, 46.76390271382159], [-60.47933479934721, 46.76390274756015], [-60.4790991889336, 46.76390025460192], [-60.478850859998815, 46.7638893811032], [-60.47879848525544, 46.7638891265495], [-60.47872682129751, 46.763908183020206], [-60.47866719884752, 46.76392403102916], [-60.4785854974147, 46.763934505448184], [-60.47853544343039, 46.76394092568943], [-60.47850913234084, 46.76394064262153], [-60.478456902239614, 46.763940094111234], [-60.47822132764486, 46.76396459912634], [-60.47806298577623, 46.76398990670629], [-60.47781423687321, 46.76398802135924], [-60.47757988597933, 46.76395855404899], [-60.47749828481324, 46.763942480890876], [-60.47743582519066, 46.76393017772966], [-60.4774228909818, 46.76392810152375], [-60.47731883238486, 46.763911397925064], [-60.477253374473236, 46.76391085409159], [-60.47693832813118, 46.7639264037776], [-60.476859787031486, 46.76392557110322], [-60.476786944154405, 46.76393368375708], [-60.47663729509788, 46.76395036146484], [-60.47653619874823, 46.763949867907286], [-60.476532546019136, 46.76394984131328], [-60.476520030099046, 46.76395170708774], [-60.476479792779955, 46.763957686044186], [-60.47637467120246, 46.76399316519028], [-60.47635675214917, 46.763999951539766], [-60.476282675123066, 46.76402802489765], [-60.47619984732124, 46.76406118791314], [-60.476150546173905, 46.76408091622847], [-60.47602061283886, 46.76413586278491], [-60.47600491442427, 46.764142491092024], [-60.47596664152743, 46.764152671064544], [-60.47587362530008, 46.76417740130582], [-60.47563758646711, 46.764211790384195], [-60.47559180798972, 46.76421806971176], [-60.47551894172412, 46.76422807097174], [-60.475270205125284, 46.76422618035936], [-60.47515078524072, 46.764241669482736], [-60.475139756390185, 46.764243099951514], [-60.475129985631916, 46.76424451319428], [-60.47502108249978, 46.76426027934559], [-60.47485112972714, 46.76427140366447], [-60.474784617277535, 46.76427575795228], [-60.47474279878415, 46.764282772347514], [-60.4746803347917, 46.76429325473682], [-60.474600548321696, 46.76430672048086], [-60.474482320737216, 46.76432667206787], [-60.47426020423207, 46.76434337539581], [-60.47421876185232, 46.76434906595477], [-60.47414157192537, 46.76435965482897], [-60.47392693711524, 46.764381319560094], [-60.47389286858629, 46.76438476095137], [-60.47378769742026, 46.76439324662786], [-60.47364374447933, 46.76441885690455], [-60.47357739831955, 46.76440929167994], [-60.473526326988264, 46.76438116453713], [-60.47344517179868, 46.76436004952218], [-60.47338271419059, 46.764343793335605], [-60.47328154569389, 46.76432579095499], [-60.4732268378283, 46.764316050654365], [-60.47301817478853, 46.76426914215636], [-60.47296537914574, 46.7642778752962], [-60.47294385378778, 46.76427971261148], [-60.47287333379707, 46.764285741175165], [-60.47278175534724, 46.76431161662974], [-60.472699000168355, 46.76432749935726], [-60.47268924713267, 46.76432937176605], [-60.47262378887092, 46.76432882527332], [-60.47257856790322, 46.76432038325997], [-60.47251992239104, 46.76430943064751], [-60.47245399734575, 46.76429087440888], [-60.47237673129827, 46.76426306783109], [-60.47228626789957, 46.76420887049741], [-60.47226049362314, 46.76419963418635], [-60.47218193505936, 46.76417146592242], [-60.47201172353631, 46.76414250478212], [-60.47188122878301, 46.764132411637625], [-60.471711190825594, 46.764131361853075], [-60.471383309899316, 46.764137612840514], [-60.47130768796874, 46.764136804889525], [-60.47122622757806, 46.76413593979782], [-60.47105564111586, 46.764142967611086], [-60.470977945179236, 46.76415204921536], [-60.470793433413085, 46.76417676805323], [-60.4707153266362, 46.764184832431106], [-60.47071447117676, 46.76418492150911], [-60.470713357843046, 46.76418492388736], [-60.47063718310395, 46.764185012234016], [-60.47046618844547, 46.76420102980791], [-60.47036143875329, 46.764200512985006], [-60.47023055215289, 46.7641985089888], [-60.4701393063747, 46.764189299982036], [-60.47008736577698, 46.76418005137047], [-60.47007428260119, 46.76417976197078], [-60.470008358611395, 46.76416120434127], [-60.46978581838264, 46.76415898129632], [-60.46951089032458, 46.76415649871702], [-60.46937956625728, 46.76416439270107], [-60.469301490905345, 46.76418156447221], [-60.46924663680436, 46.76419340923119], [-60.46922210718858, 46.764198707239224], [-60.4692193968656, 46.764198692264856], [-60.469078108049544, 46.76419732074048], [-60.46893881846948, 46.76420722487036], [-60.46885603339844, 46.764213105523716], [-60.46880076999823, 46.76421635532728], [-60.46871157073585, 46.764221607940044], [-60.46868498301151, 46.764230019166455], [-60.46834343311433, 46.76430796525277], [-60.46829393723073, 46.764318650207066], [-60.46826403669318, 46.7643250890744], [-60.468120093844085, 46.76435071061979], [-60.468067545331905, 46.76436225486544], [-60.468000996287984, 46.764376873016786], [-60.467711819999586, 46.76445506769592], [-60.46758675138831, 46.76448818019726], [-60.46751422411959, 46.76450739052256]]}, "properties": {"OBJECTID": 170894, "FEAT_CODE": "WARV20", "FEAT_DESC": "Double Line River - Water to the right line", "RIVNAME_1": "Black Brook", "RIVNAME_2": " ", "ZVALUE": 9999, "FID": null, "SHAPE_Length": 1064.1704511112348}}, {"type": "Feature", "id": 180222, "geometry": {"type": "LineString", "coordinates": [[-60.47357708513986, 46.77200229889049], [-60.47349664422183, 46.771976033938856], [-60.47343518146091, 46.77195596594317], [-60.47332619901453, 46.771917100835225], [-60.47325223415869, 46.771890726783866], [-60.47321959299273, 46.77187448126824], [-60.473161336638974, 46.77184552030258], [-60.473044758605056, 46.77178983775258], [-60.47297415807276, 46.7717598749897], [-60.472915039775216, 46.77173478270511], [-60.47284489205969, 46.7717119395957], [-60.472746024496644, 46.77167975017683], [-60.47244607154797, 46.77159572488668], [-60.47235523416636, 46.771577518060354], [-60.47230612365723, 46.77155438356137], [-60.47227705720575, 46.77154069168185], [-60.47223873868826, 46.7715287752425], [-60.47218668297442, 46.771512595333476], [-60.47206920924558, 46.77147580026573], [-60.4719517225959, 46.771439004791], [-60.47187313824785, 46.77141116878738], [-60.47178182378414, 46.771374348665084], [-60.47175743652948, 46.77136451294208], [-60.47166246396895, 46.77133476658976], [-60.47152247740892, 46.77129092153989], [-60.47119590876889, 46.7712162041799], [-60.47104091133196, 46.771169578740775], [-60.47097436908426, 46.77115899973597], [-60.47092259694963, 46.771150763217484], [-60.470831802987114, 46.77113165616966], [-60.47075320660452, 46.77110381912569], [-60.470519194987155, 46.771066254238825], [-60.47032363603222, 46.771018721765394], [-60.47010262086025, 46.7709274365169], [-60.469999738342665, 46.77087896551413], [-60.46994627209445, 46.77085378071751], [-60.46988404595783, 46.77082965306785], [-60.46980347442608, 46.77079842380056], [-60.46949204524849, 46.770652039188505], [-60.46946468257942, 46.77063667434911], [-60.469426943279224, 46.77061550012743], [-60.469335698132525, 46.77057838258294], [-60.46923215594778, 46.77052389351386], [-60.4691936527434, 46.77051231394835], [-60.46916757521969, 46.770504465191266], [-60.469128700386015, 46.77049550528123], [-60.468984426859336, 46.77046943556841], [-60.468867636684216, 46.77044832972648], [-60.46880259258747, 46.77043879056869], [-60.468552970313496, 46.770426966177105], [-60.468343489113245, 46.7704250294254], [-60.46805672409219, 46.77042318138542], [-60.46799252365539, 46.77043140777328], [-60.4679908370134, 46.77043162242498], [-60.46798966701271, 46.77043199250859], [-60.467964232578765, 46.77044004211407], [-60.467881407003084, 46.77047702401131], [-60.46784517853389, 46.770493195306244], [-60.4678123125316, 46.770504140233044], [-60.46779195440284, 46.77051091623937], [-60.467673802437254, 46.77057219791927], [-60.46765069193653, 46.77058096488353], [-60.467581802305226, 46.770607059540126], [-60.46747577529485, 46.77063351080354], [-60.46734450889895, 46.77069540172288], [-60.46723814538236, 46.770756943991195], [-60.46717145761513, 46.77081036513127], [-60.46705205318615, 46.77092651636217], [-60.466877722640845, 46.771096357922495], [-60.46677096787913, 46.77119999150131], [-60.466730895746906, 46.77123888245047], [-60.466649821009476, 46.77128819577097], [-60.466585276242114, 46.77132746257099], [-60.46631943531408, 46.771577164171276]]}, "properties": {"OBJECTID": 180222, "FEAT_CODE": "WARV50", "FEAT_DESC": "River - Single Line", "RIVNAME_1": " ", "RIVNAME_2": " ", "ZVALUE": 9999, "FID": null, "SHAPE_Length": 653.13027225326}}, {"type": "Feature", "id": 180224, "geometry": {"type": "LineString", "coordinates": [[-60.47504084165457, 46.76876774664385], [-60.47502048453866, 46.76876052948734], [-60.475013771858094, 46.768758149378925], [-60.47489813625758, 46.76866840777708], [-60.4748848652318, 46.76865810716211], [-60.47479444717817, 46.76860301290855], [-60.47472935699291, 46.76856647712161], [-60.47470264550523, 46.768551181908826], [-60.474665575323804, 46.768529970188744], [-60.47451429131276, 46.76847293781947], [-60.474495680102656, 46.76846592111384], [-60.47446542193377, 46.76845224846613], [-60.47435330424815, 46.768401579514766], [-60.474131493455566, 46.76832738380342], [-60.474100264106916, 46.76831767646019], [-60.47404112350863, 46.76829928899268], [-60.47383323894346, 46.76820740093837], [-60.473754645122845, 46.76817956599757], [-60.47333849567428, 46.768059677651976], [-60.47312978495535, 46.76798576938156], [-60.47294733134186, 46.76793853989281], [-60.472544344753956, 46.76784503848977], [-60.47232297660075, 46.76778974832119], [-60.472192876556846, 46.76774277466774], [-60.47199729850294, 46.7676961535539], [-60.47186716997383, 46.76765007886424], [-60.47174762404833, 46.76760373397571], [-60.47172437857453, 46.76759472444533], [-60.47155575277599, 46.76750370004572], [-60.47144462631806, 46.767446786368424], [-60.47141249564352, 46.767430335611984], [-60.47130937818123, 46.76736685811797], [-60.471226888211156, 46.76729837380559], [-60.47109001110384, 46.76718472353525], [-60.4709991335605, 46.7671116077634], [-60.470844089659806, 46.767037981980884], [-60.47069953329566, 46.7669468225758], [-60.470598574295956, 46.76688315817322], [-60.47051653569941, 46.76684114233412], [-60.470455333630554, 46.76680978388974], [-60.47036533131451, 46.766745695627115], [-60.47013120421578, 46.76662713033803], [-60.4700534570519, 46.766581312232056], [-60.46996387679727, 46.76650823332007], [-60.46988200161097, 46.76644653836786], [-60.469782984540565, 46.76637193660234], [-60.46973210848172, 46.76633042058889], [-60.46969341808018, 46.76629885777944], [-60.46956325037018, 46.76622578057977], [-60.469407716169826, 46.766135042614955], [-60.469382391470916, 46.76611648295217], [-60.4693608811723, 46.766101490552515], [-60.46933037854874, 46.76608023340609], [-60.46926530824473, 46.766043694915595], [-60.46913533045561, 46.765981961004066], [-60.469110282896075, 46.765970067165505], [-60.46908393965032, 46.765958153649315], [-60.46907052428899, 46.76595208799915], [-60.4690337435732, 46.76593791857788], [-60.46890199453072, 46.76588716079374], [-60.46879850580067, 46.765859671452986], [-60.46871990500339, 46.76583183286942], [-60.468471958818014, 46.76575704766876], [-60.46832917782346, 46.76572958816623], [-60.46826094636418, 46.76570183479798], [-60.46823792892428, 46.765692460613565], [-60.468226520000485, 46.76568410836455], [-60.46819994196073, 46.76566463872541], [-60.46813485985418, 46.76562809932436], [-60.46804394679248, 46.76555588034908], [-60.46795738666088, 46.76547127512939], [-60.46794125680242, 46.76545551060719], [-60.467877395972394, 46.765365000091684], [-60.467852451545916, 46.76533834880387], [-60.467840479670656, 46.76530625192951], [-60.46781520843104, 46.76523852791553], [-60.467751695307996, 46.76508502735094], [-60.467689508359186, 46.76495855511292], [-60.467672229741055, 46.76488433927263], [-60.467664446335114, 46.76485090416701], [-60.46765342718002, 46.764778662846176], [-60.46765422707268, 46.76473367321672], [-60.46765420455408, 46.76472298111243], [-60.46765418257969, 46.76470669122658], [-60.46761661942724, 46.76466985185452], [-60.467603492532035, 46.76464256219947], [-60.46757535457493, 46.7645999557226], [-60.46751422411959, 46.76450739052256]]}, "properties": {"OBJECTID": 180224, "FEAT_CODE": "WARV50", "FEAT_DESC": "River - Single Line", "RIVNAME_1": " ", "RIVNAME_2": " ", "ZVALUE": 9999, "FID": null, "SHAPE_Length": 778.3845759927173}}, {"type": "Feature", "id": 180371, "geometry": {"type": "LineString", "coordinates": [[-60.47704981735525, 46.778079022505686], [-60.47704523676057, 46.77806014820165], [-60.47703883171296, 46.778033781945076], [-60.47702010553569, 46.777980378951675], [-60.477013402770396, 46.77796122384323], [-60.47701453882395, 46.77791477472428], [-60.47701624799865, 46.7778442911894], [-60.47700475917975, 46.77775404128688], [-60.47700712304599, 46.77761909871621], [-60.47701142168059, 46.77759747738833], [-60.47704992373305, 46.7774040512866], [-60.47706506297398, 46.7773323880476], [-60.477105573856164, 46.77723275556751], [-60.477119840414105, 46.77719770163859], [-60.47713412565811, 46.777144027847704], [-60.47714958897177, 46.777009365205195], [-60.47715054502933, 46.77695527140718], [-60.47715117329529, 46.77691940366645], [-60.47714521637485, 46.776514288075504], [-60.477117140014535, 46.77635599492354], [-60.47710996667008, 46.7763155182664], [-60.477098842968935, 46.776217176722575], [-60.47708322736167, 46.77616674022419], [-60.477037378921814, 46.776018737608666], [-60.47698736354086, 46.775855631636624], [-60.476913193240605, 46.77564879447184], [-60.4768926761542, 46.77554543986935], [-60.476889865949396, 46.77553129342392], [-60.47685330202185, 46.775360393429466], [-60.47685485172036, 46.77524343215647], [-60.476855846404156, 46.775210938360864], [-60.47685732477021, 46.775162489854495], [-60.47687399341311, 46.775083597639416], [-60.47688591504944, 46.7750272348254], [-60.4769414699233, 46.774847558356996], [-60.476973785432946, 46.77475675375854], [-60.477024407853996, 46.774614496985706], [-60.477098347465905, 46.77448399508698], [-60.4771457750229, 46.77440028251603], [-60.477197202425, 46.77412360661576], [-60.47721923568378, 46.77400501820764], [-60.4772334981864, 46.77392433592426], [-60.47727208547119, 46.77382347296165], [-60.47730213534781, 46.77374496581133], [-60.47727672820424, 46.773601607932946], [-60.47724304957162, 46.77341156639644], [-60.477272154864686, 46.773321311867434], [-60.477281765844175, 46.77329868273274], [-60.47729864926283, 46.77325889866815], [-60.47736011576753, 46.77313344926423], [-60.47743475824102, 46.772981111471275], [-60.47751652759013, 46.772829020803464], [-60.477529612935434, 46.77282930939289], [-60.47763590082521, 46.77271286702462], [-60.47764287298323, 46.77268671479651], [-60.47765019811272, 46.772659175405735], [-60.47765384581745, 46.772497262079966], [-60.47766767408941, 46.772425569805684], [-60.477676158499605, 46.77240629966127], [-60.47769551807505, 46.77236228630597], [-60.4777276026637, 46.772332440034326], [-60.47776261765026, 46.772299868482975], [-60.47789462588512, 46.77219388367999], [-60.478030160574185, 46.772075205973024], [-60.47806807277381, 46.77204201423753], [-60.47816171296177, 46.771944182770326], [-60.4781910770038, 46.77192461698606], [-60.478241476689405, 46.77189104354893], [-60.47831437876591, 46.77185047850114], [-60.478320820370826, 46.7718468946654], [-60.47842553637912, 46.7718204044455], [-60.47848678021578, 46.77179134481177], [-60.478517964909344, 46.7717765439003], [-60.478610435274916, 46.77173178423722], [-60.478783403361696, 46.77158981177229], [-60.479009199391825, 46.77143908584249], [-60.47911554404101, 46.77134963330564], [-60.479196145425576, 46.77127851257052], [-60.47926193340571, 46.771216064957805], [-60.47930327910898, 46.771144087973454], [-60.479343275073475, 46.7710729631936], [-60.47938499127871, 46.77096498672379], [-60.47941276860772, 46.77082534825486], [-60.47942777699675, 46.77074991990894], [-60.4794424899177, 46.770687273559425], [-60.47949761159532, 46.77051658587957], [-60.479500740348385, 46.770501751398704], [-60.47951274529044, 46.77044492213725], [-60.479475070734644, 46.77035409533433], [-60.47937267820936, 46.770218652909804], [-60.479347718859636, 46.77016409590769], [-60.479361936963784, 46.7701361773317], [-60.4794025320559, 46.77005640805749], [-60.479403011588715, 46.77000601155013], [-60.47940321752667, 46.76998532587848], [-60.4794310581182, 46.769922041867474], [-60.4794714721932, 46.769841935590485], [-60.47954190489556, 46.7697425115816], [-60.47957944191954, 46.76968952082726], [-60.479606401308764, 46.769645107632684], [-60.479606350939285, 46.76961812555166], [-60.47961900026192, 46.769582279672974], [-60.47963503120095, 46.76953684267886], [-60.47963540087102, 46.769500861196875], [-60.47962352568284, 46.769446601571794], [-60.479676184363186, 46.76938476435652], [-60.47971626957604, 46.76933974940492], [-60.47978457215931, 46.76922335894856], [-60.4798639106118, 46.76917920887457], [-60.479914567307176, 46.76915408203692], [-60.47996983746097, 46.769126644917854], [-60.48000074328984, 46.76910570869008], [-60.480022587129795, 46.76909090855293], [-60.48004916781518, 46.76905459559919], [-60.48006508963226, 46.76893795084872], [-60.48006554386552, 46.76890660604979], [-60.48006624875094, 46.76885697946896], [-60.480079283377684, 46.76883026767866], [-60.48008608914132, 46.768820553999795], [-60.48016066887246, 46.76871416523757], [-60.48021299847611, 46.76868741918706], [-60.48023958673899, 46.768679005293784], [-60.480371353328614, 46.76866210889757], [-60.48048956600675, 46.76862691446073], [-60.480554979718946, 46.76860045647824], [-60.48056576541512, 46.768593305346805], [-60.48064824029601, 46.76853860422112], [-60.48070884016426, 46.7684979736497], [-60.4807144922903, 46.76849417429661], [-60.48076657750829, 46.76847911316536], [-60.48092559479328, 46.768433126486784], [-60.481043856479985, 46.76842494052974], [-60.48133266785268, 46.76838269373679], [-60.481424668795015, 46.76834782108107], [-60.481569836774035, 46.76826822080511], [-60.48164875309903, 46.76823305985567], [-60.48172900659177, 46.768197028327535], [-60.48182060080105, 46.768171146055835], [-60.481938392274785, 46.768144940506524], [-60.48205698014343, 46.76810165301891], [-60.4821110358646, 46.768065944443165], [-60.48224353705246, 46.76797706480116], [-60.48229586493397, 46.76795031776027], [-60.4825473715264, 46.76780915944089], [-60.48259969909691, 46.76778241225414], [-60.48267744886353, 46.76773740629218], [-60.48269257833775, 46.76772865862896], [-60.48269939236414, 46.76772409278062], [-60.48275882809599, 46.76768421847167], [-60.482799705718435, 46.7676221205268], [-60.48282705295641, 46.76752659704654], [-60.482827867015665, 46.7675237440716], [-60.482834886680365, 46.76751195601538], [-60.482854864096964, 46.767478439969686], [-60.48293577125004, 46.76734432570571], [-60.482953694312705, 46.767327062812704], [-60.482963196546166, 46.76731793028388], [-60.48296314529117, 46.76729093018086], [-60.483070261836026, 46.76715649264221]]}, "properties": {"OBJECTID": 180371, "FEAT_CODE": "WARV50", "FEAT_DESC": "River - Single Line", "RIVNAME_1": " ", "RIVNAME_2": " ", "ZVALUE": 9999, "FID": null, "SHAPE_Length": 1426.733001009887}}, {"type": "Feature", "id": 180643, "geometry": {"type": "LineString", "coordinates": [[-60.47790301855778, 46.75860907758205], [-60.47776103493191, 46.758508750047056], [-60.477644782656455, 46.75841798948831], [-60.47755662438748, 46.75835995025138], [-60.47727000749249, 46.75817123224672], [-60.47719752483681, 46.75812020724736], [-60.47714068807716, 46.758080182939466], [-60.47703564488749, 46.75799816469635], [-60.47702445084488, 46.757989422070786], [-60.47699212788074, 46.757966515844515], [-60.47690910225451, 46.7579076803585], [-60.47687122848294, 46.75788081778298], [-60.47679247433466, 46.757825019336295], [-60.476573097682774, 46.75764377674197], [-60.47645690391622, 46.75755212527675], [-60.47630185067544, 46.75747939751282], [-60.476262358563424, 46.757451590055176], [-60.476172534546045, 46.757388347164856], [-60.47605597037304, 46.75733267680798], [-60.47571754856383, 46.757176713382904], [-60.47563205990031, 46.75714233770698], [-60.47562757427005, 46.75714052876309], [-60.47561928600144, 46.75713798791126], [-60.475535913824075, 46.75711240656125], [-60.47544473440588, 46.75710229425249], [-60.47535180949597, 46.757091144376666], [-60.475288457439035, 46.75708354513755], [-60.47520470746849, 46.75707305665943], [-60.47505281671278, 46.7570540440623], [-60.47491678751768, 46.757026273784696], [-60.47486992247776, 46.7570167073966], [-60.47479756605295, 46.757007604129356], [-60.47479181177265, 46.7570068831016], [-60.47477757155005, 46.75700673068352], [-60.47455621894759, 46.75700438108288], [-60.474411817827466, 46.75701200105633], [-60.47425350040008, 46.7570651938667], [-60.47420705562626, 46.757071286922574], [-60.474188938677074, 46.75707366772207], [-60.47412353119353, 46.75707222321977], [-60.47405850205856, 46.7570626873284], [-60.47402482438461, 46.75705478879271], [-60.4739017719333, 46.757025917956376], [-60.473812096830535, 46.75700044812406], [-60.473771246176284, 46.75698884520654], [-60.473747223979835, 46.75698113285984], [-60.473653844531015, 46.75695115323984], [-60.47354105311835, 46.756933047289856], [-60.473536868219625, 46.756932369866206], [-60.473499635168956, 46.75692237670917], [-60.473328653651855, 46.756876472045796], [-60.47315797553017, 46.756857401862135], [-60.4729621166473, 46.756845874762], [-60.472864061810334, 46.75685566875488], [-60.47279241194755, 46.75686282424329], [-60.47268728474839, 46.75687040088329], [-60.472676549981934, 46.75687033466474], [-60.4725170999476, 46.756869339994765], [-60.47243846585071, 46.756859520521715], [-60.47235957183874, 46.75684965925153], [-60.47219106988563, 46.75681263636373], [-60.47217221636474, 46.756807530832546], [-60.47208633048666, 46.75678422231654], [-60.471995938667185, 46.756757025274496], [-60.471892369836986, 46.75664763983349], [-60.47185434587687, 46.75662070026407], [-60.47176310914853, 46.756583584715216], [-60.471724243773515, 46.75657462585552], [-60.47156760420009, 46.75656396333524], [-60.471514349395036, 46.756554686290876], [-60.47145699462369, 46.75652557328715], [-60.47142353425387, 46.756508571113315], [-60.4713661502284, 46.75646777583594], [-60.47129553612367, 46.75641756234382]]}, "properties": {"OBJECTID": 180643, "FEAT_CODE": "WARV50", "FEAT_DESC": "River - Single Line", "RIVNAME_1": " ", "RIVNAME_2": " ", "ZVALUE": 9999, "FID": null, "SHAPE_Length": 596.0256149158082}}, {"type": "Feature", "id": 180785, "geometry": {"type": "LineString", "coordinates": [[-60.49009501478244, 46.76190206923652], [-60.49006374206845, 46.76192713098983], [-60.490028360381274, 46.76195550443363], [-60.490013397758176, 46.76198016813286], [-60.490001413981815, 46.761999911390134], [-60.48996014432457, 46.76209890194069], [-60.48995937266832, 46.76213720556678], [-60.48995816497821, 46.76219785478369], [-60.489969728129914, 46.76228720520126], [-60.48998166776134, 46.76236845518339], [-60.48998021902844, 46.76243344594518], [-60.489978071612065, 46.76253037917115], [-60.489957630874876, 46.76259288321133], [-60.48993685630092, 46.76265636988373], [-60.48992179381879, 46.76275503559223], [-60.48988095388237, 46.76284504487472], [-60.48985399422386, 46.76288944250161], [-60.489846084328825, 46.762899861504415], [-60.489799585706876, 46.76296114564255], [-60.489786368005696, 46.76301081266552], [-60.48978530382272, 46.76301483015711], [-60.4897846885714, 46.76301679657925], [-60.489757575680606, 46.763104218198315], [-60.48975580276816, 46.76319251995718], [-60.48975559585051, 46.763203171014105], [-60.48975493177317, 46.763248172741854], [-60.48975252660079, 46.76341009584448], [-60.48975174518035, 46.76345508599583], [-60.48973986773436, 46.76348211228158], [-60.4897239206476, 46.763518363893844], [-60.48972313961593, 46.76356334505326], [-60.48972013714637, 46.763571306851794], [-60.489696246806126, 46.76363475208713], [-60.48969578193113, 46.763661659867516], [-60.48969546574574, 46.763679733245034], [-60.489693509970365, 46.76375534146183], [-60.48969223209891, 46.76380565751283], [-60.48970380794904, 46.76392290716137], [-60.489716109785086, 46.76396818446259], [-60.48976126882421, 46.76403211022899], [-60.48979229598666, 46.76407604356376], [-60.489808057031475, 46.764098744631426], [-60.48983034720397, 46.76413087664094], [-60.48986844028239, 46.76418481065761], [-60.48989424396537, 46.76422137559933], [-60.489906951204865, 46.764257653115735], [-60.489906183372995, 46.764302634561], [-60.48989148332988, 46.764365309561335], [-60.48986453553499, 46.76440971644304], [-60.48982848446333, 46.76444005505348], [-60.48981137902593, 46.7644544480782], [-60.48979134246122, 46.76447695745986], [-60.48977130587954, 46.764499466837584], [-60.48970303097621, 46.76461586388082], [-60.489701565233105, 46.76473192730982], [-60.4897000463533, 46.764831664189835], [-60.489699639790246, 46.764857880271826], [-60.48970047805126, 46.76487450304029], [-60.489709193656196, 46.76504709178992], [-60.48970740780444, 46.76513538424037], [-60.48970720085401, 46.76514603529359], [-60.48969208241076, 46.765217700737], [-60.48969096672601, 46.765275796041934], [-60.48968932107631, 46.765361634659904], [-60.489675414465346, 46.76540722768875], [-60.48966901137265, 46.76542607642927], [-60.48964810266258, 46.76548762515671], [-60.48963338885831, 46.76555029981281], [-60.489632419789245, 46.76562637064905], [-60.48963189456746, 46.765667253565475], [-60.48962985876437, 46.7657392241421], [-60.4894957582279, 46.76589106583151]]}, "properties": {"OBJECTID": 180785, "FEAT_CODE": "WARV50", "FEAT_DESC": "River - Single Line", "RIVNAME_1": " ", "RIVNAME_2": " ", "ZVALUE": 9999, "FID": null, "SHAPE_Length": 460.09071617803943}}, {"type": "Feature", "id": 180786, "geometry": {"type": "LineString", "coordinates": [[-60.48542752276365, 46.76153675608925], [-60.48533072209986, 46.76153973062158], [-60.4852058815701, 46.76154357348773], [-60.48481273068974, 46.76154933678936], [-60.4843807508767, 46.76154523604046], [-60.484184385039356, 46.761543616718804], [-60.48398843802321, 46.76153300660769], [-60.48376548809216, 46.761539801421556], [-60.48371566008061, 46.761547335857884], [-60.48359403109779, 46.761565728080974], [-60.48337118415605, 46.76162652238445], [-60.48331835314558, 46.76164566313647], [-60.48322598550215, 46.76167912530132], [-60.48314666097628, 46.7617232780288], [-60.48302769177832, 46.76180345688526], [-60.482947515460936, 46.76186559905967], [-60.48287714537311, 46.761958708850415], [-60.48286656621521, 46.761972704493765], [-60.48277295243318, 46.762070540471456], [-60.482707180429756, 46.7621329815005], [-60.482665952631436, 46.76216980968333], [-60.482626542312985, 46.76220501291641], [-60.48258536433492, 46.76225622363121], [-60.48253339787115, 46.7623208583568], [-60.48252470458156, 46.76234889895664], [-60.48251954113072, 46.76236555167871], [-60.48251707794315, 46.762446494444106], [-60.482503627126256, 46.762482197033584], [-60.48246239452735, 46.762608184713756], [-60.482447267357195, 46.762679849054585], [-60.48243217855794, 46.762778504230845], [-60.48242340361814, 46.762875723443464], [-60.48241595992843, 46.76295814951089], [-60.48241503148914, 46.76301093910292], [-60.48241438574507, 46.763048111500545], [-60.48239884842737, 46.76315666542477], [-60.482396999121306, 46.7633087190354], [-60.482396212417186, 46.76335369103692], [-60.48237655349129, 46.763404565381], [-60.482354495195885, 46.763461677669966], [-60.48233446671015, 46.76349772142554], [-60.48231448079909, 46.763533694117385], [-60.48227338180059, 46.76356070635707], [-60.482246927604194, 46.76357810533799], [-60.48215451628935, 46.76362196928689], [-60.482117915055724, 46.763636777945955], [-60.48208910945564, 46.76364842833811], [-60.481918156914475, 46.76369146295941], [-60.48186452474938, 46.76371818111727], [-60.48179874921213, 46.76378063053829], [-60.48177117730185, 46.76379699683767], [-60.4816788712202, 46.76385178831061], [-60.48166318619786, 46.76385702274064], [-60.481653593897555, 46.76386023140322], [-60.48153497325524, 46.763904417720035], [-60.48148050219652, 46.76394911655212], [-60.48139354923526, 46.76400705855787], [-60.48136155439884, 46.7640283941717], [-60.48117474107764, 46.76424298097289]]}, "properties": {"OBJECTID": 180786, "FEAT_CODE": "WARV50", "FEAT_DESC": "River - Single Line", "RIVNAME_1": " ", "RIVNAME_2": " ", "ZVALUE": 9999, "FID": null, "SHAPE_Length": 518.1258894746396}}, {"type": "Feature", "id": 180787, "geometry": {"type": "LineString", "coordinates": [[-60.47780132189792, 46.76120773956253], [-60.47780179051165, 46.761225749233226], [-60.477837639131074, 46.76127107913883], [-60.47785249023853, 46.76128986495728], [-60.477967945056044, 46.761425606006306], [-60.47800607321603, 46.76150654381108], [-60.478002441754505, 46.76166845775383], [-60.47798726782201, 46.76171351747946], [-60.477975073247094, 46.761749742229505], [-60.477952984414046, 46.76179284053639], [-60.47792032099328, 46.76185653988418], [-60.4778965730725, 46.76191497302626], [-60.477865575343955, 46.761991236625796], [-60.47786157276957, 46.76218913203886], [-60.477860895412235, 46.76225467967578], [-60.47786083072732, 46.762261113011206], [-60.47781827927285, 46.76238706996272], [-60.4778073832323, 46.762426050226814], [-60.47776325283355, 46.762583849155], [-60.477724555466864, 46.76266708864679], [-60.47766716509389, 46.762790522372114], [-60.47765075881381, 46.76281877049199], [-60.47762586565855, 46.76286160889224], [-60.477572749888274, 46.76293332576167], [-60.477566860578605, 46.76294080959358], [-60.47755881366484, 46.762951026736985], [-60.477479173132615, 46.76305816623101], [-60.47743862248395, 46.76308517083303], [-60.47739905072524, 46.76314729570851], [-60.47739265993364, 46.76317785261387], [-60.47738387469001, 46.76321985827959], [-60.47737090690246, 46.763241216456535], [-60.47735691734084, 46.76326426203192], [-60.47733197380371, 46.763297514611175], [-60.47731641498369, 46.76331826665293], [-60.47728993904219, 46.76338068033888], [-60.477288679230945, 46.76340765154851], [-60.47728851866004, 46.76341585570194], [-60.477287083380595, 46.763497613005526], [-60.47728564809169, 46.763579370307944], [-60.47728555677868, 46.763587773981435], [-60.47729777924111, 46.76363284390554], [-60.47729742087843, 46.763668834662795], [-60.47732041513988, 46.76382143618415]]}, "properties": {"OBJECTID": 180787, "FEAT_CODE": "WARV50", "FEAT_DESC": "River - Single Line", "RIVNAME_1": " ", "RIVNAME_2": " ", "ZVALUE": 9999, "FID": null, "SHAPE_Length": 304.8248926725791}}, {"type": "Feature", "id": 281430, "geometry": {"type": "LineString", "coordinates": [[-60.48749532078452, 46.773502244036926], [-60.487495414612994, 46.77349234648469], [-60.48749605075487, 46.77343026288372], [-60.48750613251401, 46.77338250722301], [-60.487511174850596, 46.773358597925444], [-60.48752582710383, 46.77326892330209], [-60.48756469815581, 46.773180959634], [-60.48759317471722, 46.773116508698635], [-60.48763367469902, 46.773062500464405], [-60.487661895743265, 46.773031405597656], [-60.48767371441313, 46.77301838171956], [-60.487710726648636, 46.772987245952606], [-60.487780048254145, 46.77292892092831], [-60.48782819854506, 46.772873766711456], [-60.48783400985244, 46.77286710861644], [-60.487887176533334, 46.77282237815308], [-60.48798005956439, 46.77276862034218], [-60.48804258360988, 46.772739547718345], [-60.488111266586486, 46.7727076044383], [-60.488178826833725, 46.77266318994568], [-60.488218435592785, 46.772600162281385], [-60.48823314020545, 46.772537487659385], [-60.488259257169005, 46.77251106225363], [-60.48839300131909, 46.77239520388068], [-60.48840847155927, 46.772382800090895], [-60.48845968370071, 46.772341770294695], [-60.48847409068775, 46.772324627331976], [-60.48851237720695, 46.77227902985012], [-60.4885405848788, 46.77220765203945], [-60.48854097742331, 46.77217752983155], [-60.48854213762021, 46.772089790722035], [-60.48855725988392, 46.77201812557589], [-60.48858337643007, 46.77199170008596], [-60.48864997751549, 46.771911274652034], [-60.48870690262777, 46.77185498078195], [-60.48873099914364, 46.771831147802644], [-60.48882466179741, 46.77173240817065], [-60.48896227646676, 46.7716177500622], [-60.48903723653564, 46.77155528222579], [-60.48907773385793, 46.7715012734159], [-60.489098220822804, 46.77147393225028], [-60.489104267983215, 46.77146585732304], [-60.48911311031378, 46.771442742344426], [-60.48917286252772, 46.77128647918808], [-60.48925494801288, 46.771070480591625], [-60.48925600705204, 46.77102629755416], [-60.489257723949656, 46.77095444603103], [-60.48924536640435, 46.77088217755182], [-60.48920814701997, 46.77080937230065], [-60.48914388070619, 46.77075485455303], [-60.48906605683202, 46.770682048830814], [-60.488808209718535, 46.77050899438374], [-60.488743943744915, 46.77045448541401], [-60.48872741872185, 46.77043184844623], [-60.48870453915201, 46.7704005222823], [-60.48869307278999, 46.77033727295491], [-60.488695109430665, 46.77026532045606], [-60.48869661979061, 46.77014835813972], [-60.48869823827234, 46.770085396109906], [-60.48866008840686, 46.77000446155148], [-60.488567174965695, 46.769847501388895], [-60.488558079511854, 46.76983212825727], [-60.48848198436244, 46.7697503604286], [-60.48842995485713, 46.769714119274475], [-60.488403811625865, 46.769713545190406], [-60.48830803065343, 46.769707239029174], [-60.488260159594766, 46.7697040908449], [-60.488237758960935, 46.769706406804026], [-60.48818119138096, 46.76971225624994], [-60.48806344104553, 46.76973756916943], [-60.48785270553154, 46.7697626395984], [-60.48776061064525, 46.76977141636175], [-60.4876170135224, 46.76976106244842], [-60.48753888179598, 46.769751246477746], [-60.48746374540366, 46.76974292719854], [-60.48744766540276, 46.769741143014656], [-60.487303961678414, 46.76967678844493], [-60.48720769308925, 46.76962354645454], [-60.48712263604094, 46.76957650847686], [-60.487028448496766, 46.769526965914835], [-60.48701907711907, 46.76952203519437], [-60.48694251313773, 46.76942225672087], [-60.48691028913014, 46.76939980552293], [-60.48689049808655, 46.7693860151781], [-60.486867722262744, 46.76937782002836], [-60.486813203932776, 46.769358217804324], [-60.48676071974445, 46.769357667521284], [-60.48673465450236, 46.769357391757026], [-60.48670746312973, 46.76936020512139], [-60.48665568661049, 46.76936555611435], [-60.486524809935396, 46.76939147896744], [-60.48644581579849, 46.769399642603105], [-60.486196230015636, 46.76941575648953], [-60.48609151131909, 46.769414354832314], [-60.48583048945491, 46.76939420894209], [-60.48554198933505, 46.76937347636536], [-60.48550357502072, 46.76936246223464], [-60.48547736185058, 46.76935495620867], [-60.48544555347153, 46.76933821951434], [-60.48537380506614, 46.76930048147475], [-60.48515239331777, 46.76921731633748], [-60.48500958353331, 46.7691619781773], [-60.484979891204944, 46.769152964587974], [-60.48482747861793, 46.76910667568467], [-60.48459345488336, 46.769041231422186], [-60.48448780550516, 46.76903170813478], [-60.48447723420127, 46.769029486709215], [-60.48439702291499, 46.769012612115674], [-60.484345467258734, 46.76899438782169], [-60.48429725583192, 46.76896932532612], [-60.48429303596568, 46.76896712658943], [-60.48426775925014, 46.768936997748455], [-60.48425456838299, 46.768921282197425], [-60.48424638775522, 46.768903732923185], [-60.48422956229617, 46.76886763420008], [-60.484222012111836, 46.76884611194354], [-60.48421684485581, 46.768831355844625], [-60.4842216637806, 46.768615470097465], [-60.48421509560437, 46.768516644393564], [-60.48421088513734, 46.76845323919776], [-60.48419457815517, 46.768424288598766], [-60.484160077647836, 46.76836302502268], [-60.4840704362797, 46.76826295693255], [-60.48402474564629, 46.768238624742295], [-60.48401931383683, 46.76823573336052], [-60.48399266695761, 46.768217030876805], [-60.48383794798802, 46.76810843927568], [-60.48379995154172, 46.76808061340086], [-60.483774526920804, 46.7680359647445], [-60.48377005859523, 46.76797473177087], [-60.48376333116014, 46.767882715266595], [-60.4837391192842, 46.76774626977677], [-60.483728061326666, 46.76768394686113], [-60.48372834066794, 46.76765715202653], [-60.48372842904347, 46.767647947321116], [-60.48373047162942, 46.767576003997284], [-60.483715551419124, 46.76754400595144], [-60.48370546663616, 46.76752235589615], [-60.48367402316767, 46.76746043944642], [-60.483655079749575, 46.76742315107578], [-60.48360352967735, 46.767377018621886], [-60.48359873471326, 46.7673736732488], [-60.48355150576024, 46.76734077534259], [-60.48347292098078, 46.767312947292744], [-60.483419162810165, 46.76729593406254], [-60.48335676959179, 46.76727619290145], [-60.483290823899495, 46.76725764248868], [-60.48316152385644, 46.76719360859628], [-60.483092563291336, 46.76716556008306], [-60.483070261836026, 46.76715649264221]]}, "properties": {"OBJECTID": 281430, "FEAT_CODE": "WARV50", "FEAT_DESC": "River - Single Line", "RIVNAME_1": "Donovan Brook", "RIVNAME_2": " ", "ZVALUE": 9999, "FID": null, "SHAPE_Length": 1069.5257687138446}}, {"type": "Feature", "id": 281431, "geometry": {"type": "LineString", "coordinates": [[-60.483070261836026, 46.76715649264221], [-60.48297961891763, 46.76713138678412], [-60.48277027463482, 46.76707339359504], [-60.4825501334408, 46.766963252341185], [-60.48246202813452, 46.76693822892383], [-60.4824195780156, 46.76692617994809], [-60.4822899120139, 46.766898126643135], [-60.48210624669554, 46.76690488306833], [-60.48208757442764, 46.76690253707808], [-60.48202810757391, 46.76689505414925], [-60.4819092000806, 46.76684132724287], [-60.48184596233461, 46.766812755992646], [-60.48178086932, 46.76677622415855], [-60.481751375590896, 46.76675119470097], [-60.48171661489294, 46.76672171143173], [-60.48159486908646, 46.7666359009117], [-60.48154923213221, 46.766603730197644], [-60.481405543942046, 46.76653936848274], [-60.481302038633494, 46.76648399117952], [-60.48122512053057, 46.76642019963614], [-60.48112116744359, 46.76637471193231], [-60.481099864458294, 46.76635604545672], [-60.481069565948275, 46.76632946815396], [-60.48105903390323, 46.7663137837822], [-60.481057320428334, 46.76631120814078], [-60.481050039724956, 46.766209252632116], [-60.48104702115203, 46.76616698674301], [-60.48104736317774, 46.76614084126197], [-60.481048548015906, 46.76605001578194], [-60.481053785114995, 46.766022817152596], [-60.481064084007734, 46.76596936999608], [-60.48106986934609, 46.76593940254479], [-60.48107791882158, 46.765897677402485], [-60.48109304046458, 46.765798114197835], [-60.481107700775105, 46.765708440457125], [-60.481148477921316, 46.76559234290428], [-60.48117747117492, 46.7654480868715], [-60.48118015970295, 46.76533989815135], [-60.481181932475906, 46.76526819188999], [-60.48116876428003, 46.76523096727769], [-60.4811437467009, 46.76516025495277], [-60.48111925695465, 46.76512371696281], [-60.48107986376242, 46.76506975138228], [-60.48100716889169, 46.76500503572269], [-60.480926451521036, 46.76493317758196], [-60.480837148873626, 46.76479801565337], [-60.48082527331179, 46.76474375610925], [-60.48082546816973, 46.76473340178959], [-60.48082685030808, 46.76465379421825], [-60.48085065224302, 46.76460427135045], [-60.48085295853766, 46.76459947132994], [-60.48090770763502, 46.764492681249], [-60.48090849605362, 46.76444770029992], [-60.48092316004487, 46.76438068779825], [-60.480951780234356, 46.764249761082056]]}, "properties": {"OBJECTID": 281431, "FEAT_CODE": "WARV50", "FEAT_DESC": "River - Single Line", "RIVNAME_1": "Donovan Brook", "RIVNAME_2": " ", "ZVALUE": 9999, "FID": null, "SHAPE_Length": 424.6568789810622}}]}