{"type": "FeatureCollection", "features": [{"type": "Feature", "id": 156069, "geometry": {"type": "LineString", "coordinates": [[-60.578246433847475, 46.74154012061144], [-60.57802094951416, 46.741664040971955], [-60.57799446108313, 46.7417003786203], [-60.5779616159551, 46.74172782498733], [-60.57788836409004, 46.74178902830864], [-60.577757609585994, 46.74191229033492], [-60.577755778450175, 46.74191400648647], [-60.57766227017853, 46.74198493226864], [-60.57757083556429, 46.74203879355594], [-60.577536927424106, 46.7420522678253], [-60.57750417848763, 46.74206528965574], [-60.57741199180244, 46.74213621622604], [-60.57730581985395, 46.74219787382852], [-60.57725056838998, 46.74223539296096], [-60.577226142484605, 46.742251983885865], [-60.57717403587282, 46.74228680670575], [-60.5771465183375, 46.74230519504988], [-60.57711834656512, 46.74231861071986], [-60.57705421812388, 46.742349137970145], [-60.57693008986589, 46.74241153978181], [-60.57689619134327, 46.74242858692672], [-60.57680424041872, 46.7424644373587], [-60.57669619004632, 46.74250401445014], [-60.57668578168778, 46.74250782576442], [-60.576567685584806, 46.74254312204459], [-60.57648755874935, 46.74257832279488], [-60.576408336556845, 46.74262254231036]]}, "properties": {"OBJECTID": 156069, "FEAT_CODE": "WARV10", "FEAT_DESC": "Double Line River - Water to the left line", "RIVNAME_1": "Black Brook", "RIVNAME_2": " ", "ZVALUE": 9999, "FID": null, "SHAPE_Length": 187.29251415297685}}, {"type": "Feature", "id": 156070, "geometry": {"type": "LineString", "coordinates": [[-60.576408336556845, 46.74262254231036], [-60.576400530381854, 46.74262758769386], [-60.57639485438841, 46.74263125627115], [-60.57632961580001, 46.74268477170011], [-60.576289630430445, 46.74272982259028], [-60.57626670980826, 46.742745239255655], [-60.576157343261634, 46.7428188156291], [-60.57602495131807, 46.74289758269002], [-60.57591927119181, 46.74296046438101], [-60.57582592407501, 46.7430493013815], [-60.5758249126691, 46.74305025190678], [-60.575811179660306, 46.74306688917486], [-60.57575846239063, 46.743130758280074], [-60.57572896842726, 46.74316166790375], [-60.575665048253946, 46.74322866537616], [-60.57564201431993, 46.74326352776041], [-60.57561167748721, 46.74330943090544], [-60.57554442074956, 46.74340790136088], [-60.5755045728815, 46.743479044877326], [-60.57545029661695, 46.743550800483426], [-60.575411156859175, 46.74357696972277], [-60.575331891984035, 46.743622087551344], [-60.57528690020091, 46.74363687412422], [-60.57525216651519, 46.74364828729385], [-60.5752087094998, 46.74366592326422], [-60.575186814263965, 46.74367480970562], [-60.575042569219654, 46.743709550028804], [-60.57486897898357, 46.74374151703241], [-60.574713869791374, 46.743770077811945], [-60.574570014607936, 46.74379582615545], [-60.57449565602122, 46.74379839810308], [-60.574360221631466, 46.743803076585486], [-60.574061459581166, 46.74380823257607], [-60.57403268745081, 46.74380873825195], [-60.574005437523944, 46.74380945620139], [-60.573770524256645, 46.74381576773033], [-60.57365232643973, 46.7438240598904], [-60.57356042449922, 46.74385900878935], [-60.57345019340003, 46.74391963173347], [-60.573415467570456, 46.7439387302144], [-60.57340500235958, 46.74394408796404], [-60.573363193812696, 46.743965520062496], [-60.57312506910579, 46.74410806184648], [-60.573072041032596, 46.74415193489273], [-60.57305038912676, 46.74416792681338], [-60.572939354866584, 46.744249906393236], [-60.572845865143286, 46.744348754544745], [-60.572765940720736, 46.744437927889585], [-60.57275989222487, 46.744444342274264], [-60.572698580829275, 46.74450939552825], [-60.572674432294924, 46.74453607997542], [-60.57265861796946, 46.74455355465859], [-60.572538077191446, 46.744707248298376], [-60.57251142816891, 46.74474121435553], [-60.57248778446669, 46.74476685651839], [-60.5723380248022, 46.744929217425906], [-60.572294415964706, 46.74497962579317], [-60.572245518090114, 46.74503614963371], [-60.572172895028544, 46.74510817121482], [-60.572164659391085, 46.745116348070546], [-60.57211158954708, 46.74516111074757], [-60.571912735489796, 46.74530358365483], [-60.57170007573082, 46.745490761352876], [-60.57158050343394, 46.745588118728556], [-60.57131589921235, 46.74576609311076], [-60.57119748472853, 46.74583736668711], [-60.571052101433104, 46.74592608470704], [-60.57099614187282, 46.74595528809955], [-60.570932781580325, 46.74598835713156], [-60.570895090463075, 46.746000849124094], [-60.570774613965334, 46.74604078668727], [-60.570646349171376, 46.74610078090905], [-60.57060344706629, 46.74612084782209], [-60.57051610553083, 46.746157025097496], [-60.57049805528956, 46.74616450737315], [-60.57037532184432, 46.74619784482946], [-60.57020911564701, 46.746242966118665], [-60.57016943149975, 46.74625202266376], [-60.569959319573165, 46.7462952568565], [-60.56981545559136, 46.7463209990387], [-60.56952591997046, 46.74635444514788], [-60.56942129520206, 46.74638102067225], [-60.56930232292934, 46.74640639122022], [-60.5690402542953, 46.746440419831835], [-60.56892701313659, 46.74646585780364], [-60.56888286475804, 46.746475772975636], [-60.56886652508536, 46.746482184396754], [-60.56881755957731, 46.7465013927846], [-60.56873487166371, 46.74654322040405], [-60.568711721134115, 46.74655493181114], [-60.56852655318835, 46.74662569256334], [-60.568500628287936, 46.74663359209335], [-60.56835531424198, 46.74667784989022], [-60.56798794304274, 46.74678253441831], [-60.567816662641164, 46.74683559002258], [-60.56761881731899, 46.74689708006822], [-60.56751191396513, 46.746927403240335], [-60.56743580470626, 46.746948985628414], [-60.56737227061253, 46.74696548063761], [-60.567198691211644, 46.747010539728514], [-60.56681772417202, 46.74709693200726], [-60.56677803887029, 46.747105987351546], [-60.56638386976303, 46.74716599833563], [-60.5661214314174, 46.74720811207976], [-60.566003723403, 46.74723440606635], [-60.56591482394849, 46.747259135119805], [-60.565688153236195, 46.747322186281224], [-60.56539832404298, 46.74739161429577], [-60.56535936569093, 46.74740021664031], [-60.56532028839119, 46.74740884343849], [-60.565214443987955, 46.74746239710329], [-60.56516221642416, 46.74748828422189], [-60.565042887316615, 46.74755053230947], [-60.564958345333366, 46.74759330768957], [-60.56493704236547, 46.74760408570586], [-60.5648070851859, 46.74764881894367], [-60.564555362487596, 46.74773546252447], [-60.56455495728966, 46.74774445354612], [-60.56452060585666, 46.74777342091493], [-60.5645018786138, 46.747789212504784], [-60.564472708920995, 46.747821440077466], [-60.56446192012157, 46.74783335986252], [-60.564448891808794, 46.74786098134392], [-60.5644480813738, 46.74787896338538]]}, "properties": {"OBJECTID": 156070, "FEAT_CODE": "WARV10", "FEAT_DESC": "Double Line River - Water to the left line", "RIVNAME_1": "Black Brook", "RIVNAME_2": " ", "ZVALUE": 9999, "FID": null, "SHAPE_Length": 1140.6960491886034}}, {"type": "Feature", "id": 164938, "geometry": {"type": "LineString", "coordinates": [[-60.578246433847475, 46.74154012061144], [-60.57823911226571, 46.74156386865939], [-60.578232648773884, 46.74158482698471], [-60.57820398226864, 46.74163267411595], [-60.578178880671054, 46.74167458495824]]}, "properties": {"OBJECTID": 164938, "FEAT_CODE": "WARV20", "FEAT_DESC": "Double Line River - Water to the right line", "RIVNAME_1": "Black Brook", "RIVNAME_2": " ", "ZVALUE": 395.5, "FID": null, "SHAPE_Length": 15.871554459126761}}, {"type": "Feature", "id": 164939, "geometry": {"type": "LineString", "coordinates": [[-60.578178880671054, 46.74167458495824], [-60.578172841318235, 46.741682277773954], [-60.57816499617265, 46.74169229026082], [-60.57809774615795, 46.741790762368694], [-60.57805736005922, 46.74184480504464], [-60.577978655403705, 46.741907035911304], [-60.57792774034875, 46.741950343980555], [-60.5778847318533, 46.741986943733025], [-60.577752046181374, 46.74208492982985], [-60.57769433539893, 46.742124170023224], [-60.57767373068089, 46.74213816907587], [-60.577514886799634, 46.74223559188534], [-60.577369424561, 46.742297317314765], [-60.57709328981072, 46.742412063277705], [-60.577060812086664, 46.74242662066738], [-60.57685548606168, 46.74251862102139], [-60.57676313180315, 46.74255879170754], [-60.57659112023395, 46.742633615111664], [-60.5765253802025, 46.742669120723896], [-60.57640631135587, 46.74278449312464], [-60.57629253034741, 46.74287593938753], [-60.57620667093513, 46.742944956145685], [-60.57593010795432, 46.74313100346212], [-60.57587595051268, 46.74316743815932], [-60.57586639994405, 46.74317809831502], [-60.57579601894559, 46.74325663147072], [-60.57569312613077, 46.743387816383986], [-60.57566271589361, 46.74342659926201], [-60.5756296922832, 46.7434769452855], [-60.575621962734765, 46.74348874197809], [-60.575619210174, 46.74349173451349], [-60.57551462110528, 46.7436052619918], [-60.57544897712172, 46.74366776797248], [-60.5753557682261, 46.743702699607056], [-60.575231588966716, 46.74374423730181], [-60.57519893244498, 46.743755163512695], [-60.57510530779918, 46.743776010675305], [-60.57504024656371, 46.74379049764061], [-60.57488329910019, 46.74381596879317], [-60.57487847439357, 46.743816415471045], [-60.57469927385446, 46.74383277485984], [-60.574476499307224, 46.74386674018008], [-60.57435828837852, 46.7438750327924], [-60.57428392479043, 46.743879755413], [-60.57424145185975, 46.743882454467425], [-60.574017327759854, 46.74391730823485], [-60.57385794186345, 46.74392125309123], [-60.57374340574677, 46.74392408823419], [-60.57367756525792, 46.74393259112515], [-60.57362445426315, 46.74394945471543], [-60.573611294421355, 46.74395709522781], [-60.57353169093585, 46.74400329358418], [-60.5735173224486, 46.74401306836018], [-60.57350603291924, 46.74402074853999], [-60.57339939615075, 46.744092283270106], [-60.573267811488925, 46.744136289615064], [-60.57321518720815, 46.74417117164392], [-60.57312253294117, 46.74425201144745], [-60.573042902245, 46.74430521061432], [-60.57302431905158, 46.7443257494728], [-60.57300295330259, 46.74434936116103], [-60.57299028626958, 46.74436672268252], [-60.572976447075746, 46.74438569726556], [-60.572975639978345, 46.744403670440704], [-60.57294957743268, 46.744430125337644], [-60.57285525178653, 46.744519011142366], [-60.5728343493039, 46.74454396457816], [-60.57280268268159, 46.744581802068296], [-60.57269559617696, 46.74472393785435], [-60.57264118888091, 46.744796166325685], [-60.57258924755858, 46.74485837649871], [-60.57245439839737, 46.74501989305429], [-60.57232058020045, 46.74517184670473], [-60.57222796364092, 46.74525177761422], [-60.572041785258506, 46.74540351945595], [-60.57182985043039, 46.74554571453322], [-60.57168153011827, 46.745639815788145], [-60.57160614275197, 46.745687659255246], [-60.571361302141305, 46.74585846665779], [-60.571300683077304, 46.745900755744564], [-60.571282241164546, 46.74591317063444], [-60.5711683795462, 46.74598975165672], [-60.57096981530391, 46.74609623047619], [-60.57088297350046, 46.74613236464673], [-60.570799052641156, 46.74616730083886], [-60.57057595713817, 46.74623725935139], [-60.57022036485279, 46.74634220124341], [-60.57008827272667, 46.74636819385214], [-60.569904724304386, 46.74640299264383], [-60.56981362421718, 46.746419956270415], [-60.56960017506331, 46.74646954464492], [-60.569590027156636, 46.74647190290491], [-60.56940647809034, 46.746506700883565], [-60.56902462740091, 46.74658408208225], [-60.568933486312346, 46.746601944101464], [-60.568670337977274, 46.74668904684932], [-60.56844638817438, 46.74677788231348], [-60.56832791348253, 46.74682126172596], [-60.56793262822313, 46.746935252213724], [-60.567720484698356, 46.74699036363084], [-60.567564351177225, 46.74703091647041], [-60.56719603239271, 46.74712747861895], [-60.567079358146216, 46.74715147379166], [-60.56698592795233, 46.74717070751116], [-60.56681587414621, 46.7471958887964], [-60.56678968669596, 46.74719623164727], [-60.566723496941584, 46.74720249119543], [-60.566618755733835, 46.747212394328976], [-60.56656736615079, 46.74722027361896], [-60.56644868731883, 46.747238474722415], [-60.56633061497709, 46.74727286097834], [-60.56610616091531, 46.747343681833705], [-60.56575176811957, 46.74742163641542], [-60.56560789932375, 46.74744737320483], [-60.565436250050325, 46.747508517079595], [-60.56533081103001, 46.747553070831245], [-60.56523808737027, 46.74760599485276], [-60.56523030641449, 46.74761102201123], [-60.56522460217735, 46.74761470743207], [-60.565146173726696, 46.74764093674373], [-60.56504023643538, 46.74766748032063], [-60.56496140269286, 46.74770270052692], [-60.564921716656734, 46.747711755211796], [-60.56477672377533, 46.74779146492212], [-60.56477560081711, 46.74784543891015], [-60.564774896098285, 46.747890422153276], [-60.564774257741725, 46.74796240575749], [-60.56478549717567, 46.748061641208], [-60.5647850920114, 46.74807063223067], [-60.56478396904461, 46.74812460621641], [-60.56480202529691, 46.74815624644527], [-60.564809452236496, 46.74816924707549], [-60.56483298647641, 46.7482025158746], [-60.56483530011146, 46.748205796008854], [-60.56484644713538, 46.74827803053499], [-60.56483886981997, 46.748288704782304], [-60.56483386457664, 46.748295761935026], [-60.564807704034656, 46.74829520494088], [-60.56477947499609, 46.74830132663666], [-60.56472837154164, 46.74831241506861], [-60.564694276826835, 46.748335970165336], [-60.56468918267746, 46.74833947955699], [-60.56466140136175, 46.74837488661493], [-60.56466068344305, 46.74841986957311], [-60.56465984861388, 46.74848545923748], [-60.56465965278901, 46.74850084446728], [-60.564645136593555, 46.7485905318636], [-60.56464486285132, 46.74860735537788], [-60.56464437813171, 46.74863641392192], [-60.56468213141406, 46.74869931536814], [-60.56468504935423, 46.748704003317926], [-60.56472119282017, 46.74876224465402], [-60.56472355350712, 46.7487697106286], [-60.56473265247122, 46.74879848724864], [-60.56475665967513, 46.748933993134955], [-60.56475594180973, 46.748978976091074], [-60.56476241460768, 46.74903668465808], [-60.564768084211366, 46.74908723040225], [-60.56476116110015, 46.74912028269788], [-60.56475307032114, 46.74915890791205], [-60.56474135718692, 46.74917825974928], [-60.564726191462505, 46.7492033338454], [-60.5647123005878, 46.749221037373424], [-60.56465932565866, 46.74929280655095], [-60.564652067889504, 46.7493202089343], [-60.56464510888794, 46.749346501722385], [-60.56464459744949, 46.74940520453381], [-60.56464448334433, 46.749418485584066], [-60.564591402635635, 46.749463253533726], [-60.56456504609051, 46.74950508965157], [-60.56452371273453, 46.74957070790505], [-60.56448375288402, 46.74961485523333], [-60.5644134462347, 46.74967781355763], [-60.56440325437535, 46.749686938156664]]}, "properties": {"OBJECTID": 164939, "FEAT_CODE": "WARV20", "FEAT_DESC": "Double Line River - Water to the right line", "RIVNAME_1": "Black Brook", "RIVNAME_2": " ", "ZVALUE": 9999, "FID": null, "SHAPE_Length": 1513.882310090258}}, {"type": "Feature", "id": 179081, "geometry": {"type": "LineString", "coordinates": [[-60.588701673664104, 46.741614328986934], [-60.58862994417022, 46.741613806677535], [-60.58857077843109, 46.741613369222534], [-60.5883101176768, 46.74161195004637], [-60.588282855511665, 46.74161179817432], [-60.58828100095904, 46.741611993059465], [-60.58812502632342, 46.74162826925465], [-60.58798067715125, 46.741636024749134], [-60.58766548321386, 46.7416878839149], [-60.58745699620126, 46.74171566911754], [-60.58735073096238, 46.741729833916665], [-60.58724297703633, 46.7417468471001], [-60.58702375224156, 46.74178143372], [-60.58680255604604, 46.74181560033941], [-60.586746940553034, 46.74182419149834], [-60.58671881917305, 46.741833605749875], [-60.58666851740286, 46.741850435672816], [-60.586589615346796, 46.741858670390855], [-60.586537259502876, 46.74185846557616], [-60.58649427343357, 46.741870068005305], [-60.586472316607654, 46.74187599442154], [-60.5862954186198, 46.74191841155387], [-60.586182541524536, 46.74194547622381], [-60.58605176199445, 46.74197151496328], [-60.58586733116219, 46.741997330088296], [-60.58577476976345, 46.74200772383401], [-60.58564497239859, 46.74202231728767], [-60.585595728599, 46.74202658756313], [-60.58555297752547, 46.742030283908036], [-60.585395209198815, 46.74207465141742], [-60.58534633814288, 46.74209255492304], [-60.585276757880195, 46.742118048870985], [-60.58515826620544, 46.74216234531474], [-60.58506763803719, 46.74218220193816], [-60.58500093867739, 46.74219683097334], [-60.58479470135525, 46.742227808703], [-60.584659581715854, 46.74224811142176], [-60.58435795193672, 46.74231823821963], [-60.584174063983205, 46.74236115241402], [-60.58412647314741, 46.74237148673611], [-60.584015427795805, 46.74239560007591], [-60.583819638935644, 46.74241216332751], [-60.58368756241108, 46.742438171964906], [-60.583569872711294, 46.74246448440892], [-60.58342755404821, 46.74248619951349], [-60.58334710832803, 46.742498476220156], [-60.58317615605152, 46.74251556315167], [-60.583098043587356, 46.7425058128477], [-60.583019918074385, 46.74249606221451], [-60.58291562046007, 46.742486658393844], [-60.58284972151625, 46.7424672664165], [-60.58277328769909, 46.74246740598244], [-60.58277116688491, 46.74246740615828], [-60.582613422269176, 46.74251087036817], [-60.58260890136336, 46.742511260795695], [-60.582521439692464, 46.742518825810265], [-60.582194363854406, 46.7425434108075], [-60.58205593646959, 46.74254221236039], [-60.58205041389428, 46.74254216760587], [-60.58198351166002, 46.742527649727435], [-60.581880566706054, 46.742505278064684], [-60.58166001277773, 46.74243131752593], [-60.58154171787985, 46.742412616837136], [-60.58137201262593, 46.74240182852371], [-60.58120307192334, 46.74237395679179], [-60.58112786843752, 46.74236415866326], [-60.58098050755054, 46.742344950670244], [-60.580844501578945, 46.742343774968454], [-60.580836558207466, 46.7423437059509], [-60.58081030848079, 46.74234344771605], [-60.58060101574281, 46.742341423533944], [-60.58047054789473, 46.742331463883374], [-60.58035265616941, 46.74230377084008], [-60.58022432680354, 46.74224926288016], [-60.58015866569175, 46.74222136970878], [-60.57998876092795, 46.74215657721211], [-60.579935542010304, 46.74212388937022], [-60.57988555905215, 46.74209319590086], [-60.57982002406128, 46.74206571018634], [-60.57980865714489, 46.742061698803695], [-60.5797684733425, 46.742047520004775], [-60.57971696291877, 46.74202843068741], [-60.579625732715705, 46.7420193003817], [-60.57960927017965, 46.742020328945586], [-60.579507579760595, 46.74202669957421], [-60.579350425372986, 46.741999074530696], [-60.57906322133675, 46.741951597244444], [-60.578985513254395, 46.7419328530322], [-60.57892358745177, 46.74190664015308], [-60.57885575256474, 46.74187790824454], [-60.578785896912606, 46.74185629723975], [-60.57864656063579, 46.74181318203722], [-60.578178880671054, 46.74167458495824]]}, "properties": {"OBJECTID": 179081, "FEAT_CODE": "WARV50", "FEAT_DESC": "River - Single Line", "RIVNAME_1": " ", "RIVNAME_2": " ", "ZVALUE": 9999, "FID": null, "SHAPE_Length": 841.7720779677775}}, {"type": "Feature", "id": 179087, "geometry": {"type": "LineString", "coordinates": [[-60.56778359682574, 46.74797784228332], [-60.567757031711324, 46.747986277008984], [-60.56767774096049, 46.74803138897924], [-60.567558547401674, 46.74811975054727], [-60.56749238970271, 46.748164250729154], [-60.567361854794626, 46.748246557110726], [-60.567267339145346, 46.74830614939564], [-60.567161246300024, 46.74838558255987], [-60.567148116910985, 46.74839540988993], [-60.567142915007715, 46.7483998620616], [-60.567002409352575, 46.748520105450936], [-60.56684240625084, 46.74867149565085], [-60.566750544767515, 46.74873433884648], [-60.566712017374684, 46.74875632429726], [-60.566657820379014, 46.7487872639973], [-60.56653856990868, 46.74887652325361], [-60.56643156300171, 46.74895614328304], [-60.56624647710277, 46.749053901030585], [-60.56612214409738, 46.749109465017106], [-60.565931136299604, 46.749194784718775], [-60.56588527815798, 46.749225154545805], [-60.56587715380879, 46.74923053442538], [-60.56585008696429, 46.74926026019573], [-60.565771087680254, 46.749347072411766], [-60.56570492741196, 46.7493915625036], [-60.565611377705764, 46.74946246853396], [-60.56545290843288, 46.74955089190064], [-60.56544021005783, 46.74956160117447], [-60.565399828244644, 46.749595660234796], [-60.565307193825056, 46.74967558514584], [-60.56528944445296, 46.74969174866374], [-60.56526759952467, 46.749711631845834], [-60.56521442590532, 46.74972940816342], [-60.56520288863321, 46.749731781456155], [-60.565174779323144, 46.749737554812604], [-60.56508272839358, 46.74974640375147], [-60.56499121611192, 46.74977235441367], [-60.56498641187436, 46.749772333129044], [-60.56488649004444, 46.74977192469579], [-60.564736273207316, 46.74977044530225], [-60.5646509171943, 46.7497696088271], [-60.564568572892014, 46.74974988316114], [-60.564494181533654, 46.749732072718864], [-60.56440325437535, 46.749686938156664]]}, "properties": {"OBJECTID": 179087, "FEAT_CODE": "WARV50", "FEAT_DESC": "River - Single Line", "RIVNAME_1": " ", "RIVNAME_2": " ", "ZVALUE": 9999, "FID": null, "SHAPE_Length": 343.89639031378704}}, {"type": "Feature", "id": 267065, "geometry": {"type": "LineString", "coordinates": [[-60.587374143582686, 46.73651232963263], [-60.58736969555006, 46.73651520568968], [-60.58736066469447, 46.73652104495646], [-60.58732663346507, 46.736577888869995], [-60.58730691735368, 46.73661079868149], [-60.587280962078765, 46.7366541604669], [-60.58725316902694, 46.736700570359005], [-60.58723479186369, 46.73671638205998], [-60.587212330871694, 46.73673570746796], [-60.587178459959304, 46.73675874301444], [-60.58713403239422, 46.73678895355826], [-60.58704101068977, 46.73687878755904], [-60.586947122354616, 46.73695870357895], [-60.58684498962242, 46.737034161736496], [-60.586814465001794, 46.73705670980009], [-60.58680619127065, 46.737064058940504], [-60.58677492139028, 46.73709186506662], [-60.586720524276146, 46.737122243079604], [-60.586695728631, 46.73713609233222], [-60.586576847757115, 46.73718938169269], [-60.58641963959555, 46.73725086177622], [-60.58628808182112, 46.737294883662656], [-60.586245795150575, 46.737308786669814], [-60.58620837041536, 46.737321100335954], [-60.586151571697954, 46.737328442275206], [-60.58614253968904, 46.73732961060053], [-60.58613893003877, 46.73732983140648], [-60.585999469471034, 46.73733829052806], [-60.585934080342646, 46.73733691037296], [-60.58586824956004, 46.73734542047842], [-60.585846806398806, 46.73734955768541], [-60.58577582142625, 46.73736326874003], [-60.58569781900478, 46.737380521476915], [-60.58555318251279, 46.73742426643711], [-60.58551270412306, 46.7374513108443], [-60.58550919711856, 46.73745421569441], [-60.58545969262501, 46.73749518999253], [-60.58539246125765, 46.73759366680332], [-60.585327234094414, 46.737659283150144], [-60.58528555415391, 46.737701205536965], [-60.585245022781116, 46.73781734530974], [-60.585230503657314, 46.73790794427398], [-60.58522878021151, 46.73799224364651], [-60.58522830017506, 46.738015884602575], [-60.585214923485125, 46.73805160079325], [-60.5851971064124, 46.73806745099025], [-60.5851753907779, 46.7380867647352], [-60.58512571168276, 46.73812869816334], [-60.585069285943625, 46.738176311893376], [-60.585041924530536, 46.73820274212612], [-60.584950039296686, 46.73823770052746], [-60.584917589070216, 46.73825702154587], [-60.584830337840984, 46.7383089700528], [-60.58480937455104, 46.7383190569705], [-60.58464573608282, 46.738397768159565], [-60.58447464026482, 46.73847696059238], [-60.58438312928306, 46.738503817754385], [-60.58432479187787, 46.73851626509209], [-60.58426416782856, 46.738529204081615], [-60.584196707029825, 46.73854661545424], [-60.58409333074233, 46.73857329375931], [-60.58400226103599, 46.73859026931818], [-60.583910246080926, 46.73859822518251], [-60.5838918855883, 46.7385940034678], [-60.58387138690184, 46.738589295597606], [-60.58385830879383, 46.73858901932077], [-60.58380555390636, 46.738597813470314], [-60.58371286346093, 46.73865075317547], [-60.58359437828332, 46.738695048141594], [-60.583396682000924, 46.73878356757794], [-60.58329051072231, 46.73884522175423], [-60.58325279376954, 46.7388581762541], [-60.58323866175305, 46.7388630254389], [-60.583106293577586, 46.73892502585023], [-60.5830274840964, 46.73896025902056], [-60.58299524804139, 46.73897944902478], [-60.58290780470348, 46.7390315270003], [-60.58284062662238, 46.73906015711688], [-60.58261820476171, 46.739155001389136], [-60.58251197818757, 46.73921756263879], [-60.58244666133781, 46.739244080947515], [-60.58242537481112, 46.739250839723724], [-60.582420103126815, 46.7392525102237], [-60.582381331748785, 46.73927058995002], [-60.582355898553665, 46.73927610910488], [-60.582302004654146, 46.73928781237178], [-60.58223578193278, 46.739305311757406], [-60.58222484362354, 46.7393101653323], [-60.582197050671596, 46.73932249230396], [-60.58201122161362, 46.73943825917562], [-60.581879756280635, 46.739509276908315], [-60.58184230035552, 46.7395424226849], [-60.58179933630368, 46.73958047379666], [-60.58175939803997, 46.739624627635514], [-60.581722359406484, 46.73970521036902], [-60.5817057389437, 46.739741388540345], [-60.581669267037114, 46.73979525426834], [-60.581651072905665, 46.73982212951445], [-60.58164082254835, 46.739837059192126], [-60.58157125653976, 46.739938337269656], [-60.581553755298515, 46.7399672790721], [-60.58154439623927, 46.73998276756691], [-60.5815212420921, 46.740000538257284], [-60.58145084295283, 46.740054595463164], [-60.581384720799, 46.7400990774428], [-60.58137297766746, 46.740106991798086], [-60.581318584251015, 46.740143586078716], [-60.58130600902574, 46.7401613194512], [-60.58122830470909, 46.74018465921218], [-60.58089731777625, 46.7402840708711], [-60.580868706331074, 46.74030004306656], [-60.580818102508765, 46.74032829358877], [-60.58077937006989, 46.7403454736301], [-60.580756915313174, 46.74036047806644], [-60.580738887112375, 46.74037251624881], [-60.58069929647696, 46.740408577381125], [-60.580633977316126, 46.740435094605665], [-60.580475445276655, 46.74049653851533], [-60.580462366740264, 46.740496261841834], [-60.58043540475673, 46.74051369076808], [-60.580357758410095, 46.74052284771141], [-60.58034834123367, 46.74052646433643], [-60.58029115826383, 46.74054843767473], [-60.58027803946842, 46.74054906009373], [-60.5802695512573, 46.74055327234365], [-60.580225838740226, 46.7405749546586], [-60.58008103580395, 46.740592590187305], [-60.57998954592624, 46.7406185533166], [-60.57985495334962, 46.74067567008482], [-60.57984409121778, 46.74068027305365], [-60.57966025194834, 46.740751088941934], [-60.57957019045187, 46.740793965311816], [-60.57956796988403, 46.74079502527604], [-60.57955448867796, 46.74080373963005], [-60.579487847556656, 46.74083022822393], [-60.57939595437245, 46.74086518199612], [-60.57935543774355, 46.7408759970386], [-60.57926478493842, 46.74090020437305], [-60.579258826646544, 46.74090287715591], [-60.57918597052899, 46.740935425792365], [-60.57902658896363, 46.74101576698366], [-60.57884290135347, 46.74111266576238], [-60.57875016152068, 46.74116650036378], [-60.578747682358205, 46.741167779829006], [-60.57863090162729, 46.741227873128665], [-60.57854531043822, 46.74127612612766], [-60.57847242427117, 46.741317214343674], [-60.578246433847475, 46.74154012061144]]}, "properties": {"OBJECTID": 267065, "FEAT_CODE": "WARV50", "FEAT_DESC": "River - Single Line", "RIVNAME_1": "Black Brook", "RIVNAME_2": " ", "ZVALUE": 9999, "FID": null, "SHAPE_Length": 938.0221807647824}}, {"type": "Feature", "id": 277363, "geometry": {"type": "LineString", "coordinates": [[-60.57255645769122, 46.716915194912545], [-60.57261171022784, 46.716959080155135], [-60.57266006393685, 46.71699749113397], [-60.5726744812631, 46.71700658982354], [-60.57278985644284, 46.717079443047744], [-60.57293270949809, 46.71716166298223], [-60.57298344034067, 46.71719784734865], [-60.57299864216444, 46.71720842059406], [-60.57308749146074, 46.71727025296258], [-60.573225818807764, 46.71738599931415], [-60.573228731761446, 46.717388446041596], [-60.57325921465085, 46.717411331084804], [-60.573422428199834, 46.71753385103289], [-60.57344871590468, 46.71756479172839], [-60.57349948777591, 46.71762458290695], [-60.5735105573969, 46.717674775022026], [-60.57351144830408, 46.71767883478285], [-60.57349816692653, 46.717741550790706], [-60.57348455009463, 46.71777265278511], [-60.57347046490249, 46.71780486080148], [-60.57344320644003, 46.717858280562815], [-60.573363407362734, 46.717974474283885], [-60.57332192230319, 46.718082499231166], [-60.57329253553626, 46.718270869065464], [-60.573278447066684, 46.718351567286895], [-60.57329143389695, 46.718574297047276], [-60.57329841789142, 46.71869397904188], [-60.57331852653512, 46.71906249278239], [-60.573325188473426, 46.71907442372314], [-60.57334396377551, 46.719108030934], [-60.57340795203445, 46.71919848549425], [-60.57345818923706, 46.71923843002735], [-60.573510309912166, 46.719279854448345], [-60.57362617573976, 46.71938040922438], [-60.573640607905105, 46.71940028072231], [-60.5736520565926, 46.719416066064326], [-60.57372391661046, 46.719525343786444], [-60.57374148389353, 46.71955204954333], [-60.57375375076046, 46.71957030914543], [-60.573792315418586, 46.71961522571562], [-60.57388033463045, 46.71971142761166], [-60.574049276291326, 46.719896066927], [-60.5741136702465, 46.719977521000594], [-60.57422955093053, 46.72007809346284], [-60.574279143238385, 46.72013040751011], [-60.57430701892898, 46.72015982472849], [-60.57439669647153, 46.72023192424154], [-60.57442334465094, 46.72025048877977], [-60.57444077574086, 46.720267111893214], [-60.57446099306783, 46.72028638600365], [-60.57452617896868, 46.72034728336181], [-60.5745388644574, 46.72035913498167], [-60.57456390015378, 46.72041366401473], [-60.57457711201649, 46.72044004327904], [-60.5745981049079, 46.72070147923011], [-60.57461067947155, 46.720733901759175], [-60.57462273766527, 46.72076499938268], [-60.57473147450525, 46.72088369817054], [-60.574738760462445, 46.720891646399174], [-60.574751528678256, 46.72092792488137], [-60.574750417301345, 46.72098189939674], [-60.57477488356119, 46.72110751377675], [-60.57479388794423, 46.72117486539455], [-60.57482344167645, 46.7212795373902], [-60.574875017021334, 46.721394485990054], [-60.574924585447015, 46.721504874169874], [-60.574949309401994, 46.721533684412286], [-60.574963126664244, 46.721549780829974], [-60.574979738812615, 46.72157388322506], [-60.57501350454572, 46.721622855461], [-60.575025703878794, 46.72173021031339], [-60.575012284643826, 46.721766824465746], [-60.57493148002601, 46.721847008184156], [-60.57482593259664, 46.721953666212706], [-60.574821444997504, 46.72195568597745], [-60.57478586401567, 46.72197171587569], [-60.57476544618466, 46.72197820365888], [-60.57475931286909, 46.721980152524104], [-60.57473760553327, 46.72198241910707], [-60.57468042536942, 46.72198837928473], [-60.57466690789285, 46.72199799227507], [-60.574597994143474, 46.72204995293457], [-60.574561261760586, 46.72207764892831], [-60.574513712691, 46.72212914465599], [-60.57449524063975, 46.72214914617615], [-60.57448779163542, 46.72215913083619], [-60.57446878719885, 46.722184583866344], [-60.57446757762906, 46.72221155725056], [-60.57447599764475, 46.722490716866176], [-60.5744876538793, 46.72258097885682], [-60.57449744255855, 46.72260345165905], [-60.57449951926372, 46.722608211533085], [-60.57453887950902, 46.72263515434058], [-60.57465396320489, 46.722698189757594], [-60.57465511286885, 46.7226988171164], [-60.574671124765835, 46.72270274754335], [-60.57469523966432, 46.72270866773687], [-60.574812584793044, 46.722718355858476], [-60.57483833002745, 46.722727901464786], [-60.57484649018556, 46.72273387029259], [-60.57485100108118, 46.72273716983071], [-60.57487607841359, 46.72279079968837], [-60.57491509399448, 46.722854624736364], [-60.57494047609992, 46.7228722713292], [-60.57499096845964, 46.72291800735954], [-60.57503101019647, 46.7229542791117], [-60.575041641575005, 46.72297868666468], [-60.57504288819924, 46.72298152999612], [-60.575054891563504, 46.72303488260252], [-60.575092393256675, 46.72316167323057], [-60.57511254878492, 46.72318673269683], [-60.57514321653476, 46.72322484858222], [-60.57519444301417, 46.72327903278168], [-60.57524683851672, 46.723307142678365], [-60.57525157748616, 46.72331382191462], [-60.57525914700719, 46.72332450302042], [-60.575285393902135, 46.723352058514436], [-60.575298566474146, 46.7233793368163], [-60.575270805482646, 46.72341474696493], [-60.57526584863174, 46.72341993368434], [-60.57524471466138, 46.723442092807176], [-60.57520518666638, 46.72347725346318], [-60.5752036725019, 46.723540219099355], [-60.57519032936507, 46.72355148278736], [-60.57515062660566, 46.72358499277801], [-60.575126820137385, 46.72361129806521], [-60.575110695339376, 46.72362914452766], [-60.57510987476758, 46.72369473477363], [-60.57510968188394, 46.723710129131], [-60.5751209374659, 46.7238093552208], [-60.57513290074845, 46.72386360692983], [-60.575149109649175, 46.72388650378362], [-60.57517105331882, 46.72391751393608], [-60.57522302599501, 46.723954776545504], [-60.57523571772557, 46.72396388331048], [-60.57526119904714, 46.72400852196063], [-60.57526038889578, 46.724042064577425], [-60.575259684908346, 46.72407148759314], [-60.57523535030148, 46.72412912757657], [-60.57523332915394, 46.72413392655124], [-60.575232926063784, 46.72414291768134], [-60.57525877023943, 46.724179464315206], [-60.5752696226698, 46.72428769051112], [-60.57530858182153, 46.7243236152157], [-60.57532214032611, 46.724333532318056], [-60.57534659633291, 46.7243514201717], [-60.57534648952874, 46.72438387073845], [-60.575346376653414, 46.72441441324505], [-60.575338876529024, 46.72443662743326], [-60.57533129973891, 46.724459091986496], [-60.57527915738867, 46.724512884552084], [-60.57523451914559, 46.724519560895004], [-60.575226455801854, 46.7245207668913], [-60.57517120152899, 46.72452749712403], [-60.57508172084268, 46.72453839746678], [-60.575068633140944, 46.72453811997157], [-60.57506410941432, 46.72453481117156], [-60.57505597471383, 46.724528851901006], [-60.57499206269078, 46.72446539899896], [-60.574987364232435, 46.72446365243452], [-60.57496631661282, 46.72445585341383], [-60.574929367050444, 46.72446063174002], [-60.57490051319421, 46.72446435776222], [-60.57488661920738, 46.72448206250115], [-60.57486541173285, 46.72452423527223], [-60.574859318186114, 46.724536381618755], [-60.57485652311631, 46.72454384607925], [-60.574845925711806, 46.72457208733889], [-60.57484550771999, 46.72459308371866], [-60.57484482688086, 46.72462607109247], [-60.574871074166296, 46.724653626683775], [-60.574888934584465, 46.724666253962624], [-60.57490912898732, 46.72468053267117], [-60.57490936453382, 46.724688997360815], [-60.57490961707545, 46.72469854237185], [-60.57490934543533, 46.72471218911978], [-60.574908505628976, 46.724752516857734], [-60.574896483888146, 46.724767867383086], [-60.574894637716284, 46.724770222149964], [-60.574776481781555, 46.72477851628379], [-60.57473538540673, 46.72477799580075], [-60.57467184401037, 46.72477719732293], [-60.57462000563077, 46.7247950063311], [-60.57456727684023, 46.72480377875778], [-60.574516327647885, 46.7248081790602], [-60.57447529741788, 46.72481172773979], [-60.57445484595582, 46.724811644991014], [-60.57442295794326, 46.72481152668028], [-60.574409467348595, 46.72482023124092], [-60.57438775693192, 46.72484471789295], [-60.57436950728536, 46.72486528208407], [-60.574357323735455, 46.7248740233592], [-60.57432207168937, 46.724873626679965], [-60.574265773579796, 46.724872981601514], [-60.5742387773218, 46.72489130833142], [-60.574211418101804, 46.72491772706442], [-60.57419732887218, 46.72499842530656], [-60.574190192815045, 46.7250174702554], [-60.57418394850869, 46.72503414020457], [-60.574171425838664, 46.72505131596245], [-60.57415745305174, 46.72507047688815], [-60.574126455641164, 46.72508084400783], [-60.5741043071552, 46.72508824892955], [-60.574080613297134, 46.72508225654948], [-60.574065486201775, 46.725078425807794], [-60.57400037789175, 46.72504194600615], [-60.573985969042674, 46.7250352325939], [-60.57396191997404, 46.72502403084182], [-60.57393651270885, 46.72502385187521], [-60.5738965059755, 46.725023543198255], [-60.57388259231212, 46.725027963876286], [-60.57386995318087, 46.7250319796052], [-60.573879228252196, 46.72504577486917], [-60.57388222126122, 46.72505023920174], [-60.573895796824026, 46.72506852653259], [-60.57392126443705, 46.72511316518511], [-60.57393323982207, 46.72516741726846], [-60.57390628363605, 46.72518484480214], [-60.57389363404665, 46.72518500845079], [-60.57388008108799, 46.7251851799337], [-60.57373780402294, 46.72514797192953], [-60.57373593416458, 46.72514764427193], [-60.57368456052798, 46.72513874267907], [-60.57360647501609, 46.72512898636878], [-60.57354186767198, 46.72511051628495], [-60.57348902764415, 46.725092295827565], [-60.573463684948315, 46.725073758787495], [-60.57345054163958, 46.72505517458711], [-60.57343784159876, 46.72503721176792], [-60.57342584007567, 46.725023223625136], [-60.573399286626994, 46.724992295327205], [-60.573373944008225, 46.72497375826842], [-60.57333508293703, 46.72496483401416], [-60.57327984542979, 46.72497059172408], [-60.57325619088727, 46.72497305970212], [-60.573243102694676, 46.72497279098729], [-60.573204544407666, 46.72498745226412], [-60.57315124651203, 46.72500773154719], [-60.57304495418559, 46.72504327465943], [-60.57299271196901, 46.72507006503697], [-60.57296971415672, 46.725081519569045], [-60.57288696025646, 46.72512271885882], [-60.57286569240098, 46.72513790894966], [-60.57286119082866, 46.725141107298285], [-60.57279424274772, 46.725176549172005], [-60.57274459227354, 46.72518874296769], [-60.5726897012208, 46.725202229467456], [-60.572633859083126, 46.725233407116924], [-60.57261048898018, 46.72524644661786], [-60.57246237138005, 46.725315759220884], [-60.57243939175683, 46.725326512057684], [-60.572398956648065, 46.725352652810905], [-60.57228018492735, 46.72543293770074], [-60.57227292282006, 46.72543524045796], [-60.572253632095496, 46.72544136473213], [-60.57224599378119, 46.725446800388546], [-60.57224011331123, 46.725450977405856], [-60.57222852337012, 46.72545085737501], [-60.57207005993851, 46.72544916740281], [-60.572004645485976, 46.72544867866757], [-60.57196356402504, 46.72545976708699], [-60.57193971853495, 46.72546619059646], [-60.57190006271525, 46.725475257333564], [-60.57178083065303, 46.72553662361331], [-60.57174006739999, 46.725557528355075], [-60.57172858734673, 46.72556341339039], [-60.57158285743, 46.72566111552858], [-60.571521427947275, 46.72567854848828], [-60.571491402370576, 46.72568707259698], [-60.571441958205654, 46.72570135813301], [-60.571398573213514, 46.725713900381066], [-60.57134623333707, 46.725713688905856], [-60.571251331750794, 46.725716137438674], [-60.57109728580802, 46.72572010172907], [-60.571045987560865, 46.72572554603496], [-60.57101969986034, 46.72572835361349], [-60.57094952401667, 46.725737419803586], [-60.570888062680524, 46.72574535708873], [-60.57070458527172, 46.72578015860783], [-60.57058652248585, 46.725815449419905], [-60.57058303466559, 46.72581676128171], [-60.57049334224954, 46.72585036872016], [-60.57046909715569, 46.72586684507202], [-60.570440694108484, 46.725886148985296], [-60.5704169525321, 46.72591239167097], [-60.570400757691445, 46.72593028997815], [-60.570386858529055, 46.72596205155407], [-60.5703730470895, 46.72599360799921], [-60.570372620558004, 46.72604330414671], [-60.57037212247808, 46.726101584464345], [-60.57037174262456, 46.72612547953301], [-60.57037141034543, 46.72614656771351], [-60.570344048613094, 46.72617298546823], [-60.57033647346648, 46.72617788235851], [-60.570330569703565, 46.72618169879579], [-60.57031554427913, 46.72618172157929], [-60.57029129130081, 46.7261817643182], [-60.570173589187014, 46.72618016369699], [-60.57013881302267, 46.72618022582311], [-60.5701343238623, 46.72618022944328], [-60.570123790519624, 46.72618513546728], [-60.57009555809046, 46.7261983051408], [-60.57007213126012, 46.72621345784163], [-60.570055120808824, 46.72622445401892], [-60.57003841308458, 46.72624735419668], [-60.57002862240409, 46.72626078068441], [-60.5700198070172, 46.726294153174706], [-60.57001443098543, 46.726314477213386], [-60.570026389577045, 46.72636872934879], [-60.5701050160791, 46.72639559897861], [-60.570118091106906, 46.7263958767721], [-60.57013076216518, 46.72640514565664], [-60.57011778272179, 46.72643186892112], [-60.57011049642395, 46.726449560471764], [-60.57010307871056, 46.72646755521877], [-60.570078346716706, 46.72649544173019], [-60.57006311384703, 46.726512604454406], [-60.56998288968538, 46.726637795360034], [-60.569885925712185, 46.7267417332754], [-60.56984951624089, 46.72678075620104], [-60.569808421188455, 46.7268797793807], [-60.56979544146392, 46.7269065026014], [-60.5697942293652, 46.72693347586984], [-60.56980641868716, 46.72704084000616], [-60.56979251927103, 46.72707259250113], [-60.56977870758195, 46.72710413986588], [-60.569771182444065, 46.72712422923161], [-60.56976532333973, 46.727139863161], [-60.56974895679238, 46.72715632677718], [-60.56971187881911, 46.72719361651453], [-60.5696588116967, 46.72723838718799], [-60.5696057026524, 46.72725525795537], [-60.5694880400241, 46.72728155646332], [-60.569409252392575, 46.727316780743614], [-60.56933003439287, 46.727360995497406], [-60.56926350047503, 46.727414479452264], [-60.569223116981405, 46.727468519168134], [-60.5691162395556, 46.72757514362061], [-60.569060907220816, 46.727635057319226], [-60.5690502043574, 46.72764663739907], [-60.56904740347498, 46.72764925976819], [-60.56891632674186, 46.72777158707746], [-60.568838024078104, 46.727824820620526], [-60.568784065360305, 46.72786057226005], [-60.5687056675829, 46.727886804668785], [-60.56867826331044, 46.72791413008469], [-60.56865682722286, 46.72796706944669], [-60.56863851355402, 46.72801227246656], [-60.568611608636694, 46.72805759882975], [-60.56862320231059, 46.728119943049265], [-60.56862796646155, 46.72815079621525], [-60.56863435134047, 46.728192177455206], [-60.56863384561543, 46.72825058358466], [-60.5686337324778, 46.728264161686695], [-60.56846148869905, 46.72839819483667], [-60.56831493659698, 46.7285138746652], [-60.568249303474666, 46.728576376851976], [-60.568157020200736, 46.728620312992405], [-60.568101661777476, 46.72864961777945], [-60.56808998467608, 46.72865578624861], [-60.56800694853387, 46.72872866385168], [-60.56795781381252, 46.72877178041533], [-60.567865530375585, 46.72881570731731], [-60.56781078492268, 46.72883370340998], [-60.56778582281006, 46.728841920241756], [-60.56772228806222, 46.72888509945371], [-60.56770751787617, 46.728895143960166], [-60.567674908368296, 46.72890810295181], [-60.567640886138285, 46.728921625867336], [-60.567583082071586, 46.72892468934182], [-60.56748345300323, 46.72892997710572], [-60.56744512926977, 46.72893816166494], [-60.56743122270625, 46.728944426642414], [-60.56740505265443, 46.728956217568104], [-60.56738736800045, 46.72896762199175], [-60.56736461320686, 46.72898233844646], [-60.56731155504043, 46.72902711721704], [-60.56729919322361, 46.729052575339715], [-60.56728559201654, 46.72908056300535], [-60.56727517053655, 46.72910129257099], [-60.56725828092469, 46.72913488008006], [-60.567251187130715, 46.72915379049514], [-60.56724489447255, 46.729170603027626], [-60.5672179345506, 46.72918801990389], [-60.567124395428806, 46.72925982748288], [-60.56710229987421, 46.72926454127283], [-60.56708607140998, 46.72926801191587], [-60.56704064540988, 46.72927463230819], [-60.56696750020636, 46.729285288833225], [-60.56694134881568, 46.72928473249869], [-60.566932617573165, 46.72929639932135], [-60.56692742358076, 46.729303335569035], [-60.566901770657424, 46.72932078917532], [-60.5668602101261, 46.729400902060554], [-60.56685430204565, 46.729449014614715], [-60.566845744330486, 46.729518490019124], [-60.566858522097114, 46.72955476954933], [-60.566855501208856, 46.72967979172814], [-60.56684835922472, 46.7297210022799], [-60.56684135905481, 46.729761387878185], [-60.56682572743735, 46.72979667602357], [-60.5668136961132, 46.72982379706266], [-60.566806233397905, 46.72983432090532], [-60.56680111832415, 46.72984153781573], [-60.56669468968298, 46.72996705984843], [-60.56668652487341, 46.72997747874877], [-60.566680804638615, 46.7299847637754], [-60.5666673502988, 46.73000802066231], [-60.566639647430264, 46.7300558944836], [-60.56659513255213, 46.73018214872349], [-60.56655712956845, 46.730289921177686], [-60.56654481110557, 46.73033534140969], [-60.566530449624906, 46.73038834989172], [-60.56651555063198, 46.73048703826661], [-60.56652627990059, 46.73056825459942], [-60.56653587235783, 46.730820440492366], [-60.56658485629093, 46.73098258583056], [-60.56659640724504, 46.73104583829139], [-60.566583412598, 46.73107254282048], [-60.56657093728991, 46.73111300989458], [-60.56656963362026, 46.73111725700006], [-60.56656713538144, 46.73112390859984], [-60.56655624657771, 46.731152970846765], [-60.56656667776626, 46.73127018850651], [-60.566578322881035, 46.731360432981006], [-60.56658292912805, 46.73138110423328], [-60.566602275451885, 46.73146803868764], [-60.566653243143435, 46.73158611880495], [-60.566664618057914, 46.73171145622935], [-60.56665068692101, 46.73174326165111], [-60.566636900287264, 46.73177476415679], [-60.56658261211895, 46.731846506418194], [-60.56659624033261, 46.73186389575364], [-60.56660931664781, 46.73186417397275], [-60.56670090439771, 46.73186522263684], [-60.56671592816436, 46.73187079808413], [-60.56672663853287, 46.731874787814775], [-60.56672623553854, 46.731883742911705], [-60.56672581195808, 46.7319353290049], [-60.566725653549156, 46.73195484591766], [-60.56669471899755, 46.73200266898482], [-60.566684859359924, 46.73201787564675], [-60.56665880041103, 46.73204432022571], [-60.56664520897061, 46.732049088866624], [-60.566632202598875, 46.732053653961984], [-60.56655652162709, 46.73206240234516], [-60.5664874723951, 46.73207037381943], [-60.56646671800006, 46.732076960956284], [-60.566460915007944, 46.732078808409106], [-60.56643522011888, 46.73209716098117], [-60.566434006125235, 46.73212413415777], [-60.56643373267258, 46.73214155169898], [-60.56643329084199, 46.73216910828467], [-60.56645957733325, 46.73219577564701], [-60.566524381614556, 46.732236177087], [-60.566562704082564, 46.73226006762836], [-60.566569343044684, 46.73226901956073], [-60.5665762788479, 46.732278355794605], [-60.5665754562307, 46.73231233904158], [-60.56657475398255, 46.732341321033466], [-60.56657444304681, 46.732377313093544], [-60.56651988364974, 46.73248414825813], [-60.56652822991148, 46.73250140721482], [-60.56653305379989, 46.7325114274885], [-60.56655800586935, 46.73253895740086], [-60.566632682157035, 46.732574070024235], [-60.56663619430292, 46.73257571969158], [-60.56675324817958, 46.732621408507306], [-60.566883378364736, 46.73266738438908], [-60.5669024475774, 46.73267410783455], [-60.56693491609954, 46.7326855711653], [-60.566948086506066, 46.73271285035187], [-60.566947277330236, 46.732730832474516], [-60.56695699425014, 46.73289303321488], [-60.566956167924566, 46.73295822723088], [-60.566955968260565, 46.73297400840104], [-60.566995022115854, 46.73303692791271], [-60.567058920825254, 46.733100393924836], [-60.56713670584761, 46.733146146953395], [-60.56718910622831, 46.73316495494017], [-60.56721399243848, 46.73317388999092], [-60.56732756118606, 46.73319816586546], [-60.56734493381002, 46.73320187425931], [-60.56735183395173, 46.733203280978614], [-60.56752781748596, 46.73323907181932], [-60.56753205377278, 46.733240628864095], [-60.567553566709364, 46.733248610129074], [-60.56760278870649, 46.73327755594955], [-60.56763135237212, 46.733294362831984], [-60.567655443370924, 46.73332243216589], [-60.567669908119804, 46.73333928117931], [-60.56772042147924, 46.73343845181565], [-60.56773263463124, 46.73346229067627], [-60.567757723561286, 46.73351124243834], [-60.56782244611191, 46.73355671720225], [-60.56791339046881, 46.73362974853935], [-60.56807837335025, 46.7337096459535], [-60.56808247218283, 46.73371164103853], [-60.568099598075115, 46.73372374975901], [-60.56815986763398, 46.733766384745074], [-60.568253991408646, 46.73383975340032], [-60.568276211165816, 46.73385705521111], [-60.568327845069646, 46.733902242395516], [-60.568336878387086, 46.733911227129774], [-60.56839174635604, 46.73396570770284], [-60.56841183174006, 46.734001656414684], [-60.56841718591456, 46.734011246896074], [-60.56848077811332, 46.734110695244745], [-60.568570133080414, 46.734219690921435], [-60.56862176716523, 46.73426488697273], [-60.56876465723472, 46.73434713060836], [-60.568864305998034, 46.734410905558725], [-60.56890715774458, 46.734438338448996], [-60.568958673025456, 46.73444747016138], [-60.56901104534026, 46.73445675506202], [-60.5690629893681, 46.73446595883807], [-60.5690760663362, 46.73446623678708], [-60.56918233947637, 46.73443159692395], [-60.56922161118746, 46.734431522626636], [-60.56925953437581, 46.734432328621615], [-60.56931000748749, 46.73445852839015], [-60.56931197728074, 46.734459551217135], [-60.56935044058735, 46.7344774590249], [-60.56941515215723, 46.7345229416405], [-60.56948029499136, 46.73455941571951], [-60.56967579069907, 46.7346067864709], [-60.56974131181049, 46.734634268773476], [-60.569754025092166, 46.73464263861505], [-60.569798311211954, 46.734653317272766], [-60.56983171934214, 46.734661388864964], [-60.56985573555078, 46.73468679223529], [-60.569882950783615, 46.73471557544898], [-60.56993205639664, 46.73475007957336], [-60.569947663494794, 46.734761048784215], [-60.56996868436762, 46.73477592187804], [-60.5699869900092, 46.73478888334712], [-60.569997458475044, 46.734791283686874], [-60.57002584440309, 46.734797808570164], [-60.57013059671949, 46.734826133164965], [-60.570182554387756, 46.73483533671997], [-60.570197036359424, 46.734835518394554], [-60.57028721134548, 46.734836660152034], [-60.57045773850999, 46.734828583169936], [-60.57066530046594, 46.73481924066695], [-60.570797444611756, 46.7348132997729], [-60.57086286995084, 46.7348137984025], [-60.5708666623475, 46.73481475191708], [-60.57090169760396, 46.73482361372603], [-60.57098119927246, 46.73487294643899], [-60.57101884285851, 46.73489629906862], [-60.57117204684343, 46.73494400201566], [-60.57122669094413, 46.734961010855606], [-60.57133148463565, 46.73498843525865], [-60.57147002313134, 46.73502577375711], [-60.57164317017188, 46.735072450589094], [-60.57166712701648, 46.73507588413592], [-60.57170950013978, 46.73508195860411], [-60.57183994852867, 46.73509192790275], [-60.57197049332606, 46.735128898088654], [-60.57221689130537, 46.735238524801176], [-60.57223219812564, 46.735246283443644], [-60.57230776063184, 46.73528456101987], [-60.572362874357545, 46.73533689395916], [-60.572384342548816, 46.73535727489386], [-60.572411037639526, 46.7353749408743], [-60.57240982648658, 46.73540191415497], [-60.572397064284424, 46.735419399603735], [-60.572383324494076, 46.735438250249025], [-60.572290725278656, 46.73551818164936], [-60.57228485243976, 46.73552566170367], [-60.57227684054161, 46.73553588624785], [-60.572288092106774, 46.73563512136846], [-60.57231816752682, 46.73572180553574], [-60.572350675171556, 46.73581554305752], [-60.572414680409565, 46.73590599827335], [-60.572421132462345, 46.735935177130465], [-60.57242664315856, 46.7359602501599], [-60.572476053431004, 46.7361133841867], [-60.572498952531426, 46.73614534203364], [-60.572527788808195, 46.73618558858258], [-60.57256589238886, 46.73622059601946], [-60.572617045591855, 46.7362675799654], [-60.572669505474124, 46.73629479236482], [-60.572760767939464, 46.7363318278937], [-60.57290358653558, 46.736387056799884], [-60.57290733920121, 46.736388315391494], [-60.5729293781943, 46.73639570382188], [-60.57294295612681, 46.73641399128029], [-60.57294214001461, 46.73644470780444], [-60.57294103512487, 46.736485938804115], [-60.572942265128724, 46.73648944777467], [-60.57295380539294, 46.73652221744327], [-60.57293961376539, 46.73657591425125], [-60.57293445303963, 46.73658969121285], [-60.572926229406285, 46.73661162886638], [-60.572898419377374, 46.73664793731635], [-60.57280581876336, 46.73672786909372], [-60.57279324162153, 46.736745601502044], [-60.57278683660689, 46.736761142982765], [-60.572778549363534, 46.736781288342904], [-60.57279102612359, 46.73685355041288], [-60.57281645761238, 46.73689908842414], [-60.57285542385642, 46.73693501403262], [-60.57297093440436, 46.73704456125048], [-60.57313781970401, 46.7372343954952], [-60.57325306475766, 46.737379044459466], [-60.57328325101817, 46.73740003318094], [-60.57330510975677, 46.737415238416325], [-60.57335565777604, 46.73745707937265], [-60.57338208605142, 46.73747896929655], [-60.57347677910079, 46.73759040521507], [-60.573536259116835, 46.73766044253146], [-60.57361265014277, 46.737796140109495], [-60.57365079657298, 46.737850065364285], [-60.57371546017492, 46.73793265907925], [-60.57377834204275, 46.73801295604507], [-60.57381085948933, 46.73803597400128], [-60.57381765980402, 46.738040789080216], [-60.57390578284498, 46.738087773699135], [-60.57397235138343, 46.73812326746123], [-60.574013863231194, 46.73814421723137], [-60.57411571713056, 46.73819560578052], [-60.57414197035162, 46.73822316159644], [-60.57425671964882, 46.73834979068516], [-60.574321537837605, 46.73842226271091], [-60.57433309952344, 46.738485505524096], [-60.574332411168626, 46.73851893365375], [-60.57433087381231, 46.7385934542139], [-60.57436828524895, 46.738693252886016], [-60.57444440069887, 46.738864051698165], [-60.57452108758386, 46.738963774280684], [-60.574525678687614, 46.73898457085528], [-60.574533053010704, 46.73901802597283], [-60.574530215918415, 46.739197958947436], [-60.574515315746844, 46.73929663918641], [-60.57452808807114, 46.73933290867472], [-60.57452657234242, 46.739395865128024], [-60.57453020181451, 46.73940337581402], [-60.57453976079061, 46.73942315278217], [-60.57461562830591, 46.739540866227244], [-60.5747448655769, 46.739694791992974], [-60.574769448944984, 46.73973041193762], [-60.57482332184223, 46.73976357506002], [-60.574873907728986, 46.739794724533986], [-60.57495120787138, 46.73982246256575], [-60.57508136289952, 46.73986842053075], [-60.57512920735667, 46.739902031670496], [-60.57514608609907, 46.73991389108471], [-60.575171977664226, 46.739949538676335], [-60.57517526305485, 46.73996443076327], [-60.57518394392609, 46.74000379030821], [-60.57519338058232, 46.74020198279504], [-60.575240663146204, 46.740418850950405], [-60.57526612415526, 46.740535603279135], [-60.575253143152814, 46.74056233604124], [-60.57522668070943, 46.740597773642314], [-60.57522547073979, 46.74062474695451], [-60.57519134582152, 46.74064831354654], [-60.57518629312213, 46.7406518062862], [-60.5751703980141, 46.740662079885695], [-60.57515932900355, 46.7406692429256], [-60.57515548597053, 46.740674660237495], [-60.57514675165493, 46.7406869755789], [-60.57512015091721, 46.74069631122432], [-60.575092380464596, 46.74073172106208], [-60.575075292794104, 46.74075515385789], [-60.57506587749468, 46.740768057731714], [-60.575065571940776, 46.740804049871834], [-60.57507710314953, 46.740824228591535], [-60.5750910609097, 46.74084867959534], [-60.57509779064573, 46.74085361909376], [-60.57510373572909, 46.740857956978246], [-60.57510423689228, 46.740875966912775], [-60.57511620325399, 46.74093021854628], [-60.575140339071304, 46.74095832320229], [-60.575154770517855, 46.74097513453431], [-60.57516899140103, 46.74098905251123], [-60.57519239298475, 46.74101193078945], [-60.57522855086853, 46.74102709681169], [-60.57525792425977, 46.7410394190926], [-60.575262596431166, 46.741042659023556], [-60.575283315187164, 46.74105705672968], [-60.575307257275504, 46.741082187356625], [-60.5753095703463, 46.741084612302245], [-60.575308763713906, 46.74110259450996], [-60.57538616388734, 46.7411573333199], [-60.575476879198895, 46.74126545229535], [-60.575515406667066, 46.74131126727996], [-60.57557932537127, 46.741374719827554], [-60.575618004470215, 46.74144663698596], [-60.575615988118685, 46.74149159251253], [-60.57561607147008, 46.7415145433957], [-60.575616171160355, 46.74154559431322], [-60.57562557126477, 46.74155959003744], [-60.575628443364536, 46.741563853755785], [-60.57562847838392, 46.74157445608977], [-60.57562854142988, 46.7415908547946], [-60.57563969126956, 46.741641435198915], [-60.57564050844991, 46.74164510637991], [-60.57563889537286, 46.741681070800546], [-60.57566438480194, 46.74172570939778], [-60.57572926656518, 46.74182608084725], [-60.575768053977086, 46.74187428615931], [-60.5757801072822, 46.741889256071374], [-60.575818370669474, 46.74197016399654], [-60.57588158179582, 46.74207860863176], [-60.57588539141465, 46.74208940796227], [-60.575894356029686, 46.742114868989795], [-60.57593978463973, 46.742240351020016], [-60.57594327887733, 46.742250009707796], [-60.57594441693866, 46.74225236473818], [-60.57596963356055, 46.74230455718833], [-60.57603355393676, 46.74236800950404], [-60.576136348067585, 46.74244039431246], [-60.576408336556845, 46.74262254231036]]}, "properties": {"OBJECTID": 277363, "FEAT_CODE": "WARV50", "FEAT_DESC": "River - Single Line", "RIVNAME_1": "Snipe Brook", "RIVNAME_2": " ", "ZVALUE": 9999, "FID": null, "SHAPE_Length": 3908.587423405106}}, {"type": "Feature", "id": 293557, "geometry": {"type": "LineString", "coordinates": [[-60.566145723977726, 46.735998656091994], [-60.56612537952588, 46.736038262659505], [-60.56610411632948, 46.736079667603896], [-60.56609231209491, 46.736120310875066], [-60.56606227745757, 46.73622367182861], [-60.56604737598314, 46.736322351012944], [-60.566044106469086, 46.736330426129605], [-60.56600760121146, 46.73642050085415], [-60.56595333346227, 46.7364922432163], [-60.565875249991045, 46.736568455505626], [-60.565834229215376, 46.736608503935976], [-60.56580557286866, 46.73663384906753], [-60.565753779943236, 46.73667968897627], [-60.5657318732121, 46.73669670906283], [-60.565673748391745, 46.73674188318704], [-60.56543596505524, 46.73690647450636], [-60.565237335144495, 46.737043981890075], [-60.565184267074876, 46.73708875943311], [-60.56506505430034, 46.737178009048094], [-60.564918563744186, 46.73732067574832], [-60.56471981277652, 46.7374901554563], [-60.56461970657866, 46.737556817297026], [-60.56458756076509, 46.73757823596288], [-60.56438751432439, 46.73774766050657], [-60.56432135445344, 46.73779214984838], [-60.564254802443564, 46.73784563046331], [-60.56423597693553, 46.737864551813914], [-60.564201328052135, 46.73789938955815], [-60.56417982792133, 46.737919855877124], [-60.56413567843705, 46.73796188898472], [-60.56410871263911, 46.73797931399265], [-60.563964555603675, 46.73804104120043], [-60.56391143882278, 46.73805315733756], [-60.56388519753197, 46.73805915015381], [-60.563838023171584, 46.73806779296555], [-60.56379281521576, 46.738076081658846], [-60.5636489706431, 46.73810181647415], [-60.563615834806285, 46.738114979085665], [-60.56358231240338, 46.73812829544659], [-60.56351616448756, 46.73817278457709], [-60.56350906759824, 46.73819577152239], [-60.5635023682697, 46.73821748898453], [-60.56350121284331, 46.73828988465447], [-60.56350091836833, 46.73830745472198], [-60.56349877619069, 46.738442404022045], [-60.563498057766814, 46.738487387028506], [-60.56348507193432, 46.73851410937165], [-60.56344498722858, 46.738532154708956], [-60.56337964922261, 46.73855866168913], [-60.56310407867847, 46.73856483202179], [-60.56309136798527, 46.738565119174964], [-60.563089972405585, 46.73856529643159], [-60.56302553181757, 46.7385736340134], [-60.56301749768417, 46.73857617172365], [-60.56299898498011, 46.73858204102519], [-60.56295909720363, 46.73859280966166], [-60.562934038559234, 46.73859956543217], [-60.562866987090494, 46.7386350352709], [-60.56269591142131, 46.73874208554634], [-60.56258931198129, 46.73881271107948], [-60.562470810006246, 46.73885698382183], [-60.5624312622054, 46.73889213960482], [-60.56237156636492, 46.73900571199461], [-60.56233675765322, 46.73907191858743], [-60.56232864572064, 46.73908227529737], [-60.56232286874428, 46.73908962188824], [-60.562255593663835, 46.73918808423519], [-60.562189940218246, 46.73925058245962], [-60.5620441560595, 46.73934826221176], [-60.5619645213735, 46.73940147161767], [-60.561959738951394, 46.73940388957684], [-60.56185869017523, 46.73945501348718], [-60.56154289878413, 46.73957787622124], [-60.56143580158673, 46.73962087010336], [-60.56141091054633, 46.73963085999247], [-60.561321275682126, 46.739677636963506], [-60.56129159417553, 46.73969312247165], [-60.561172004135024, 46.73979045967124], [-60.561132819889224, 46.739817523060744], [-60.5611119948816, 46.73984967575865], [-60.56109201295598, 46.73988055047966], [-60.561077443058565, 46.73990462886636], [-60.56106513604194, 46.73992497564859], [-60.56106441552395, 46.73996995859043], [-60.56106265962421, 46.74009591640349], [-60.56105178173662, 46.74011621266257], [-60.56104836435449, 46.740122610543985], [-60.56104700591625, 46.74012399452235], [-60.561022298632665, 46.74014905367803], [-60.56101201175634, 46.740152479172394], [-60.56096912055866, 46.74016681893015], [-60.560837954820414, 46.74020182025781], [-60.560782121337205, 46.740224469605984], [-60.56077261354392, 46.74022832567885]]}, "properties": {"OBJECTID": 293557, "FEAT_CODE": "WARV55", "FEAT_DESC": "River - Single Line Indefinite", "RIVNAME_1": " ", "RIVNAME_2": " ", "ZVALUE": 9999, "FID": null, "SHAPE_Length": 666.4198269740937}}, {"type": "Feature", "id": 295543, "geometry": {"type": "LineString", "coordinates": [[-60.57958971424579, 46.72639152615573], [-60.57961558910659, 46.72641343896616], [-60.5796540232665, 46.72644598517986], [-60.57968698433949, 46.72646308911715], [-60.57970646441014, 46.72647319400432], [-60.57973672995559, 46.72650023051919], [-60.57975806062656, 46.72651928423413], [-60.57986093143655, 46.72661865755343], [-60.58001529876289, 46.72673711976641], [-60.58009399136104, 46.726791882885045], [-60.58014562843928, 46.72683707383371], [-60.580196058690554, 46.72690923823659], [-60.580235869958166, 46.72698824268733], [-60.58025976562367, 46.727035681537615], [-60.580397439759714, 46.72735178278092], [-60.58043650523747, 46.727414706966606], [-60.580437205479384, 46.727415729743704], [-60.58048689616383, 46.727487770367894], [-60.58055130814548, 46.72756923006012], [-60.58056508079773, 46.72759868034458], [-60.58057639242779, 46.727622876756676], [-60.58059596865968, 46.72771158663635], [-60.580600332196155, 46.72773136122065], [-60.58060615977489, 46.72775000581795], [-60.58062551821071, 46.72781199106542], [-60.58062476817387, 46.727870590044795], [-60.5806244597883, 46.72789386566535], [-60.5806345722356, 46.72801917498376], [-60.58063427079811, 46.72805516728303], [-60.5806338685502, 46.72806415844285], [-60.580593583865785, 46.72814519424409], [-60.580575980203754, 46.72817972256586], [-60.58056633942747, 46.72819862491728], [-60.58051258895069, 46.728288393494], [-60.58047231698135, 46.72836942951966], [-60.5804718128113, 46.72839737182439], [-60.580470560328685, 46.72846748874413], [-60.58048030453546, 46.72862968891611], [-60.58047899756901, 46.72874665695327], [-60.58051023833141, 46.72880195483965], [-60.58052993297064, 46.7288368312061], [-60.58059350178445, 46.72893717232008], [-60.58068410732226, 46.72901828605053], [-60.58069693071283, 46.72902859193799], [-60.580786441112195, 46.72910054775714], [-60.58082552130663, 46.72916347210111], [-60.58083771204622, 46.7292051824293], [-60.580849347360676, 46.72924497307809], [-60.58084920826709, 46.729289626485034], [-60.58084914692157, 46.72930796650929], [-60.58087101660791, 46.729550520138226], [-60.58087085428572, 46.72956936200729], [-60.580870715278785, 46.7295865124321], [-60.58090991584556, 46.729637100744654], [-60.58093382262996, 46.72966794428138], [-60.58099821354403, 46.729787102845876], [-60.58106074306442, 46.7299028201288], [-60.58116378436513, 46.73005709377488], [-60.581187965702604, 46.730101703551775], [-60.58133002608554, 46.73025535330205], [-60.5813814751078, 46.73031098829413], [-60.58144458404192, 46.73039241988239], [-60.581615894769996, 46.73056927697174], [-60.58166352396288, 46.73061844129947], [-60.581680099571585, 46.73064465682366], [-60.581714865106385, 46.73069962390499], [-60.581764908205415, 46.73077969008095], [-60.58176616619036, 46.7307817056056], [-60.581830080410676, 46.7308451546699], [-60.58202353364777, 46.731026538142444], [-60.5820543571699, 46.73105054392667], [-60.58213989527863, 46.73111719486718], [-60.58221728825466, 46.73117193799323], [-60.58238233611293, 46.73129577047953], [-60.582411031628986, 46.73131731927309], [-60.582578608850554, 46.731463056120894], [-60.582627339175346, 46.73150431460713], [-60.58270724443437, 46.73157198001494], [-60.58277169890384, 46.731628366223376], [-60.58281053195374, 46.73166235971403], [-60.582939270769465, 46.73179827551309], [-60.58303458820126, 46.73189889917822], [-60.58306801062663, 46.73193418218524], [-60.58318433575665, 46.7320257370204], [-60.58320393572534, 46.73204288156664], [-60.58323598029928, 46.7320709266778], [-60.583257932206706, 46.73210192639578], [-60.58327414652397, 46.732124831169614], [-60.58331009138364, 46.732207352635065], [-60.58333706226983, 46.73226926423383], [-60.58339877359261, 46.73244065279787], [-60.583420699111514, 46.73247751970444], [-60.58346329817661, 46.7325491031311], [-60.58355365157632, 46.73267386655084], [-60.58373205568548, 46.73292017663748], [-60.58379076332134, 46.732955255639915], [-60.58380854734165, 46.732965890958575], [-60.58387367182292, 46.73300236543194], [-60.583990831599316, 46.73307502876732], [-60.584197573070064, 46.73319370054158], [-60.584281960663695, 46.73323643144224], [-60.584288463087624, 46.73323971866582], [-60.58433736497615, 46.73327397829288], [-60.58446995855171, 46.73336684736137], [-60.58454141267705, 46.73340493107652], [-60.5846246538633, 46.733449311446655], [-60.584716035998845, 46.73351333894057], [-60.584876059314624, 46.73360166598086], [-60.5848974305494, 46.7336134658363], [-60.58501340091327, 46.73371311097342], [-60.58512893036379, 46.73382263730679], [-60.58519197185392, 46.733883519113725], [-60.58523182420265, 46.73392201511443], [-60.585257278078004, 46.73396755082652], [-60.58533412141399, 46.73409337750498], [-60.585359161629434, 46.73414788611928], [-60.58538422724445, 46.73420241326309], [-60.585409836884146, 46.73427406923758], [-60.58542180016005, 46.73432830175767], [-60.58542103467669, 46.7343917511912], [-60.58542080131115, 46.73440928659944], [-60.58542023730251, 46.73443451873509], [-60.58541819668314, 46.73452622717445], [-60.585362646200025, 46.73471494718903], [-60.58534816886964, 46.73480463812324], [-60.58534018948488, 46.73487251607562], [-60.585333392956386, 46.734930321383395], [-60.58533944588699, 46.73495247133891], [-60.58534578318785, 46.734975581261466], [-60.585383940403304, 46.73502948482574], [-60.585539561090116, 46.73512096683209], [-60.585771652686844, 46.73525816116595], [-60.58582002913436, 46.73530805945478], [-60.585824208666345, 46.735312368516354], [-60.586144737554626, 46.735638621662815], [-60.58626809175531, 46.735732814533165], [-60.58628777567746, 46.73574783638843], [-60.58634181911819, 46.73578604649755], [-60.58640324813359, 46.73582947024606], [-60.58644442495768, 46.73585506125156], [-60.586623588290024, 46.73596641483098], [-60.5866760547909, 46.735993629923236], [-60.58669840382923, 46.73602020950296], [-60.58671457564492, 46.73603943201311], [-60.586756154375465, 46.736092975317234], [-60.58679132182781, 46.736138247641165], [-60.58681641604148, 46.736169897927475], [-60.58684213045022, 46.73620231726481], [-60.586852342607685, 46.736209309473466], [-60.58688150704653, 46.73622924707421], [-60.58706211166717, 46.73634736210672], [-60.58714415410322, 46.736382085684774], [-60.58719185533635, 46.73640228827079], [-60.58728300590521, 46.73645730912447], [-60.58729422290182, 46.73646407949983], [-60.587374143582686, 46.73651232963263]]}, "properties": {"OBJECTID": 295543, "FEAT_CODE": "WARV55", "FEAT_DESC": "River - Single Line Indefinite", "RIVNAME_1": " ", "RIVNAME_2": " ", "ZVALUE": 9999, "FID": null, "SHAPE_Length": 1336.7607018367007}}]}