{"type": "FeatureCollection", "features": [{"type": "Feature", "id": 37372, "geometry": {"type": "LineString", "coordinates": [[-60.55752637861406, 46.76128032221734], [-60.55753453802117, 46.76129131401946], [-60.55753995717733, 46.76129861145175], [-60.557539394783554, 46.76132176450287], [-60.55753841961123, 46.76136157606333], [-60.5575332257273, 46.76136870085696], [-60.557511894317805, 46.761397908129375], [-60.55751108119169, 46.76141589003526], [-60.55749760433483, 46.761424601874666], [-60.55748629759008, 46.76142818526505], [-60.55747101792822, 46.761433033757626]]}, "properties": {"OBJECTID": 37372, "FEAT_CODE": "WALK20", "FEAT_DESC": "Lake - Water to the right line", "RIVNAME_1": " ", "RIVNAME_2": " ", "ZVALUE": 408.5, "FID": null, "SHAPE_Length": 19.45257546549416}}, {"type": "Feature", "id": 37373, "geometry": {"type": "LineString", "coordinates": [[-60.55747101792822, 46.761433033757626], [-60.55745794763315, 46.76143275463956], [-60.55745835420538, 46.76142376368701], [-60.55745265478083, 46.76140760462494], [-60.55744557570488, 46.76138749225878], [-60.55745663239453, 46.76136684922403], [-60.557459878786126, 46.76136079879954], [-60.55746087852116, 46.761359542200886], [-60.557473775284436, 46.76134309629091], [-60.557513033649315, 46.76129625458255], [-60.55752637861406, 46.76128032221734]]}, "properties": {"OBJECTID": 37373, "FEAT_CODE": "WALK20", "FEAT_DESC": "Lake - Water to the right line", "RIVNAME_1": " ", "RIVNAME_2": " ", "ZVALUE": 408.5, "FID": null, "SHAPE_Length": 19.599057340618312}}, {"type": "Feature", "id": 37374, "geometry": {"type": "LineString", "coordinates": [[-60.55727650123959, 46.76133258357491], [-60.55728999119088, 46.76132387204109], [-60.55735585519169, 46.76131537905979], [-60.55736570544313, 46.761322573139246], [-60.55736853236175, 46.761324640429564]]}, "properties": {"OBJECTID": 37374, "FEAT_CODE": "WALK20", "FEAT_DESC": "Lake - Water to the right line", "RIVNAME_1": " ", "RIVNAME_2": " ", "ZVALUE": 407.6, "FID": null, "SHAPE_Length": 7.947290539895523}}, {"type": "Feature", "id": 37375, "geometry": {"type": "LineString", "coordinates": [[-60.55736853236175, 46.761324640429564], [-60.557353218618836, 46.761349935349614], [-60.557341627553186, 46.76136907302283], [-60.55730453725319, 46.76136912687371], [-60.557302362569025, 46.76136914342737], [-60.55727658977131, 46.76135958437115], [-60.557276526533336, 46.76134215972693], [-60.55727650123959, 46.76133258357491]]}, "properties": {"OBJECTID": 37375, "FEAT_CODE": "WALK20", "FEAT_DESC": "Lake - Water to the right line", "RIVNAME_1": " ", "RIVNAME_2": " ", "ZVALUE": 407.6, "FID": null, "SHAPE_Length": 13.588904844751852}}, {"type": "Feature", "id": 37376, "geometry": {"type": "LineString", "coordinates": [[-60.55736748894376, 46.76140563286152], [-60.55736284042513, 46.761414308231835], [-60.557353186211145, 46.76143231731697], [-60.557353440847294, 46.76144174537287], [-60.557353681369406, 46.76145032716165], [-60.55728780411947, 46.76145881985898]]}, "properties": {"OBJECTID": 37376, "FEAT_CODE": "WALK20", "FEAT_DESC": "Lake - Water to the right line", "RIVNAME_1": " ", "RIVNAME_2": " ", "ZVALUE": 408.2, "FID": null, "SHAPE_Length": 10.284374505462345}}, {"type": "Feature", "id": 37377, "geometry": {"type": "LineString", "coordinates": [[-60.55728780411947, 46.76145881985898], [-60.55730121864228, 46.76142310780791], [-60.55731964198463, 46.761418245479064], [-60.55736748894376, 46.76140563286152]]}, "properties": {"OBJECTID": 37377, "FEAT_CODE": "WALK20", "FEAT_DESC": "Lake - Water to the right line", "RIVNAME_1": " ", "RIVNAME_2": " ", "ZVALUE": 408.2, "FID": null, "SHAPE_Length": 9.522931308274645}}, {"type": "Feature", "id": 37378, "geometry": {"type": "LineString", "coordinates": [[-60.55714567486762, 46.76135858830037], [-60.55717143496375, 46.761368138115266], [-60.55717193006162, 46.761386147959755], [-60.557161531615336, 46.76140555407653], [-60.55715762683227, 46.76141284138006], [-60.5571310403816, 46.761421273183096], [-60.55709177576873, 46.76142133452367]]}, "properties": {"OBJECTID": 37378, "FEAT_CODE": "WALK20", "FEAT_DESC": "Lake - Water to the right line", "RIVNAME_1": " ", "RIVNAME_2": " ", "ZVALUE": 407.1, "FID": null, "SHAPE_Length": 12.637473841249337}}, {"type": "Feature", "id": 37379, "geometry": {"type": "LineString", "coordinates": [[-60.55709177576873, 46.76142133452367], [-60.557084866540016, 46.76141629115179], [-60.55707909862532, 46.76141207312382], [-60.5570799123017, 46.76139408223276], [-60.55714567486762, 46.76135858830037]]}, "properties": {"OBJECTID": 37379, "FEAT_CODE": "WALK20", "FEAT_DESC": "Lake - Water to the right line", "RIVNAME_1": " ", "RIVNAME_2": " ", "ZVALUE": 407.1, "FID": null, "SHAPE_Length": 9.802793014825744}}, {"type": "Feature", "id": 37380, "geometry": {"type": "LineString", "coordinates": [[-60.556160562341255, 46.76900612936943], [-60.55616259681751, 46.768961174709744], [-60.556170544661384, 46.76895688970975], [-60.556228382466834, 46.76892568181306], [-60.55631027650374, 46.768880678443345], [-60.55637343285234, 46.768845975253285], [-60.556399222087784, 46.76885553484576], [-60.55642982680724, 46.76887648284045], [-60.55643859315828, 46.76888247488167]]}, "properties": {"OBJECTID": 37380, "FEAT_CODE": "WALK20", "FEAT_DESC": "Lake - Water to the right line", "RIVNAME_1": " ", "RIVNAME_2": " ", "ZVALUE": 413.3, "FID": null, "SHAPE_Length": 32.058829826975554}}, {"type": "Feature", "id": 37381, "geometry": {"type": "LineString", "coordinates": [[-60.55643859315828, 46.76888247488167], [-60.55643777946246, 46.76890045674954], [-60.55642747358877, 46.76891777684727], [-60.55641082918645, 46.76894578807757], [-60.55639784544362, 46.76897250056946], [-60.55637114466946, 46.76898974038703], [-60.55635736927604, 46.76899863470163], [-60.55634535430478, 46.76900422776416], [-60.55631856817946, 46.76901669594435], [-60.556229679690205, 46.76902436342616], [-60.55622652377951, 46.769024637983996], [-60.55618722747767, 46.76902469835015], [-60.556172294999016, 46.76901429972166], [-60.556160562341255, 46.76900612936943]]}, "properties": {"OBJECTID": 37381, "FEAT_CODE": "WALK20", "FEAT_DESC": "Lake - Water to the right line", "RIVNAME_1": " ", "RIVNAME_2": " ", "ZVALUE": 413.3, "FID": null, "SHAPE_Length": 31.38483931675623}}, {"type": "Feature", "id": 37382, "geometry": {"type": "LineString", "coordinates": [[-60.55599042043584, 46.769032192722825], [-60.55600645789597, 46.76902656865318], [-60.556017038456275, 46.76902286189681], [-60.55609477695565, 46.76904161323299], [-60.5561163790496, 46.76904963448344], [-60.556120540060896, 46.76905117232967], [-60.556134527298056, 46.76906046181372]]}, "properties": {"OBJECTID": 37382, "FEAT_CODE": "WALK20", "FEAT_DESC": "Lake - Water to the right line", "RIVNAME_1": " ", "RIVNAME_2": " ", "ZVALUE": 413.9, "FID": null, "SHAPE_Length": 12.29833859128232}}, {"type": "Feature", "id": 37452, "geometry": {"type": "LineString", "coordinates": [[-60.556134527298056, 46.76906046181372], [-60.556133306187746, 46.76908744359949], [-60.556067839404875, 46.76908694475197], [-60.55605880949382, 46.76908359294089], [-60.55604206280051, 46.76907739435467], [-60.55602073313693, 46.76905872335451], [-60.55599042043584, 46.769032192722825]]}, "properties": {"OBJECTID": 37452, "FEAT_CODE": "WALK20", "FEAT_DESC": "Lake - Water to the right line", "RIVNAME_1": " ", "RIVNAME_2": " ", "ZVALUE": 413.9, "FID": null, "SHAPE_Length": 16.627374172572807}}, {"type": "Feature", "id": 37453, "geometry": {"type": "LineString", "coordinates": [[-60.555859487015944, 46.76903119482932], [-60.555868883983784, 46.76903772236805], [-60.55588487114631, 46.76904883654457], [-60.55588491160582, 46.76905807102517], [-60.555885060025666, 46.76910282933542], [-60.55584071359033, 46.769102763668876], [-60.5557933686058, 46.76910267890608]]}, "properties": {"OBJECTID": 37453, "FEAT_CODE": "WALK20", "FEAT_DESC": "Lake - Water to the right line", "RIVNAME_1": " ", "RIVNAME_2": " ", "ZVALUE": 413.8, "FID": null, "SHAPE_Length": 15.764149531731793}}, {"type": "Feature", "id": 37454, "geometry": {"type": "LineString", "coordinates": [[-60.5557933686058, 46.76910267890608], [-60.555785036803684, 46.76907898483804], [-60.555780616197815, 46.76906639889135], [-60.555848017371176, 46.76903631351285], [-60.555859487015944, 46.76903119482932]]}, "properties": {"OBJECTID": 37454, "FEAT_CODE": "WALK20", "FEAT_DESC": "Lake - Water to the right line", "RIVNAME_1": " ", "RIVNAME_2": " ", "ZVALUE": 413.8, "FID": null, "SHAPE_Length": 11.333328338854574}}, {"type": "Feature", "id": 156505, "geometry": {"type": "LineString", "coordinates": [[-60.547278400299824, 46.7626440573233], [-60.547276850672695, 46.76270702155542], [-60.54728879292471, 46.76276127547232], [-60.54729447417787, 46.7627820964679], [-60.54730114348022, 46.76280653850583], [-60.54730750541605, 46.76287033836563], [-60.547312844535654, 46.76292378470777], [-60.54732762679183, 46.76297116079933], [-60.54733799487598, 46.76300442079788], [-60.54736137514036, 46.76309490952572], [-60.54735896106146, 46.76329284976964], [-60.54729640223865, 46.76349264114964], [-60.54727469741565, 46.76356194088979], [-60.54723397934647, 46.76365107307752], [-60.547217670862224, 46.76367825323491], [-60.54718013728613, 46.76374080577023], [-60.54713937849146, 46.76383082801328], [-60.54708639317558, 46.76390168879757], [-60.54706105060084, 46.76392304141554], [-60.54692706435874, 46.764035957172005], [-60.546878484828646, 46.764074972643215], [-60.54686044865873, 46.7640894352069], [-60.5468109611831, 46.76414814937798], [-60.54679263424662, 46.7641698774002], [-60.5467131141808, 46.76427706738454], [-60.546631960130995, 46.76442022080625], [-60.546524554483206, 46.764535812148466], [-60.546509419151725, 46.76455272178492], [-60.546324514983496, 46.764759211748846], [-60.54607166135351, 46.76499138649473], [-60.545938931376234, 46.76511632455282], [-60.54586719558073, 46.76516368039372], [-60.545818777966765, 46.76519563417318], [-60.545614821083504, 46.765309143924554], [-60.54551510728293, 46.7653646198159], [-60.545426807892774, 46.76542973619651], [-60.54538231834399, 46.76546256605634], [-60.54528880947939, 46.765560455196024], [-60.545221946842496, 46.765676915415], [-60.54519697495312, 46.76572350154901], [-60.54515468831166, 46.76580236673103], [-60.545113147964265, 46.76590947076761], [-60.54501837082201, 46.766035231327486], [-60.54496821271, 46.766099105088436], [-60.5448988151216, 46.76618745884263], [-60.544844107287965, 46.766267281236196], [-60.54474115924351, 46.76636359036219], [-60.544738779133695, 46.76636581617742], [-60.544605973202735, 46.76646376114627], [-60.54443358651064, 46.76659685474402], [-60.54438593050029, 46.76662094058673], [-60.54432768461702, 46.76665036981989], [-60.54420871156886, 46.766722890363404], [-60.54418220115112, 46.76673905147589], [-60.544154524164064, 46.766759552356625], [-60.54406292761239, 46.76682738677144], [-60.54400039737138, 46.76686951232237], [-60.5439697001664, 46.76689018229634], [-60.543771836635415, 46.76697862962398], [-60.54369892550404, 46.76700277580593], [-60.54361359454268, 46.767031029034136], [-60.543495845990144, 46.76705729901827], [-60.54347190356795, 46.76706220258007], [-60.54345617011394, 46.767065446520036], [-60.54325856439482, 46.76709090106324], [-60.54325773924641, 46.76709090133896], [-60.54312762341932, 46.76708988840405], [-60.54290549079128, 46.76709393633738], [-60.542788118503, 46.76709609465789], [-60.5427285291438, 46.76709572342662], [-60.54267027523458, 46.767095362856324], [-60.54240797028744, 46.767074427719514], [-60.5422752617603, 46.76706045263016], [-60.54222546848173, 46.76705520683937], [-60.542153790143416, 46.767045629900124], [-60.54208097920236, 46.76703590258186], [-60.542045730347354, 46.76702965531804], [-60.54197703914269, 46.76701746956939], [-60.54183851201198, 46.7670116305916], [-60.54171559316505, 46.767006450898414], [-60.54158507487145, 46.76699644592101], [-60.541323193344596, 46.76696651775766], [-60.54123191582384, 46.766957355896096], [-60.541153367957804, 46.76695655829151], [-60.54107781804178, 46.76696441973482], [-60.540995452231186, 46.766972971559234], [-60.54074635261049, 46.767007214276646], [-60.54068047940361, 46.76701569750133], [-60.540635493453316, 46.767034313418655], [-60.540575023089815, 46.76705932808905], [-60.540506899998746, 46.76709420376171], [-60.54047042463927, 46.76711287662483], [-60.5402578317079, 46.76723700868141], [-60.540072837145175, 46.767387814847424], [-60.539978375496666, 46.767477579483156], [-60.53996932493663, 46.76748362157066], [-60.53993920123288, 46.76750373582246], [-60.53990815658211, 46.76751962742887], [-60.53988690129034, 46.76753050979596], [-60.539758737968185, 46.76758091393505], [-60.53959616619652, 46.76764485118667], [-60.539504565113546, 46.76768157912277], [-60.539464087742985, 46.76769780766912], [-60.5394231114233, 46.76771003862941], [-60.53934591311633, 46.76773306385068], [-60.53925435928691, 46.7677589750427], [-60.53924098006212, 46.76776429397014], [-60.53918766432451, 46.7677854659966], [-60.53908216476879, 46.767829985241704], [-60.53895053609245, 46.76787305121105], [-60.5386606549433, 46.767997308196854]]}, "properties": {"OBJECTID": 156505, "FEAT_CODE": "WARV10", "FEAT_DESC": "Double Line River - Water to the left line", "RIVNAME_1": "Black Brook", "RIVNAME_2": " ", "ZVALUE": 9999, "FID": null, "SHAPE_Length": 1007.9291294083503}}, {"type": "Feature", "id": 156506, "geometry": {"type": "LineString", "coordinates": [[-60.5644480813738, 46.74787896338538], [-60.56444776851898, 46.74791495532191], [-60.56452489459332, 46.748004794235634], [-60.564528055627086, 46.74800931637309], [-60.564563012004065, 46.74805960379764], [-60.56458683367137, 46.74814110788958], [-60.564586959203616, 46.748150524195744], [-60.56458742372571, 46.74818611870019], [-60.56458449992071, 46.74833815051275], [-60.56458256633205, 46.74841010653193], [-60.564543064514595, 46.74847316290192], [-60.56452911166806, 46.748499216763726], [-60.5645287685651, 46.74849985743244], [-60.56454113085876, 46.74854511891769], [-60.56455318036402, 46.74862637233564], [-60.564558619601996, 46.74865616899835], [-60.5645647318786, 46.74868962484976], [-60.56457073037427, 46.74876308171554], [-60.564575699151895, 46.748823944145066], [-60.564569967160686, 46.74883957147545], [-60.564562265019944, 46.74886056564259], [-60.56454740142379, 46.748894042821426], [-60.56453457613385, 46.74892296458136], [-60.56451308192238, 46.74899258714568], [-60.56450697914852, 46.74901237341426], [-60.56449306692713, 46.74907877355775], [-60.564478623844344, 46.749147655297136], [-60.56447820861496, 46.74916761667407], [-60.56447637675829, 46.74925561222214], [-60.564468413476284, 46.74932597288913], [-60.5644611418767, 46.74939028252139], [-60.56443562494356, 46.74942917560497], [-60.56442037162655, 46.74945241186676], [-60.56441624994977, 46.749455257981396], [-60.564381181762535, 46.749479476226135], [-60.564182291507464, 46.749621934906486], [-60.56411989143566, 46.749656748545256], [-60.564023806415825, 46.7497103559588], [-60.56399683456779, 46.74972778079627], [-60.56390496802053, 46.74979062159889], [-60.5637916128886, 46.74988168649211], [-60.563705264623806, 46.7499510614235], [-60.56368243181469, 46.7499762870503], [-60.56366530382217, 46.74999520844515], [-60.56366033320284, 46.75000061934758], [-60.563651534005075, 46.750010214528054], [-60.56364100010397, 46.75002227465776], [-60.563625289335114, 46.75004025427383], [-60.56355882603982, 46.75012073525845], [-60.56353245511896, 46.75016431676215], [-60.56350506531507, 46.750209586487465], [-60.56343420174374, 46.750345249491744], [-60.563383256965054, 46.75044278231249], [-60.56332657500935, 46.75054065186485], [-60.563248366696776, 46.7506756992924], [-60.56322381101994, 46.75073040696095], [-60.5631799401962, 46.750828135397775], [-60.5631129781079, 46.75089060619813], [-60.563111199335076, 46.75089230523095], [-60.56301993258295, 46.75097952014049], [-60.56293965370957, 46.75110470462019], [-60.56293228468973, 46.75111480719954], [-60.56291313731185, 46.75114103816226], [-60.56279862306086, 46.751258860311516], [-60.562792306931854, 46.7512653584604], [-60.562660068098914, 46.751381335833294], [-60.5626331458029, 46.75142666030581], [-60.56255358515728, 46.751506861587025], [-60.56251004894802, 46.75153907947054], [-60.56243302687012, 46.75159608868312], [-60.56236738504817, 46.751657696216746], [-60.562294263640766, 46.751719369288914], [-60.56226121570951, 46.751747220797874], [-60.56216128151493, 46.75182013883855], [-60.56211500406446, 46.75185390007996], [-60.56204545326906, 46.75191216623688], [-60.56195578867296, 46.751987300919986], [-60.56187528320035, 46.75205938190584], [-60.56173077071006, 46.75215709727091], [-60.56161146743286, 46.75221845135302], [-60.56141412431842, 46.75229780567363], [-60.561282072135164, 46.752350922905926], [-60.56123091776456, 46.75237377122864], [-60.56120324217055, 46.752386140598325], [-60.56099033614112, 46.75251929520652], [-60.560779562065164, 46.752634495595174], [-60.56075742075637, 46.75265942939312], [-60.5607395562504, 46.75267954059159], [-60.56067709036203, 46.75272467353772], [-60.560579838752915, 46.75279492951434], [-60.56052271573175, 46.75285251484314], [-60.56050027301938, 46.75287512925367], [-60.56040799105682, 46.7529469580232], [-60.56037041921573, 46.75297172460831], [-60.56034186256542, 46.75299054572103], [-60.56029695782083, 46.75303242618642], [-60.5602748813995, 46.753053014446074], [-60.560113767440214, 46.75328626827146], [-60.56007943044086, 46.7533655246169], [-60.56005968179877, 46.75341110950623], [-60.56001926875949, 46.75346514520527], [-60.55996527808736, 46.753500891941854], [-60.559919526408244, 46.753522657983865], [-60.55987294536745, 46.75354481129761], [-60.55976297004799, 46.75358158643575], [-60.55971606563251, 46.753597271041755], [-60.559557842123795, 46.753640918245736], [-60.559491969850825, 46.75365908692316], [-60.5594887388233, 46.753660754911515], [-60.559372673820086, 46.753720438823066], [-60.559239882752955, 46.75382370194691], [-60.559200323944175, 46.75385445550656], [-60.559177184443435, 46.75387131301369], [-60.559041907422696, 46.753969879039126], [-60.55895058765372, 46.754043221105164], [-60.55890873924759, 46.75407682358328], [-60.558842580619135, 46.754121309733726], [-60.55865232577615, 46.754255960394055], [-60.558616682696965, 46.75428118155516], [-60.558604063913286, 46.75429152278138], [-60.5585514123733, 46.75433468614182], [-60.558469540533295, 46.75442349289306], [-60.55844401207958, 46.75445118882399], [-60.55829817881144, 46.75454887164973], [-60.55823117983728, 46.75461134779253], [-60.55809821275349, 46.754772293543084], [-60.55809752656153, 46.75477298986477], [-60.558018640374186, 46.75485249140552], [-60.55788573364601, 46.75497151785712], [-60.55781939593007, 46.75503092999817], [-60.557790445224576, 46.755055816817496], [-60.557778524720575, 46.75506605586694], [-60.557739009876286, 46.755129109577], [-60.55772038987942, 46.755161254690904], [-60.55769782095081, 46.75520022720438], [-60.55767861300037, 46.75524624620545], [-60.55767138779619, 46.75526356022814], [-60.557629792215806, 46.755343668789315], [-60.55762358032523, 46.75536376733744], [-60.55761598620138, 46.75538837218874], [-60.55759817114097, 46.75544152163738], [-60.55758875300109, 46.75546968739319], [-60.557548363467525, 46.755522822749654], [-60.557509075314776, 46.755555939407714], [-60.55749528429685, 46.75556757842515], [-60.5574291091734, 46.755612072402236], [-60.557270174521584, 46.75570947412116], [-60.557250095209575, 46.755726387594045], [-60.55716398828473, 46.75579900259208], [-60.557097901554684, 46.75587048819248], [-60.55699085373605, 46.75595009849319], [-60.556923953825745, 46.756039556907965], [-60.55690919946816, 46.756059751936384], [-60.55689743047528, 46.75607589789494], [-60.556789834286676, 46.75625448335577], [-60.556758597228914, 46.75628965266144], [-60.556749821991794, 46.75629953580753], [-60.55663009728859, 46.756369875326925], [-60.55660173136375, 46.756395701298935], [-60.55659049182537, 46.75640592777222], [-60.556556319121164, 46.75642695886821], [-60.5564180792611, 46.75651203101627], [-60.55635803102757, 46.75653740503625], [-60.556312614856445, 46.756556584905496], [-60.556127892739944, 46.756645334392324], [-60.55598286282011, 46.75672503213839], [-60.55566541717303, 46.756910831741756], [-60.555520385458806, 46.75699053786241], [-60.55546690239099, 46.757023602426855], [-60.55536141701971, 46.757088836167064], [-60.55508312624429, 46.7572484811089], [-60.55497838808828, 46.75735042200572], [-60.554936552880925, 46.75739114202354], [-60.554832041033855, 46.7574438055883], [-60.55475392910965, 46.75748835781218], [-60.55473927738603, 46.75749671122555], [-60.55473777111286, 46.75749787597491], [-60.554645671157246, 46.757568516018786], [-60.55461827567731, 46.757581546756924], [-60.5545533267906, 46.75761243982784], [-60.554237778136084, 46.757727187860176], [-60.5539205539267, 46.75784998986571], [-60.553670368615684, 46.75793824430997], [-60.55355231102012, 46.75800051658625], [-60.55327413757892, 46.75818625859368], [-60.55314087367666, 46.758266204432665], [-60.55307650703418, 46.75831629635532], [-60.55304857266636, 46.75833802684098], [-60.55300843959027, 46.75837841358245], [-60.55291548045899, 46.7584719829341], [-60.552868376323296, 46.75853934539606], [-60.55283426606202, 46.758588131606636], [-60.55275313721902, 46.758731289971784], [-60.55274786442576, 46.75874535158585], [-60.552712926104306, 46.75883842527085], [-60.55264528620922, 46.75897288153585], [-60.552577560556564, 46.759080319004696], [-60.552483627910455, 46.759188104599346], [-60.55243121176098, 46.75924261871549], [-60.5523640635023, 46.759312440917434], [-60.55224364338054, 46.759455649040135], [-60.55222785498942, 46.75947952918287], [-60.55219022021237, 46.75953642044131], [-60.55214861344408, 46.759616517746565], [-60.55204095305559, 46.75979600628942], [-60.5518806384255, 46.76001036628007], [-60.551772962420756, 46.76018987222938], [-60.55172280274331, 46.76025639483665], [-60.55169216387332, 46.76029702033657], [-60.551673701605885, 46.76031574036954], [-60.55166609660792, 46.760323461261095], [-60.55163828731954, 46.76035886452832], [-60.55158477742198, 46.76041261686847], [-60.55145330697423, 46.76051059840216], [-60.551333117702434, 46.760590822024916], [-60.55120115325421, 46.760670793415144], [-60.55105651289322, 46.76074149360776], [-60.55093252972045, 46.76081005304218], [-60.55089666536652, 46.76082986726937], [-60.550724271574126, 46.7609638701959], [-60.55064845380553, 46.76101482248316], [-60.55059189760965, 46.76105283175139], [-60.550501148437206, 46.761113930758306], [-60.550433849581005, 46.76115924257887], [-60.55037982589576, 46.7612037767199], [-60.550326373636885, 46.76124783709347], [-60.550220657667744, 46.76135536844276], [-60.55019394629203, 46.76139078587285], [-60.55013984034872, 46.76146253304326], [-60.550064289962464, 46.76156270968887], [-60.55005902270269, 46.76156969757871], [-60.550052534814, 46.76157847724926], [-60.55000600312805, 46.76164144995546], [-60.549964374047654, 46.761687860331186], [-60.54992600018984, 46.76173064157108], [-60.54992034737396, 46.76173429132948], [-60.54991250898124, 46.76173935221112], [-60.549806706414245, 46.761819882406385], [-60.54978908536965, 46.76183273439141], [-60.54966041616437, 46.76192655303754], [-60.549545373582895, 46.76199625646536], [-60.54952845946419, 46.762006513660815], [-60.54952599378158, 46.76200774778269], [-60.54937032196789, 46.762085922185406], [-60.549158093004344, 46.76217407104293], [-60.54911192303466, 46.762189497050315], [-60.54900117845565, 46.76222650635013], [-60.54882252439612, 46.76226796397362], [-60.548777496963446, 46.762278410533106], [-60.548756178301126, 46.762283272433415], [-60.54869809828582, 46.762296508102985], [-60.54863244281659, 46.76230871741785], [-60.54860696520784, 46.76231345415543], [-60.54854995433103, 46.76231784802136], [-60.54839669053966, 46.76232964638685], [-60.548200723645316, 46.76231914602385], [-60.548017840338694, 46.76230892580859], [-60.54797284580368, 46.76230825820403], [-60.5478869645488, 46.76230702000866], [-60.54785066326442, 46.76231304546788], [-60.547834181560205, 46.7623157879865], [-60.54781009649359, 46.76232100438373], [-60.547754823357224, 46.76233298580565], [-60.54764025921618, 46.76236352215387], [-60.54762358217329, 46.76236797038508], [-60.5475618794258, 46.762388588501565], [-60.547545123947984, 46.7623941869932], [-60.547447985591816, 46.76244329405768], [-60.54743923302419, 46.76244771419251], [-60.547385225044806, 46.76248345460923], [-60.54730800395632, 46.762569518174864], [-60.54730521695639, 46.762572635282496], [-60.54730060848592, 46.76258212107234], [-60.54727921686545, 46.76262607555877], [-60.547278400299824, 46.7626440573233]]}, "properties": {"OBJECTID": 156506, "FEAT_CODE": "WARV10", "FEAT_DESC": "Double Line River - Water to the left line", "RIVNAME_1": "Black Brook", "RIVNAME_2": " ", "ZVALUE": 9999, "FID": null, "SHAPE_Length": 2222.006979664526}}, {"type": "Feature", "id": 170895, "geometry": {"type": "LineString", "coordinates": [[-60.54976363193282, 46.761989952762434], [-60.54963133854221, 46.76210591383998], [-60.54949846741879, 46.7621768641998], [-60.54942086291495, 46.76221200102594], [-60.54938079056665, 46.762230140682234], [-60.549301038082696, 46.76225633076349], [-60.54910442412406, 46.76231781518423], [-60.549052862090356, 46.76232594391444], [-60.54899889966684, 46.762334444165916], [-60.5486311630574, 46.76238596987587], [-60.54855295281631, 46.76239576815161], [-60.54843492579381, 46.76241056270659], [-60.548293366196425, 46.762418111984026], [-60.54829051727632, 46.76241826690761], [-60.547949325211356, 46.762433451901714], [-60.54793141306784, 46.76243337388044], [-60.54789695069268, 46.762433220028385], [-60.54780577592904, 46.762451073512324], [-60.5476998426476, 46.76247669216804], [-60.54767602735765, 46.7624877910846], [-60.54766104273096, 46.762494768507636], [-60.547593951298126, 46.762530228500644], [-60.54751516820568, 46.76259243667282], [-60.547484366548886, 46.762626451817276], [-60.5474751846286, 46.76263657751824], [-60.54746890712544, 46.762656863089994], [-60.54746136815065, 46.762681279444536], [-60.547461113654755, 46.76269669036641], [-60.54746063524209, 46.762726261916136], [-60.54745822848518, 46.76280810700865], [-60.547496054380076, 46.76289801449906], [-60.5475201066609, 46.763060523700354], [-60.54751420077807, 46.76339248366069], [-60.547484627098925, 46.76347818304611], [-60.54745840130062, 46.76355418060544], [-60.5473627435723, 46.76381490978898], [-60.54733976021526, 46.76385987410545], [-60.54730812497003, 46.763921743195546], [-60.547300471986844, 46.76393222565453], [-60.54728159197014, 46.76395806372817], [-60.54721539810902, 46.764002551379654], [-60.5472095920012, 46.76400697168515], [-60.54702953351634, 46.76414435951108], [-60.54702725332117, 46.764145831547616], [-60.54701602774321, 46.764153078495994], [-60.54691022958229, 46.76423359709812], [-60.54684281034875, 46.76430504815974], [-60.54679113573131, 46.764374136989105], [-60.54674938897531, 46.76442994828228], [-60.546727624862974, 46.76446621797814], [-60.54669554529009, 46.76451968070564], [-60.54653388614755, 46.76473401329578], [-60.546440748664374, 46.76482380267539], [-60.54639628084992, 46.764878088526416], [-60.546360326951195, 46.76492197343154], [-60.5462672292883, 46.765010872559166], [-60.546135737906006, 46.7651088475112], [-60.54604206533521, 46.765152735946465], [-60.54593173841431, 46.765204870622746], [-60.54591089937874, 46.76521471008281], [-60.54587640983506, 46.76523500221307], [-60.54580459227765, 46.76527723546787], [-60.5457782113204, 46.76530181438745], [-60.54573757882641, 46.765339694945574], [-60.545606126542836, 46.765436770163326], [-60.54557946648884, 46.76547238559947], [-60.54556568976288, 46.7654908002044], [-60.545471364331, 46.76560666223893], [-60.545417135643525, 46.76570536742579], [-60.54538692005863, 46.765740249539796], [-60.54532449837809, 46.765812310929796], [-60.5453184118623, 46.76583384242539], [-60.54529641049573, 46.76591160406655], [-60.54526868959377, 46.76597400657153], [-60.5452018394503, 46.76609046704133], [-60.54513486506453, 46.766167299416225], [-60.54505398943656, 46.766260086721], [-60.544920940121315, 46.766421024267444], [-60.54491399945402, 46.76643396975482], [-60.54490664254779, 46.76644771627428], [-60.5448678261513, 46.76646578231094], [-60.54485882513349, 46.76648256241122], [-60.54485351545455, 46.76649247402935], [-60.54478488603494, 46.76653827593338], [-60.54477382362158, 46.76654566115789], [-60.54472152693482, 46.766572437409884], [-60.54467482545158, 46.76659886576857], [-60.54447014242448, 46.76671463479189], [-60.54441991036054, 46.76674525307588], [-60.544324659416674, 46.766803307638504], [-60.54428507886027, 46.76683845637438], [-60.54425369000824, 46.76687376297773], [-60.54424504851911, 46.76688349503604], [-60.54417811310955, 46.76697295416943], [-60.544163625227085, 46.76698135474154], [-60.544071841819495, 46.76703456974587], [-60.543979431806804, 46.76707938356333], [-60.543742232030866, 46.767139987268834], [-60.54347972104901, 46.76720994646607], [-60.543419984201925, 46.76722289188535], [-60.54340035432446, 46.7672271410866], [-60.54324333821493, 46.7672525674166], [-60.5432334135072, 46.767252498234015], [-60.543060030442426, 46.76725132982739], [-60.5428632285537, 46.76725881068815], [-60.54270696270506, 46.767239245232254], [-60.54235378844904, 46.76720014935611], [-60.54202638702051, 46.76717062388109], [-60.54166145032105, 46.76713128208603], [-60.541470987069864, 46.76712065452709], [-60.54129434612169, 46.76711079176226], [-60.54120810346996, 46.767109846784535], [-60.54112416453092, 46.76710893326746], [-60.54105818992304, 46.76710842389532], [-60.540993236734835, 46.767107918445376], [-60.54086271836378, 46.76709791264151], [-60.54082840570185, 46.76710360964595], [-60.54080992965027, 46.76710667725942], [-60.540757630516076, 46.76713345164839], [-60.54066484918455, 46.76718635447867], [-60.54057687960826, 46.76725122221758], [-60.54053203397531, 46.767284294524096], [-60.54047368603529, 46.7673253921278], [-60.540280333682205, 46.76746157449144], [-60.540214143298144, 46.76750604916417], [-60.54018398053833, 46.76752443471054], [-60.54006865133357, 46.767594716411146], [-60.53983115403388, 46.767719203012], [-60.53973789462724, 46.76775409553868], [-60.53946424867386, 46.76784547712856], [-60.539449272721455, 46.76785048274222], [-60.53930321006041, 46.7678941385681], [-60.53902727439253, 46.76799980626968], [-60.53888253297738, 46.76804348098721], [-60.53883835164598, 46.768073435050816], [-60.538802779017054, 46.76809756258574]]}, "properties": {"OBJECTID": 170895, "FEAT_CODE": "WARV20", "FEAT_DESC": "Double Line River - Water to the right line", "RIVNAME_1": "Black Brook", "RIVNAME_2": " ", "ZVALUE": 9999, "FID": null, "SHAPE_Length": 1222.8016623576327}}, {"type": "Feature", "id": 170896, "geometry": {"type": "LineString", "coordinates": [[-60.55726605727281, 46.755916377961995], [-60.557232293648966, 46.75595878314755], [-60.55717304124867, 46.75603318664337], [-60.55716241328242, 46.75605074294394], [-60.557146152580046, 46.75607761056343], [-60.55713266395052, 46.75608632211192], [-60.557110420717684, 46.75612647141593], [-60.557092740602386, 46.756158375509514], [-60.557071045905204, 46.75618697198171], [-60.55699805004726, 46.75628323895854], [-60.55697555034871, 46.756313708142706], [-60.5569450446275, 46.7563550038767], [-60.55685229756918, 46.75640792058225], [-60.55666685056216, 46.756541653663035], [-60.556588391973676, 46.75656787646413], [-60.55644238625554, 46.75661155537981], [-60.55637660339107, 46.75664703948529], [-60.55632392800932, 46.756682821599036], [-60.55624468180611, 46.756727026619934], [-60.55615521129019, 46.75676888021013], [-60.5561122275363, 46.75678899393763], [-60.55608838023555, 46.75680784261383], [-60.55603346266123, 46.75685120837978], [-60.55588003323521, 46.756946934868836], [-60.55583402837856, 46.75697564158809], [-60.55574533150534, 46.75702176822042], [-60.5557160290991, 46.75703701737966], [-60.55566292033434, 46.757081780568654], [-60.55551658032167, 46.7571614497242], [-60.55547326685945, 46.75719057380542], [-60.555384223600136, 46.75725041720725], [-60.55534798807631, 46.757268973948754], [-60.555331941166294, 46.757277198621416], [-60.5552890195135, 46.75730605201843], [-60.55526576256656, 46.75732168227004], [-60.55517219842957, 46.757392579429954], [-60.55511950884969, 46.75742835168518], [-60.55508565500402, 46.757443467393195], [-60.555040654411556, 46.75746356460449], [-60.554967009343635, 46.7575193720144], [-60.55494708973318, 46.75753446156837], [-60.554941741259874, 46.75753719111851], [-60.55489480721694, 46.75756123378121], [-60.55470963253928, 46.75766242680456], [-60.554684000076634, 46.75767643121333], [-60.55457445598257, 46.75773494471668], [-60.554551146487356, 46.757747387826406], [-60.554419513630464, 46.757791371464094], [-60.55437768551881, 46.75780385955474], [-60.55430135700437, 46.757826643472605], [-60.55423365500566, 46.75785123174122], [-60.55415624728736, 46.75787933827173], [-60.554007014393136, 46.75794962900477], [-60.55393144102922, 46.75798522631456], [-60.55377414913224, 46.75804665973832], [-60.55369488578449, 46.75809086262526], [-60.55363611047169, 46.75811610944799], [-60.55350925180666, 46.75817058873797], [-60.55347706273009, 46.758188538467515], [-60.55342998806349, 46.75821479143285], [-60.5532571667746, 46.75833109575782], [-60.55320577243727, 46.7583656888871], [-60.55315024294714, 46.7584294153629], [-60.55311184232442, 46.758473475057386], [-60.553100847604405, 46.75848954719123], [-60.553044525113634, 46.758571930904104], [-60.55300414181396, 46.758625064780354], [-60.55297624772287, 46.7586467691106], [-60.55291183999378, 46.758696887059116], [-60.552870641465056, 46.75876801172609], [-60.55279557332814, 46.75887942306423], [-60.55274990293012, 46.758947212135254], [-60.55273856191989, 46.758983930998205], [-60.552722280764314, 46.759036617513864], [-60.55265496210939, 46.75913507309564], [-60.55256038681907, 46.75931485111924], [-60.55247925649622, 46.75945800024811], [-60.55243409071355, 46.759516944342366], [-60.552424974322115, 46.75952883577369], [-60.55233194145025, 46.759645640133314], [-60.552314378264896, 46.75965926771582], [-60.5522518597355, 46.759707823783096], [-60.55210454319487, 46.759895463339966], [-60.552010413269834, 46.76006534182569], [-60.55194349944788, 46.760154806005765], [-60.55192450338423, 46.76022200470821], [-60.55191542703176, 46.76025410114426], [-60.55188853184712, 46.76029852367625], [-60.55187327228414, 46.76032372903437], [-60.55186163661704, 46.76034294620075], [-60.55178113231502, 46.760414129111304], [-60.55175543219718, 46.7604324692402], [-60.55168883924522, 46.76048594158267], [-60.55160994738737, 46.76052067435324], [-60.55156991374188, 46.76053829362634], [-60.55151720519909, 46.76057407281112], [-60.55143185535192, 46.76061721686746], [-60.55141133519712, 46.760627595135716], [-60.551328336142696, 46.76068301094998], [-60.551292494670406, 46.7607069476255], [-60.55114699833848, 46.7607965288472], [-60.55105342231858, 46.76086743137188], [-60.55094766434367, 46.76094705461676], [-60.5509331757101, 46.7609604418315], [-60.55084106263018, 46.76104556793635], [-60.55073916220575, 46.76111808287914], [-60.5506164075203, 46.7612054415218], [-60.55048280917487, 46.761321384643054], [-60.55047338968564, 46.76133156849456], [-60.55041670670472, 46.761392866023115], [-60.5502831928993, 46.76153580063431], [-60.55025988439144, 46.76155451563686], [-60.55021659711949, 46.761589272056554], [-60.550146310748616, 46.76164153043609], [-60.550109514249975, 46.76166888414573], [-60.55001682206864, 46.76174968635303], [-60.55001117097933, 46.76175762898], [-60.550004218307464, 46.76176741565085], [-60.54997015056824, 46.761796681692026], [-60.54996333685282, 46.761802538495296], [-60.54985721120035, 46.76191906036588], [-60.549824906143975, 46.761943531317904], [-60.54976363193282, 46.761989952762434]]}, "properties": {"OBJECTID": 170896, "FEAT_CODE": "WARV20", "FEAT_DESC": "Double Line River - Water to the right line", "RIVNAME_1": "Black Brook", "RIVNAME_2": " ", "ZVALUE": 9999, "FID": null, "SHAPE_Length": 909.6825968079733}}, {"type": "Feature", "id": 170897, "geometry": {"type": "LineString", "coordinates": [[-60.561727797633566, 46.752310027857625], [-60.56171242378336, 46.752323703560435], [-60.56168823916132, 46.75234518311287], [-60.561462763259925, 46.75249606091629], [-60.561343404858384, 46.752558322506935], [-60.5612067198789, 46.75259744542136], [-60.561159031591295, 46.75261108898442], [-60.56109348998798, 46.75263995721264], [-60.56104014559878, 46.75266345172295], [-60.560921689013774, 46.752734722749345], [-60.56082986127491, 46.75277765468651], [-60.56075047382098, 46.75281475910257], [-60.56068389885259, 46.7528682460851], [-60.56067541398531, 46.75287578681999], [-60.5606443392921, 46.75290340095552], [-60.560632809750246, 46.75291863444495], [-60.56059003400938, 46.75297513985662], [-60.56056316282318, 46.753019564962734], [-60.56053835689862, 46.753059138304955], [-60.56052363970228, 46.75308261946637], [-60.56045632945199, 46.75318108885525], [-60.56033631421438, 46.75328741564238], [-60.56024281332872, 46.753386217209176], [-60.56016324619811, 46.75346641668051], [-60.56012237770381, 46.753501543446994], [-60.5600796597996, 46.75351818147556], [-60.5600304101287, 46.75353738003899], [-60.55999411124652, 46.753555981900604], [-60.55997813358131, 46.75356416370483], [-60.55992468196526, 46.753599858924495], [-60.55989847580813, 46.75361736212533], [-60.55986555677915, 46.75363070826332], [-60.55983311760222, 46.75364386663719], [-60.55979265483307, 46.75367000229767], [-60.55963204610789, 46.75376500468219], [-60.55956798033503, 46.753802894169326], [-60.55938182609915, 46.75398162379767], [-60.55932538091514, 46.75403835002289], [-60.55927484795164, 46.75408912762541], [-60.55915601952838, 46.75416850656348], [-60.55891668366757, 46.75436498173856], [-60.55880784746103, 46.7544379318384], [-60.5586655233727, 46.754533314124544], [-60.558620921141724, 46.75456844165315], [-60.55858540247141, 46.754596410350665], [-60.55847918549088, 46.75465803149748], [-60.55843998885055, 46.754685093670396], [-60.55836870140011, 46.75474713636031], [-60.558307772842035, 46.75480016651461], [-60.55818688289918, 46.75492538061504], [-60.55812079902085, 46.75499685787143], [-60.558053405968195, 46.755068325137316], [-60.55801182621383, 46.75510116805139], [-60.557974645864185, 46.75513054102342], [-60.5579468159015, 46.755166845358836], [-60.55787991857422, 46.755256304392404], [-60.557786449960055, 46.7553542136646], [-60.5577370720936, 46.75541761474795], [-60.557612683277924, 46.755577294152566], [-60.55747920317404, 46.755720237930504], [-60.557360340438066, 46.75580049622966], [-60.55733604876893, 46.7558303512389], [-60.55726605727281, 46.755916377961995]]}, "properties": {"OBJECTID": 170897, "FEAT_CODE": "WARV20", "FEAT_DESC": "Double Line River - Water to the right line", "RIVNAME_1": "Black Brook", "RIVNAME_2": " ", "ZVALUE": 9999, "FID": null, "SHAPE_Length": 534.6163796409749}}, {"type": "Feature", "id": 179088, "geometry": {"type": "LineString", "coordinates": [[-60.56521831048937, 46.75856353871644], [-60.56517906093549, 46.758563603151856], [-60.565168045482, 46.758563944633735], [-60.56495739621739, 46.75857058371895], [-60.56475113004802, 46.758551162797254], [-60.564747452871565, 46.75855081451551], [-60.56461776031656, 46.75852285410823], [-60.56450023463983, 46.75848615299585], [-60.56426198595722, 46.758393639087046], [-60.5642402738019, 46.75838522102911], [-60.56416790178894, 46.75836186465498], [-60.56395373006262, 46.758292721930744], [-60.563823946706734, 46.75823775977536], [-60.563580747733745, 46.75814849586215], [-60.56344650483627, 46.7580992250454], [-60.563368687952256, 46.758053469069324], [-60.563329713472925, 46.75801754018069], [-60.56325270792451, 46.757953802135], [-60.56319789637731, 46.75788953792488], [-60.563137029290054, 46.75781814295255], [-60.56300919752483, 46.75769122434291], [-60.56284121624305, 46.75755445043907], [-60.562775973068646, 46.757490962700054], [-60.562747490812086, 46.757455563172265], [-60.56272513383481, 46.75742778186147], [-60.56262327315825, 46.75724741840143], [-60.56257329542579, 46.75719040260386], [-60.56255975758727, 46.75717496771174], [-60.56251841706945, 46.75713636022242], [-60.562481851567064, 46.757102210305355], [-60.56243190050839, 46.757069278045456], [-60.56230127482506, 46.75698316643777], [-60.562275128461366, 46.756969433705564], [-60.56219766098774, 46.75692876016147], [-60.562036062951556, 46.75686507217428], [-60.56196349839307, 46.75683647249726], [-60.56163808526857, 46.75673503931955], [-60.561590078710104, 46.75672084039327], [-60.56154633738242, 46.75670788433389], [-60.56120758157508, 46.75664127305659], [-60.561144454666135, 46.75662698552666], [-60.56112849775456, 46.75662337840446], [-60.56106242645531, 46.756602377311125], [-60.56089483473767, 46.756549098470686], [-60.56083298862311, 46.756539220906035], [-60.56077782498263, 46.75653041278395], [-60.560554809562944, 46.75651034806695], [-60.56037153673697, 46.7565091389081], [-60.56031047044531, 46.75650867331816], [-60.56024062030614, 46.75650814632188], [-60.55996655668333, 46.756487900494555], [-60.55979631691863, 46.75645906956724], [-60.559719480968255, 46.756458393209854], [-60.55965233153252, 46.756457797479975], [-60.55936596024794, 46.75645579087196], [-60.55933815579954, 46.7564555935408], [-60.55928913480095, 46.756446186805704], [-60.55909019524854, 46.756408003733284], [-60.55902530752795, 46.75639763729415], [-60.55897318690173, 46.756389307226065], [-60.558909594303266, 46.75638882296862], [-60.55890773541611, 46.75638881029378], [-60.55889814032745, 46.756385257641305], [-60.55888197733704, 46.75637926090153], [-60.55877674307987, 46.75636081548632], [-60.55864624649566, 46.75635083039224], [-60.55849038522791, 46.75632230442449], [-60.558398782620046, 46.75632124896474], [-60.558347797083044, 46.756311565896745], [-60.55825465487237, 46.75629387311628], [-60.55808442843693, 46.756258407182436], [-60.55807175407635, 46.756255769678816], [-60.557967422163344, 46.75624634242316], [-60.55787612413257, 46.75620929448088], [-60.55777292281178, 46.75614589333748], [-60.557752303167334, 46.75613999926762], [-60.557708284570786, 46.75612741379879], [-60.55766835671558, 46.75611065883457], [-60.5576427446321, 46.75609991532685], [-60.557580433810635, 46.75607021786318], [-60.557526095888605, 46.756044326481074], [-60.55743475786066, 46.75600817729348], [-60.55735661825196, 46.755998408865274], [-60.55726605727281, 46.755916377961995]]}, "properties": {"OBJECTID": 179088, "FEAT_CODE": "WARV50", "FEAT_DESC": "River - Single Line", "RIVNAME_1": " ", "RIVNAME_2": " ", "ZVALUE": 9999, "FID": null, "SHAPE_Length": 713.4270024957921}}, {"type": "Feature", "id": 179745, "geometry": {"type": "LineString", "coordinates": [[-60.543327153024, 46.75950747907404], [-60.54332764351036, 46.75952548889565], [-60.543353494862096, 46.759562042726394], [-60.54335857902482, 46.7595847230328], [-60.5433654603939, 46.759615397625005], [-60.54337780703054, 46.75966066102875], [-60.54345488526009, 46.7597514219956], [-60.543486118791314, 46.759778767762306], [-60.54350650874888, 46.75979661999647], [-60.54352773519571, 46.75981738807738], [-60.543544121832376, 46.75983342639298], [-60.543830431945615, 46.759988078240525], [-60.543877071755766, 46.7600210645297], [-60.5439078260642, 46.76004282910966], [-60.54393376263153, 46.76006859406367], [-60.54397172821073, 46.760106298850715], [-60.54405036166865, 46.76013408630761], [-60.544127333955565, 46.76019783660965], [-60.544161800751944, 46.76021946484309], [-60.544243200524235, 46.76027052163992], [-60.54439887623355, 46.76038905945183], [-60.54454957977238, 46.76050262149822], [-60.544567280902484, 46.76051596999237], [-60.54458100680591, 46.76052688423736], [-60.54468231667288, 46.76060753598189], [-60.54472099376313, 46.76064746970061], [-60.544734841220915, 46.76066176140158], [-60.5448499746114, 46.76077942827335], [-60.54486014767238, 46.76080570060435], [-60.54487458851972, 46.760842954109556], [-60.54492410363317, 46.76105012673177], [-60.544937760244935, 46.76107985769361], [-60.54494912679719, 46.76110465269343], [-60.54496862622544, 46.76116718676003], [-60.544974273257594, 46.76118528025276], [-60.544999704354595, 46.76123083331704], [-60.545011562050824, 46.76125807775451], [-60.54505052634373, 46.76129401268088], [-60.54506843113867, 46.7613109563228], [-60.54508944982519, 46.761330846681695], [-60.54514100637986, 46.76134905256938], [-60.54525807640021, 46.76139476345869], [-60.54540087430963, 46.761423027090075], [-60.545441000016574, 46.76142937799109], [-60.54551918347823, 46.761441765383935], [-60.54560142595515, 46.76146310447083], [-60.545662868369604, 46.761479047361156], [-60.5457401702203, 46.76150680506824], [-60.5459015371006, 46.76159592609767], [-60.54592159504978, 46.76160699404031], [-60.54600626618998, 46.761639742488995], [-60.54606445064955, 46.76166225699509], [-60.54612958260194, 46.76169875297113], [-60.546285196602874, 46.76179028792701], [-60.546349920434615, 46.76183577465963], [-60.54646620191885, 46.76189946666441], [-60.54656280680949, 46.76195782267474], [-60.54664848855614, 46.76200957255949], [-60.5467067438857, 46.762059951136855], [-60.546816073756965, 46.76215446142971], [-60.54684089160344, 46.7621726150202], [-60.54685409906482, 46.76218227591764], [-60.54689243429292, 46.76220240234903], [-60.5469577067521, 46.76223669594934], [-60.54698700362188, 46.762253118642995], [-60.54702284000593, 46.76227319143787], [-60.54704880446673, 46.762298974267644], [-60.54708674841765, 46.76233665953517], [-60.547137667479845, 46.762386241580835], [-60.5471519522457, 46.76240015537645], [-60.54716678203519, 46.76241417985442], [-60.54719089103987, 46.76243698897838], [-60.54723282466075, 46.76253620928138], [-60.547278400299824, 46.7626440573233]]}, "properties": {"OBJECTID": 179745, "FEAT_CODE": "WARV50", "FEAT_DESC": "River - Single Line", "RIVNAME_1": " ", "RIVNAME_2": " ", "ZVALUE": 9999, "FID": null, "SHAPE_Length": 482.18562209713224}}, {"type": "Feature", "id": 179746, "geometry": {"type": "LineString", "coordinates": [[-60.55343245095287, 46.76628481732505], [-60.553432858263754, 46.76627582640716], [-60.55349945690017, 46.766222353200924], [-60.55351308651397, 46.76620684138142], [-60.553593359624145, 46.76611546617801], [-60.55365905672507, 46.76605297396505], [-60.55369948596429, 46.76599894092146], [-60.55371193836074, 46.765992934508645], [-60.553721967490084, 46.76598809121657], [-60.553753045515016, 46.76597308754251], [-60.55376980111607, 46.765969810049526], [-60.553844224089104, 46.76595523839286], [-60.553897824251905, 46.76592848585164], [-60.55389796602023, 46.76591234354618], [-60.55389814472197, 46.7658924941827], [-60.5538587639903, 46.765865553044705], [-60.55383341004158, 46.76584700254869], [-60.553834224110055, 46.765829029697045], [-60.55387340366975, 46.76580286871997], [-60.55399318089257, 46.76573163328475], [-60.55409772297682, 46.76567897115537], [-60.5542309169043, 46.765572032854635], [-60.55428443035063, 46.76551826138551], [-60.554338349616366, 46.76545552593639], [-60.554359663128814, 46.76539873501343], [-60.55437856339036, 46.76534838122016], [-60.5544071280772, 46.7652671043415], [-60.55440746811562, 46.765241084678436], [-60.554408175427, 46.765186130053806], [-60.55439488541882, 46.7651264753214], [-60.55438423498753, 46.76507852254933], [-60.55438049666554, 46.76502832366861], [-60.55437283839097, 46.76492528512996], [-60.55438746409335, 46.764862600434114], [-60.55444315741206, 46.764673899017474], [-60.554469867443, 46.76461187767234], [-60.55449730855879, 46.764548171021396], [-60.55449440459753, 46.764480989674894], [-60.55448835474914, 46.76434097903753]]}, "properties": {"OBJECTID": 179746, "FEAT_CODE": "WARV50", "FEAT_DESC": "River - Single Line", "RIVNAME_1": " ", "RIVNAME_2": " ", "ZVALUE": 9999, "FID": null, "SHAPE_Length": 251.41174793082658}}, {"type": "Feature", "id": 181009, "geometry": {"type": "LineString", "coordinates": [[-60.55571979067048, 46.76954208821437], [-60.55572130093775, 46.76946879154233], [-60.55572201661955, 46.76943504024229], [-60.55572208405155, 46.76941589948021], [-60.555722261466926, 46.76937204809707], [-60.55572333946862, 46.76933463269216], [-60.55572460261215, 46.76929110149816], [-60.55568711893541, 46.76916430570736], [-60.55568731241435, 46.76914180177816], [-60.55568775770015, 46.76909232235203], [-60.55569509756331, 46.76907861078373], [-60.5557020638354, 46.769065629200526], [-60.555742900401015, 46.769002604535494], [-60.55578890338429, 46.768952469727985], [-60.5558489874121, 46.76888697645026], [-60.55592237450602, 46.76880739500238], [-60.55595642316947, 46.768770477123105], [-60.555969726664216, 46.768707764008376], [-60.55595819458637, 46.76864452020823], [-60.555951873109805, 46.76862705185066], [-60.55594538797816, 46.7686091480136], [-60.55579807542862, 46.76844222492717], [-60.55575352232578, 46.76839175689991], [-60.555728078522336, 46.76834621503488], [-60.55571490586483, 46.76831893465399], [-60.55571484675071, 46.768300853140495], [-60.55571481824214, 46.7682919339011], [-60.55575593278335, 46.76819381662132], [-60.55575715363704, 46.76816684382986], [-60.55575924474106, 46.76800489522911], [-60.55575124526689, 46.76798746299709], [-60.555734208053785, 46.76795036243521], [-60.55555543038602, 46.767733250649734], [-60.55551507809038, 46.76769908062949], [-60.55549109870806, 46.76767877796056], [-60.555456690359385, 46.7676585493824], [-60.555413275301184, 46.767633016506956], [-60.55532155314868, 46.76760495718998], [-60.55520411511753, 46.76759524735308], [-60.5548120919102, 46.76754636900104], [-60.55435537960468, 46.76747990680221], [-60.554250532769395, 46.76745246595199], [-60.55418389663755, 46.767424330155386], [-60.55405518791783, 46.767369991959065], [-60.55399094498398, 46.76734251920164], [-60.553975524544356, 46.767328743985026], [-60.55393933361435, 46.76729641732308], [-60.55387491738392, 46.76721494302013], [-60.55385757570285, 46.76718604332073], [-60.553837164751506, 46.767152038184996], [-60.55378615413058, 46.767034852012635], [-60.55378466360869, 46.7670162898981], [-60.553775266069344, 46.7668996247085], [-60.55377875875599, 46.76675052154847], [-60.553779472812685, 46.76671972208829], [-60.553740773480435, 46.76661989848645], [-60.5537197493776, 46.766578617511186], [-60.553690257441296, 46.76652072209832], [-60.55360044720702, 46.766421605202844], [-60.55343245095287, 46.76628481732505]]}, "properties": {"OBJECTID": 181009, "FEAT_CODE": "WARV50", "FEAT_DESC": "River - Single Line", "RIVNAME_1": " ", "RIVNAME_2": " ", "ZVALUE": 9999, "FID": null, "SHAPE_Length": 475.4873136155204}}, {"type": "Feature", "id": 181010, "geometry": {"type": "LineString", "coordinates": [[-60.550140931072704, 46.77035959277719], [-60.55014045144473, 46.77034158325123], [-60.55014081856949, 46.77033349145079], [-60.550154675846045, 46.77028789016143], [-60.55018279817056, 46.77025987368938], [-60.550261677902824, 46.770181286475584], [-60.55032942332875, 46.770073841929154], [-60.55035256343696, 46.77000550837735], [-60.55035664793876, 46.769993428359555], [-60.55037042001573, 46.76992082633707], [-60.550367901640904, 46.769904447078225], [-60.55035928951367, 46.769848581941176], [-60.550342992959834, 46.76981659022916], [-60.55030877655545, 46.7697494131617], [-60.550308929991154, 46.769732461150305], [-60.550309086457396, 46.76971342129029], [-60.550336408887276, 46.76966000869859], [-60.5504286925921, 46.769589088133884], [-60.55047061684798, 46.76954698577097], [-60.550482213080635, 46.76953533660765], [-60.550485881674284, 46.76952347266823], [-60.550496029054024, 46.769490634351065], [-60.55044637304776, 46.769372575761864], [-60.5504465256867, 46.76935621770786], [-60.550446695930965, 46.76933658416639], [-60.550477550555264, 46.769289609921735], [-60.55048751107499, 46.769274460870605], [-60.55054020242823, 46.76923869081452], [-60.55058027368656, 46.76922154969332], [-60.550908996124754, 46.76910709384805], [-60.551033902648896, 46.76905557253998], [-60.55108116604152, 46.76903608333792], [-60.55113021429861, 46.769007272717815], [-60.55118612511056, 46.768974433175096], [-60.551262768622465, 46.76890666893739], [-60.551266616819376, 46.76890325946804], [-60.551285170814126, 46.76887998766844], [-60.551359681801934, 46.76878645677382], [-60.551387397297496, 46.7687240527142], [-60.55140263666726, 46.768683466648326], [-60.55141421189998, 46.76865262973325], [-60.55148163085192, 46.768581176014116], [-60.551539784868204, 46.76851733560124], [-60.551587766731615, 46.768464652941475], [-60.5516515754071, 46.76842226263528], [-60.551680947595024, 46.76840275019534], [-60.551773313012255, 46.76835882917558], [-60.55193199993023, 46.76829652841327], [-60.55194635089832, 46.768288528912656], [-60.55201127998976, 46.76825232713155], [-60.552076574021214, 46.768198826838564], [-60.552129542830365, 46.76815399936138], [-60.55227677525676, 46.7680294185373], [-60.55232941752861, 46.7679666477194], [-60.55234371190196, 46.76793995472905], [-60.552384030297034, 46.767859820863556], [-60.552390968493505, 46.76782001998386], [-60.55239813917473, 46.767779135123455], [-60.552413637309684, 46.76769756114744], [-60.55241463076486, 46.76763605194312], [-60.55241510842589, 46.767607596337996], [-60.5524233745443, 46.76754080698466], [-60.55242955257719, 46.76749090124995], [-60.552457265713876, 46.76742850587301], [-60.55252378071731, 46.76734803256087], [-60.552555453002036, 46.76731907450404], [-60.55266998096447, 46.76721436650976], [-60.55273731025651, 46.76711591123637], [-60.55280504672316, 46.76700846500462], [-60.55288895223637, 46.7668887201887], [-60.552898865988205, 46.766874577882824], [-60.5529018290456, 46.76686844053202], [-60.55299426878588, 46.76667682718788], [-60.55303084961002, 46.766616412308736], [-60.55304806408638, 46.766587981772595], [-60.553073920299695, 46.76655613625759], [-60.55312851716775, 46.76648890706424], [-60.55319548298705, 46.766427342223295], [-60.55343245095287, 46.76628481732505]]}, "properties": {"OBJECTID": 181010, "FEAT_CODE": "WARV50", "FEAT_DESC": "River - Single Line", "RIVNAME_1": " ", "RIVNAME_2": " ", "ZVALUE": 9999, "FID": null, "SHAPE_Length": 550.2621943155204}}, {"type": "Feature", "id": 181153, "geometry": {"type": "LineString", "coordinates": [[-60.540594196602775, 46.7696867242216], [-60.54052905869059, 46.769650234017725], [-60.54047149066953, 46.76962584006693], [-60.540399273416064, 46.76959524530983], [-60.54034812072841, 46.769568037373254], [-60.54020361203205, 46.769548739345474], [-60.540126288745626, 46.76952097748471], [-60.539943264682606, 46.76945584363022], [-60.53992392508755, 46.76944679702311], [-60.539788088510306, 46.76938320880949], [-60.539726530041214, 46.769344932212356], [-60.53956773781034, 46.76924617437245], [-60.53954584678709, 46.769227011226974], [-60.539516096708255, 46.769200956289055], [-60.53945170000579, 46.76911948324794], [-60.539401697451126, 46.76903831083015], [-60.539385144786046, 46.76897759419733], [-60.53937700724312, 46.76894778334338], [-60.53935251830783, 46.76891808869786], [-60.5393248770602, 46.768884564382944], [-60.53920987236837, 46.76879300279712], [-60.53905444856826, 46.76863935594015], [-60.53902990456111, 46.76860282931681], [-60.539010841115044, 46.768579686069174], [-60.53897778819276, 46.768539610490286], [-60.538957307514956, 46.768464508854336], [-60.53895309889364, 46.768449082922665], [-60.53894941271252, 46.76843081534826], [-60.53892959795675, 46.76833248198081], [-60.53893047727144, 46.76826576861715], [-60.538930668758724, 46.76825150831787], [-60.53892441932997, 46.768223096999016], [-60.53891873394866, 46.76819725371242], [-60.53889330458252, 46.76815170837237], [-60.53883906568143, 46.76811926755207], [-60.538802779017054, 46.76809756258574]]}, "properties": {"OBJECTID": 181153, "FEAT_CODE": "WARV50", "FEAT_DESC": "River - Single Line", "RIVNAME_1": " ", "RIVNAME_2": " ", "ZVALUE": 9999, "FID": null, "SHAPE_Length": 238.33330102749477}}, {"type": "Feature", "id": 281425, "geometry": {"type": "LineString", "coordinates": [[-60.562340796365525, 46.76826594673072], [-60.562305754981686, 46.768224278627656], [-60.56230226193283, 46.76822012735243], [-60.56227687961208, 46.76821430361022], [-60.56226337200909, 46.76821119884366], [-60.562250692813855, 46.768201928989406], [-60.56217245687393, 46.76816516299126], [-60.56213201082377, 46.768137032070946], [-60.56212039113147, 46.7681289547354], [-60.562044723922135, 46.767948258405426], [-60.562016784311275, 46.76788796836574], [-60.561994597651534, 46.76784008543183], [-60.561970178491, 46.76781699387124], [-60.56195565829845, 46.76780324792669], [-60.56189181617903, 46.767766797542926], [-60.56187822265807, 46.76776066702486], [-60.56185201100305, 46.76774884975798], [-60.56173458430242, 46.767739146879016], [-60.56170434703979, 46.76773352550061], [-60.56163067607148, 46.76771983248416], [-60.56138262136791, 46.76767314581583], [-60.561265538068916, 46.76762655131149], [-60.56104466535399, 46.76749944683612], [-60.5610050918, 46.76747145111132], [-60.560967269584864, 46.76744469866837], [-60.56094465242772, 46.767428701018645], [-60.56088984780288, 46.76738994989265], [-60.560722641960936, 46.76723519040934], [-60.56063836485046, 46.76715824617658], [-60.56055408797829, 46.767081301885284], [-60.56052201863654, 46.767029266042854], [-60.56050405509197, 46.7670001381059], [-60.5604523973375, 46.766954947153074], [-60.56042801040843, 46.76693754370882], [-60.56040037493676, 46.766917830063534], [-60.560375829373584, 46.76692191433299], [-60.560347589211794, 46.7669266037644], [-60.560267924637685, 46.76697980224244], [-60.560199711370615, 46.76703000506698], [-60.56012293593018, 46.767086504937296], [-60.56001656468244, 46.767122034250335], [-60.559938827857906, 46.767103276610065], [-60.55991347079581, 46.76708473640636], [-60.5597358005549, 46.76696628170633], [-60.55965409844323, 46.766911809748514], [-60.5594861339263, 46.76680293034462], [-60.55940977247997, 46.76674563828575], [-60.55929231764744, 46.76665750053565], [-60.55926137540873, 46.76663561913667], [-60.55921489870617, 46.766602750672405], [-60.55917514902071, 46.766583903168936], [-60.55901873487611, 46.76653826694585], [-60.558954490684165, 46.7665107879534], [-60.558933539132084, 46.76649041563044], [-60.55888925444575, 46.76644730723961], [-60.558801100936485, 46.7663113313377], [-60.55879430213706, 46.766303248557286], [-60.558762570477775, 46.76626551982634], [-60.55863331973233, 46.766111558327694], [-60.558568987152974, 46.76605707834289], [-60.558478037786, 46.76601194775161], [-60.55847734666895, 46.766011591013104], [-60.55833597051149, 46.76593871798354], [-60.55824616619552, 46.76590505917762], [-60.55811445430427, 46.765855692224086], [-60.557906023223765, 46.76577294541473], [-60.55765920074069, 46.76569927804065], [-60.55738539687482, 46.76564303318863], [-60.55731801133213, 46.765634664392906], [-60.55722780769231, 46.76562346832949], [-60.55679618560243, 46.76561064950232], [-60.5566928393068, 46.76559757034367], [-60.5564966686062, 46.76557275248365], [-60.556405037331395, 46.765571694852646], [-60.55629937939877, 46.76556223780035], [-60.556221181531335, 46.765551720428306], [-60.556156184107934, 46.76554296998837], [-60.55614723240228, 46.765539349863204], [-60.556064871507736, 46.76550592937196], [-60.55598664378272, 46.76546915927933], [-60.55592321581465, 46.76542370575101], [-60.555779577519026, 46.76532308033832], [-60.55574168464418, 46.765296531628685], [-60.55570974003648, 46.76528035160259], [-60.55565076700154, 46.765250490488135], [-60.555602642959386, 46.7652266029646], [-60.55555983498965, 46.76520534893055], [-60.55548276243703, 46.7651691161563], [-60.555481608049696, 46.765168578505396], [-60.55537883928424, 46.76509528496666], [-60.55533881072068, 46.76506268772113], [-60.555300525153434, 46.76503151365914], [-60.5552035251281, 46.76492543160859], [-60.55515951107187, 46.76487730574224], [-60.5550967237637, 46.76475986838928], [-60.55507125449143, 46.76471522576738], [-60.554962811572686, 46.76464582439145], [-60.55492868792854, 46.764623981792624], [-60.55492160266322, 46.76462079745338], [-60.55488890052355, 46.76460603194216], [-60.55481116920748, 46.76458727091074], [-60.554772730987274, 46.764568449899514], [-60.55466870367975, 46.76452302766431], [-60.55462936554145, 46.76449518773252], [-60.55448835474914, 46.76434097903753]]}, "properties": {"OBJECTID": 281425, "FEAT_CODE": "WARV50", "FEAT_DESC": "River - Single Line", "RIVNAME_1": "Doherty Brook", "RIVNAME_2": " ", "ZVALUE": 9999, "FID": null, "SHAPE_Length": 812.641402322887}}, {"type": "Feature", "id": 281426, "geometry": {"type": "LineString", "coordinates": [[-60.55448835474914, 46.76434097903753], [-60.55442443519392, 46.7642775148877], [-60.55439922166488, 46.764261370415966], [-60.55428188396645, 46.76418627042247], [-60.55412612160892, 46.764068644332326], [-60.554113457875175, 46.76405937389435], [-60.554104486424244, 46.764018602700226], [-60.554101495418664, 46.76400512028641], [-60.554037402979134, 46.76388765441887], [-60.554009237647556, 46.763847336717554], [-60.55398697558642, 46.76381547891376], [-60.55393994911627, 46.763722577964245], [-60.55387277654108, 46.76358985474483], [-60.55384732376457, 46.76354430322854], [-60.55380370844078, 46.76347527920282], [-60.553796009249446, 46.763463100028055], [-60.55377439640709, 46.763451613237194], [-60.55374485444173, 46.763435916021855], [-60.55371951431714, 46.76341737478648], [-60.55368845529432, 46.76339613733381], [-60.5536801223489, 46.76339043333233], [-60.553658060800764, 46.76337092724794], [-60.55357686639207, 46.76329913745091], [-60.55353287376181, 46.76326852468631], [-60.55352479845557, 46.7632629161804], [-60.5534470826492, 46.76324415454313], [-60.55336813238738, 46.76325235634997], [-60.55334483995489, 46.76324701629787], [-60.553329247200665, 46.76324343388231], [-60.553312414647095, 46.76323917696993], [-60.55329040316371, 46.763233603318554], [-60.553198327985186, 46.76324243320749], [-60.55313218086582, 46.76322646573359], [-60.55312059924657, 46.763223671071074], [-60.553090573217276, 46.76321346210631], [-60.5528213739535, 46.76312187319996], [-60.552690703125336, 46.76305787981362], [-60.552561722222286, 46.762984922802545], [-60.55245810727812, 46.76293050772084], [-60.5523537184045, 46.76289317528912], [-60.55230996924223, 46.762875418738616], [-60.552262413350114, 46.762856122764006], [-60.55215166612148, 46.76279495803378], [-60.55208098533212, 46.76275594384993], [-60.55201521764948, 46.76272844631402], [-60.551976148812834, 46.762728501089335], [-60.551898507489376, 46.7627367298953], [-60.551746614695034, 46.76275901067654], [-60.55172711564008, 46.76276186916233], [-60.55171318133406, 46.76276562072941], [-60.55166215032722, 46.76277936877662], [-60.551635680927255, 46.76277911716017], [-60.5515836072798, 46.76277859643027], [-60.55153938393161, 46.76279615300279], [-60.551516925550665, 46.76280506785482], [-60.55150136607817, 46.762812312463105], [-60.55147812743464, 46.76282312752658], [-60.551454544326894, 46.76283836303188], [-60.5514376532772, 46.7628492689761], [-60.5514038819978, 46.762872575028176], [-60.551398447094975, 46.76287632852024], [-60.551345664051304, 46.76288509811846], [-60.551305370967846, 46.76287922269424], [-60.55128061256101, 46.762875605764], [-60.55119328096194, 46.76284856404917], [-60.55107138846489, 46.76281082869041], [-60.55096749385043, 46.76279150484292], [-60.550875728422376, 46.76276434094837], [-60.55066864215242, 46.76268160963843], [-60.55060124723472, 46.762667197909295], [-60.55053763933267, 46.76265360521219], [-60.550525036706276, 46.762644740664534], [-60.550472897841985, 46.76260812049021], [-60.55046864120338, 46.76259830972149], [-60.55046105058982, 46.762580867856386], [-60.55044869782366, 46.762535596122405], [-60.550410136354046, 46.762490681044866], [-60.550410079387554, 46.762472878543825], [-60.55041003819317, 46.76246368003305], [-60.550405653992954, 46.76244368794084], [-60.55039810592941, 46.762409426661556], [-60.55038493731743, 46.76238214571934], [-60.55021786211767, 46.76225437234763], [-60.550114573862686, 46.762163963574764], [-60.55005028604708, 46.76214429928446], [-60.550022863810355, 46.76213590021146], [-60.55000353171799, 46.76211746883796], [-60.54998520390223, 46.76209999493557], [-60.549956136431724, 46.762094953467745], [-60.5499319156566, 46.7620907537842], [-60.54978294759894, 46.76200152610161], [-60.54976363193282, 46.761989952762434]]}, "properties": {"OBJECTID": 281426, "FEAT_CODE": "WARV50", "FEAT_DESC": "River - Single Line", "RIVNAME_1": "Doherty Brook", "RIVNAME_2": " ", "ZVALUE": 9999, "FID": null, "SHAPE_Length": 499.3970253758122}}]}