{"type": "FeatureCollection", "features": [{"type": "Feature", "id": 33827, "geometry": {"type": "LineString", "coordinates": [[-60.40253632230822, 46.79103554301713], [-60.402646998155475, 46.79097609372783], [-60.40266814268306, 46.790964748339604], [-60.402695186589305, 46.790947354145565], [-60.402718644514906, 46.79094756285137], [-60.40276067471897, 46.79094794130265], [-60.40275938710704, 46.79100191004167], [-60.40271969801809, 46.791037007426446], [-60.402681011288564, 46.79106271391223], [-60.40267908946692, 46.79106398422094], [-60.40267251098213, 46.7910661747442], [-60.402653787599476, 46.7910724093083]]}, "properties": {"OBJECTID": 33827, "FEAT_CODE": "WALK20", "FEAT_DESC": "Lake - Water to the right line", "RIVNAME_1": " ", "RIVNAME_2": " ", "ZVALUE": 221.3, "FID": null, "SHAPE_Length": 38.01010270515297}}, {"type": "Feature", "id": 33828, "geometry": {"type": "LineString", "coordinates": [[-60.402653787599476, 46.7910724093083], [-60.40263541446114, 46.79108062274925], [-60.402613611766775, 46.79109039624319], [-60.40257391153789, 46.791098503335185], [-60.40252194546302, 46.791089214496715], [-60.40251887000412, 46.79108695773463], [-60.40250928925519, 46.79107992740946], [-60.40250927873972, 46.79105292818161], [-60.40251192944299, 46.79105121544595], [-60.40253632230822, 46.79103554301713]]}, "properties": {"OBJECTID": 33828, "FEAT_CODE": "WALK20", "FEAT_DESC": "Lake - Water to the right line", "RIVNAME_1": " ", "RIVNAME_2": " ", "ZVALUE": 221.3, "FID": null, "SHAPE_Length": 18.1690889552228}}, {"type": "Feature", "id": 33898, "geometry": {"type": "LineString", "coordinates": [[-60.401225075366355, 46.790428878657146], [-60.401330272226744, 46.790448368198646], [-60.40133259277661, 46.79045051784459], [-60.401369159446006, 46.79048434142212], [-60.40140003363824, 46.790523453452934], [-60.401419805159435, 46.79054850774077], [-60.401536400075294, 46.79063034473403], [-60.4015549146024, 46.7906409619785], [-60.40160014293181, 46.79066689156285], [-60.40170409801462, 46.79071245157205], [-60.40185997314753, 46.790795189562935], [-60.401894476613855, 46.790811461755965], [-60.40193812777073, 46.79083205457681], [-60.401939608937816, 46.790834221142106], [-60.4019626169662, 46.79086771853884], [-60.40196349297789, 46.790876738100934]]}, "properties": {"OBJECTID": 33898, "FEAT_CODE": "WALK20", "FEAT_DESC": "Lake - Water to the right line", "RIVNAME_1": " ", "RIVNAME_2": " ", "ZVALUE": 220.3, "FID": null, "SHAPE_Length": 77.57291131741617}}, {"type": "Feature", "id": 33899, "geometry": {"type": "LineString", "coordinates": [[-60.40196349297789, 46.790876738100934], [-60.40196301680672, 46.790886626914556], [-60.401936418679625, 46.79089503139844], [-60.401831661320756, 46.790920541721015], [-60.401680085783234, 46.7909433324289], [-60.401660076242116, 46.790946342731594], [-60.40165441957542, 46.79094490027447], [-60.4016212423056, 46.79093646084609], [-60.40161266707575, 46.79093685101201], [-60.401608096965866, 46.79093706217614], [-60.40155617713985, 46.79089988399035], [-60.40155660004808, 46.79086389494353], [-60.40153167773948, 46.79083722971735], [-60.401492590773415, 46.79080947770657], [-60.40136272404849, 46.79078119312227], [-60.40132340407361, 46.79075420073047], [-60.40129032286496, 46.79072173428507], [-60.40128586932095, 46.79071734925645], [-60.40123905793576, 46.790642947386345], [-60.401234749655124, 46.7906360907486], [-60.40122250701748, 46.79056381526496], [-60.401223106960394, 46.790525787315815], [-60.401223786253226, 46.7904828473527], [-60.40122422661839, 46.79046418305497], [-60.401225075366355, 46.790428878657146]]}, "properties": {"OBJECTID": 33899, "FEAT_CODE": "WALK20", "FEAT_DESC": "Lake - Water to the right line", "RIVNAME_1": " ", "RIVNAME_2": " ", "ZVALUE": 220.3, "FID": null, "SHAPE_Length": 99.52914427731187}}, {"type": "Feature", "id": 33900, "geometry": {"type": "LineString", "coordinates": [[-60.39336928935276, 46.78967863447802], [-60.39352600474257, 46.78968940569512], [-60.39356396445461, 46.7896893977818], [-60.39356531388016, 46.78968940153428]]}, "properties": {"OBJECTID": 33900, "FEAT_CODE": "WALK20", "FEAT_DESC": "Lake - Water to the right line", "RIVNAME_1": " ", "RIVNAME_2": " ", "ZVALUE": 180.2, "FID": null, "SHAPE_Length": 15.028304249197886}}, {"type": "Feature", "id": 33901, "geometry": {"type": "LineString", "coordinates": [[-60.39356531388016, 46.78968940153428], [-60.39356809782789, 46.78969144490355], [-60.393577981278334, 46.789698689874236], [-60.393576671477824, 46.78975265803781], [-60.39353077705184, 46.78981900168316], [-60.39349637752654, 46.789868723891466], [-60.3934825374092, 46.789904596152844], [-60.393440957637864, 46.79001235556672], [-60.39341478034325, 46.79001175899238], [-60.39338484437207, 46.7899753210688], [-60.393362817795996, 46.78994847704832], [-60.39336088260339, 46.78994134120587], [-60.39335057872622, 46.789903199772645], [-60.393356836629806, 46.789876730373], [-60.39336538549163, 46.789840539544514], [-60.39337978453572, 46.789786860690946], [-60.39336799243349, 46.78973260293347], [-60.393364471135364, 46.78972249705099], [-60.39335533219109, 46.789696315726964], [-60.39336542365422, 46.789683523194405], [-60.39336928935276, 46.78967863447802]]}, "properties": {"OBJECTID": 33901, "FEAT_CODE": "WALK20", "FEAT_DESC": "Lake - Water to the right line", "RIVNAME_1": " ", "RIVNAME_2": " ", "ZVALUE": 180.2, "FID": null, "SHAPE_Length": 79.028125736319}}, {"type": "Feature", "id": 33903, "geometry": {"type": "LineString", "coordinates": [[-60.39285891088805, 46.78961120371458], [-60.39286157211498, 46.78961280331999], [-60.39287290425876, 46.789619622391506], [-60.39287203550369, 46.789637601926714], [-60.39288052787028, 46.78966902435852], [-60.392884274118856, 46.78968287924621], [-60.392883411525965, 46.78972784892906], [-60.392896084109346, 46.789764145469505], [-60.39288572381284, 46.78978331259812], [-60.392881679304764, 46.78979081612596], [-60.392855464400945, 46.78981811753936], [-60.39284237580672, 46.78981781918692], [-60.39282373418021, 46.78982370301929], [-60.392815763794644, 46.78982622123425], [-60.3928056535199, 46.78981879103365], [-60.3928031100253, 46.789816924120665], [-60.39275373213919, 46.789841447585424], [-60.39274940901002, 46.78984359895392], [-60.392723666217165, 46.78983401245684], [-60.39271481627276, 46.78982815892165], [-60.3927109685872, 46.78982562329974], [-60.392685654596185, 46.789780047893196], [-60.3926634722523, 46.789744776494885], [-60.392634548878334, 46.78969878580729], [-60.39262785290375, 46.78968876052378], [-60.39262231650156, 46.78968049861059], [-60.392640883883224, 46.789661779590325], [-60.39264850066387, 46.78965410551582], [-60.392651262824494, 46.7896522605538], [-60.39271483694517, 46.789609719425854], [-60.39276343528871, 46.789596985773464], [-60.39278120497207, 46.78959233302863], [-60.39278485616328, 46.78958998634843], [-60.39279472790089, 46.78958364161985]]}, "properties": {"OBJECTID": 33903, "FEAT_CODE": "WALK20", "FEAT_DESC": "Lake - Water to the right line", "RIVNAME_1": " ", "RIVNAME_2": " ", "ZVALUE": 178.8, "FID": null, "SHAPE_Length": 72.74454637385695}}, {"type": "Feature", "id": 121582, "geometry": {"type": "LineString", "coordinates": [[-60.408644295219226, 46.79923598255271], [-60.40870303073353, 46.79923630529199], [-60.40874910993699, 46.79923655726287], [-60.40877573694697, 46.79925516879797], [-60.40877274081845, 46.799345088420196], [-60.40876137422711, 46.7993814594851], [-60.40875878636902, 46.799389770531384], [-60.40875013674449, 46.799398502226], [-60.40873261766432, 46.7994161766245], [-60.408699456379296, 46.799427187883914], [-60.40867935986681, 46.79943386030693], [-60.4086784303994, 46.799433839249154], [-60.40866625568555, 46.79943356342125]]}, "properties": {"OBJECTID": 121582, "FEAT_CODE": "WALK20", "FEAT_DESC": "Lake - Water to the right line", "RIVNAME_1": "Halfway Brook", "RIVNAME_2": " ", "ZVALUE": 178.5, "FID": null, "SHAPE_Length": 35.05168002858913}}, {"type": "Feature", "id": 121583, "geometry": {"type": "LineString", "coordinates": [[-60.40866625568555, 46.79943356342125], [-60.40861794893694, 46.79944175661895], [-60.40861472490921, 46.79944230455026], [-60.4085605896986, 46.79947797659769], [-60.408521705128706, 46.799468995907226], [-60.40849681870793, 46.79944143310047], [-60.408489040262474, 46.79941266497374], [-60.40848457813855, 46.799396157511744], [-60.408524299782925, 46.799333159981444], [-60.40855220913229, 46.7992978027228], [-60.408576869867446, 46.79928123512104], [-60.408644295219226, 46.79923598255271]]}, "properties": {"OBJECTID": 121583, "FEAT_CODE": "WALK20", "FEAT_DESC": "Lake - Water to the right line", "RIVNAME_1": "Halfway Brook", "RIVNAME_2": " ", "ZVALUE": 178.5, "FID": null, "SHAPE_Length": 43.57285240332102}}, {"type": "Feature", "id": 159788, "geometry": {"type": "LineString", "coordinates": [[-60.403283958123076, 46.79679160194967], [-60.40327460412737, 46.79678473883904], [-60.40327130048397, 46.796782314925636], [-60.403265373244714, 46.79678021843313], [-60.40324424342172, 46.79677270098431], [-60.40319227135971, 46.796763421336664], [-60.40312038386495, 46.79675433747132], [-60.40311411855101, 46.79675354724481], [-60.403109519931725, 46.7967535238318], [-60.40300929584745, 46.796752967169866], [-60.402904110230345, 46.7967604694487], [-60.40286825512632, 46.79676048326955], [-60.40282548094337, 46.79676049296106], [-60.4027871620067, 46.79676323170349], [-60.40272028176993, 46.79676800376258], [-60.4025125569251, 46.79680370400154], [-60.402470535995704, 46.79681093039118], [-60.40244218778415, 46.796813436472654], [-60.40219547491967, 46.79683528218824], [-60.40187984347453, 46.796885710726414], [-60.40156460121084, 46.79692804754474], [-60.401433620374036, 46.79695387072543], [-60.40130660789099, 46.796965051481855], [-60.40115724916238, 46.79697819025989], [-60.401065451098546, 46.79698769596988], [-60.40100052032046, 46.7969944282465], [-60.40079051052113, 46.797001355533766], [-60.400556602421396, 46.797010358201376], [-60.40042290889506, 46.797015500360494], [-60.40029278077085, 46.7970233423024], [-60.400016855195325, 46.797038669552315], [-60.39999969456881, 46.797040979357696], [-60.39996400378865, 46.79704736775976], [-60.39983259268152, 46.7970551800128], [-60.39962257843958, 46.79708910402315], [-60.399188609346645, 46.79714763423634], [-60.39895282576227, 46.79719986132611], [-60.39882140066164, 46.79720768109855], [-60.39849323118293, 46.79726254896792], [-60.39846601597548, 46.79726709575699], [-60.398435235189886, 46.797273838351884], [-60.39826867010995, 46.79731030508373], [-60.39817655987267, 46.797318109438066], [-60.397900627386534, 46.79736043039564], [-60.39784167940345, 46.797359665279096], [-60.39780895112913, 46.79735923567018], [-60.39772933032554, 46.797345022660295], [-60.39770500754937, 46.797340680417065], [-60.397640379239, 46.79732211063107], [-60.39752653857581, 46.7972691223335], [-60.39752246255667, 46.79726722965826], [-60.39741986427694, 46.797220796817044], [-60.39735435311071, 46.79716620814891], [-60.397306001466, 46.797124276449594], [-60.39718706073836, 46.79702110665924], [-60.39708445554431, 46.79694767438178], [-60.396980505838876, 46.79690211035215], [-60.396889256217875, 46.796864934962784], [-60.39683872763711, 46.79685807918335], [-60.396746043352564, 46.796845476092464], [-60.3966936386145, 46.796845183295964], [-60.396602397166276, 46.79683499783794], [-60.39657166206028, 46.79682205871786], [-60.396536894270184, 46.796807416857945], [-60.39651064974629, 46.7967807204626], [-60.396447807217164, 46.79669829307026], [-60.39643526073042, 46.796687270881485], [-60.39639626308839, 46.796653021433556], [-60.396356941516146, 46.79662602732277], [-60.396292314548425, 46.79660745679929], [-60.39624033088513, 46.79659817372087], [-60.395926417663766, 46.79655862834748], [-60.3957908314431, 46.79653404111621], [-60.395665313038045, 46.79651128490584], [-60.3956430881418, 46.79650801595115], [-60.39560025243358, 46.79650170377496], [-60.39553614161093, 46.79648982232231], [-60.39549504615438, 46.796482208784546], [-60.39542804136543, 46.796474626206376], [-60.39532561100755, 46.7964630509752], [-60.39521492081179, 46.79645671433931], [-60.39514265166401, 46.79645258456889], [-60.395059875853136, 46.79645164433281], [-60.394985482132704, 46.79645080494916], [-60.394854045825305, 46.796458610899755], [-60.39449867535585, 46.796518013544144], [-60.39418430508739, 46.79656934953134], [-60.39411881043726, 46.796568757327336], [-60.39392828145232, 46.79656605421439], [-60.39390927969443, 46.79656578325092], [-60.393903425064806, 46.79656653181853], [-60.39384335073726, 46.79657418065314], [-60.393788653588835, 46.7965885217339], [-60.39377698742871, 46.79659156778004], [-60.393527242093135, 46.796661473863956], [-60.393406993354326, 46.79669565011244], [-60.3933425376433, 46.796713962427454], [-60.39333063809562, 46.79671749809045], [-60.39322422273545, 46.79674906452288], [-60.393078410660564, 46.796810538751096], [-60.393042351433266, 46.79682507928635], [-60.3930129213964, 46.79683694501657], [-60.39288111114823, 46.79687984785041], [-60.3928363404068, 46.796892965794775], [-60.39276147390464, 46.796914910326294], [-60.392695301789885, 46.796923445518836], [-60.39263092384376, 46.79693173358455], [-60.39247759832877, 46.79695477821309], [-60.39245932879541, 46.79695752058867], [-60.3924462025129, 46.79695850828792], [-60.392250166971536, 46.7969734511699], [-60.392078615094064, 46.79699833862108], [-60.391912785979144, 46.79704092364606], [-60.39177606977167, 46.79707603662808], [-60.391660155689905, 46.79709966328991], [-60.391605335149634, 46.79711084163247], [-60.39144772929683, 46.79711804686009], [-60.391439372871815, 46.79711795527335], [-60.39129057125618, 46.79711626242373], [-60.39118229855232, 46.797109779029], [-60.3911206880136, 46.797106087820744], [-60.39100015944974, 46.79709505886236], [-60.39079318137488, 46.79707611790747], [-60.39074278194649, 46.79707554413978], [-60.39071462164387, 46.797075234705595], [-60.39056171518465, 46.79706873143942], [-60.39043999918948, 46.79706356057696], [-60.390368196263445, 46.797070912992254], [-60.39028194537585, 46.79707975363669], [-60.3900723738268, 46.79710467054533], [-60.3899708576819, 46.797124034210206], [-60.38975625237613, 46.7971649540638], [-60.38968410181371, 46.797177589916714], [-60.38941525857969, 46.79722466901232], [-60.389382328064286, 46.79723329503143], [-60.389348893143826, 46.797242053522545], [-60.389301038043804, 46.7972579525755], [-60.3892702981579, 46.79726815850699], [-60.389138454061836, 46.79731194722429], [-60.38886120995827, 46.79738121540909], [-60.38868400262893, 46.79742351799738], [-60.38857218424238, 46.79745020492678], [-60.38842767046455, 46.79748471289038], [-60.388309334501905, 46.7974928104401], [-60.3880997574173, 46.797490724624645], [-60.387994991088, 46.79748922309726], [-60.3878644348918, 46.797479050789676], [-60.38781353978181, 46.797481128309926], [-60.38768059025559, 46.79748655154336], [-60.38732651227901, 46.797518962441416], [-60.38729272426095, 46.79751876660229], [-60.38727410712244, 46.797518665315756], [-60.387242052129274, 46.79752137994161], [-60.38718199531569, 46.797526460773895], [-60.38698550863389, 46.79752467195149], [-60.38684186262967, 46.7975141904278], [-60.38666077012448, 46.797495986386586], [-60.386644938057756, 46.79749439169098], [-60.38661814442342, 46.79749129557994], [-60.3863048034969, 46.79745512071545], [-60.38614806747274, 46.79744433918792], [-60.38597819758688, 46.797434157243025], [-60.3858311537451, 46.79742267882524], [-60.3857170877808, 46.79741378092572], [-60.38545558516827, 46.79740151272747], [-60.38539974744957, 46.79740119927362], [-60.38535077517894, 46.797400916742184], [-60.38531058726007, 46.79739189833917], [-60.385296804149874, 46.797393995159965], [-60.385259099561566, 46.797399711959024], [-60.38521863712416, 46.79742366201221], [-60.38513902156427, 46.79747077303978], [-60.38508661816658, 46.79749747393874], [-60.38503338506243, 46.79751425621531], [-60.38500754581788, 46.79751850727178], [-60.3849805572469, 46.79752294803691], [-60.38495552672873, 46.79752295173169], [-60.38494122943479, 46.79752294883182], [-60.38477141628156, 46.79751186642338], [-60.38474549717023, 46.79751614259345], [-60.3847185622506, 46.797520557524514], [-60.384612881739756, 46.79756493927203], [-60.38456095746913, 46.797581751257326], [-60.384426999561306, 46.79763147098636], [-60.38432341540238, 46.797669906630894], [-60.3841120949907, 46.79773078027242], [-60.38408398174514, 46.79773435813508], [-60.3840461502274, 46.7977391716652], [-60.383978688524344, 46.79774317248757], [-60.38391473634382, 46.797746956553354], [-60.38387546507435, 46.79774605830877], [-60.383692503959644, 46.79773558253011], [-60.38357510860621, 46.797731286159255], [-60.38336544851681, 46.797723600970365], [-60.38313642458886, 46.79770959558381], [-60.38301267520734, 46.79770202137488], [-60.38261970062904, 46.797671439032996], [-60.382597255365376, 46.79766812649827], [-60.38255464126965, 46.797661850499594], [-60.38242411691911, 46.7976507637356], [-60.382254260415245, 46.79764057655935], [-60.382057337406714, 46.797620769946796], [-60.38199302484398, 46.79762009885403], [-60.381913256046715, 46.79761927192278], [-60.38178566071449, 46.7976218229676], [-60.38159843262489, 46.79762556462143], [-60.38144126075049, 46.79765076531349], [-60.38138224046412, 46.79767011329723], [-60.38133604438535, 46.79768525503232], [-60.381071892616774, 46.79775480409171], [-60.38084835149226, 46.7977973835526], [-60.38080990916119, 46.797806402866996], [-60.38061298559736, 46.797813592745406], [-60.38059554426223, 46.79781842211542], [-60.38051999943401, 46.79783936213967], [-60.38030661836575, 46.797881579253044], [-60.38021830722043, 46.79789904979325], [-60.38015857574561, 46.7979082022358], [-60.3799423590713, 46.79794133605499], [-60.37975852582788, 46.797948815326855], [-60.37974662535904, 46.79794748973736], [-60.37966728542638, 46.797938634363426], [-60.379561602799605, 46.79792900441285], [-60.37949576762269, 46.79791623748015], [-60.379366862476495, 46.79789124384059], [-60.37906648376689, 46.79784295357317], [-60.378713262685075, 46.79780336910618], [-60.37849142524354, 46.79778388531511], [-60.37837356817941, 46.79778208392199], [-60.37828482187966, 46.797781804654235], [-60.37828184818033, 46.79778178148959], [-60.37827906646729, 46.797781852722196], [-60.37801942899825, 46.79778836555734], [-60.37795235214948, 46.797787403829176], [-60.37791466233124, 46.797786863777624], [-60.37779632459206, 46.79779495040149]]}, "properties": {"OBJECTID": 159788, "FEAT_CODE": "WARV10", "FEAT_DESC": "Double Line River - Water to the left line", "RIVNAME_1": "Halfway Brook", "RIVNAME_2": " ", "ZVALUE": 9999, "FID": null, "SHAPE_Length": 2030.2018251295265}}, {"type": "Feature", "id": 169778, "geometry": {"type": "LineString", "coordinates": [[-60.40334730047112, 46.796864137278426], [-60.40333356927608, 46.796868712357224], [-60.40332199594206, 46.79687256245349], [-60.403306361873554, 46.7968761043664], [-60.40328224867313, 46.79688155969406], [-60.40325606784288, 46.79688096530439], [-60.40323114261005, 46.79688096639355], [-60.40321675332258, 46.79688097269166], [-60.403195342900126, 46.796887722316804], [-60.40319013972472, 46.79688936811686], [-60.403150825199255, 46.79688937548133], [-60.40310918307018, 46.79688900599733], [-60.403085329843854, 46.796888788403514], [-60.40290154467278, 46.7968954150277], [-60.4027902065392, 46.79689787268798], [-60.402599815887164, 46.79690206292067], [-60.402456610925356, 46.79690961036207], [-60.40227148358805, 46.796944104424725], [-60.401904323041805, 46.79700325331406], [-60.40170617171411, 46.79703007090106], [-60.401653699147154, 46.79703716755718], [-60.401643337748524, 46.79703843511546], [-60.401523194435946, 46.79705310203559], [-60.40130897208314, 46.79707239009728], [-60.401155978969065, 46.797086157272346], [-60.40114290161673, 46.79708586013153], [-60.400927010767525, 46.79710359762398], [-60.40074818271636, 46.79711828912644], [-60.400420748327036, 46.79711444747524], [-60.40026491838653, 46.79711338054571], [-60.40025044261865, 46.79711327650882], [-60.40023749802837, 46.797114575221165], [-60.40000156010605, 46.79713821805568], [-60.400000251061684, 46.79713818829869], [-60.39996228877645, 46.797137325339556], [-60.399725620798044, 46.79715354429149], [-60.39962655532779, 46.797165637522085], [-60.399595115327685, 46.79716947655197], [-60.399451046790105, 46.79718648623269], [-60.39938423795984, 46.797194380844964], [-60.39916066876873, 46.79723789542721], [-60.39874023052709, 46.79731473093381], [-60.398385286946194, 46.797392154688154], [-60.39821455516009, 46.79742696962506], [-60.39800414016632, 46.79744198226899], [-60.397914842178174, 46.79743603591598], [-60.39786046137455, 46.797432413825845], [-60.39767709979725, 46.7974030430591], [-60.39759741110128, 46.79738208766945], [-60.39753475262212, 46.79736560556535], [-60.39740462080687, 46.79731944619188], [-60.397291474410196, 46.79725967871567], [-60.397196321046856, 46.797209419238065], [-60.39712028715772, 46.79712848296805], [-60.397030764604956, 46.7970283493917], [-60.39696525406759, 46.7969737605116], [-60.39691415064664, 46.79694649845826], [-60.3968827570394, 46.79693851224698], [-60.396875312940864, 46.79693662389068], [-60.396796714731906, 46.796935725996185], [-60.39671726708673, 46.79692581805538], [-60.39662684940283, 46.796898561015645], [-60.39662071100678, 46.796894056462754], [-60.3966142060076, 46.79688927357534], [-60.396585851923305, 46.79687451672593], [-60.39656178072464, 46.79686198127578], [-60.39647325195739, 46.79679884947221], [-60.396471833134704, 46.79679783621313], [-60.39639497606642, 46.796733989064464], [-60.396317251357644, 46.796688121429405], [-60.39630372719001, 46.79668242276733], [-60.39625174922349, 46.796660531302145], [-60.39614307178723, 46.79664126387896], [-60.39609452840389, 46.79663265303185], [-60.39592568436753, 46.796609108738814], [-60.39588626878693, 46.79660361251018], [-60.39587537920509, 46.796602518608886], [-60.39578192413364, 46.79659313706151], [-60.39563662271449, 46.79658683174268], [-60.3955190571352, 46.79658175179562], [-60.3954623374159, 46.79657339547816], [-60.39545400956605, 46.796572170878534], [-60.395154496434735, 46.796532951295184], [-60.39512448587573, 46.79653107086695], [-60.39499640835946, 46.79652305107838], [-60.39488877258225, 46.796529716203935], [-60.394879428082966, 46.796530277338064], [-60.39457640465374, 46.796590881505814], [-60.39441924111985, 46.79661610022366], [-60.39434723369974, 46.79662526841019], [-60.39428738276234, 46.796632904568085], [-60.39416903663959, 46.796640998950494], [-60.39414943419131, 46.79664719409657], [-60.39414243493332, 46.796649392542434], [-60.394089418985644, 46.796657958289906], [-60.393932432239225, 46.79668330636196], [-60.39382773673054, 46.79670830679216], [-60.39378792411289, 46.796717812224905], [-60.39369413681292, 46.796745958980054], [-60.393642981451165, 46.79676130766316], [-60.393444765162315, 46.79682248814952], [-60.39331378109281, 46.796848301956345], [-60.393183178034356, 46.796883312949774], [-60.39302301954903, 46.79692627181694], [-60.39287979570216, 46.79696292072576], [-60.3928518516384, 46.796970068465676], [-60.39264228150417, 46.796994990117426], [-60.39231927773389, 46.797068407326975], [-60.39230042244793, 46.79707269326377], [-60.39187910242771, 46.79714048377819], [-60.39165271436883, 46.7971714368751], [-60.39151236484594, 46.79719061828305], [-60.391394029857445, 46.79719871904786], [-60.3913192373378, 46.79719797617969], [-60.39118445355457, 46.797196638906776], [-60.39112618669259, 46.79719588585978], [-60.391092777519454, 46.7971954477949], [-60.391015945721705, 46.79718809746009], [-60.39088274878511, 46.79717535745935], [-60.39072641684308, 46.797156491736814], [-60.39066414400325, 46.79715592605487], [-60.39059542636537, 46.79715530330296], [-60.39049066008527, 46.797153813063595], [-60.39025399002328, 46.79717001235244], [-60.39008416762503, 46.7971859366128], [-60.38992656552491, 46.79722013881107], [-60.389715253215144, 46.79728101398539], [-60.38964888779842, 46.797298398670115], [-60.38950481055269, 46.79732390929634], [-60.389413668555164, 46.79735094296324], [-60.38938647887094, 46.79735900704128], [-60.38935335486462, 46.797370004546195], [-60.38933320364949, 46.79737669032276], [-60.38912276401555, 46.79744658398315], [-60.38883286394494, 46.79750656353953], [-60.38860976454509, 46.797540168594495], [-60.38855482606808, 46.79754807590565], [-60.38849099325228, 46.79755725605441], [-60.38835769933001, 46.797566542067], [-60.38815042781324, 46.79758097837012], [-60.38783560460885, 46.79758728826094], [-60.38755139109831, 46.79760611299422], [-60.38748194834693, 46.79761070961164], [-60.387350521578504, 46.7976185071557], [-60.387232228751145, 46.79762570460985], [-60.38717982349323, 46.79762540743889], [-60.38716709045278, 46.797625305556664], [-60.38681303028349, 46.79762242759885], [-60.386669819594076, 46.79760295614346], [-60.386539261491336, 46.79756577429252], [-60.386343251593644, 46.7975270966456], [-60.38622578609012, 46.79751722160453], [-60.38602929997965, 46.7975154221506], [-60.385872563851976, 46.79750464024311], [-60.385728918177094, 46.79749415732665], [-60.38553179364056, 46.797483360761184], [-60.3854010032883, 46.797473162285044], [-60.385395210807516, 46.79747316486577], [-60.38536168859669, 46.79747316352454], [-60.38526957840592, 46.79750795646594], [-60.385203238336324, 46.79753748869587], [-60.38515035908849, 46.797561028863434], [-60.38507144615386, 46.797578502018794], [-60.385032473133066, 46.79758713263344], [-60.384926821652904, 46.79760361638026], [-60.38479540774847, 46.79761141127969], [-60.384742566713044, 46.79762010268921], [-60.38467749534491, 46.797637514079206], [-60.38458539754144, 46.7976723067533], [-60.38446575305968, 46.79770736939032], [-60.38434789826338, 46.79775957218947], [-60.38427157880929, 46.79778489781106], [-60.384241343880205, 46.7977949339467], [-60.384084159497895, 46.797820137986534], [-60.383994063722824, 46.79783038889491], [-60.38393921855103, 46.79783662218532], [-60.383847934241814, 46.797827334524925], [-60.3838217533577, 46.79782673568064], [-60.38350823690564, 46.797806064551146], [-60.383193455299214, 46.79778446364873], [-60.38281531649602, 46.797745203745464], [-60.38265727105688, 46.79773439646633], [-60.38255333338304, 46.797742817541284], [-60.38254391701737, 46.79774269204812], [-60.382461656907125, 46.79774161949455], [-60.38210833257677, 46.79774651950535], [-60.38209447115051, 46.79774671521862], [-60.382069690574866, 46.7977453470536], [-60.381898407447814, 46.79773592766536], [-60.381828766961284, 46.79773513452258], [-60.381741262012696, 46.797734121384224], [-60.38158359643476, 46.797742220608896], [-60.38156075237127, 46.79774415454445], [-60.381399370779086, 46.797757802232944], [-60.381096763327314, 46.7978363705439], [-60.38087322187946, 46.79787895004643], [-60.38072913939352, 46.79790444949734], [-60.3805587938808, 46.79794830958588], [-60.38049159017742, 46.79796560676282], [-60.380346635280866, 46.797982077087724], [-60.379952392422815, 46.798031553536795], [-60.379717025312594, 46.798047760858616], [-60.379599167140285, 46.798045969706], [-60.379299617193844, 46.79798059968], [-60.37894596005356, 46.79792299761529], [-60.37873812938833, 46.79788494498868], [-60.378581394513404, 46.79787414410556], [-60.37846163980806, 46.79786851045214], [-60.37835781088162, 46.79786361969958], [-60.37833163009483, 46.79786301959911], [-60.37826700654232, 46.79787143794248], [-60.37825964444431, 46.79787218715345], [-60.37818798353579, 46.79787952617475], [-60.37812161394524, 46.79789690407723], [-60.37808903376625, 46.79790771279571], [-60.37806833471616, 46.7979145820231], [-60.3780372394922, 46.797930428581594], [-60.37801592751583, 46.79794127960013], [-60.377982449216525, 46.79795924043275], [-60.37794999286008, 46.79797666670425], [-60.377945496517114, 46.79797965951101], [-60.37787009368726, 46.79802973295746], [-60.37783291188399, 46.798066994120305], [-60.37779019234813, 46.79810979810077], [-60.37776226336247, 46.7981451564512], [-60.37769631314276, 46.79820754204757], [-60.37762951860458, 46.79823391858684], [-60.377590954960766, 46.79824945879546], [-60.377564020833965, 46.79826030682035], [-60.37755093035258, 46.79826000667815]]}, "properties": {"OBJECTID": 169778, "FEAT_CODE": "WARV20", "FEAT_DESC": "Double Line River - Water to the right line", "RIVNAME_1": "Halfway Brook", "RIVNAME_2": " ", "ZVALUE": 9999, "FID": null, "SHAPE_Length": 2067.5916042483423}}, {"type": "Feature", "id": 170598, "geometry": {"type": "LineString", "coordinates": [[-60.403283958123076, 46.79679160194967], [-60.40328352537071, 46.79680059178032], [-60.40331113548125, 46.79682811858269], [-60.40334730047112, 46.796864137278426]]}, "properties": {"OBJECTID": 170598, "FEAT_CODE": "WARV20", "FEAT_DESC": "Double Line River - Water to the right line", "RIVNAME_1": "Halfway Brook", "RIVNAME_2": " ", "ZVALUE": 9999, "FID": null, "SHAPE_Length": 9.580210032293515}}, {"type": "Feature", "id": 180062, "geometry": {"type": "LineString", "coordinates": [[-60.40165498257203, 46.80604224674009], [-60.401641903044265, 46.806041949613146], [-60.401498092261505, 46.80603463273225], [-60.40141830941697, 46.80603057026546], [-60.40109164398716, 46.80600964883116], [-60.40071299844638, 46.80597944553795], [-60.40055491164025, 46.80596865316749], [-60.400547188127135, 46.80596791066098], [-60.40034618004637, 46.80594860983595], [-60.40012390953715, 46.80593725802511], [-60.400000080420995, 46.8059227437459], [-60.3999662392908, 46.80591837462691], [-60.39993353002984, 46.80591472420022], [-60.39987498139781, 46.805908200464096], [-60.3993915318728, 46.805849511310875], [-60.39925064272953, 46.80583598527357], [-60.39918278816871, 46.80582946557551], [-60.39888104427209, 46.80580820452583], [-60.398736896307035, 46.805807626232706], [-60.398569548393205, 46.80580081432663], [-60.39843602831487, 46.805795383573226], [-60.397990188479746, 46.805799641472476], [-60.397846959432414, 46.80580718264267], [-60.39763643788634, 46.805823992184564], [-60.39755740594219, 46.80583208462749], [-60.39746614829719, 46.80582191754392], [-60.39738724416212, 46.805806721691475], [-60.3972700566105, 46.805784156895406], [-60.397210152160056, 46.80577151717876], [-60.3971792334491, 46.80576499082244], [-60.39693030228069, 46.80576292570993], [-60.39683924400285, 46.805777142706035], [-60.39682465093411, 46.80577942047813], [-60.396760020282215, 46.805787849130134], [-60.39666007189262, 46.80580268261434], [-60.39647090728114, 46.80583076668156], [-60.39639187475234, 46.80583886730496], [-60.396194495708706, 46.805882072329766], [-60.396144882034456, 46.80589274141586], [-60.39611502898688, 46.80589916252485], [-60.396041832850436, 46.80589849512293], [-60.3959840168942, 46.80589797983651], [-60.39575276282575, 46.80587916127678], [-60.39572290445898, 46.80587673550888], [-60.395408900737465, 46.805865094754445], [-60.39535032901092, 46.805864759929335], [-60.395304074234005, 46.80586449857074], [-60.395253962907084, 46.80585724663869], [-60.395237693235686, 46.80585488720715], [-60.395223655322134, 46.80584865475117], [-60.39517353341745, 46.805826427129055], [-60.395148136373884, 46.805808704413934], [-60.395121548169364, 46.805790135597526], [-60.394942439694184, 46.80559077305973], [-60.39487735557261, 46.80552719313324], [-60.39480092908271, 46.80548135412167], [-60.39464372700284, 46.805452574417586], [-60.3945393352452, 46.805442996783825], [-60.394537375790634, 46.80544313214193], [-60.39443411824994, 46.80545049958778], [-60.39438170520765, 46.80545020556417], [-60.39436386573794, 46.80544507435347], [-60.39431706895449, 46.80543162476131], [-60.39429005368744, 46.80541756384378], [-60.39426464941531, 46.80540434058962], [-60.39418645985917, 46.805394459593785], [-60.393924081409594, 46.80531431559834], [-60.39391266372512, 46.80531082457629], [-60.393809141317625, 46.80528326678381], [-60.39379742935774, 46.80527908507159], [-60.39362618442761, 46.80521790023671], [-60.39345758565556, 46.805153769563226], [-60.393413891978064, 46.80514120928308], [-60.39339295009424, 46.80513518825069], [-60.39331171630634, 46.805116984599856], [-60.3932230790059, 46.8050971182178], [-60.39310491362931, 46.8050712599797], [-60.393053177801235, 46.80505994720998], [-60.3928968602825, 46.80501318595612], [-60.39288375491059, 46.80501288723648], [-60.39279246396053, 46.804976616668334], [-60.39270207896396, 46.8049484483639], [-60.392650735548756, 46.80494095120831], [-60.39257062995138, 46.8049292434949], [-60.392408424063774, 46.804878504484776], [-60.39236275667445, 46.804864215869735], [-60.39194614301067, 46.804752121008825], [-60.391851009197644, 46.80472730861101], [-60.39180247127997, 46.804714655248816], [-60.39173126466586, 46.80469890203503], [-60.39150291195129, 46.804648417243904], [-60.39137674554927, 46.804609172253315], [-60.3912937323324, 46.80458334887265], [-60.39119225068399, 46.80455023746052], [-60.39112470397418, 46.80452819559131], [-60.391056008227714, 46.80450064668509], [-60.390917691278304, 46.80444517665085], [-60.390848981722876, 46.80440653973367], [-60.390787557348844, 46.80437201081275], [-60.390683207694345, 46.8043345316867], [-60.390650477394864, 46.804325118339904], [-60.39061857369134, 46.804315957832266], [-60.390448241882744, 46.80428777276285], [-60.39035517753036, 46.8042730409404], [-60.39008274742137, 46.80422993530015], [-60.38980807182273, 46.80419125959192], [-60.389730345834046, 46.8041723954638], [-60.389648326756436, 46.804157744138784], [-60.38957440314233, 46.80414453746713], [-60.3894823645576, 46.80411187403627], [-60.38941721743478, 46.804088751963626], [-60.38924862784349, 46.804024606255055], [-60.3892111368474, 46.80400172834376], [-60.389158241965504, 46.80396945415464], [-60.38913190335487, 46.80394443687767], [-60.38911941121291, 46.80393256017052], [-60.38910457187141, 46.803912044213924], [-60.38909360234037, 46.803896872388755], [-60.38907938858744, 46.80387128590512], [-60.389068285343015, 46.803851296210766], [-60.38906560086483, 46.80383635850525], [-60.38905694388198, 46.8037880397454], [-60.38905860086806, 46.803727554902984], [-60.38905866818771, 46.8037250815351], [-60.389100548216724, 46.80361804169718], [-60.38909594080663, 46.80360844188987], [-60.38908745235027, 46.80359075279787], [-60.38908788800523, 46.80358175408965], [-60.3890752313343, 46.803572465521256], [-60.38897040569828, 46.80354487357253], [-60.38892949527417, 46.80352657932751], [-60.38886649420955, 46.80349840312397], [-60.38859312549169, 46.803405765390416], [-60.38833284955405, 46.80331342595591], [-60.38829816311767, 46.803296794541005], [-60.3882559965197, 46.803276572442584], [-60.38812672674081, 46.803185423968046], [-60.38797127387286, 46.803093677408675], [-60.38793465574155, 46.80307661478322], [-60.387814907148154, 46.80302080903893], [-60.387426268126305, 46.80281843997467], [-60.387275572069036, 46.80276787553715], [-60.387152874966716, 46.80272669817707], [-60.3871397833017, 46.80272639910991], [-60.387062496393284, 46.802698534529995], [-60.38699742760524, 46.80266194937055], [-60.38684110703866, 46.80258818074549], [-60.38676425564386, 46.80255133525647], [-60.38665986972329, 46.802514733566426], [-60.386542391042084, 46.802477859618556], [-60.38649591047318, 46.802448781627824], [-60.38643935504408, 46.802413407636756], [-60.38632228975411, 46.80234637606006], [-60.38623149539097, 46.802294362160644], [-60.38606291326561, 46.80220321291084], [-60.38601754135311, 46.802170740190356], [-60.385960314088706, 46.802129770817956], [-60.38592995603151, 46.802103094987174], [-60.38585723393765, 46.802039218290936]]}, "properties": {"OBJECTID": 180062, "FEAT_CODE": "WARV50", "FEAT_DESC": "River - Single Line", "RIVNAME_1": " ", "RIVNAME_2": " ", "ZVALUE": 9999, "FID": null, "SHAPE_Length": 1365.128301291487}}, {"type": "Feature", "id": 180838, "geometry": {"type": "LineString", "coordinates": [[-60.3950817040458, 46.80194818645256], [-60.39504147996138, 46.80194795432945], [-60.3949768720808, 46.8019475898235], [-60.39491578679627, 46.80193860284789], [-60.39484672461216, 46.80192843519084], [-60.39479108473655, 46.80191470336463], [-60.394730173084994, 46.80189968147735], [-60.39462491327836, 46.80188108447356], [-60.394455895911804, 46.801852935296516], [-60.394277041967406, 46.801829277593484], [-60.39401176813061, 46.80179421901252], [-60.39376248083839, 46.80177413952561], [-60.39374937624402, 46.801773840920774], [-60.39367005713523, 46.8017665617126], [-60.39352761079327, 46.801753506073176], [-60.393317524873424, 46.80173340097436], [-60.39325244539021, 46.801723818098736], [-60.392808342176814, 46.80166599765386], [-60.39276613637761, 46.8016617597088], [-60.39270400157828, 46.80165551951809], [-60.39254768103555, 46.80160875766806], [-60.3923122905694, 46.80157099250668], [-60.39202540414451, 46.8015140533799], [-60.391790057974426, 46.801475388184365], [-60.3914896077815, 46.801455036991264], [-60.391097470029074, 46.80140649469099], [-60.39084947348506, 46.801385529314615], [-60.39033222476658, 46.80138907321342], [-60.39027261303408, 46.80138947701315], [-60.390245428984905, 46.8013900717107], [-60.39001023315863, 46.80139518959787], [-60.3898457016035, 46.80139385592711], [-60.38982683654407, 46.8013937044043], [-60.3898001621392, 46.80140299529409], [-60.389340836586804, 46.801442910209644], [-60.38916678543643, 46.80146820425034], [-60.38905178544709, 46.80148491041003], [-60.38885441715099, 46.80152810299695], [-60.38867670741569, 46.801571294082045], [-60.38849898431462, 46.801614484586025], [-60.38843075789002, 46.80163743286246], [-60.38839374699548, 46.80164988028229], [-60.38834134099568, 46.80167658260597], [-60.38832955782416, 46.80167985041699], [-60.38824835108104, 46.80170236719931], [-60.38806407326911, 46.80174584833742], [-60.38805278256923, 46.801747606424186], [-60.38795842748435, 46.80176233502798], [-60.38774927216668, 46.80177825755935], [-60.387552769936605, 46.80177646940017], [-60.38750971576254, 46.80177622398153], [-60.387447951775314, 46.80177586617599], [-60.387212594628984, 46.80173720029446], [-60.386911763835975, 46.80169792908787], [-60.386872429475545, 46.80168853476468], [-60.386795160730735, 46.801670066052104], [-60.38659909227624, 46.80163228753455], [-60.38644190619147, 46.801603496851875], [-60.3862704885017, 46.80156710901224], [-60.38609035338756, 46.8015288747549], [-60.38588075934929, 46.801499776552255], [-60.38571135611266, 46.80147970529262], [-60.385613838331494, 46.80151100903817], [-60.38532927163764, 46.80160236645606]]}, "properties": {"OBJECTID": 180838, "FEAT_CODE": "WARV50", "FEAT_DESC": "River - Single Line", "RIVNAME_1": " ", "RIVNAME_2": " ", "ZVALUE": 9999, "FID": null, "SHAPE_Length": 765.7486690106447}}, {"type": "Feature", "id": 180915, "geometry": {"type": "LineString", "coordinates": [[-60.39591428222664, 46.79072926152145], [-60.39586278700231, 46.79068309973646], [-60.39582433773291, 46.79063812593553], [-60.39580294113291, 46.79060200008022], [-60.39574921842396, 46.7905113201721], [-60.39572161150676, 46.790485771498304], [-60.39571033544946, 46.79047533612271], [-60.39561997130341, 46.79039318148247], [-60.39549233053554, 46.79030285219517], [-60.39547805123436, 46.790292744392566], [-60.39546494709708, 46.79028353631662], [-60.39538807176095, 46.7902295066256], [-60.39531202296946, 46.79018251544563], [-60.39528372566763, 46.79016503264282], [-60.395247379061225, 46.79014654754997], [-60.395192935560914, 46.79011886662735], [-60.39513609547072, 46.790094145985286], [-60.39502481572164, 46.790045740251145], [-60.39493500342731, 46.79000348415568], [-60.39490822627332, 46.78999088670348], [-60.39489860856644, 46.78998301792488], [-60.39483008468111, 46.789927009153246], [-60.39475924046357, 46.7898379187055], [-60.39472877834868, 46.78979960621952], [-60.394668909137884, 46.78974238154], [-60.39454842007347, 46.78962720401099], [-60.39450995997943, 46.78958222050986]]}, "properties": {"OBJECTID": 180915, "FEAT_CODE": "WARV50", "FEAT_DESC": "River - Single Line", "RIVNAME_1": " ", "RIVNAME_2": " ", "ZVALUE": 9999, "FID": null, "SHAPE_Length": 169.4496093220871}}, {"type": "Feature", "id": 180917, "geometry": {"type": "LineString", "coordinates": [[-60.39450995997943, 46.78958222050986], [-60.39441831584313, 46.78960804076301], [-60.39427850467266, 46.78964309521482], [-60.39424721586876, 46.78965094106326], [-60.39423600208305, 46.78965279150584], [-60.394088707196744, 46.78967702861841], [-60.39390626852802, 46.789683662393735], [-60.39356688754847, 46.78968937439824], [-60.39356531388016, 46.78968940153428]]}, "properties": {"OBJECTID": 180917, "FEAT_CODE": "WARV50", "FEAT_DESC": "River - Single Line", "RIVNAME_1": " ", "RIVNAME_2": " ", "ZVALUE": 9999, "FID": null, "SHAPE_Length": 73.91287497475386}}, {"type": "Feature", "id": 180918, "geometry": {"type": "LineString", "coordinates": [[-60.40253632230822, 46.79103554301713], [-60.40245927466744, 46.79097158757065], [-60.40244548765226, 46.790962382790674], [-60.402406623357045, 46.79095340044945], [-60.40235508983868, 46.79093513069468], [-60.402263856646705, 46.790924958913685], [-60.402223884349944, 46.79091857924647], [-60.40214552625044, 46.79090607189656], [-60.40210073277645, 46.79090158060603], [-60.40204120420287, 46.79089560264441], [-60.40200723160469, 46.7908873522551], [-60.40196349297789, 46.790876738100934]]}, "properties": {"OBJECTID": 180918, "FEAT_CODE": "WARV50", "FEAT_DESC": "River - Single Line", "RIVNAME_1": " ", "RIVNAME_2": " ", "ZVALUE": 9999, "FID": null, "SHAPE_Length": 48.93437880913949}}, {"type": "Feature", "id": 181048, "geometry": {"type": "LineString", "coordinates": [[-60.39336928935276, 46.78967863447802], [-60.39335662912062, 46.78964234727159], [-60.39335706341764, 46.789633357500534], [-60.393342451465415, 46.78962363783269], [-60.393330403059835, 46.7896156415266], [-60.39330422595985, 46.78961504493082], [-60.39330022111985, 46.78961413468711], [-60.393265350323524, 46.789606077212085], [-60.39323383922505, 46.78960143517611], [-60.39320029891476, 46.7895964858917], [-60.39304314372103, 46.78956770486406], [-60.393000590836934, 46.789567319920195], [-60.39297765760982, 46.78956711217719], [-60.39295370086302, 46.78957507079841], [-60.392899088704446, 46.78959322024625], [-60.39287515607823, 46.78960393329964], [-60.39285891088805, 46.78961120371458]]}, "properties": {"OBJECTID": 181048, "FEAT_CODE": "WARV50", "FEAT_DESC": "River - Single Line", "RIVNAME_1": " ", "RIVNAME_2": " ", "ZVALUE": 9999, "FID": null, "SHAPE_Length": 45.9407206762799}}, {"type": "Feature", "id": 181254, "geometry": {"type": "LineString", "coordinates": [[-60.40387341543148, 46.796796883255894], [-60.40383068119592, 46.79680504791825], [-60.40378083032419, 46.79681458996705], [-60.40369403305711, 46.79681360070582], [-60.40362364629109, 46.79681281290704], [-60.403283958123076, 46.79679160194967]]}, "properties": {"OBJECTID": 181254, "FEAT_CODE": "WARV50", "FEAT_DESC": "River - Single Line", "RIVNAME_1": " ", "RIVNAME_2": " ", "ZVALUE": 9999, "FID": null, "SHAPE_Length": 45.38275950080677}}, {"type": "Feature", "id": 181255, "geometry": {"type": "LineString", "coordinates": [[-60.405519727686304, 46.79638065671184], [-60.40545335621818, 46.7963710514617], [-60.40532366382508, 46.796342910392774], [-60.40524546792853, 46.796333936745974], [-60.40516645043985, 46.796342043751324], [-60.4051132243436, 46.79635883552716], [-60.40506039866827, 46.7963945446384], [-60.405059228475515, 46.79639571504369], [-60.405034230569186, 46.79642093191074], [-60.40499678213013, 46.796488668653346], [-60.40497968655838, 46.79651959958513], [-60.40495259621349, 46.796564883189276], [-60.404947477264955, 46.7965694108698], [-60.404871873082456, 46.79663594887816], [-60.40472607396571, 46.79669743823271], [-60.404646634821354, 46.79674153393197], [-60.40458158356132, 46.79675895709851], [-60.40451069443815, 46.79676915602514], [-60.40446281835599, 46.79677606128668], [-60.40432166857366, 46.79677931086904], [-60.40418731431773, 46.79678240851484], [-60.40410840442425, 46.79678145457916], [-60.40401705260049, 46.7967803441941], [-60.40396175841252, 46.79678672089285], [-60.40387341543148, 46.796796883255894]]}, "properties": {"OBJECTID": 181255, "FEAT_CODE": "WARV50", "FEAT_DESC": "River - Single Line", "RIVNAME_1": " ", "RIVNAME_2": " ", "ZVALUE": 9999, "FID": null, "SHAPE_Length": 149.2199116826827}}, {"type": "Feature", "id": 181256, "geometry": {"type": "LineString", "coordinates": [[-60.41549534818682, 46.79604402547943], [-60.415482257848275, 46.7960437296862], [-60.41537744943256, 46.79604315228014], [-60.414982757331444, 46.79607564002706], [-60.41484233099667, 46.79608216782712], [-60.41482646530472, 46.79608290718776], [-60.414616012436454, 46.79607185056158], [-60.414485901065916, 46.79607970903944], [-60.41424927083972, 46.7960950589477], [-60.41400082611635, 46.79608404225924], [-60.41376462381747, 46.796063402232186], [-60.41353013461056, 46.796061699724085], [-60.413262634077675, 46.79606712485765], [-60.41321532029581, 46.79606807973099], [-60.41267874666432, 46.7960532433161], [-60.412559969792554, 46.79604335669245], [-60.41239011075123, 46.79603321426792], [-60.41222210891783, 46.7960154999038], [-60.412194519387064, 46.796012589778286], [-60.41203269477388, 46.79597210177996], [-60.41197309058168, 46.795957181650174], [-60.41195808484309, 46.79595310725719], [-60.41186829701923, 46.79592871143622], [-60.411725078489305, 46.795882272263164]]}, "properties": {"OBJECTID": 181256, "FEAT_CODE": "WARV50", "FEAT_DESC": "River - Single Line", "RIVNAME_1": " ", "RIVNAME_2": " ", "ZVALUE": 9999, "FID": null, "SHAPE_Length": 291.64118127355925}}, {"type": "Feature", "id": 181257, "geometry": {"type": "LineString", "coordinates": [[-60.411725078489305, 46.795882272263164], [-60.41171198822893, 46.795881976039496], [-60.41168868246423, 46.79587855075399], [-60.4116469382316, 46.79587240429254], [-60.41152703893601, 46.79583976706883], [-60.411477470245046, 46.795826270746225], [-60.41145105450229, 46.795822388043725], [-60.411412407271534, 46.79581669857168], [-60.41136134038163, 46.79581612779179], [-60.41133382268755, 46.79581581998353], [-60.41131466120428, 46.79581778921341], [-60.411254806698295, 46.79582393123034], [-60.411144810971436, 46.79585308438281], [-60.4111234013028, 46.79585875554982], [-60.41108729260331, 46.79586652390983], [-60.41104395377887, 46.79587585653659], [-60.41081427107942, 46.795971975482416], [-60.41068689234106, 46.796025276744494], [-60.410638019056, 46.79604725443428], [-60.410528846127335, 46.796096377853026], [-60.41029182474165, 46.796174717283144], [-60.41014732758337, 46.796209244060336], [-60.40996954519204, 46.796252493563586], [-60.40979197456125, 46.796295693588284], [-60.40965155708559, 46.79633039312548], [-60.40947501419491, 46.79637401191873], [-60.409317425654834, 46.79640824114144], [-60.4093130044105, 46.796408617980426], [-60.40922531818547, 46.79641605446003], [-60.409157229004514, 46.79640918434887], [-60.4090296967904, 46.79639632383834], [-60.40889741143164, 46.79642212601488], [-60.408810185889244, 46.79643906724675], [-60.40880613791838, 46.79643985750694], [-60.40876538342173, 46.796453207665664], [-60.408621072478674, 46.796500462244275], [-60.40851012706501, 46.796533776186926], [-60.40847614157492, 46.796543976737546], [-60.40844471021991, 46.79655202123478], [-60.40830498645998, 46.79658779679686], [-60.408225537041595, 46.796604895784064], [-60.40808233335913, 46.79661245030299], [-60.40794262633633, 46.796605324453076], [-60.40786009898304, 46.796601114250514], [-60.40759855049044, 46.79656278770778], [-60.407454443915505, 46.79653432235949], [-60.40728500390386, 46.79648818322803], [-60.40726481764144, 46.79648392778798], [-60.40719417927161, 46.79646902502705], [-60.40710250400669, 46.7964678377788], [-60.40694442498506, 46.796484971269386], [-60.40683922667388, 46.79651947584408], [-60.406693875285924, 46.79657197820102], [-60.40647032636929, 46.796642506492816], [-60.40627346411578, 46.796675840975176], [-60.40622335259572, 46.79667528056573], [-60.40619487851415, 46.79667495883197], [-60.406128938825674, 46.79665636411337], [-60.405973009241166, 46.796601529771756], [-60.40592610944882, 46.79657315214282], [-60.405792171117504, 46.79649213233575], [-60.40561382611491, 46.796401483443994], [-60.4056105384294, 46.7963998159313], [-60.40560509799776, 46.79639849557304], [-60.405532818003486, 46.796380953646114], [-60.405519727686304, 46.79638065671184]]}, "properties": {"OBJECTID": 181257, "FEAT_CODE": "WARV50", "FEAT_DESC": "River - Single Line", "RIVNAME_1": " ", "RIVNAME_2": " ", "ZVALUE": 9999, "FID": null, "SHAPE_Length": 511.1911525717627}}, {"type": "Feature", "id": 277177, "geometry": {"type": "LineString", "coordinates": [[-60.41848906870363, 46.800876945962095], [-60.418408507129286, 46.800901334638766], [-60.41831753300212, 46.80092887210055], [-60.418230971518724, 46.800954574169076], [-60.418199210804744, 46.800963999859], [-60.41816648426493, 46.80096677100157], [-60.41810709651017, 46.800971820197], [-60.41779559537185, 46.800974381839545], [-60.41761019477634, 46.80097590188757], [-60.41758396862015, 46.80097620972866], [-60.4175734784096, 46.80097605388013], [-60.41747921931334, 46.8009747446465], [-60.417424980675115, 46.800974347967376], [-60.41736128304954, 46.800973881676576], [-60.41725603404178, 46.80098230471509], [-60.41712460189464, 46.80099013639935], [-60.41704791639566, 46.80099514541644], [-60.41688927282819, 46.80100552120299], [-60.41661417795187, 46.8010029080469], [-60.41649243541365, 46.801007906975705], [-60.416430336417626, 46.80101045515682], [-60.41629975232651, 46.80100030575946], [-60.41621457147613, 46.80099935354394], [-60.41614258070995, 46.80099855523957], [-60.41601114841551, 46.80100638564], [-60.41566969136795, 46.80102117022499], [-60.41552516742455, 46.80102870426711], [-60.415328237808325, 46.80106295280301], [-60.414947535262975, 46.801103847310834], [-60.41471171484798, 46.80110211720108], [-60.41458116038222, 46.80111896544384], [-60.41439606850118, 46.80115257998965], [-60.414319650123325, 46.80117797741102], [-60.414264220860474, 46.80119639757293], [-60.414248342237094, 46.80120065542562], [-60.41419916704115, 46.80121382615347], [-60.41412355243031, 46.80122628212601], [-60.41409348617395, 46.80123123616248], [-60.41401489358104, 46.80123035925928], [-60.41391054888225, 46.801219900408526], [-60.41359741297784, 46.801163321974435], [-60.413553384759624, 46.80115415469573], [-60.41350528202236, 46.801144139291125], [-60.41347365583541, 46.801132156554964], [-60.41331091940127, 46.801070446654805], [-60.41328551888023, 46.80106556138626], [-60.41311483260733, 46.80103271327359], [-60.412958941707736, 46.80100398840166], [-60.41289161697916, 46.801003455579334], [-60.41277551805058, 46.80100253943694], [-60.41268341617986, 46.80101035568484], [-60.41260482397273, 46.801009477819335], [-60.41250492866296, 46.80099397953542], [-60.412421398152624, 46.80098102929868], [-60.41228121963884, 46.800948519121704], [-60.41205588432443, 46.80089626273754], [-60.41159952293723, 46.80082023872549], [-60.41132441507734, 46.80079061359345], [-60.411115254011925, 46.80077957980877], [-60.41110294818208, 46.80077711435949], [-60.41102437757402, 46.800761323479406], [-60.41073552548488, 46.80069751115166], [-60.41072482691603, 46.80069514504372], [-60.41059467525927, 46.80064900031946], [-60.41038721293714, 46.80054800718187], [-60.41033443755778, 46.80052260324442], [-60.41013998880736, 46.80042900501776], [-60.4099596169666, 46.800309734238674], [-60.40985564952518, 46.80026418159091], [-60.40971712076691, 46.800229590697235], [-60.40959406832551, 46.80019885100208], [-60.40952293578776, 46.800188393337734], [-60.409463919153694, 46.800179712982015], [-60.40939539160272, 46.80017313908858], [-60.40925519278637, 46.80015968598021], [-60.40914674448412, 46.800143865024786], [-60.40912374867344, 46.80014050024134], [-60.408984270245725, 46.800101414119105], [-60.40888968987767, 46.80007490949806], [-60.40884750941652, 46.800052957758936], [-60.408837268205616, 46.800047622950736], [-60.40882460884353, 46.80003833651178], [-60.40877515099575, 46.800003917360144], [-60.40873464111936, 46.79997420072999], [-60.40868307000564, 46.799901935134876], [-60.4086463312365, 46.79982100590881], [-60.408635359694884, 46.79972176119396], [-60.408636200261, 46.79965080000257], [-60.408636209792725, 46.799649783258126], [-60.408639246803695, 46.79964167138352], [-60.408663272232864, 46.79957749922312], [-60.40867275417778, 46.799547079237215], [-60.40867721372501, 46.799532816830876], [-60.408679373199426, 46.79948786750703], [-60.40866625568555, 46.79943356342125]]}, "properties": {"OBJECTID": 277177, "FEAT_CODE": "WARV50", "FEAT_DESC": "River - Single Line", "RIVNAME_1": "Halfway Brook", "RIVNAME_2": " ", "ZVALUE": 9999, "FID": null, "SHAPE_Length": 844.9766904383767}}, {"type": "Feature", "id": 277178, "geometry": {"type": "LineString", "coordinates": [[-60.408644295219226, 46.79923598255271], [-60.40864559090751, 46.799209012957746], [-60.40862007999484, 46.79919090366009], [-60.408606304405474, 46.79918112392384], [-60.408542088447405, 46.79912657106775], [-60.408516081013744, 46.79910843249751], [-60.40846473842572, 46.79907262055375], [-60.40840056593217, 46.799017168636325], [-60.4083227714347, 46.79894519965282], [-60.408291067100166, 46.79890761869472], [-60.4082074612763, 46.798808500999264], [-60.408131019188346, 46.79873567156165], [-60.408093565681355, 46.798690103571936], [-60.40807901802725, 46.798672395581924], [-60.408047093035506, 46.7986290497768], [-60.40793876748573, 46.79848202452885], [-60.407900882283386, 46.79842826600714], [-60.40786268932482, 46.79837409551331], [-60.40778623495094, 46.79824727664918], [-60.40776134911447, 46.79819272373274], [-60.40773645099197, 46.79816515148797], [-60.40759445733509, 46.7980656369713], [-60.4075065343654, 46.79802094978685], [-60.40750363017108, 46.798019480014396], [-60.407494901124316, 46.79801623127848], [-60.407230687032886, 46.79791789681581], [-60.40718657142466, 46.79790871608854], [-60.40713856362374, 46.7978987181391], [-60.40709924873747, 46.79789871785656], [-60.40696331922258, 46.79791517454604], [-60.406823751529885, 46.79793207056886], [-60.40678807092738, 46.79793661640359], [-60.40669189406, 46.79794887124759], [-60.4066421211599, 46.79795187356545], [-60.40656177694502, 46.797956729582495], [-60.406403725168346, 46.79794594602866], [-60.406352852771654, 46.79794537742545], [-60.40632513771077, 46.79794506393805], [-60.40620811170702, 46.79795320972949], [-60.40616910815454, 46.79794891435321], [-60.406115556771084, 46.79794301109427], [-60.40602659408859, 46.7979186114038], [-60.40594740959246, 46.79789689931581], [-60.40569663490883, 46.797823561144085], [-60.40566051474916, 46.79781299523881], [-60.4056420052149, 46.79780520468339], [-60.40559500626562, 46.797785410345654], [-60.405179691034206, 46.79759239613405], [-60.40499801109725, 46.79752797663186], [-60.40486803328857, 46.79749945059598], [-60.40473735565242, 46.79747076453795], [-60.40438450453936, 46.797423159197486], [-60.40434806279186, 46.797415474466305], [-60.40429369256541, 46.79740399898161], [-60.40405876465201, 46.79730237092645], [-60.404001149599196, 46.79727527025321], [-60.40394215024991, 46.79724752615431], [-60.40363159954737, 46.79705597513607], [-60.40334730047112, 46.796864137278426]]}, "properties": {"OBJECTID": 277178, "FEAT_CODE": "WARV50", "FEAT_DESC": "River - Single Line", "RIVNAME_1": "Halfway Brook", "RIVNAME_2": " ", "ZVALUE": 9999, "FID": null, "SHAPE_Length": 520.5554890283465}}, {"type": "Feature", "id": 294687, "geometry": {"type": "LineString", "coordinates": [[-60.409649700470894, 46.788369172393395], [-60.409651606978365, 46.78837913320052], [-60.40967380512523, 46.78849481362682], [-60.4097361479296, 46.78858406223595], [-60.40974981805341, 46.78860363110184], [-60.40996947390616, 46.78874990012698], [-60.410011495464644, 46.78877144292562], [-60.41011269961153, 46.78882334075142], [-60.41037293297988, 46.788915629871184], [-60.41038906529088, 46.78891966699135], [-60.41059435758763, 46.78897104114125], [-60.41079034271612, 46.789009676697944], [-60.411024830592005, 46.78906538285362], [-60.41110298885674, 46.78910225067829], [-60.41116676463682, 46.78916579189437], [-60.41120480950685, 46.789246750002114], [-60.4112144774261, 46.789372964086354], [-60.411224212348586, 46.78940083138633], [-60.411239821989504, 46.78944553502417], [-60.41127658377094, 46.789507087792494], [-60.41127742090131, 46.78950848368785], [-60.411341628652536, 46.78956303491688], [-60.41137304383092, 46.789580359304836], [-60.411459069078724, 46.78962779053982], [-60.41159040830602, 46.78967568922929], [-60.411887895520856, 46.78978418936618], [-60.412043337738226, 46.78984890432131], [-60.41213432002687, 46.78989517825304], [-60.412211496933665, 46.789948996464645], [-60.412233411023855, 46.78997073147355], [-60.41227654034246, 46.79001347469368], [-60.41231551152103, 46.790063962525586], [-60.41233945584714, 46.79009500409646], [-60.41238618995167, 46.790165862769555], [-60.41242862427954, 46.790230207389676], [-60.41244172868145, 46.790257502834]]}, "properties": {"OBJECTID": 294687, "FEAT_CODE": "WARV55", "FEAT_DESC": "River - Single Line Indefinite", "RIVNAME_1": " ", "RIVNAME_2": " ", "ZVALUE": 9999, "FID": null, "SHAPE_Length": 320.5577695337631}}, {"type": "Feature", "id": 294688, "geometry": {"type": "LineString", "coordinates": [[-60.409450613922516, 46.79237941203748], [-60.40944386728924, 46.792378557257024], [-60.40937246610522, 46.792369542320465], [-60.40936546289513, 46.792366935790184], [-60.409346719012724, 46.79235995948649], [-60.40923012333102, 46.79233211945999], [-60.409190214086394, 46.79232575266447], [-60.40911178712347, 46.79231323954564], [-60.4090201183793, 46.79231206296441], [-60.408784337102865, 46.79231032140079], [-60.40856168840404, 46.79230797693206], [-60.40841718724909, 46.792315502447934], [-60.40817529494023, 46.79232313380032], [-60.40798542442685, 46.79232911768723], [-60.407697285772045, 46.79232618733532], [-60.407558161912505, 46.792325427958026], [-60.407540097005096, 46.79232532448712], [-60.40750957703476, 46.7923229047802], [-60.407016626766975, 46.79228375938968], [-60.40694805871135, 46.792283149849496], [-60.40682015707378, 46.79228200501874], [-60.40658456740299, 46.792279552285265], [-60.406453439648416, 46.79227818989881], [-60.4062050140361, 46.79229415561188], [-60.40603382344012, 46.79231906317353], [-60.40591601046814, 46.792336199451604], [-60.405667582086615, 46.792356573767485], [-60.40541743018918, 46.79237708843939]]}, "properties": {"OBJECTID": 294688, "FEAT_CODE": "WARV55", "FEAT_DESC": "River - Single Line Indefinite", "RIVNAME_1": " ", "RIVNAME_2": " ", "ZVALUE": 9999, "FID": null, "SHAPE_Length": 310.2799636463357}}, {"type": "Feature", "id": 294833, "geometry": {"type": "LineString", "coordinates": [[-60.409649700470894, 46.788369172393395], [-60.40963703010078, 46.78835989477279], [-60.40960356559813, 46.78834570936839], [-60.40944185464901, 46.78827716821388], [-60.40940406854597, 46.78826976061071], [-60.409389932685535, 46.788266992524434], [-60.40911746602421, 46.78815642470283], [-60.40892227860978, 46.788073705978455], [-60.408650677364356, 46.787945157312265], [-60.40843102837923, 46.78779888587232], [-60.40832708595393, 46.787753332253274], [-60.40832227195892, 46.78775208021335], [-60.40807864149868, 46.78768830458474], [-60.4080110206521, 46.78766373302525], [-60.4079756197664, 46.78765087120664], [-60.407770626280296, 46.78756506637495], [-60.40768919406838, 46.787530983939945], [-60.40760487886149, 46.787492822250485], [-60.407546852063724, 46.787466559941414], [-60.40751499550282, 46.7874524733642], [-60.40740315839486, 46.78740300509169], [-60.407369019737246, 46.78739060367932], [-60.40730013769357, 46.787365571123594], [-60.40719533317017, 46.78733799625613], [-60.407039485034986, 46.787309264107556], [-60.40688125686904, 46.78729080040221], [-60.40679062498719, 46.787280222866045], [-60.40668065632211, 46.787270142784955], [-60.40667322072006, 46.787269461209846], [-60.406489844848466, 46.78724100411086], [-60.40640960029003, 46.78724003046209], [-60.40631961299852, 46.78723894381702], [-60.40616582786146, 46.78723763424148], [-60.4058743148875, 46.78723514467362], [-60.40575686772125, 46.78722528106847], [-60.40563298366263, 46.7872070456391], [-60.405561700174644, 46.787196555018724], [-60.405518614266676, 46.78718603801732], [-60.405443865162006, 46.78716778299367], [-60.40535301463861, 46.78712252363983], [-60.40529827115094, 46.78707705738048], [-60.40527616010302, 46.787058682429084], [-60.40521602414962, 46.7869670514989], [-60.405174834955915, 46.786904289331524], [-60.40512284696054, 46.78686801116227], [-60.40505693260039, 46.78684941634132], [-60.40484783901623, 46.78686537144592], [-60.40465095690389, 46.78687260360005], [-60.40452042323435, 46.786862432765496], [-60.404326504192944, 46.786819504456446], [-60.40418076069042, 46.78678723585576], [-60.403920558166064, 46.78674893125431], [-60.40387760049268, 46.78674502229838], [-60.40380184695235, 46.786738136976474], [-60.40369705676025, 46.786737558218256], [-60.40367330816145, 46.78674424585537], [-60.403605408943484, 46.786763376744496], [-60.403486689363866, 46.78680748892346], [-60.403021870318796, 46.787100215530316], [-60.40302168194121, 46.78713298804298], [-60.403021502643675, 46.78716230488927], [-60.40300708420937, 46.78721687547739], [-60.402992265626715, 46.7872571635047], [-60.40295130307443, 46.78736860324367], [-60.40291469815113, 46.78747988092433], [-60.402909864506285, 46.7874945576209], [-60.40281177792299, 46.78779022832237], [-60.40277955444246, 46.78805137790171], [-60.40278824302376, 46.78822012095722], [-60.40278971064634, 46.78824870122583], [-60.402787988160554, 46.78833865877557], [-60.40278245175725, 46.78837473871288], [-60.402772727496554, 46.78843820853247], [-60.40267506074726, 46.78869788095445], [-60.40262927038316, 46.78880641202987], [-60.40256561337001, 46.78895728575077], [-60.40250893074337, 46.78915489109328], [-60.40242650329237, 46.789342912049996], [-60.40239295682255, 46.789451028119956], [-60.40238462900281, 46.78947785597863], [-60.402330077735094, 46.78954951431836], [-60.40232525827041, 46.78955218575582], [-60.40225064747842, 46.789593608574584], [-60.40218315015407, 46.789604306063794], [-60.40214633829865, 46.789610138697206], [-60.402041975461486, 46.78960056847727], [-60.40185859447684, 46.789572103851434], [-60.40161456517938, 46.789528842630595], [-60.401532494404805, 46.789514297579615], [-60.40140107876537, 46.78949511249652], [-60.40128965038127, 46.78945976801068], [-60.401284926633494, 46.789458274733995], [-60.40126604223507, 46.789452625853954], [-60.401128633052565, 46.789411525085214], [-60.40112352397853, 46.78941095901153], [-60.40103741578681, 46.789401352677], [-60.40098296153372, 46.789401051255965], [-60.400932607904295, 46.78940076199496], [-60.40084007803633, 46.78941756759852], [-60.40076654285651, 46.78945105818983], [-60.400761036560006, 46.78945356995822], [-60.40072089157142, 46.78947065696435], [-60.400666162014666, 46.78951333153986], [-60.400561618195326, 46.78959483247079], [-60.40045510010806, 46.78965720014341], [-60.40044144765987, 46.78966642949191], [-60.4004022781925, 46.78969290721021], [-60.40035686746328, 46.78970397062429], [-60.40029752209358, 46.78971842515419], [-60.40025679491268, 46.78972719207304], [-60.400218093239964, 46.7897355280356], [-60.40011286466423, 46.78974392670646], [-60.39999959606922, 46.789755751379055], [-60.39998270239232, 46.78975746426883], [-60.399956156682315, 46.78976016369575], [-60.39986362635572, 46.789776959499854], [-60.399680834394275, 46.789821384062], [-60.3996130315755, 46.789837859874055]]}, "properties": {"OBJECTID": 294833, "FEAT_CODE": "WARV55", "FEAT_DESC": "River - Single Line Indefinite", "RIVNAME_1": " ", "RIVNAME_2": " ", "ZVALUE": 9999, "FID": null, "SHAPE_Length": 1083.3847284902924}}, {"type": "Feature", "id": 294834, "geometry": {"type": "LineString", "coordinates": [[-60.40986413958405, 46.79012536300714], [-60.40974539440812, 46.790141573147636], [-60.40961402728646, 46.79014939760826], [-60.40958839744474, 46.79014940211761], [-60.40957471758097, 46.79014940727973], [-60.40936473490426, 46.790156350877396], [-60.409142972227336, 46.790163027247296], [-60.40885311805221, 46.79019605956457], [-60.4085121873706, 46.79025583283355], [-60.40831529308768, 46.79026307105543], [-60.40796167793126, 46.79025955762911], [-60.40783417998454, 46.79025256428964], [-60.4077656474159, 46.790248815155536], [-60.407695444948175, 46.790248187013624], [-60.40756918505302, 46.790247062218945], [-60.40746581980153, 46.790261953654024], [-60.40745043508969, 46.790264169833755], [-60.407187202109995, 46.79031580067041], [-60.40716587212325, 46.79032094192166], [-60.406937977568994, 46.79037584818981], [-60.40667429889386, 46.790409468417955], [-60.40654176372393, 46.79042194268832], [-60.40641236093904, 46.790434127848755], [-60.40626189030539, 46.79044599709511], [-60.40611115610732, 46.79045789616476], [-60.405822163278586, 46.7904729410087], [-60.4056816232809, 46.79049737326688], [-60.40562528012501, 46.790507173836374], [-60.405538229307886, 46.7905255654702], [-60.40521755952917, 46.790593321226766], [-60.40482292661439, 46.79067976412405], [-60.40441390612288, 46.79079287814383], [-60.404308730204775, 46.790827389898325], [-60.40411055907571, 46.79091557986523], [-60.40399990026392, 46.790961639457294], [-60.40389929744539, 46.79100349036046], [-60.40382678101718, 46.791031597241535], [-60.4038071665478, 46.79103919771584], [-60.403661392766246, 46.79112768528509], [-60.403612390197154, 46.79115347290203], [-60.40359417392608, 46.79116305800644], [-60.403380350005605, 46.791358896326216]]}, "properties": {"OBJECTID": 294834, "FEAT_CODE": "WARV55", "FEAT_DESC": "River - Single Line Indefinite", "RIVNAME_1": " ", "RIVNAME_2": " ", "ZVALUE": 9999, "FID": null, "SHAPE_Length": 528.7714562876309}}, {"type": "Feature", "id": 294835, "geometry": {"type": "LineString", "coordinates": [[-60.407635799349706, 46.79338765341588], [-60.40744062202919, 46.79335892144141], [-60.40728344709664, 46.793330168621445], [-60.40717994008096, 46.793302623205705], [-60.407062509913196, 46.79326486243171], [-60.406958558358994, 46.79321930742007], [-60.40659437677463, 46.793080555381415], [-60.40649130339472, 46.79301702053582], [-60.40647140217128, 46.79300631865782], [-60.40643893290845, 46.79298883403433], [-60.40637515654809, 46.79294386549287], [-60.40630965544486, 46.79289770584719], [-60.40607642850953, 46.79276102173705], [-60.40593537172603, 46.79266962597795], [-60.405857212077706, 46.79263275460896], [-60.40553145439144, 46.792512860951135], [-60.40541743018918, 46.79237708843939]]}, "properties": {"OBJECTID": 294835, "FEAT_CODE": "WARV55", "FEAT_DESC": "River - Single Line Indefinite", "RIVNAME_1": " ", "RIVNAME_2": " ", "ZVALUE": 9999, "FID": null, "SHAPE_Length": 208.15554293622762}}, {"type": "Feature", "id": 294836, "geometry": {"type": "LineString", "coordinates": [[-60.40541743018918, 46.79237708843939], [-60.40539125149909, 46.792376494581504], [-60.40537005712267, 46.792372800908645], [-60.40533797429615, 46.79236718628711], [-60.4051952021741, 46.79233874831177], [-60.40500122981024, 46.79226654412949], [-60.404922291911895, 46.79223716017517], [-60.40483061187794, 46.79220898099362], [-60.40464850622404, 46.79212655185701], [-60.4045581239353, 46.79207140292065], [-60.40452236189039, 46.79203577170735], [-60.40449435280682, 46.79200785813487], [-60.404451240332875, 46.79197711790644], [-60.404404403367145, 46.79194371923649], [-60.40419607760403, 46.791861594306894], [-60.40405286365019, 46.79181514554635], [-60.4039763774163, 46.79179147736501], [-60.403870814982156, 46.791758815470715], [-60.40384044089848, 46.79174602148361], [-60.40380531467931, 46.79173122969168], [-60.403740666553844, 46.79168566389534], [-60.4037158300809, 46.79165909109762], [-60.403587328953975, 46.79149589912204], [-60.40349738188374, 46.791431750553855], [-60.40349038535495, 46.791427379879885], [-60.403380350005605, 46.791358896326216]]}, "properties": {"OBJECTID": 294836, "FEAT_CODE": "WARV55", "FEAT_DESC": "River - Single Line Indefinite", "RIVNAME_1": " ", "RIVNAME_2": " ", "ZVALUE": 9999, "FID": null, "SHAPE_Length": 198.0053599813159}}, {"type": "Feature", "id": 295118, "geometry": {"type": "LineString", "coordinates": [[-60.403380350005605, 46.791358896326216], [-60.403360409902, 46.79135147789456], [-60.403354591420786, 46.791349311875315], [-60.40332927859667, 46.79133073787637], [-60.40329641893956, 46.791319228262545], [-60.40322491440808, 46.79129416973099], [-60.403186489776004, 46.79127604498184], [-60.403146758644546, 46.79125729657841], [-60.40309521148628, 46.79123902685004], [-60.40307658404776, 46.79123428407342], [-60.40305637705767, 46.791229145442905], [-60.4029785046716, 46.79120544511497], [-60.40287428817602, 46.79117371281975], [-60.40273041156298, 46.791107610077574], [-60.402653787599476, 46.7910724093083]]}, "properties": {"OBJECTID": 295118, "FEAT_CODE": "WARV55", "FEAT_DESC": "River - Single Line Indefinite", "RIVNAME_1": " ", "RIVNAME_2": " ", "ZVALUE": 9999, "FID": null, "SHAPE_Length": 64.30836977776657}}, {"type": "Feature", "id": 295119, "geometry": {"type": "LineString", "coordinates": [[-60.3996130315755, 46.789837859874055], [-60.39950867289607, 46.78980128843677], [-60.39922356456683, 46.7896814099122], [-60.39918919866787, 46.789667479947234], [-60.39904235174129, 46.78960799173252], [-60.39893802415713, 46.78957052051099], [-60.39868959224945, 46.78953247171615], [-60.39859791978791, 46.78950429667285], [-60.39851264455449, 46.789470354281406], [-60.39836522156255, 46.789411698057116], [-60.39826041802463, 46.789384115020866], [-60.39814606045999, 46.78936635817726], [-60.398077026936335, 46.78935564408639], [-60.398041812573716, 46.789351711102], [-60.39798581044382, 46.78934546925711], [-60.397831044764764, 46.78934372118431], [-60.39782849120055, 46.789343690086504], [-60.39773695492633, 46.789343407416915], [-60.39760641650411, 46.78933323758907], [-60.397424391279266, 46.78930389671629], [-60.39728032293885, 46.789275419308694], [-60.397137129945946, 46.78925596130712], [-60.39710693186269, 46.789248272334035], [-60.39699345221633, 46.789219392725066], [-60.396889381021666, 46.789207070531745], [-60.39682408251839, 46.78919933858242], [-60.39671928023669, 46.789171754156826], [-60.39667093947557, 46.78915446346032], [-60.39656343854209, 46.78911600886458], [-60.39627177866464, 46.78902023691129], [-60.39625129615656, 46.78901350685771], [-60.39612117225904, 46.78896734609215], [-60.39586052512145, 46.78891100469631], [-60.39570853929734, 46.78886064682873], [-60.39546977388898, 46.78878152063604], [-60.39531348762266, 46.788734763174475], [-60.39517114441775, 46.78867033270725], [-60.39507986682374, 46.788634046119704], [-60.394922713299025, 46.78860526770729], [-60.39485725816845, 46.7885880454112], [-60.394780391139136, 46.78856782723827], [-60.3945970179708, 46.78853935110956], [-60.39450891138723, 46.78851555584209], [-60.39428401459195, 46.78845482342678], [-60.394024674072185, 46.78837151758335], [-60.39394566065684, 46.788352617891725], [-60.39372472360737, 46.788315184744306], [-60.393632203616825, 46.788304922729054], [-60.39354096110038, 46.78829479774701], [-60.39341041268031, 46.78828463188566], [-60.39322705480778, 46.78825614490108], [-60.39322625599209, 46.788256135694446], [-60.393161570715975, 46.788255543361636], [-60.393071862132004, 46.7882546236305], [-60.393017513021526, 46.78825406881482], [-60.39292850680968, 46.788252984987146], [-60.392847279347436, 46.7882519884098], [-60.39273027298926, 46.788260120802214], [-60.39266435408447, 46.788268517736334], [-60.39258491210342, 46.78828561501508], [-60.39243562215777, 46.78833520158224], [-60.39237451239885, 46.78835551555898], [-60.39234780872325, 46.78836257445646], [-60.39224311457423, 46.78839030935324], [-60.392230026332484, 46.788390010937704]]}, "properties": {"OBJECTID": 295119, "FEAT_CODE": "WARV55", "FEAT_DESC": "River - Single Line Indefinite", "RIVNAME_1": " ", "RIVNAME_2": " ", "ZVALUE": 9999, "FID": null, "SHAPE_Length": 602.9504890809783}}, {"type": "Feature", "id": 295120, "geometry": {"type": "LineString", "coordinates": [[-60.401225075366355, 46.790428878657146], [-60.40121633755095, 46.790397280291636], [-60.401212799358134, 46.79038450137185], [-60.40120587828926, 46.790372041572674], [-60.40118747742844, 46.790338936691924], [-60.40113788798933, 46.790303449200145], [-60.40113681138147, 46.79030267776504], [-60.401096815945834, 46.79028019677553], [-60.401071747302154, 46.79026610065191], [-60.401050777299005, 46.79026076433337], [-60.40103291396636, 46.79025621857754], [-60.40092812042655, 46.7902286382272], [-60.40077225461827, 46.79019989715146], [-60.40065435947998, 46.79017201880861], [-60.400589738567795, 46.790153450820675], [-60.40055002963918, 46.79013454901685], [-60.400472310547734, 46.79008868427848], [-60.400411134692106, 46.79006007886466], [-60.40039542401737, 46.79005273804142], [-60.40035571523234, 46.79003383617267], [-60.400278005874306, 46.79001497051787], [-60.40018585610408, 46.78999666753867], [-60.400115411020806, 46.7899714421365], [-60.4000570478387, 46.78995055018285], [-60.40001065838599, 46.78993922704275], [-60.40000006402862, 46.78993665529656], [-60.39997802984291, 46.78993165457558], [-60.39996492805838, 46.78993135673959], [-60.39980864743366, 46.78988460558301], [-60.399717373252614, 46.78987533079549], [-60.39966462948106, 46.789856384328395], [-60.3996130315755, 46.789837859874055]]}, "properties": {"OBJECTID": 295120, "FEAT_CODE": "WARV55", "FEAT_DESC": "River - Single Line Indefinite", "RIVNAME_1": " ", "RIVNAME_2": " ", "ZVALUE": 9999, "FID": null, "SHAPE_Length": 144.83488958691288}}, {"type": "Feature", "id": 295175, "geometry": {"type": "LineString", "coordinates": [[-60.409688337604564, 46.793596149968096], [-60.40952461359012, 46.79362870157523], [-60.4095176676873, 46.79363008320104], [-60.40920158622506, 46.79369042135411], [-60.40897808196232, 46.793733056616915], [-60.40892462505204, 46.79374163724902], [-60.40882093270823, 46.79375829544223], [-60.408767667082344, 46.79377598798724], [-60.40871527859203, 46.79380270003644], [-60.408609235233726, 46.79385520440502], [-60.40848964120925, 46.79394428224278], [-60.40843505548526, 46.793995450444676], [-60.40835653809331, 46.794069061481984], [-60.40834684263558, 46.79407530354716], [-60.40834301643878, 46.79407775475274], [-60.408245755758124, 46.794122268102754], [-60.408131317296714, 46.794174653793675], [-60.407958454959825, 46.79428143223834], [-60.407777093769056, 46.794435257001616], [-60.40775900640096, 46.79445060546832], [-60.407625943185636, 46.794547494824464], [-60.407333887046825, 46.79470735957881], [-60.40727682799408, 46.79474178579915], [-60.40720163071039, 46.79478715838453], [-60.40710955126393, 46.79484896856525], [-60.407085726429806, 46.79487108059508], [-60.40704234256163, 46.79491134250192], [-60.40700709375695, 46.79495765659523], [-60.40698779158555, 46.794983003016306], [-60.406970303839465, 46.79502921577297], [-60.40696077269477, 46.795054387722345], [-60.40694597952161, 46.79514404890498], [-60.406982682283285, 46.79525287686267], [-60.40699141777068, 46.795292241404745], [-60.406994531891506, 46.79530624347116], [-60.406991114527756, 46.795317361568756], [-60.40698054704364, 46.79535182466788], [-60.40697232462158, 46.795362581839754], [-60.40693999307356, 46.79540490320248], [-60.406834778928214, 46.79546731534571], [-60.40671564078276, 46.7955195120711], [-60.406493627395015, 46.795576728733245], [-60.406478129367166, 46.79558072414686], [-60.40641264785749, 46.79560713825323], [-60.40637869574794, 46.79562400768239], [-60.406358947414844, 46.79563381947322], [-60.40625376229588, 46.79569533177493], [-60.40618699687219, 46.79574871560323], [-60.406106263507944, 46.79581978193286], [-60.40597273003676, 46.79598054725024], [-60.405887790298685, 46.79605868175141], [-60.40586578441403, 46.79607891785367], [-60.40574665645883, 46.79615810376717], [-60.405615771418475, 46.79627956424404], [-60.405612232421305, 46.79628284984088], [-60.405519727686304, 46.79638065671184]]}, "properties": {"OBJECTID": 295175, "FEAT_CODE": "WARV55", "FEAT_DESC": "River - Single Line Indefinite", "RIVNAME_1": " ", "RIVNAME_2": " ", "ZVALUE": 9999, "FID": null, "SHAPE_Length": 471.4273525091907}}, {"type": "Feature", "id": 295256, "geometry": {"type": "LineString", "coordinates": [[-60.403188296127865, 46.79249029334993], [-60.4032263093563, 46.792517255419284], [-60.403236415441974, 46.792535430189595], [-60.403251646628625, 46.79256282897412], [-60.40330231441877, 46.792626076964254], [-60.403353393543156, 46.79273523253838], [-60.40338154783005, 46.79280777000142], [-60.40340236802235, 46.79286143966193], [-60.40345222478002, 46.79319067212292], [-60.40346103441307, 46.79324885692604], [-60.40346169791824, 46.793259302594535], [-60.40347072562873, 46.793401171183014], [-60.40347580699199, 46.793515312225196], [-60.40347954539941, 46.79359936391572], [-60.40347816618143, 46.79365742540652], [-60.40347697082377, 46.7937073103805], [-60.403473120944064, 46.7938962068246], [-60.40344219381087, 46.79413038682233], [-60.40342233283291, 46.794489940280066], [-60.40342183512188, 46.794498919639665], [-60.40341851898898, 46.79450955395004], [-60.40339394641584, 46.79458828308863], [-60.40338000202591, 46.79463296480939], [-60.403351626764064, 46.794705208850765], [-60.403298422576036, 46.794776016227], [-60.40325759828971, 46.79481994367754], [-60.40323207325909, 46.79484739810301], [-60.40307144755441, 46.79499944527893], [-60.4030169345656, 46.79507020480716], [-60.40296367406183, 46.79514189271377], [-60.40295495070748, 46.795178827228476], [-60.402948876677264, 46.79520455432694], [-60.402948677864416, 46.79523481566119], [-60.402948465187684, 46.79526754258669], [-60.40296812229454, 46.79530291659266], [-60.40297379032586, 46.795313115907334], [-60.40300155056744, 46.79534077219676], [-60.40303756336943, 46.79537666155049], [-60.403089112459014, 46.79542192129999], [-60.40314456880514, 46.7954480824685], [-60.403167273662795, 46.79545880357783], [-60.40338779282935, 46.79556010640798], [-60.403537980712215, 46.795639914002294], [-60.403594790028166, 46.79567010151156], [-60.4037240692206, 46.79576123276959], [-60.403727406699026, 46.79576540337175], [-60.40377475350926, 46.79582448088699], [-60.40383824292143, 46.79592145335972], [-60.40386386535318, 46.79596059846989], [-60.40387524030551, 46.79599272444168], [-60.40388924593996, 46.79603227184177], [-60.40389932989547, 46.796149496254614], [-60.40391093529074, 46.796197529844456], [-60.403923369432455, 46.79624903811109], [-60.40392264182258, 46.79629193195524], [-60.403921226485416, 46.79637498465264], [-60.40392803179523, 46.79646230978109], [-60.40393176738626, 46.7965102187393], [-60.4039166009053, 46.796562864469436], [-60.40390344569194, 46.79660857211579], [-60.40387341543148, 46.796796883255894]]}, "properties": {"OBJECTID": 295256, "FEAT_CODE": "WARV55", "FEAT_DESC": "River - Single Line Indefinite", "RIVNAME_1": " ", "RIVNAME_2": " ", "ZVALUE": 9999, "FID": null, "SHAPE_Length": 522.3382802541266}}, {"type": "Feature", "id": 295536, "geometry": {"type": "LineString", "coordinates": [[-60.41454310501748, 46.79193306159369], [-60.414538822651906, 46.79193300978988], [-60.414464525947245, 46.79193218526854], [-60.41434575771303, 46.79192230066811], [-60.414286606065325, 46.791913601720466], [-60.41428069884143, 46.791912730203606], [-60.41425508617087, 46.79191372611264], [-60.4139144430204, 46.79192693977941], [-60.41372866650464, 46.791939955509505], [-60.413690919414535, 46.79194260283547], [-60.41366835572074, 46.79194669144195], [-60.41359838955246, 46.79195940076918], [-60.413519783397135, 46.79198642211853], [-60.413446774917475, 46.79201557692554], [-60.41338752681255, 46.792039229098], [-60.41335926470247, 46.79205776821858], [-60.41332123397413, 46.7920827281574], [-60.4132838112892, 46.79211413658968], [-60.413267987292656, 46.792127422195996], [-60.41324519228787, 46.792172408928444], [-60.41324048825077, 46.79218169818294], [-60.413184745795995, 46.79236043062341], [-60.41315562049438, 46.792418557659786], [-60.41314417291846, 46.79244140986851], [-60.41314055280489, 46.79244503585079], [-60.41303681631906, 46.792548777542315], [-60.41285136910269, 46.79267237807828], [-60.41270560514301, 46.79276087736325], [-60.41249434992486, 46.792848794858735], [-60.412334574469824, 46.792928877001756], [-60.41213646599167, 46.793043190272], [-60.412044192369194, 46.79308983560837], [-60.41197799839775, 46.79312330150844], [-60.41193510711495, 46.793151489877424], [-60.411857576466794, 46.7932024735069], [-60.41182298692549, 46.79323706844971], [-60.41180389617657, 46.79325615670654], [-60.411553325522725, 46.79334408276623], [-60.4114863292654, 46.79338906778458], [-60.411461253448856, 46.793405896614246], [-60.41142109357774, 46.79345088596722], [-60.41140385985741, 46.79348943744331], [-60.41139320374788, 46.79351325235222], [-60.41139276791096, 46.79355046506541], [-60.41139237086234, 46.793585230749876], [-60.41140135702777, 46.79368907416389], [-60.411413435547814, 46.79382869819568], [-60.41142141195171, 46.7938722030601], [-60.411424871043664, 46.79389105462775], [-60.41147383914799, 46.79407215597085], [-60.41151103947187, 46.79419810207264], [-60.41152710420051, 46.79425356152423], [-60.41153464610228, 46.79427963321247], [-60.411545193278464, 46.794414857729095], [-60.411556615932874, 46.794477213851515], [-60.41157900720195, 46.7945698770456], [-60.411593788976745, 46.79463104923002], [-60.41160315476406, 46.79468219922624], [-60.41160521172275, 46.7946934053475], [-60.41160390456533, 46.79477527262095], [-60.41159349814773, 46.794864889667664], [-60.41158827148142, 46.794909913651125], [-60.41155783781758, 46.79510721730712], [-60.411556990078395, 46.79515219639168], [-60.411561062649966, 46.7951645460856], [-60.41163133529231, 46.79537797023421], [-60.41165584878736, 46.795440613584205], [-60.41173230586079, 46.79554044899521], [-60.4117332617132, 46.795545654425716], [-60.41174368578304, 46.79560370408625], [-60.411755512100676, 46.795684968583274], [-60.411725078489305, 46.795882272263164]]}, "properties": {"OBJECTID": 295536, "FEAT_CODE": "WARV55", "FEAT_DESC": "River - Single Line Indefinite", "RIVNAME_1": " ", "RIVNAME_2": " ", "ZVALUE": 9999, "FID": null, "SHAPE_Length": 590.3203139861395}}]}