{"type": "FeatureCollection", "features": [{"type": "Feature", "id": 3407, "geometry": {"type": "LineString", "coordinates": [[-60.355316083081085, 46.65741472803544], [-60.35533208684044, 46.65741194825782], [-60.3555124935542, 46.65738057153548], [-60.355622117962994, 46.65735943732925], [-60.35577507493328, 46.65732994530122], [-60.35599853111392, 46.657277513743196], [-60.35605280319231, 46.657253362156176], [-60.35607736039534, 46.65724243720093], [-60.3560675804679, 46.65722775729369], [-60.356065181158975, 46.65722415587174], [-60.35601689953231, 46.65721312157605], [-60.35598632773666, 46.65720613273006], [-60.35598408178814, 46.657204478820454], [-60.35597371005017, 46.657196841102476], [-60.35596153085883, 46.65717855976303], [-60.35596240783987, 46.65716058034192], [-60.35599168909163, 46.65714043180176], [-60.35600163001726, 46.657133587796345], [-60.35613317576286, 46.65706283084597], [-60.35614655778086, 46.65705135947488], [-60.3561740980065, 46.6570277776865], [-60.356173668860976, 46.65700977706215], [-60.356169497086555, 46.657008213623456], [-60.35614799549625, 46.65700017456948], [-60.35611609733506, 46.65699545904999], [-60.35608310948078, 46.656990574326386], [-60.35607005335605, 46.656990272421496], [-60.35607005540384, 46.65698942648289], [-60.356070063152885, 46.656963273096], [-60.35609749078399, 46.65693690776838], [-60.356107493869494, 46.65693012818999], [-60.356150207290774, 46.65690122735533], [-60.35626919951736, 46.65685254460151], [-60.35632092010026, 46.65683138484087], [-60.3564402666535, 46.656796335875704], [-60.356491667611, 46.65678762444139], [-60.356596160097986, 46.656789140274434], [-60.35660965455718, 46.65678045240244], [-60.356728557996966, 46.65672741119044]]}, "properties": {"OBJECTID": 3407, "FEAT_CODE": "WACO20", "FEAT_DESC": "Coast - Water to the right line", "RIVNAME_1": " ", "RIVNAME_2": " ", "ZVALUE": 0.5, "FID": null, "SHAPE_Length": 169.93540862455944}}, {"type": "Feature", "id": 3408, "geometry": {"type": "LineString", "coordinates": [[-60.356728557996966, 46.65672741119044], [-60.35691325107854, 46.656665963852156], [-60.356992516761665, 46.656621905916], [-60.35713755430827, 46.656542459829744], [-60.35715172104784, 46.656538746350854], [-60.357203754829, 46.656525090306054], [-60.35725219516518, 46.656518920055596], [-60.35726951704499, 46.65651671046422], [-60.35730047603632, 46.65651709302681], [-60.357438040465986, 46.65651880548475], [-60.35747810668379, 46.65652783134256], [-60.35748734436243, 46.65653808867089], [-60.3575029040642, 46.65655540399317], [-60.35753730804041, 46.656579499716614], [-60.35755472476215, 46.65659170103456], [-60.357697990707265, 46.656602211800674], [-60.35771659128419, 46.656602461651076], [-60.357789413374675, 46.656603433505545], [-60.35789219899453, 46.65663057628331], [-60.35789395402469, 46.656631039831026], [-60.35790384471452, 46.65663567830858], [-60.35793228926352, 46.656649034380116], [-60.35807510896767, 46.65669552476199], [-60.35827063474793, 46.65673334188447], [-60.35840036326632, 46.65675343882771], [-60.358509833864346, 46.65675445593042], [-60.35853101181015, 46.65675465719299], [-60.358609874031345, 46.65674567923167], [-60.3586269216622, 46.65675204895567], [-60.35863554817577, 46.656755272188555], [-60.35864018244598, 46.65676156214263], [-60.35864903380259, 46.656773583421945], [-60.358647719684186, 46.65680055261387], [-60.35865901513403, 46.656863812499246], [-60.35869777229818, 46.656926806785144], [-60.35869901739218, 46.65692968849998], [-60.35870951434058, 46.656954077582434], [-60.358731373751745, 46.65697972812479], [-60.35874784206113, 46.65699906223081], [-60.35881614009468, 46.65705507099997], [-60.3588257679322, 46.657062961270704], [-60.35886406043052, 46.65708184550217], [-60.359149746521176, 46.657173951833165], [-60.35934479355722, 46.65722164688434], [-60.359448879895304, 46.657231250588595], [-60.359583319423365, 46.65724724304947], [-60.359617835611644, 46.657251352067355], [-60.359632095716854, 46.65725135737475], [-60.35969626053893, 46.65725136310562], [-60.35982428668049, 46.65722379191441], [-60.359854761599, 46.657217214722515], [-60.35998434178019, 46.65714753294372], [-60.359986314894385, 46.6571464715203], [-60.36010431054595, 46.65711228752476], [-60.36019752957813, 46.65707664039435], [-60.36022175362529, 46.65707253774336], [-60.36024894332899, 46.65706792756531], [-60.36028811189188, 46.65706883184613], [-60.3603146543516, 46.657087444319274], [-60.36032009400646, 46.657095183773784], [-60.360326878789095, 46.657104826250716], [-60.360326559596395, 46.65712077561352], [-60.360325995576474, 46.65714980510412], [-60.360336393173185, 46.65715746102201], [-60.360338614019476, 46.65715909626648], [-60.360443099860184, 46.65718760796955], [-60.360547191856135, 46.6572242103486], [-60.36057369827621, 46.657230681133136], [-60.36062471061898, 46.65724309951273], [-60.36063927082287, 46.65724069966236], [-60.360677403979324, 46.657234416028984], [-60.36068946756169, 46.65722664863131], [-60.36069089791911, 46.657225727664596], [-60.36070032866649, 46.6572172695021], [-60.36077016938019, 46.65715465870328], [-60.36080503478121, 46.65713146088282], [-60.36081069485078, 46.657127694595125], [-60.36081958322142, 46.657125811792646], [-60.36084899553367, 46.65711957880239], [-60.36089124350586, 46.65714341356965], [-60.360913875277234, 46.65715617573531], [-60.36097831174915, 46.657174762703185], [-60.36099645820322, 46.657183002402526], [-60.36101796755029, 46.65719277769111], [-60.361081972211636, 46.657247354027], [-60.36127530701688, 46.65735711420897], [-60.36130009952598, 46.65741168545755], [-60.36129967216972, 46.65743281623793], [-60.36129920404846, 46.65745666403152], [-60.36127265203692, 46.6575190591999], [-60.36127177724263, 46.65753702970713], [-60.361274006456945, 46.657541716074746], [-60.361284826342505, 46.6575643303981], [-60.361292056422585, 46.65756966316613], [-60.36129744504793, 46.65757362145938], [-60.36132067138437, 46.65757900838925], [-60.36133622016358, 46.65758261616272], [-60.36134416196712, 46.657579235499924], [-60.361376263893824, 46.65756554957034], [-60.36144249218445, 46.65749417014646], [-60.36144424281807, 46.65749338255912], [-60.36148255389929, 46.65747619494724], [-60.3615189349219, 46.65748335237217], [-60.36153435457972, 46.65748639014874], [-60.361559198236456, 46.65751306299165], [-60.36155918997814, 46.657537938380145], [-60.36155919116247, 46.657540062371545], [-60.3615614338959, 46.657544740045594], [-60.36157224040924, 46.6575673630327], [-60.36159660280081, 46.65760392459398], [-60.36166148363335, 46.65764052112209], [-60.36168833262673, 46.657653119447765], [-60.36169982131519, 46.65765850545545], [-60.36175339608414, 46.6576588416605], [-60.361818728513605, 46.65763244958662], [-60.36186636080581, 46.65763295462084], [-60.36196243576367, 46.65763396532693], [-60.362013786142136, 46.6576531497681], [-60.36202644190096, 46.65768854116048], [-60.361999403586054, 46.65773381656465], [-60.36195891509267, 46.657786881502176], [-60.36194283084904, 46.65784315544261], [-60.36193055723815, 46.65788612552806], [-60.36194365050069, 46.657912527175604], [-60.36195030066047, 46.65791742352857], [-60.36198150721375, 46.65794040014773], [-60.36200560237605, 46.65796500365651], [-60.36200765693546, 46.657967103023665], [-60.36202069344746, 46.65799440333733], [-60.36201938094941, 46.658021372596764], [-60.362028302923584, 46.65804700300738], [-60.36203200565661, 46.658057672254614], [-60.36204841672632, 46.6580838534408], [-60.362082936444594, 46.6581389369248], [-60.36219744585375, 46.65823066819101]]}, "properties": {"OBJECTID": 3408, "FEAT_CODE": "WACO20", "FEAT_DESC": "Coast - Water to the right line", "RIVNAME_1": " ", "RIVNAME_2": " ", "ZVALUE": 0.5, "FID": null, "SHAPE_Length": 590.661056607704}}, {"type": "Feature", "id": 8038, "geometry": {"type": "LineString", "coordinates": [[-60.35449432897302, 46.6573525184062], [-60.354493440908286, 46.65739749711283], [-60.35452882150201, 46.657422723320025], [-60.354532598954926, 46.65742540267649], [-60.35454921125935, 46.65743131294457], [-60.354635381551915, 46.65746198015648], [-60.354687211610056, 46.65747127916199], [-60.35492367131053, 46.65744705008678], [-60.3552927358903, 46.65741665396545], [-60.355316083081085, 46.65741472803544]]}, "properties": {"OBJECTID": 8038, "FEAT_CODE": "WACO20", "FEAT_DESC": "Coast - Water to the right line", "RIVNAME_1": " ", "RIVNAME_2": " ", "ZVALUE": 0.5, "FID": null, "SHAPE_Length": 70.8243332340358}}, {"type": "Feature", "id": 8409, "geometry": {"type": "LineString", "coordinates": [[-60.35012700256708, 46.655059921526544], [-60.35020536704051, 46.65506083767556], [-60.35045317237829, 46.65504498067713], [-60.35049269128748, 46.65503547460825], [-60.350558979157654, 46.65501953293379], [-60.35061689359599, 46.655006169151385], [-60.35063697370313, 46.65500154051845], [-60.350641354787506, 46.654999617066586], [-60.350755848301965, 46.65494939582521], [-60.35103241207083, 46.65485320521146], [-60.351123901041646, 46.65482652524549], [-60.35113147048023, 46.65482515263209], [-60.351216224931164, 46.65480977338913], [-60.351287843817595, 46.654801613669015], [-60.35136078963963, 46.65479331364528], [-60.35143826920323, 46.65479387545552], [-60.35153064351461, 46.65479454823309], [-60.351629138497074, 46.65480959147838], [-60.35172524668562, 46.65482426436113], [-60.35185734088306, 46.65484662851857], [-60.351946916356184, 46.65486178890171], [-60.35204490731224, 46.65489357784436], [-60.352206818913054, 46.654946106659565], [-60.3522712626457, 46.65496469872869], [-60.35232308988177, 46.65497399875213], [-60.352329886980286, 46.65497131219551], [-60.35238972893488, 46.65494764231673], [-60.352441128697805, 46.6549389326786], [-60.35247481774417, 46.65494387969525], [-60.35257219996153, 46.654958167370836], [-60.352645456336546, 46.65497910524502], [-60.35270239333018, 46.654995381295315], [-60.352816234740075, 46.65501254280498], [-60.35302676447879, 46.65504429041849], [-60.35311823041361, 46.65507160744958], [-60.35316305547186, 46.655095027761696], [-60.35317049868987, 46.655098917006036], [-60.35319528016012, 46.65512649023636], [-60.353173256893506, 46.65516931471652], [-60.35316784089888, 46.65517985416791], [-60.35316739077154, 46.655215843164235], [-60.35319822681885, 46.655245230524585], [-60.35320610767034, 46.65525273883867], [-60.35324444076801, 46.65527072592189], [-60.35324699331339, 46.65527145099868], [-60.35331019083185, 46.655289347641606], [-60.353336302204575, 46.655289952062994], [-60.35337463342036, 46.655280939497004], [-60.353493969100555, 46.655192803217396], [-60.35353600627976, 46.65518177041092], [-60.35356015597406, 46.65517543548816], [-60.35357268173453, 46.65517106348127], [-60.353586763091826, 46.65516615148745], [-60.353786268451366, 46.6551878686906], [-60.35385979108419, 46.655195870155545], [-60.35397820277469, 46.65520671037923], [-60.35420032519107, 46.65520824159849], [-60.35423943708058, 46.65521322358021], [-60.35427826394662, 46.65521815395397], [-60.35431457713664, 46.65522531211302], [-60.35433004793407, 46.65522835204931], [-60.3544598045276, 46.65527455371096], [-60.3545120606422, 46.65530186236897], [-60.3545015451745, 46.65532717865147], [-60.35449725012135, 46.65533751910453], [-60.35445713807557, 46.65538249025574], [-60.3544506094874, 46.65539976291385], [-60.35444364656189, 46.65541816850326], [-60.35444934794091, 46.65542400632861], [-60.3544697908926, 46.65544488200215], [-60.35450796369912, 46.65546134397538], [-60.35453378428591, 46.65547246222303], [-60.35464068693715, 46.65548828238422], [-60.35466356515976, 46.65549166465215], [-60.35468413276768, 46.65549659543124], [-60.35474237176591, 46.655510587621094], [-60.354803673345636, 46.655526639601035], [-60.35488562380787, 46.65554810116303], [-60.35494841427028, 46.65557328636024], [-60.355002268960455, 46.65559489886596], [-60.35516293538139, 46.65565885147968], [-60.355208708173976, 46.65567707299157], [-60.355231805456945, 46.65568266517634], [-60.355365016809365, 46.6557148879444], [-60.355456441266064, 46.65574310212012], [-60.35555921135597, 46.65580667805131], [-60.35562408586336, 46.65584327788819], [-60.355804753009316, 46.65591765499706], [-60.3558435160723, 46.65595365085029], [-60.35584263908879, 46.655971630273484], [-60.35577730593487, 46.65599801891981], [-60.35573808449557, 46.65602501140786], [-60.35573544348696, 46.65610594899777], [-60.355720155285894, 46.65612139917174], [-60.355709321713086, 46.65613234444125], [-60.35570446371769, 46.65613547203754], [-60.35569582771859, 46.656141023218474]]}, "properties": {"OBJECTID": 8409, "FEAT_CODE": "WACO20", "FEAT_DESC": "Coast - Water to the right line", "RIVNAME_1": " ", "RIVNAME_2": " ", "ZVALUE": 0.5, "FID": null, "SHAPE_Length": 539.4439869401087}}, {"type": "Feature", "id": 8410, "geometry": {"type": "LineString", "coordinates": [[-60.35569582771859, 46.656141023218474], [-60.35565705420492, 46.65613203563003], [-60.35561789646807, 46.65610413045326], [-60.355616268088056, 46.656103750798216], [-60.35554035041159, 46.6560861372327], [-60.35546197115113, 46.65608522440699], [-60.35539620878881, 46.65609361220423], [-60.35534905588993, 46.65610929728986], [-60.355317819810274, 46.656119689611195], [-60.35530323226585, 46.65612908103591], [-60.355277336325784, 46.65614575276463], [-60.35522950166951, 46.6562102372288], [-60.35522417121928, 46.65621742180941], [-60.355212648404105, 46.65624731377705], [-60.355168802693775, 46.6563610386754], [-60.35516620714485, 46.65636333659734], [-60.355129185934935, 46.656396121676615], [-60.35511418879676, 46.65640426162283], [-60.35498284035695, 46.65647553496099], [-60.35495691019032, 46.656499063712154], [-60.354943179967314, 46.656511507873624], [-60.35494273053047, 46.65654750588322], [-60.354954275947705, 46.65656483668815], [-60.354954896184836, 46.65656578702096], [-60.35503676539268, 46.65659457246683], [-60.3550589961363, 46.65660239460236], [-60.355066772472284, 46.656606696420596], [-60.3551098912949, 46.65663057148058], [-60.35511433383476, 46.65664667598175], [-60.35512211673587, 46.65667495355233], [-60.35515711991486, 46.65671835953713], [-60.355173894859895, 46.65673915023172], [-60.35516037688707, 46.65677483694471], [-60.355155518801816, 46.65677796451553], [-60.35514688220441, 46.65678352464085], [-60.3550754539379, 46.656818006758954], [-60.35500097422554, 46.656853948217936], [-60.3549797428065, 46.656875200709166], [-60.35494737972359, 46.656907607493814], [-60.354905987006234, 46.65703264784363], [-60.35486632570427, 46.65706862970669], [-60.35483933609295, 46.65708600502208], [-60.35452089067236, 46.65731713356991], [-60.35450095502878, 46.657343698864814], [-60.35449432897302, 46.6573525184062]]}, "properties": {"OBJECTID": 8410, "FEAT_CODE": "WACO20", "FEAT_DESC": "Coast - Water to the right line", "RIVNAME_1": " ", "RIVNAME_2": " ", "ZVALUE": 0.5, "FID": null, "SHAPE_Length": 207.15094854047064}}, {"type": "Feature", "id": 8483, "geometry": {"type": "LineString", "coordinates": [[-60.357246011775544, 46.65512209016224], [-60.357224196138255, 46.65509476636453], [-60.35719550741526, 46.6550588238373], [-60.35713239500193, 46.65495926665045], [-60.35711227861901, 46.654888242823084], [-60.357071063649734, 46.65474275250742], [-60.357039607574904, 46.654679665413084], [-60.35700796108916, 46.654616195914045], [-60.357012448935436, 46.65459920893184], [-60.357022384576744, 46.65456163021559], [-60.35706331354827, 46.654499577327], [-60.35707637832511, 46.65447287975983], [-60.357064646840875, 46.654418609465594], [-60.35701282849544, 46.65438231223921], [-60.35694794541956, 46.65437271254454]]}, "properties": {"OBJECTID": 8483, "FEAT_CODE": "WACO20", "FEAT_DESC": "Coast - Water to the right line", "RIVNAME_1": " ", "RIVNAME_2": " ", "ZVALUE": 0.5, "FID": null, "SHAPE_Length": 93.21792401070108}}, {"type": "Feature", "id": 8484, "geometry": {"type": "LineString", "coordinates": [[-60.35694794541956, 46.65437271254454], [-60.35693488991576, 46.65437241075121], [-60.35689571407675, 46.654398504707316], [-60.356842133302955, 46.65442516563676], [-60.356579951591826, 46.654494712239746], [-60.356560644166244, 46.65449932378095], [-60.356435805613586, 46.65452916997463], [-60.35609525594315, 46.654570794950196], [-60.35593718639156, 46.65459593923905], [-60.35576689427021, 46.65460370092324]]}, "properties": {"OBJECTID": 8484, "FEAT_CODE": "WACO20", "FEAT_DESC": "Coast - Water to the right line", "RIVNAME_1": " ", "RIVNAME_2": " ", "ZVALUE": 0.5, "FID": null, "SHAPE_Length": 95.38422785212836}}, {"type": "Feature", "id": 8485, "geometry": {"type": "LineString", "coordinates": [[-60.35576689427021, 46.65460370092324], [-60.355713241914074, 46.65460287411526], [-60.35564935050502, 46.654601882477834], [-60.35561413218647, 46.654596667032855], [-60.35558446744315, 46.65459228200909], [-60.35545471144352, 46.65454608163315], [-60.355183460350794, 46.65442640933066], [-60.354975338178555, 46.65435230506944], [-60.354859506115574, 46.654315416974654], [-60.354781129446486, 46.65431450373491], [-60.3547023141268, 46.65432258014738], [-60.35462154047202, 46.6543541818156], [-60.354543751690855, 46.65438461050844], [-60.35446228937535, 46.65440621529185], [-60.35441265987523, 46.65441937672798], [-60.354355923113594, 46.65442417482164], [-60.354228930895225, 46.65443492507991], [-60.35414661533698, 46.65441830551154], [-60.354138319164754, 46.65441662855639], [-60.35407387538932, 46.65439803753854], [-60.35402122546353, 46.65437881942965], [-60.35396940925334, 46.6543425208662], [-60.35392674078934, 46.65430170005805], [-60.35389323735844, 46.65426965920112], [-60.353786225184194, 46.65415197543635], [-60.3537778772557, 46.65414279137777], [-60.35376714245696, 46.65412252725428], [-60.35371564982585, 46.6540252530428], [-60.35365791809369, 46.65391201265682], [-60.35357728468844, 46.65375385487868], [-60.353564613899515, 46.65373898183776], [-60.353538950457754, 46.65370886830743], [-60.353513291740306, 46.653699274551805], [-60.35340376501553, 46.6536832035847], [-60.35338222312072, 46.653680040990885], [-60.35333083578264, 46.65366175177058], [-60.35329298653649, 46.65363387606826], [-60.35329271616273, 46.653622547990764], [-60.35329255876508, 46.653615866454125], [-60.35331805588996, 46.65358218521136], [-60.35337358967382, 46.653508843884644], [-60.35338601555654, 46.65346902815273], [-60.353387533711015, 46.65346416737224], [-60.353375817172264, 46.65338289745883], [-60.353303842723015, 46.65330843157281], [-60.35323522747311, 46.65323744534704], [-60.353210400999124, 46.65318377149021], [-60.35322351119763, 46.65315617542085], [-60.353291881349776, 46.65304075995077], [-60.35330459720995, 46.653006782844926], [-60.353318935417505, 46.652968487360916], [-60.35332407385763, 46.65294435169113], [-60.353334195923644, 46.652896841754874], [-60.353322481092015, 46.65284258043944]]}, "properties": {"OBJECTID": 8485, "FEAT_CODE": "WACO20", "FEAT_DESC": "Coast - Water to the right line", "RIVNAME_1": " ", "RIVNAME_2": " ", "ZVALUE": 0.5, "FID": null, "SHAPE_Length": 345.6897663557737}}, {"type": "Feature", "id": 8486, "geometry": {"type": "LineString", "coordinates": [[-60.36418443628655, 46.65577575711808], [-60.36418332423344, 46.65577631647245], [-60.364055972835686, 46.65582238478729], [-60.363893298044204, 46.6558812193492], [-60.36349787881317, 46.656056608090424], [-60.36340339393538, 46.656091220737466], [-60.36323438518925, 46.65615313925004], [-60.3630527641944, 46.65622121053451], [-60.36302403394056, 46.65623197774558], [-60.362852418819045, 46.65629371858539], [-60.362485299022346, 46.65639775773985], [-60.36244232539613, 46.6564095192224], [-60.36232765788089, 46.65644091145442], [-60.36223887343546, 46.65645370401105], [-60.362209190987976, 46.65645797815941], [-60.362091161052206, 46.65646606397371], [-60.362042294917536, 46.65646112063822], [-60.361987119790875, 46.65645555472967], [-60.3618960643294, 46.65644625399342], [-60.361818121761125, 46.65643635575885], [-60.3617698385248, 46.656419167961715], [-60.361739748661854, 46.656408447838864], [-60.361636983025605, 46.65634487759918], [-60.36155946986374, 46.65628292496819], [-60.36153380521794, 46.65626238907127], [-60.36148577266153, 46.65620299764414], [-60.361431478392404, 46.65613583882363], [-60.36142020406469, 46.65611101805874], [-60.36140668627771, 46.6560812676019], [-60.3614016507146, 46.656062539707236], [-60.36139449953077, 46.65603598711985], [-60.36141115972839, 46.65600359413514], [-60.36142194430299, 46.65598262136415], [-60.36146013943154, 46.65594711638887], [-60.36148901199707, 46.65592027012301], [-60.36155479301607, 46.65588488870074], [-60.36156388573187, 46.65588121958588], [-60.36162012336123, 46.655858496691025], [-60.3616694366273, 46.6558150313347], [-60.36170069714334, 46.65578745712952], [-60.3616880857409, 46.6557511667286], [-60.361683785085205, 46.65574956451796], [-60.36166241105684, 46.655741583444275], [-60.36157049527172, 46.655750253292595], [-60.36113717303865, 46.65584465157529], [-60.36105836200925, 46.65587973202527], [-60.360966481905926, 46.65591451077639], [-60.360782247338655, 46.655966957392884], [-60.36066421876424, 46.655975032762235], [-60.36062249011642, 46.65597464550214], [-60.36059889535326, 46.65597442483615], [-60.360521391451634, 46.65595553598966], [-60.36048797334066, 46.655946070681026], [-60.3604556379315, 46.655936918352296], [-60.36040972360222, 46.65593176346423], [-60.360364640483496, 46.655926717745615], [-60.360264455479296, 46.65593823758865], [-60.3602213679504, 46.65594320971968], [-60.36017303391945, 46.6559426517944], [-60.360142988678334, 46.655942300106396], [-60.36003758600845, 46.65593266663446], [-60.359649602748405, 46.655794109988236], [-60.359542926946304, 46.655751318208345], [-60.35953293989956, 46.655747316636344], [-60.35937659234711, 46.65568340693009], [-60.35934516826483, 46.65566091955381], [-60.35928691747753, 46.655619236901295], [-60.359222470397704, 46.6556006487239], [-60.35911794447677, 46.655573034947786], [-60.359059305400386, 46.65556803560307], [-60.35898778049918, 46.655561928603014], [-60.35895016478836, 46.655561635732276], [-60.358870190606666, 46.655561012398444], [-60.358805305753876, 46.65555141372401], [-60.35875304715544, 46.655524106980266], [-60.35871938859778, 46.65550054183037], [-60.35870122662107, 46.65548781048053], [-60.35868877811554, 46.65547719108109], [-60.35863723947216, 46.65543323319027], [-60.35858862295446, 46.65538054092696], [-60.35858632546777, 46.655378066891], [-60.35857746554366, 46.65537185931014], [-60.358534505621776, 46.655341761330305], [-60.35848311445501, 46.65532348335254], [-60.35844694742426, 46.655313044951576], [-60.35841866845592, 46.65530488574426], [-60.35831417914368, 46.6553033626451], [-60.35828823682765, 46.655294996395945], [-60.35828715591625, 46.65529464742754], [-60.35826453920206, 46.655278654135586], [-60.35822271827192, 46.65524905934548], [-60.35817180964512, 46.6552208835389], [-60.35812070482457, 46.65522087271302], [-60.358093387701935, 46.655220871515255], [-60.357974081534756, 46.655282004708816], [-60.35790918791292, 46.65529941387687], [-60.35788523057511, 46.65529108440432], [-60.357856491873726, 46.65528109646397], [-60.35774021716055, 46.655253209929135], [-60.357648354069525, 46.65523398729627], [-60.357579388586664, 46.65523357246775], [-60.35754382068808, 46.65523337145844], [-60.35752575300741, 46.655229974946316], [-60.357440207566434, 46.65521387710391], [-60.35736521365039, 46.65519073318866], [-60.3573487828888, 46.65518566450965], [-60.357246011775544, 46.65512209016224]]}, "properties": {"OBJECTID": 8486, "FEAT_CODE": "WACO20", "FEAT_DESC": "Coast - Water to the right line", "RIVNAME_1": " ", "RIVNAME_2": " ", "ZVALUE": 0.5, "FID": null, "SHAPE_Length": 678.7796770428604}}, {"type": "Feature", "id": 8513, "geometry": {"type": "LineString", "coordinates": [[-60.34949366905787, 46.653497266375176], [-60.34944012965596, 46.65352302481485], [-60.34941396222647, 46.65355031775959], [-60.34941314076466, 46.6535914460657], [-60.34941307014683, 46.65359529636769], [-60.3494178880955, 46.65360234694828], [-60.3494374665053, 46.65363096136992], [-60.34944500800939, 46.653640316051096], [-60.34948922197695, 46.65369516015307], [-60.34955220957325, 46.6538073815265], [-60.34956496556449, 46.65383011386574], [-60.34965461279644, 46.65392129051238], [-60.34971772306397, 46.65399385226315], [-60.3497196479457, 46.65400099776807], [-60.349729886560354, 46.65403913349084], [-60.34972863788592, 46.65408953974568], [-60.34972855524082, 46.654093101773356], [-60.349724406054484, 46.65410525440303], [-60.34970110026173, 46.65417346409291], [-60.349674506201126, 46.65420974706302], [-60.349620513610994, 46.654244494938226], [-60.34956823466319, 46.65427119164023], [-60.349548168230264, 46.654292119142795], [-60.349542067358776, 46.654298475615285], [-60.349536187976945, 46.65430939114931], [-60.349527693412355, 46.65432514198226], [-60.349538964793, 46.65441540183126], [-60.34951284091357, 46.654441795820134], [-60.34949846691184, 46.65446846218175], [-60.34949301240216, 46.654730798550155], [-60.349492674992646, 46.65474732346436], [-60.34949645607817, 46.65476141489137], [-60.349504838441604, 46.654792604710266], [-60.34951944154621, 46.65481899781155], [-60.349530057446856, 46.654838188597], [-60.34958231056792, 46.654865499450565], [-60.34969899341091, 46.65491140347853], [-60.349827452139245, 46.65495758933379], [-60.34994457510027, 46.65502150302183], [-60.34999127214533, 46.65503307016141], [-60.35006080146027, 46.655050287371935], [-60.35012700256708, 46.655059921526544]]}, "properties": {"OBJECTID": 8513, "FEAT_CODE": "WACO20", "FEAT_DESC": "Coast - Water to the right line", "RIVNAME_1": " ", "RIVNAME_2": " ", "ZVALUE": 0.5, "FID": null, "SHAPE_Length": 216.97944574228939}}, {"type": "Feature", "id": 10723, "geometry": {"type": "LineString", "coordinates": [[-60.353322481092015, 46.65284258043944], [-60.3532837092596, 46.652806574502286], [-60.353167058508504, 46.65275977487743], [-60.35309894156361, 46.65273802931663], [-60.353024210054066, 46.65271416861537], [-60.35297225694369, 46.652701599039816], [-60.352867911754416, 46.65267635065614], [-60.35277823829245, 46.65263917506251], [-60.35276346988308, 46.652637024161265], [-60.35271205176274, 46.65262956077275], [-60.352665623864, 46.652629106794144], [-60.35264672049238, 46.65262893010521], [-60.352605679527095, 46.65263994065098], [-60.352581842437765, 46.652646318609165], [-60.352489084329896, 46.65269907893972], [-60.352445774440916, 46.65273219453972], [-60.3523954045522, 46.65277070855354], [-60.35236111634666, 46.6528053560068], [-60.35234316114821, 46.65282349793414], [-60.3523332676801, 46.65282910974281], [-60.35226385317289, 46.65286846066782], [-60.352210315665225, 46.6528942204476], [-60.352197260567166, 46.65289391812098], [-60.35214543532874, 46.65288461807897], [-60.35209406042301, 46.652839338012534], [-60.352084821284556, 46.65283422812316], [-60.351978244941556, 46.65277545678537], [-60.35183589234106, 46.652692961101486], [-60.35179977975747, 46.65268253984452], [-60.35177145187482, 46.652674359849485], [-60.35169307728284, 46.65267345353183], [-60.35162687989343, 46.65269081993512], [-60.35159989195724, 46.65270818553144], [-60.351388659504074, 46.652804990943736], [-60.35125755758297, 46.65286675288355], [-60.35122408303413, 46.65288152016055], [-60.351098600436096, 46.652936869200445], [-60.35100711512335, 46.65296354023005], [-60.35096748334526, 46.65299036858687], [-60.35095439883771, 46.65299922729202], [-60.35091347645477, 46.65303427859803], [-60.35087337677236, 46.6530792397944], [-60.350864926357204, 46.65310158864664], [-60.35085986962363, 46.6531149352718], [-60.35092340762834, 46.65320550598812], [-60.350923180028666, 46.65322273544199], [-60.35092294302934, 46.65324149465381], [-60.35089551564481, 46.653294858331634], [-60.350891065480134, 46.6532968611915], [-60.35085542762108, 46.653312829218414], [-60.35080865504759, 46.653320754367414], [-60.350804029187984, 46.65332153817229], [-60.35075701873202, 46.653304375185755], [-60.35075138151643, 46.65330231859959], [-60.350660359113604, 46.65326601007512], [-60.35063063616794, 46.65326016443524], [-60.35060857774801, 46.65325581036714], [-60.35054325797646, 46.65325519676418], [-60.35051110286896, 46.65326247952581], [-60.35050360920654, 46.653264177848655], [-60.3504622195978, 46.65329219827713], [-60.350425209203884, 46.65331726021995], [-60.3503977364064, 46.65334453213959], [-60.350396406238126, 46.65339849146017], [-60.3504090534817, 46.6534338839851], [-60.35038897419656, 46.65345482033828], [-60.3503828996307, 46.653461177465566], [-60.35034723202655, 46.65346571482591], [-60.35031712719557, 46.653469553101445], [-60.350271677235, 46.653460039958084], [-60.35022528304839, 46.653450324916925], [-60.35012453265619, 46.65343656015843], [-60.350082453618576, 46.65343081500538], [-60.35001669423681, 46.65343919077081], [-60.34997704555153, 46.65347517124752], [-60.349941180574355, 46.65351048341944], [-60.349923480553365, 46.65352792889266], [-60.34991291868193, 46.653535441969616], [-60.34989775323945, 46.65354622329112], [-60.34979371932097, 46.65350872151022], [-60.34972797268712, 46.65349009783219], [-60.34962388255862, 46.65348048515191], [-60.34958626557687, 46.653485328082006], [-60.34949366905787, 46.653497266375176]]}, "properties": {"OBJECTID": 10723, "FEAT_CODE": "WACO20", "FEAT_DESC": "Coast - Water to the right line", "RIVNAME_1": " ", "RIVNAME_2": " ", "ZVALUE": 0.5, "FID": null, "SHAPE_Length": 390.71334585383187}}, {"type": "Feature", "id": 19145, "geometry": {"type": "LineString", "coordinates": [[-60.350866759693986, 46.65524716087425], [-60.350868077609334, 46.65522019184443], [-60.35085791120276, 46.655209444464475], [-60.3508420047963, 46.65519258818671], [-60.35080088919984, 46.65517057588816], [-60.35079104321447, 46.655165307838175], [-60.35067346713385, 46.655137383944634], [-60.350464445401734, 46.655135240459614], [-60.35028286619251, 46.65510673299466]]}, "properties": {"OBJECTID": 19145, "FEAT_CODE": "WACOIS10", "FEAT_DESC": "Coastal Island - Water to the right line", "RIVNAME_1": " ", "RIVNAME_2": " ", "ZVALUE": 0.4, "FID": null, "SHAPE_Length": 51.38311799829331}}, {"type": "Feature", "id": 20780, "geometry": {"type": "LineString", "coordinates": [[-60.35019935597184, 46.6559057847509], [-60.35026599760878, 46.655879420612834], [-60.350305603554965, 46.65584434803868], [-60.35030650806831, 46.65579936972748], [-60.350295439803546, 46.65577498461848], [-60.35028172740056, 46.65574479632466], [-60.35027660666284, 46.65572575096003], [-60.35026956311983, 46.65569951515037], [-60.35028307093329, 46.65566382876822], [-60.350364098321634, 46.655583807824875], [-60.35042989896243, 46.65554843324721], [-60.35046462171539, 46.65553196715612], [-60.35052219808271, 46.655504672811794], [-60.35054197062604, 46.65549457415654], [-60.350574477356616, 46.655477984683195], [-60.35069474051693, 46.65537097311505], [-60.35073390691668, 46.655344881061914], [-60.35084020977478, 46.655282545147045], [-60.350866759693986, 46.65524716087425]]}, "properties": {"OBJECTID": 20780, "FEAT_CODE": "WACOIS10", "FEAT_DESC": "Coastal Island - Water to the right line", "RIVNAME_1": " ", "RIVNAME_2": " ", "ZVALUE": 0.4, "FID": null, "SHAPE_Length": 96.52836631471948}}, {"type": "Feature", "id": 22540, "geometry": {"type": "LineString", "coordinates": [[-60.35028286619251, 46.65510673299466], [-60.35018532019606, 46.6551056963576], [-60.35013915355217, 46.65510520241255], [-60.3499945878705, 46.655094652023095], [-60.34994318761358, 46.65510336054966], [-60.34989708124243, 46.6550960190136], [-60.34987704349366, 46.65509282762389], [-60.34981172153543, 46.65509221355747], [-60.34970761526844, 46.65508260058931], [-60.34945939617873, 46.655080446667654], [-60.349393634703546, 46.655088822029086], [-60.3493816382007, 46.65509064988881], [-60.34934227832299, 46.65509663131698], [-60.3492882537174, 46.65513227827696], [-60.34923552143972, 46.6551949547395], [-60.34917975589884, 46.65531965985796], [-60.34915653226114, 46.65533564517111], [-60.34914053177786, 46.655346650027255], [-60.348997992474715, 46.65541466009842], [-60.34886350929981, 46.655478824853326], [-60.34881316489953, 46.6555038830921], [-60.3488099232079, 46.65550549089893], [-60.348800212925056, 46.65551909852084], [-60.34879729422126, 46.65552318877682], [-60.34879597526248, 46.65555015776002], [-60.34883474668502, 46.65555915663418], [-60.34888827507251, 46.6555603977908], [-60.34901850699391, 46.65551661811059], [-60.34903015105705, 46.65551398113027], [-60.34905815765165, 46.655507637583575], [-60.349094176378415, 46.65550797768602], [-60.34912348008308, 46.655508252090776], [-60.349176173212456, 46.655526573472635], [-60.349180715405204, 46.655537127611396], [-60.349187910148075, 46.65555384514869], [-60.34918747055962, 46.65556283481257], [-60.3491462110121, 46.65559749966976], [-60.34908115205417, 46.655652168395555], [-60.34909419453953, 46.65567947034993], [-60.34912083547467, 46.65569196782154], [-60.349132513452226, 46.65569745848627], [-60.349158637988914, 46.65569806416774], [-60.349238774723126, 46.65566302264578], [-60.349272178527414, 46.65565162025653], [-60.349290615187, 46.65564532478557], [-60.349342882062636, 46.655645636497496], [-60.34938251966729, 46.65566365512066], [-60.34940935409063, 46.6556901067857], [-60.34941992866564, 46.65570052176205], [-60.34947218254151, 46.65572783267832], [-60.34948479875092, 46.65573712499561], [-60.34953372479912, 46.65572824232176], [-60.34957711247624, 46.655720356226134], [-60.34983617909156, 46.65579477815055], [-60.34989262868937, 46.655817281202275], [-60.34992721858225, 46.65583107870626], [-60.349995575903485, 46.65587977727908], [-60.35000426604966, 46.655885963593], [-60.350069576208476, 46.655913576836895], [-60.35013445972863, 46.65592318044659], [-60.35019935597184, 46.6559057847509]]}, "properties": {"OBJECTID": 22540, "FEAT_CODE": "WACOIS10", "FEAT_DESC": "Coastal Island - Water to the right line", "RIVNAME_1": " ", "RIVNAME_2": " ", "ZVALUE": 0.4, "FID": null, "SHAPE_Length": 290.3336962185983}}]}