{"type": "FeatureCollection", "features": [{"type": "Feature", "id": 47261, "geometry": {"type": "LineString", "coordinates": [[-60.524584027454125, 46.671587499525735], [-60.524597088813344, 46.671587782267885], [-60.52461605159924, 46.67159482558295], [-60.52462280078816, 46.67159733862037], [-60.52466079373411, 46.671624260360616], [-60.5246875652698, 46.67163552259018], [-60.52472621560696, 46.671651775818745], [-60.52475151691172, 46.67167032301656], [-60.52474994086877, 46.671765497403285], [-60.52474927445308, 46.67180527093365], [-60.52474084500823, 46.6718192181001], [-60.52472240411365, 46.67184968811836], [-60.52468633642421, 46.67190539890583], [-60.52468160974327, 46.671912703395705], [-60.524628616394786, 46.671956555085636], [-60.524609918376406, 46.671969469980574], [-60.52458946485428, 46.671983606837586], [-60.52456009971771, 46.671994769850464], [-60.52449765666228, 46.67201851843978], [-60.52446198019472, 46.67202445093334], [-60.52444495895757, 46.67202727736682]]}, "properties": {"OBJECTID": 47261, "FEAT_CODE": "WALK20", "FEAT_DESC": "Lake - Water to the right line", "RIVNAME_1": " ", "RIVNAME_2": " ", "ZVALUE": 441.2, "FID": null, "SHAPE_Length": 66.88596545836926}}, {"type": "Feature", "id": 47262, "geometry": {"type": "LineString", "coordinates": [[-60.52444495895757, 46.67202727736682], [-60.52435389843204, 46.67201720622166], [-60.52431467297168, 46.67201725698853], [-60.52428912819186, 46.67200775818593], [-60.52428892307647, 46.671995937055556], [-60.524288886717684, 46.67198070866829], [-60.52431700334945, 46.6719093102762], [-60.524344137734204, 46.67180189155621], [-60.52442365961031, 46.67172082429897], [-60.52443494684806, 46.671707856998694], [-60.52447747442148, 46.671658990958015], [-60.5245439807873, 46.67160553212186], [-60.52456109390184, 46.67159782979058], [-60.524584027454125, 46.671587499525735]]}, "properties": {"OBJECTID": 47262, "FEAT_CODE": "WALK20", "FEAT_DESC": "Lake - Water to the right line", "RIVNAME_1": " ", "RIVNAME_2": " ", "ZVALUE": 441.2, "FID": null, "SHAPE_Length": 66.00643290303684}}, {"type": "Feature", "id": 155442, "geometry": {"type": "LineString", "coordinates": [[-60.529059398456376, 46.66475832302763], [-60.529065025859374, 46.66475704066243], [-60.52907174470635, 46.66475303695105], [-60.52910395606076, 46.664733816485786], [-60.52910628953326, 46.664732525941595], [-60.52912726384146, 46.66472092845905], [-60.529142860519315, 46.66471058273985], [-60.52916416542784, 46.664673955030715], [-60.52916416986761, 46.66467213717286], [-60.52916088708866, 46.66466528941249], [-60.52915104689761, 46.664644854304], [-60.52914250800732, 46.664635733025825], [-60.5291261161382, 46.6646182162705], [-60.52912557219563, 46.6646178175269], [-60.52911346631275, 46.664608943163216]]}, "properties": {"OBJECTID": 155442, "FEAT_CODE": "WARV10", "FEAT_DESC": "Double Line River - Water to the left line", "RIVNAME_1": "Clyburn Brook", "RIVNAME_2": " ", "ZVALUE": 9999, "FID": null, "SHAPE_Length": 21.06191083540704}}, {"type": "Feature", "id": 155443, "geometry": {"type": "LineString", "coordinates": [[-60.52448078534022, 46.66494702642075], [-60.524444937700295, 46.66494707834685], [-60.52444156458654, 46.66494708632086], [-60.5242851760652, 46.66493650076617], [-60.52417817544597, 46.66493566009334], [-60.52415449638782, 46.66493547140405], [-60.524132043812855, 46.66493218634394], [-60.52408956729046, 46.66492596578745], [-60.523945754210885, 46.66489765250365], [-60.52363443326985, 46.66478740460055], [-60.52357639245594, 46.664765052190724], [-60.52346614476108, 46.66472256157733], [-60.52325815190737, 46.66463976777684], [-60.523218660622554, 46.664623153816436], [-60.52319273913621, 46.664612251625705], [-60.52316268079204, 46.664604625739905], [-60.523010529157766, 46.664566005914885], [-60.522953851908895, 46.664555589424204], [-60.52285496437638, 46.66453742769414], [-60.522697682019725, 46.664517829824675], [-60.52247632580507, 46.66449863448299], [-60.52219570797071, 46.66446837186105], [-60.52211078896073, 46.66445921494355], [-60.52207911745495, 46.664455711711526], [-60.52201974160721, 46.664449142181034], [-60.5219719427906, 46.664440114568045], [-60.52177220719204, 46.6644023788639], [-60.521629689720434, 46.66437409073442], [-60.52145974727767, 46.66434520799447], [-60.521297675528636, 46.664323452435454], [-60.521251876137676, 46.66431730278978], [-60.52117547660578, 46.66431624065244], [-60.52113429884772, 46.66431565400802], [-60.52110552959447, 46.66432043921423], [-60.521028917546765, 46.66433316902667], [-60.52092357730679, 46.6643497848609], [-60.52090930888725, 46.66435535237838], [-60.52083173888161, 46.664385592851694], [-60.52072772641855, 46.66441861688251], [-60.52059376970058, 46.664504108225515], [-60.520554393846766, 46.66451442317032], [-60.52047236094276, 46.66453590884798], [-60.520332476599734, 46.66459493801154], [-60.52024742229933, 46.664615026042725], [-60.52013565927695, 46.6646268579858], [-60.52007572880429, 46.66463840996304], [-60.52001978099179, 46.66464920230434], [-60.519903970925085, 46.66466891105104], [-60.51981930218222, 46.66467314052305], [-60.51974616879999, 46.664677539136484], [-60.5196790273471, 46.6647138278769], [-60.519623815453976, 46.664743670510695], [-60.51959961576044, 46.66478827946239], [-60.51947254318591, 46.66479727673593]]}, "properties": {"OBJECTID": 155443, "FEAT_CODE": "WARV10", "FEAT_DESC": "Double Line River - Water to the left line", "RIVNAME_1": "Clyburn Brook", "RIVNAME_2": " ", "ZVALUE": 9999, "FID": null, "SHAPE_Length": 411.696015576809}}, {"type": "Feature", "id": 155564, "geometry": {"type": "LineString", "coordinates": [[-60.52911346631275, 46.664608943163216], [-60.529054412493146, 46.664584105714994], [-60.52904805046851, 46.66458143030574], [-60.529010644195246, 46.66457237821489], [-60.52897047144153, 46.66456264534615], [-60.52885300139922, 46.66454802015918], [-60.52881318645816, 46.66454305584649], [-60.52876090664764, 46.66454282601482], [-60.52870844093745, 46.664551546914254], [-60.52870164057534, 46.66455303790649], [-60.52863029101035, 46.66456879347013], [-60.528577613840966, 46.664577563738106], [-60.52856455413098, 46.66457728148258], [-60.52853947696827, 46.66457708148463], [-60.528433875039575, 46.66457625702728], [-60.52829021211594, 46.66460195109048], [-60.528235845881056, 46.664605905812856], [-60.52818528335847, 46.66460958273988], [-60.52808567899094, 46.66461483645337], [-60.5280280341121, 46.664617874224035], [-60.527937237455376, 46.664624344181995], [-60.527805075317644, 46.66463376268098], [-60.52765468000769, 46.66463250907498], [-60.527466623652636, 46.66463094494354], [-60.52732247459639, 46.66463862773562], [-60.52716444534716, 46.66466400973134], [-60.52686275212856, 46.66471508375574], [-60.52654926357693, 46.66476680182439], [-60.52637772250116, 46.664801790215364], [-60.52623405810527, 46.664827481663416], [-60.52586784425195, 46.66486005769334], [-60.52564570536317, 46.66485795113388], [-60.52552767503559, 46.66486619682445], [-60.525160639468695, 46.66491675235187], [-60.5249912111949, 46.66493378484448], [-60.52478173430261, 46.66494095043378], [-60.52477148880049, 46.66494116064973], [-60.52448078534022, 46.66494702642075]]}, "properties": {"OBJECTID": 155564, "FEAT_CODE": "WARV10", "FEAT_DESC": "Double Line River - Water to the left line", "RIVNAME_1": "Clyburn Brook", "RIVNAME_2": " ", "ZVALUE": 9999, "FID": null, "SHAPE_Length": 360.69691336164897}}, {"type": "Feature", "id": 155565, "geometry": {"type": "LineString", "coordinates": [[-60.51866904302427, 46.66464744840791], [-60.518661408477556, 46.6646294631875], [-60.51864596161636, 46.66459309289737], [-60.518588853468074, 46.664571262173055], [-60.51853200663401, 46.664538871354246], [-60.51846148261546, 46.66449941586488], [-60.51842584526721, 46.66447946396365], [-60.51827222550349, 46.66438762628167], [-60.51826294340695, 46.664383356934415], [-60.5182579632797, 46.66438106190526], [-60.518180317335066, 46.664335277826744], [-60.518174702402455, 46.66433143005466], [-60.518141026706495, 46.66430832571829], [-60.5181063919739, 46.66429132040426], [-60.5181026715222, 46.664289493697716], [-60.51783017408801, 46.66418818136022], [-60.517764352961194, 46.66416965300293], [-60.51763491094963, 46.66414164371433], [-60.51753076443003, 46.66413218298384], [-60.51748551345967, 46.664131767590064], [-60.51738702764338, 46.66413086241145], [-60.51721592323558, 46.66415594678127], [-60.517109688888205, 46.66416980375542], [-60.5170857541985, 46.66417291996704], [-60.51705735366835, 46.664182491041885], [-60.51692773805635, 46.66422618740131], [-60.51688773568386, 46.66424331830941], [-60.51687227123596, 46.66424958833368], [-60.51682246707722, 46.66426980028951], [-60.51671749658468, 46.66427832047794], [-60.51668818554187, 46.664278088930885], [-60.51665215778662, 46.66427780150694], [-60.51658681899136, 46.664277282498624], [-60.51656605476691, 46.664279675476116], [-60.51652110941455, 46.66428485519917], [-60.51650717679415, 46.66428964648018], [-60.516469312104356, 46.664302629773], [-60.51637657701701, 46.66432941493767], [-60.51632483388002, 46.664346290645035], [-60.516258657899236, 46.6643637528188], [-60.51616871068309, 46.66436849491753], [-60.516101420860615, 46.6643720371511], [-60.51609759805773, 46.664370163156974], [-60.51606306636897, 46.664353204459275], [-60.51603926213063, 46.664345199561524], [-60.51603730510236, 46.66434454506527], [-60.51594653191083, 46.66427147497617], [-60.515911987273334, 46.664254515951], [-60.51590817713279, 46.66425265122533], [-60.515885894766726, 46.66424937723939], [-60.51584325089896, 46.66424313197718], [-60.51577701832718, 46.66423359331199], [-60.515750858115005, 46.664233924963], [-60.51558107132027, 46.6642590445108], [-60.51525362306081, 46.66430141952716], [-60.51514828132944, 46.66431803000673], [-60.51511599711133, 46.664330468133016], [-60.5149646384392, 46.6643887374056], [-60.51481965130826, 46.664414385762875], [-60.51473370378496, 46.66441400278674], [-60.51466282627596, 46.66441367729257], [-60.51460957706697, 46.66441292492606], [-60.51454524925456, 46.664412021733895], [-60.51444545867667, 46.66438340234545], [-60.51441622081519, 46.66437501800791]]}, "properties": {"OBJECTID": 155565, "FEAT_CODE": "WARV10", "FEAT_DESC": "Double Line River - Water to the left line", "RIVNAME_1": "Clyburn Brook", "RIVNAME_2": " ", "ZVALUE": 9999, "FID": null, "SHAPE_Length": 360.8123311893265}}, {"type": "Feature", "id": 170960, "geometry": {"type": "LineString", "coordinates": [[-60.51866904302427, 46.66464744840791], [-60.51861827228019, 46.66464480774066], [-60.518569797154754, 46.66464227986479], [-60.51847551427925, 46.664626077215964], [-60.518455462510296, 46.66462033220149], [-60.518410998352465, 46.6646075775585], [-60.51822965629622, 46.66453590068098], [-60.518177306966585, 46.66451520800609], [-60.51817382250861, 46.66451308043154], [-60.51807303112859, 46.66445174631132], [-60.5180423145227, 46.664429966140816], [-60.517995796986355, 46.66439697126984], [-60.51794384554197, 46.66436074451018], [-60.517840492582394, 46.66430540243059], [-60.5178352446409, 46.66430239058728], [-60.51777681387281, 46.66426892103362], [-60.51770844970946, 46.664255395316395], [-60.51768481938252, 46.6642507244544], [-60.517580713824074, 46.664240364681675], [-60.517493930251455, 46.66423997463198], [-60.51747615530333, 46.66423989473416], [-60.517435129038674, 46.664243422942555], [-60.51738428565137, 46.66424779997404], [-60.5172401367063, 46.66425547004563], [-60.51716180872261, 46.66428166867429], [-60.51703627532602, 46.664327280746726], [-60.51701690611654, 46.664334320982356], [-60.516935295964565, 46.66435254638365], [-60.51689935809578, 46.664360567783234], [-60.516893835893015, 46.66436154584171], [-60.516754384915934, 46.66438621889715], [-60.516717035861106, 46.66439108667148], [-60.51662417602094, 46.6644031906924], [-60.51654041127994, 46.664410803282486], [-60.51644040780456, 46.664419899079], [-60.516313294315545, 46.664444344565055], [-60.51621751761437, 46.66446275674309], [-60.51609948711309, 46.664470992688955], [-60.51581359073493, 46.66440538359192], [-60.51573519227179, 46.664404580382495], [-60.51564855103716, 46.664416764711724], [-60.51555230458452, 46.66443030624724], [-60.51542123545713, 46.664428961435846], [-60.51539550761309, 46.66442869941504], [-60.51539013027065, 46.6644296535491], [-60.51525053361563, 46.664454348604266], [-60.51511389887353, 46.66447203402837], [-60.51492308353756, 46.66449673163549], [-60.514872194671426, 46.66450152055099], [-60.51475240231634, 46.66451282173874], [-60.51462261794205, 46.66452080070347], [-60.51447929266973, 46.66451048564129], [-60.51438689970858, 46.664501277520806]]}, "properties": {"OBJECTID": 170960, "FEAT_CODE": "WARV20", "FEAT_DESC": "Double Line River - Water to the right line", "RIVNAME_1": "Clyburn Brook", "RIVNAME_2": " ", "ZVALUE": 9999, "FID": null, "SHAPE_Length": 348.59552841237996}}, {"type": "Feature", "id": 171407, "geometry": {"type": "LineString", "coordinates": [[-60.529059398456376, 46.66475832302763], [-60.52903226381719, 46.66476454051491], [-60.52902429915552, 46.66475744758509], [-60.52901727708506, 46.66475118500233], [-60.52899871939421, 46.66472726758977], [-60.528987891737216, 46.66470211324863], [-60.52898150456321, 46.664672176985256], [-60.52898122362896, 46.66467088394724], [-60.52895592400943, 46.66465233769993], [-60.52892931843449, 46.664633763225794], [-60.528877858411796, 46.664615551620415], [-60.52884215137527, 46.66461539196997], [-60.52877329864935, 46.6646150919896], [-60.52873796671605, 46.66461473341817], [-60.5286949123894, 46.66461429794042], [-60.528589560603415, 46.66463092059024], [-60.528418812467784, 46.66466604617763], [-60.528379737916794, 46.6646740843871], [-60.528248314356375, 46.66471804248627], [-60.5282318835008, 46.66471801131546], [-60.528156814164554, 46.66471786458015], [-60.528105380443996, 46.66472229662027], [-60.5280649579685, 46.66472577869934], [-60.527987441345104, 46.66473400273559], [-60.52784329206125, 46.66474168618038], [-60.52750353374191, 46.66473884030529], [-60.527214899724555, 46.66479020662501], [-60.52710867246352, 46.66480565700781], [-60.527096472951094, 46.66480743613493], [-60.527000522010425, 46.66481111195254], [-60.52690133627566, 46.66481491572471], [-60.526875216774606, 46.66481435082733], [-60.526599156655436, 46.66484797899091], [-60.52649386730804, 46.66486378208108], [-60.52631089102995, 46.664891242202515], [-60.52623854127244, 46.66489738088042], [-60.526023486846995, 46.66491562380339], [-60.525866762226244, 46.66494103223164], [-60.525768395389555, 46.66495237654814], [-60.525722201731725, 46.66495770387637], [-60.525486181677216, 46.66497329619581], [-60.52541967874873, 46.664984510753584], [-60.525382106309884, 46.66499084348882], [-60.52533003889399, 46.66499625954134], [-60.52522448577708, 46.66500723187641], [-60.5251228500295, 46.665015723962064], [-60.525027644751475, 46.66502367115401], [-60.52487128895302, 46.66504098640535], [-60.52470150370165, 46.66506611053739], [-60.52445236904716, 46.665082316812764], [-60.5244334216718, 46.665079278690925], [-60.52438749384449, 46.66507191255576], [-60.52421705640412, 46.66504520115837], [-60.52408767418504, 46.665024922298365], [-60.52404320398884, 46.66501569763273], [-60.52399569105115, 46.66500583108064], [-60.5238143136514, 46.664941605141216], [-60.52363252546727, 46.6648863787891], [-60.52359258542233, 46.6648695662457], [-60.523567112615474, 46.664858853852955], [-60.52343804419149, 46.66479396017503], [-60.523415180290336, 46.66478680516263], [-60.523320762102465, 46.664757220924145], [-60.52320389105732, 46.664711490681924], [-60.52306394939598, 46.664680011219936], [-60.523035676565215, 46.66467364794587], [-60.522878763991095, 46.66464594954111], [-60.52282343434754, 46.66463665115112], [-60.52276199471721, 46.66462632039301], [-60.52267360389689, 46.66460559597204], [-60.52260550647244, 46.66458963103067], [-60.522514490035434, 46.664576301415124], [-60.52247563668141, 46.664570617744], [-60.5221885113327, 46.66453199731941], [-60.5220582434252, 46.664521983704624], [-60.52204417000927, 46.6645192847968], [-60.522005110422, 46.66451182354081], [-60.521900962268184, 46.66450236676371], [-60.52175998782458, 46.66447692016668], [-60.52164035505281, 46.664455319858725], [-60.52148419977184, 46.66444796643771], [-60.52139251028077, 46.664443648112176], [-60.5212099636482, 46.66443339132417], [-60.521118094089424, 46.66444129956854], [-60.52107470734493, 46.66444356294396], [-60.52106802432931, 46.66444391305468], [-60.52098872937023, 46.664484141988986], [-60.52094399152056, 46.664503367598556], [-60.520913441480836, 46.6645165019399], [-60.52089583017236, 46.664523130954215], [-60.520831928678845, 46.664547196920765], [-60.520696446730845, 46.664585154505204], [-60.52061103731232, 46.66461843777658], [-60.52050635318943, 46.66465412897572], [-60.52045275030756, 46.66467110122121], [-60.52039397350321, 46.66468972520468], [-60.52019712974643, 46.66472164471196], [-60.52011147917299, 46.664743330671016], [-60.520057835289506, 46.66475690892723], [-60.520013786503974, 46.664763063444596], [-60.51991897786655, 46.66477633384833], [-60.51985818360141, 46.66478790297648], [-60.51981467800578, 46.6647961841454], [-60.51971417706396, 46.664818717681776], [-60.51959888824882, 46.66481731495459], [-60.519556149781444, 46.664810547042244], [-60.51947254318591, 46.66479727673593]]}, "properties": {"OBJECTID": 171407, "FEAT_CODE": "WARV20", "FEAT_DESC": "Double Line River - Water to the right line", "RIVNAME_1": "Clyburn Brook", "RIVNAME_2": " ", "ZVALUE": 9999, "FID": null, "SHAPE_Length": 771.723630355809}}, {"type": "Feature", "id": 188404, "geometry": {"type": "LineString", "coordinates": [[-60.52695744574912, 46.65438808580226], [-60.52695670091815, 46.654433068619745], [-60.526940873825374, 46.65447373834244], [-60.526928570197164, 46.654505358484585], [-60.52687518609251, 46.6545582026157], [-60.526852529854374, 46.65456921432946], [-60.52678295811785, 46.65460300675346], [-60.52671144180211, 46.654644469890755], [-60.52669166657964, 46.6546559308781], [-60.52663734551426, 46.65470065482525], [-60.52654441293209, 46.654789542475946], [-60.52646535779489, 46.65486073067289], [-60.526452957241816, 46.65487470008824], [-60.52642539943128, 46.65490576520586], [-60.52640959239336, 46.654918481955775], [-60.52635891563088, 46.65495923470056], [-60.52621447368581, 46.655073296164446], [-60.526212493871945, 46.65507486429506], [-60.526189099082615, 46.65508773185478], [-60.52606768685954, 46.655154520498336], [-60.52594900694063, 46.65523475080899], [-60.52589286405694, 46.655266097303404], [-60.525869875532, 46.65527893758881], [-60.52579156462971, 46.65530514249846], [-60.525757639199334, 46.65532106703438], [-60.52569806978609, 46.655349018370195], [-60.52567095293663, 46.65537957085942], [-60.52565811041937, 46.65539405261223], [-60.525592931420285, 46.655447540894826], [-60.5255003315533, 46.65550043575572], [-60.52544976883951, 46.65553408073499], [-60.52540732112219, 46.655562321440975], [-60.52536734829606, 46.655607355289575], [-60.52534900464061, 46.655631536720996], [-60.52532703174803, 46.655660490491], [-60.525286736376245, 46.65574150746768], [-60.52524317813922, 46.655848760182636], [-60.525217526888326, 46.655911905500524], [-60.52517850307, 46.655965059626155], [-60.52513805791351, 46.655992083602705], [-60.52507321369448, 46.65600957969719], [-60.52500665321566, 46.65603603839157], [-60.52496589077627, 46.656054262651], [-60.52492793075063, 46.656071224585915], [-60.52485186828314, 46.65610339937719], [-60.52482264055839, 46.65611575340837], [-60.524756975094256, 46.6561512311147], [-60.524753650847074, 46.65615361609739], [-60.524571845311385, 46.65628402027038], [-60.52450906128228, 46.65631907422342], [-60.52449271125205, 46.656328206038296], [-60.524468263009524, 46.656340078462826], [-60.5244004779042, 46.65637301713603], [-60.52432820227888, 46.656392088879315], [-60.52426817693233, 46.65640794288901], [-60.52420335995149, 46.65642453910179], [-60.52408962153547, 46.65644109300169], [-60.52408495032594, 46.65644177484031], [-60.524083883618104, 46.65644194973881], [-60.52403226781211, 46.65645053388989], [-60.523939104347974, 46.65648536171544], [-60.52391393191825, 46.656494770399036], [-60.52378292224884, 46.656529741552], [-60.52377324062594, 46.65653280781738], [-60.52375639653759, 46.65653815791876], [-60.52372206678486, 46.656538008480794], [-60.52370411150561, 46.65653792564101], [-60.52352082356018, 46.6565447560088], [-60.523457215836316, 46.65654431439783], [-60.523337892190206, 46.65654349400011], [-60.523089631565746, 46.65654170759458], [-60.52302519645072, 46.65655022060547], [-60.52298051671363, 46.656556893577545], [-60.52297255475963, 46.65655808007266], [-60.52289378876669, 46.65659417290252], [-60.52288224190324, 46.65660373252939], [-60.52284080948995, 46.65663802413199], [-60.522811749053204, 46.65667187275748], [-60.52278696737383, 46.65670075619076], [-60.52269327655901, 46.65683462319825], [-60.52262480599345, 46.656960036746135], [-60.52254458303879, 46.65708519562704], [-60.52250387069121, 46.657175220366526], [-60.522489522819015, 46.657188292180194], [-60.52246431861452, 46.65721125353007], [-60.52243695710314, 46.657237660048494], [-60.52227828477703, 46.65733501959876], [-60.522200042192374, 46.657388222879405], [-60.52217192820899, 46.657416502983494], [-60.522146609518124, 46.65744196372197], [-60.522114783273615, 46.6574716753334], [-60.52207970783211, 46.657504412451715], [-60.522052592990946, 46.657522841415414], [-60.522027096868115, 46.65754017147816], [-60.52199504135833, 46.657561742283896], [-60.52196101689109, 46.65758463837862], [-60.52188742817905, 46.657606074066436], [-60.52184311592741, 46.65761898240881], [-60.52182218806862, 46.657627303648354], [-60.52177655193981, 46.65764543914705], [-60.52164596268657, 46.657671408181486], [-60.52155893512079, 46.65770088618728], [-60.52154107822596, 46.65770693399309], [-60.521475323064784, 46.65771540852081], [-60.52136175211611, 46.65772850742269], [-60.521330793868664, 46.65773207526111], [-60.52132175541616, 46.65773393129012], [-60.52129120880059, 46.657740216975284], [-60.52125757048442, 46.65774465367631], [-60.521226772422935, 46.657748719946994], [-60.52110874407874, 46.65775696108775], [-60.520990061338765, 46.65777065078815], [-60.52096421467746, 46.65777362736018], [-60.520899353994594, 46.657791120731815], [-60.52072706824847, 46.657871092399226], [-60.520690157108774, 46.65789078460376], [-60.52059579536638, 46.657941135350185], [-60.52051702580979, 46.65797722646502], [-60.52047661797741, 46.65800334962315], [-60.520470529053135, 46.658010732410425], [-60.52041019699644, 46.65808380736577], [-60.52038886490234, 46.6581032433093], [-60.52037062940023, 46.658119848467706], [-60.52033986473133, 46.658146324683486], [-60.52032983624331, 46.65815496300109], [-60.52031224414608, 46.658168360180156], [-60.52022418595321, 46.65823547891264], [-60.52014889553049, 46.65828579288108], [-60.52006508282631, 46.658341816831296], [-60.51990687314153, 46.65845718268847], [-60.519748151617115, 46.65855543763715], [-60.519742402792325, 46.65855966883852], [-60.51961556093187, 46.65865335920407], [-60.519469513192966, 46.658759988480874], [-60.51938249975529, 46.658861931385815], [-60.51936316371066, 46.658884578361715], [-60.519230244573926, 46.659018491484304], [-60.51916649779429, 46.659065581324064], [-60.519097664868625, 46.65911641268658], [-60.519080469124745, 46.65913541613932], [-60.5190577383549, 46.65916054534914], [-60.51901777062566, 46.659205577081586], [-60.51889742538526, 46.659321763060454], [-60.5187784135569, 46.659437077866876], [-60.518770099989155, 46.65944821919882], [-60.51869766709955, 46.6595451230862], [-60.51864177086481, 46.6596148644387], [-60.51860478425835, 46.65966100468992], [-60.51849712512246, 46.65978556533745], [-60.5183646132003, 46.65991048650117], [-60.51827202850973, 46.659991275154425], [-60.51825604861419, 46.66001768469041], [-60.51824515917608, 46.66003569091086], [-60.518137868937664, 46.66015215941992], [-60.51813147639909, 46.66016530435163], [-60.51812488127808, 46.660178876875534]]}, "properties": {"OBJECTID": 188404, "FEAT_CODE": "WARV50", "FEAT_DESC": "River - Single Line", "RIVNAME_1": " ", "RIVNAME_2": " ", "ZVALUE": 9999, "FID": null, "SHAPE_Length": 986.7452636216383}}, {"type": "Feature", "id": 189533, "geometry": {"type": "LineString", "coordinates": [[-60.527739389062496, 46.659568169155555], [-60.52772640624393, 46.65959488779839], [-60.52769601590145, 46.659630985839726], [-60.527658687546044, 46.65967533065995], [-60.52762180704763, 46.65973507477169], [-60.527592350924614, 46.65978278469819], [-60.52756601985946, 46.65982674628017], [-60.52753858652322, 46.659872519977355], [-60.52751042004407, 46.65991545188534], [-60.527497845980754, 46.65993463752563], [-60.52747217611099, 46.659952064037185], [-60.527470867597465, 46.659952953721145], [-60.52743135725211, 46.659988098511725], [-60.52741948222862, 46.66001975495108], [-60.52740455778889, 46.66005951724947], [-60.52736253954528, 46.66016339308845], [-60.52735006106728, 46.660194235490984], [-60.52733222992386, 46.66023496090041], [-60.52732233769835, 46.66025753442986], [-60.52729588569433, 46.66029296154337], [-60.52720294420752, 46.66038184948615], [-60.52717852281827, 46.66040084189149], [-60.52712298576, 46.66044401878704], [-60.52709677167389, 46.6604679222843], [-60.527083433395056, 46.66048007152499], [-60.52698184420432, 46.66058142595913], [-60.52697661211209, 46.660586658673324], [-60.52688362856754, 46.66067644542308], [-60.526791096374694, 46.66075633310417], [-60.52671080179977, 46.66085449395387], [-60.52667124926595, 46.66089053754489], [-60.5265908040984, 46.66093469639044], [-60.52652092594003, 46.660987048555455], [-60.52647170163908, 46.661023917842975], [-60.52638279315907, 46.661076218263375], [-60.526366929585606, 46.66108554986132], [-60.526355625430206, 46.66109064219518], [-60.52632689139064, 46.66110358327322], [-60.52628989301146, 46.661128333266056], [-60.52628778935823, 46.661129745721915], [-60.52622129836046, 46.66118319695186], [-60.52616746842154, 46.66124593082825], [-60.52614271268117, 46.66128683923428], [-60.52614059176088, 46.66129034826183], [-60.52607342893199, 46.66141579208342], [-60.52600578062828, 46.66152322580773], [-60.5259456267684, 46.6615967664859], [-60.525925483460426, 46.66162138604451], [-60.525879400344614, 46.66165728806407], [-60.52583331716756, 46.66169319006367], [-60.525780322001985, 46.66173704228697], [-60.52575335519155, 46.66175535832598], [-60.525746776862995, 46.66176888664732], [-60.525740370835045, 46.66178207670496], [-60.52572105927087, 46.66183113961674], [-60.52571227533235, 46.661853466991424], [-60.52570496474339, 46.66187530425859], [-60.5256850341838, 46.661934775510666], [-60.52568059999923, 46.661946577267216], [-60.52567163890454, 46.66197049376553], [-60.52565545120543, 46.6620069615752], [-60.52564395405267, 46.66203288414374], [-60.525617459009034, 46.66206920991044], [-60.52559955436973, 46.662093175869956], [-60.52555062985467, 46.66215866153287], [-60.52553815886244, 46.66217069436276], [-60.525523280280055, 46.6621850690326], [-60.52551022117629, 46.66218478643948], [-60.525444212646036, 46.66225625620547], [-60.52537475079291, 46.662317751447205], [-60.52536383929952, 46.66232740606685], [-60.52532739722203, 46.662347100911724], [-60.52529816607395, 46.662362892901434], [-60.52516599914165, 46.66245183025166], [-60.52516044560231, 46.66245521997094], [-60.5250207725912, 46.662540484788856], [-60.525008787299235, 46.66255304106038], [-60.52499468742696, 46.66256781950591], [-60.524966488067115, 46.66261082206454], [-60.52495394185315, 46.662629936025546], [-60.52488744725964, 46.6626833953969], [-60.52486099243791, 46.66271882187976], [-60.524860171282405, 46.66273680365631], [-60.52484598720449, 46.66281840359206], [-60.52483014298946, 46.66293521071001], [-60.52481680691493, 46.6629707591472], [-60.52480228047272, 46.66301777452895], [-60.5247891942666, 46.66306015920038], [-60.52474773405222, 46.66319515835063], [-60.524706199516686, 46.663303156550995], [-60.524665116078744, 46.66340127374763], [-60.524637988033604, 46.66350867479913], [-60.524596850589944, 46.66360768177756], [-60.52458902106777, 46.663621974924716], [-60.52454267964751, 46.66370640659158], [-60.52453749888425, 46.66372595894489], [-60.52452846225099, 46.66376009745747], [-60.52452757595824, 46.663795816373934], [-60.52452689366173, 46.663823061919175], [-60.52452657007426, 46.66385905401027], [-60.5245280358734, 46.66386388262164], [-60.524551592510235, 46.66394058466261], [-60.52462696840255, 46.66409342156819], [-60.52468924446041, 46.664246865829796], [-60.52470155688162, 46.66429213121952], [-60.524701039198405, 46.66432350222321], [-60.52470004947168, 46.6643820963226], [-60.52469926325125, 46.664436806924684], [-60.52469823161541, 46.66450805379694], [-60.52468326692839, 46.66460672736489], [-60.52468163983783, 46.66469101101639], [-60.524681361882045, 46.66470568362911], [-60.52467794062123, 46.66471590531006], [-60.52465411758834, 46.664786991808256], [-60.52463642921157, 46.664803330484716], [-60.52448078534022, 46.66494702642075]]}, "properties": {"OBJECTID": 189533, "FEAT_CODE": "WARV50", "FEAT_DESC": "River - Single Line", "RIVNAME_1": " ", "RIVNAME_2": " ", "ZVALUE": 9999, "FID": null, "SHAPE_Length": 679.4957160371328}}, {"type": "Feature", "id": 189694, "geometry": {"type": "LineString", "coordinates": [[-60.553761514250155, 46.663717814416316], [-60.55356436724767, 46.66377029534956], [-60.55355130748714, 46.663770015949645], [-60.5535125340493, 46.663760186660795], [-60.55349067380202, 46.66376518182898], [-60.553472908749015, 46.66376922963577], [-60.55346368388037, 46.66378448486501], [-60.55344606553169, 46.66381366314427], [-60.553421346102226, 46.66383044981483], [-60.55341908062906, 46.66383198530295], [-60.55340538760185, 46.66383878415064], [-60.55336694296838, 46.66385786908566], [-60.5533450957288, 46.66386286450433], [-60.55332731716785, 46.663866920999276], [-60.55329307375268, 46.66386678230746], [-60.55327503745475, 46.66386670238851], [-60.55322361011585, 46.663847602489916], [-60.55321052281044, 46.663848222437984], [-60.55309397244424, 46.663765630660606], [-60.5529267391246, 46.66364775508431], [-60.55285542837053, 46.663589584538165], [-60.552759053087115, 46.663510970067584], [-60.55268084365171, 46.66344809789143], [-60.552654568588636, 46.66344143371903], [-60.55264207061165, 46.66343826831426], [-60.55261587182891, 46.66343831058939], [-60.552602850998646, 46.66343832890622], [-60.55260083216349, 46.663438744686374], [-60.55256326558431, 46.66344649044265], [-60.55253760001279, 46.663464831631764], [-60.55252420923483, 46.66350054408404], [-60.55252309224502, 46.663554518758566], [-60.55254082839935, 46.66359250837626], [-60.5525481222145, 46.66360815307752], [-60.552546904213024, 46.66363512629922], [-60.552538607975926, 46.66364168055916], [-60.55253470345764, 46.66364477390763], [-60.552494712684215, 46.66366190850847], [-60.55245370569193, 46.663661597802594], [-60.55242937346415, 46.66366140999333], [-60.55235088665273, 46.6636336307331], [-60.55231207294169, 46.663624700150145], [-60.552263242900175, 46.663619308053306], [-60.55222102040218, 46.663614651359], [-60.55218220632172, 46.66360572972368], [-60.552112929172274, 46.66357056963995], [-60.55209136154025, 46.66355953322557], [-60.55207922503923, 46.66354141789001], [-60.552072113697854, 46.6635217361706], [-60.5520664430873, 46.66350604518852], [-60.552066961153194, 46.663481549921926], [-60.55206757358852, 46.66345207080626], [-60.55206100609025, 46.66343337270243], [-60.5520548322709, 46.66341579899641], [-60.55204527282339, 46.66340574861395], [-60.552028625234726, 46.66338823868417], [-60.55200413027642, 46.663351715253185], [-60.55197747659628, 46.663334045107696], [-60.55196497868635, 46.66333087963009], [-60.551938703774184, 46.663324215295795], [-60.55188692734092, 46.66333283559131], [-60.551833333229304, 46.66334175893962], [-60.551786095825925, 46.66334134160528], [-60.551689595967396, 46.663340481520464], [-60.55167653632868, 46.66334020190852], [-60.55159883489576, 46.66334859099634], [-60.55158553128347, 46.663358052894836], [-60.55134952350888, 46.66337369888916], [-60.551244968613304, 46.66338591359655], [-60.55120627972361, 46.663390430957485], [-60.55115141038395, 46.66340847943797], [-60.55112666252847, 46.66341662523171], [-60.55108752979009, 46.663443695456344], [-60.55107716104748, 46.66345040322151], [-60.55106059839204, 46.66346110922989], [-60.551021872246295, 46.66347917937552], [-60.55094306736462, 46.66348739139013], [-60.55085160907299, 46.66348633258039], [-60.55079973607093, 46.66347712178231], [-60.5507442172377, 46.66347106378747], [-60.55070739120098, 46.66346704410387], [-60.5504737671289, 46.66342964073613], [-60.54979417261819, 46.66339708160882], [-60.549768053350675, 46.663396521950254], [-60.54967618879985, 46.66340445325882], [-60.54953482753431, 46.663439385096375], [-60.54953207738956, 46.66344007314344], [-60.549525337401846, 46.66344226864945], [-60.54948034524146, 46.66345695508222], [-60.54943590721458, 46.6634804911415], [-60.549413380294155, 46.66349241906177], [-60.549386965803585, 46.66350272470538], [-60.54932156125075, 46.66352825033173], [-60.54927460840616, 46.663533678904855], [-60.549255856403704, 46.66353584195337], [-60.549237987990416, 46.66353580999353], [-60.5491643574617, 46.66353568089806], [-60.54907369927129, 46.66351663828316], [-60.54904213580853, 46.66351650175781], [-60.54902143305133, 46.66351641801392], [-60.54898964386717, 46.66351606964143], [-60.54885157622866, 46.66351457718295], [-60.54876922638032, 46.66352659061034], [-60.548733144363574, 46.66353184699697], [-60.54869441782859, 46.66354990734716], [-60.54864287867563, 46.6635786997335], [-60.548615291915205, 46.66359410993507], [-60.54856260631706, 46.663602871230985], [-60.548340469514194, 46.66360081784245], [-60.54829486555621, 46.66360763389732], [-60.548287824134114, 46.66360868889725], [-60.548278368841316, 46.66361051112155], [-60.54819549859982, 46.66362650887417], [-60.54815866262286, 46.66363137992357], [-60.548131071855266, 46.6636350272295], [-60.547908121837835, 46.66365094609458], [-60.54785553206192, 46.66365469625021], [-60.54768517170675, 46.6636668645223], [-60.54746299446611, 46.663665699537404], [-60.54743256928423, 46.663669294883896], [-60.54739858173548, 46.66367332680372], [-60.54726718864957, 46.663717298404364], [-60.54721534547503, 46.663725924152644], [-60.5471618159964, 46.663734837697845], [-60.547018065386546, 46.663733545116244], [-60.546926619535775, 46.66373249243127], [-60.54691768307711, 46.66372949279902], [-60.54690086681408, 46.66372383119183], [-60.546865744140355, 46.663698931355405], [-60.54686158875341, 46.66369600728554], [-60.54681047162417, 46.66364180306255], [-60.546758586175606, 46.66363259016118], [-60.54658832221288, 46.66363973699649], [-60.54637973747329, 46.66365596108529], [-60.54631439845772, 46.66365545907643], [-60.54627054311776, 46.663670132641], [-60.54626130501995, 46.663673219326235], [-60.546249051089085, 46.66367737526763], [-60.54615642400963, 46.663708767774125], [-60.54612560417825, 46.663723676009404], [-60.54610296410674, 46.66373461987574], [-60.54602465004408, 46.66376083856355], [-60.546013351369666, 46.66376410600308], [-60.54593192953818, 46.66378764800254], [-60.545841369853996, 46.6637956042327], [-60.54560611952148, 46.66379415506801], [-60.5454489273088, 46.66380158977179], [-60.545411820412205, 46.66380637312291], [-60.545383181364144, 46.66381006926215], [-60.5451346021544, 46.6638434321019], [-60.5449762187963, 46.6639057301575], [-60.544792557886225, 46.66394858576147], [-60.54474348806955, 46.66395686494539], [-60.5446885031032, 46.663966151071186], [-60.54462801076058, 46.66397725386528], [-60.544596229680884, 46.663983069284434], [-60.54451986384877, 46.66398241947478], [-60.5443871519106, 46.66398127961942], [-60.54435755822241, 46.66398122909841], [-60.54429565198099, 46.663981123644305], [-60.54419121768777, 46.66400677114126], [-60.54417005754248, 46.664009853613095], [-60.544072783450275, 46.664024036077], [-60.54402536723674, 46.664028129576806], [-60.543980917590574, 46.66403195378094], [-60.54384983136257, 46.664039937982174], [-60.54381208649779, 46.66403081147212], [-60.54377224715859, 46.66402117197321], [-60.54369072989782, 46.66400669531449], [-60.54366850282269, 46.664002743957454], [-60.543625526690384, 46.6639979958985], [-60.543577438879694, 46.6639926790297], [-60.54349864497943, 46.6640008951477], [-60.543392863167696, 46.66402742194459], [-60.54318305353263, 46.66407061318586], [-60.543078618172096, 46.66409626864369], [-60.54303372443794, 46.66410094691554], [-60.54299981140666, 46.66410447514179], [-60.542868724903684, 46.6641124582118], [-60.54284586869224, 46.66411863591304], [-60.542803876179434, 46.66412996426437], [-60.54265314543521, 46.66417159808443], [-60.54258014988011, 46.66419175486594], [-60.542498932626025, 46.66420929597385], [-60.542462654260774, 46.66421712909499], [-60.54237074671225, 46.66422595358549], [-60.54213554872663, 46.664223598425515], [-60.54203017361242, 46.664241132936965], [-60.54199058657004, 46.66424928177869], [-60.54196628057329, 46.66426580487173], [-60.54193798164589, 46.664285050056165], [-60.54190705057537, 46.664299783768705], [-60.54184578953146, 46.66432896709783], [-60.541836233750075, 46.6643370324674], [-60.54179277664083, 46.66437372630524], [-60.54172751947227, 46.66440022273392], [-60.541634428835174, 46.66443512052252], [-60.541608586952314, 46.66444082880007], [-60.54155651954251, 46.66445234508687], [-60.54147418073118, 46.6644643354981], [-60.5414380840041, 46.66446959826619], [-60.54138632081553, 46.664474983175424], [-60.54135927649066, 46.66447780361774], [-60.54125512390348, 46.66446837340014], [-60.541236315821585, 46.6644711819107], [-60.541202490245844, 46.664476232444976], [-60.54097997153512, 46.664511046582255], [-60.54082243705609, 46.66455445763201], [-60.540771270069264, 46.66456398597732], [-60.540731467118434, 46.66457140975865], [-60.54054328942958, 46.664577415352205], [-60.54049580637653, 46.66457893201734], [-60.54039081009554, 46.66455957412208], [-60.540330912210976, 46.66453161944094], [-60.540314001726934, 46.66452372289476], [-60.54021936436578, 46.66448523816072], [-60.5401317349584, 46.66444961302933], [-60.540120995281576, 46.664441993193655], [-60.54009373941169, 46.66442268735796], [-60.540083483735174, 46.66440642015432], [-60.54004252026671, 46.66434148760084], [-60.540019326042994, 46.66431708525606], [-60.54001631902313, 46.664313924647615], [-60.53995351739367, 46.66426268789959], [-60.53992681833993, 46.664240910066184], [-60.53990943783247, 46.664216299779085], [-60.53988874138903, 46.664186983271165], [-60.53984980705691, 46.66412314727247], [-60.53983684610524, 46.66409016327435], [-60.53982519766782, 46.66406051942679], [-60.5397922517425, 46.66403755419163], [-60.539773244600475, 46.664024302592736], [-60.53972182171122, 46.66400520570036], [-60.539643818303034, 46.66399541863264], [-60.539627283116324, 46.66399538685581], [-60.53955233329065, 46.66399525017903], [-60.539513154258294, 46.66399440717384], [-60.53942091994345, 46.66403922133239], [-60.53934385153429, 46.66407592898084], [-60.53932872629741, 46.66408313631485], [-60.53927568374293, 46.66410057942584], [-60.53924910266397, 46.664109322184636], [-60.53924166389987, 46.664112789014474], [-60.53921037226925, 46.664127388242854], [-60.539159199293195, 46.664138490696836], [-60.53913115674834, 46.66414458304497], [-60.539034039617064, 46.66415872859995], [-60.53901273427575, 46.66416183399165], [-60.53898500477808, 46.66416477412257], [-60.53893521982387, 46.66417006549925], [-60.538855595881934, 46.664196251088484], [-60.53878195457226, 46.66421591455995], [-60.53872458980859, 46.664231230439526], [-60.538684969376874, 46.664253345058036], [-60.538645455024145, 46.66427542594703], [-60.538540200619394, 46.66431905916695], [-60.53838262535626, 46.66436336595512], [-60.53827768504897, 46.66437100662305], [-60.53823219030696, 46.66436530233792], [-60.538199707128705, 46.664361228118736], [-60.538069436341424, 46.66435122370854], [-60.537937846165505, 46.66434119974209], [-60.53786640946696, 46.664336781712365], [-60.5377814155666, 46.664331522738344], [-60.53765162039449, 46.664311628347086], [-60.53758667630232, 46.664302130082994], [-60.53751128036636, 46.664301991461244], [-60.537495176479496, 46.664301959663995], [-60.53732531787232, 46.66430011065911], [-60.53715543230766, 46.664299142798306], [-60.537054173852034, 46.66430228075813], [-60.53693287273193, 46.664306048893835], [-60.53684872821666, 46.664316908106876], [-60.53680137650723, 46.66432301594714], [-60.53669685781227, 46.66432166447622], [-60.53665804640839, 46.664312728619656], [-60.53664176831915, 46.66430473715389], [-60.536619684533676, 46.6642939026881], [-60.536593444219584, 46.664267238080605], [-60.53658032999018, 46.664243709164154], [-60.536568062113744, 46.66422169244045], [-60.536564291432725, 46.66420974051462], [-60.5365566370508, 46.66418544723772], [-60.536465466190656, 46.66414928400425], [-60.536386987311175, 46.66412149393003], [-60.53636192902072, 46.66411513121384], [-60.5363482173827, 46.66411164988436], [-60.53629593740809, 46.66411143249684], [-60.53624406655391, 46.66410221513119], [-60.536233199425745, 46.66409971305077], [-60.53620525538666, 46.664093279125034], [-60.53610147487268, 46.66404694416674], [-60.53603346603222, 46.664026084271796], [-60.53600993668736, 46.66401887244545], [-60.53599192168915, 46.664018898253666], [-60.535970716866814, 46.664018927323156], [-60.53585398881514, 46.66401786997815], [-60.535826978991864, 46.664017629932786], [-60.53573552059139, 46.66401655901871], [-60.53570972558681, 46.6640074263534], [-60.53568405873469, 46.66399835044259], [-60.53547572007658, 46.66395156154529], [-60.53547144849077, 46.66394976852639], [-60.53541030163436, 46.66392405227868], [-60.53529383051811, 46.66386934327101], [-60.53521576154871, 46.663832561453866], [-60.535189178579145, 46.66381000202893], [-60.53515157004678, 46.66377807917419], [-60.53509376897387, 46.66372737951447], [-60.5350484887331, 46.66368765945135], [-60.53497355721086, 46.6636204178769], [-60.53494675460657, 46.66359636869769], [-60.53492096567826, 46.663559804683906], [-60.53490901243875, 46.66350645736003], [-60.5348447424737, 46.66342497390068], [-60.53476764377455, 46.66336113237971], [-60.53474088532887, 46.663351636731996], [-60.5346506136941, 46.66332450019622], [-60.53459870617259, 46.66328737300009], [-60.53456761361499, 46.663274300956765], [-60.534533275924716, 46.66325986297111], [-60.53446989317022, 46.66323705893198], [-60.5344561183635, 46.663232100049704], [-60.534378009985865, 46.663196216780534], [-60.53432699929436, 46.66316811756775], [-60.534249341026076, 46.663122344167], [-60.53424865840248, 46.663120970482105], [-60.53423616185334, 46.663095960646665], [-60.53419813148652, 46.66304115095757], [-60.53419008167041, 46.663024426795644], [-60.53418499366976, 46.66301385934578], [-60.53418621840477, 46.66297429576123], [-60.53418777808379, 46.66292392167375], [-60.534173019916686, 46.66286702187026], [-60.534162200056485, 46.66282527260701], [-60.53412450099942, 46.662734452948584], [-60.534080845868075, 46.6627050182768], [-60.533854355190364, 46.6625522406323]]}, "properties": {"OBJECTID": 189694, "FEAT_CODE": "WARV50", "FEAT_DESC": "River - Single Line", "RIVNAME_1": " ", "RIVNAME_2": " ", "ZVALUE": 9999, "FID": null, "SHAPE_Length": 1779.908144840838}}, {"type": "Feature", "id": 190001, "geometry": {"type": "LineString", "coordinates": [[-60.535373756969584, 46.670419295386615], [-60.53538673845362, 46.67039258488971], [-60.53539438688251, 46.67037993407393], [-60.53541359978819, 46.67034815601546], [-60.53542191953915, 46.67030809739333], [-60.53542866720674, 46.67027558268746], [-60.53543016966874, 46.670213516714476], [-60.535456596160465, 46.67015018795768], [-60.53548386582317, 46.670096777104185], [-60.535498892172555, 46.670025102855746], [-60.53549906139996, 46.67001247083732], [-60.53549996021518, 46.669944128017335], [-60.53550017204575, 46.66989088999105], [-60.53550021041806, 46.66988113507607], [-60.5355017667214, 46.669818170283015], [-60.535510951816335, 46.6697999007259], [-60.53552907705057, 46.66976386031689], [-60.535529894869306, 46.66974587841787], [-60.535537564238716, 46.66973506399441], [-60.5355424676044, 46.66972814985449], [-60.535555858548605, 46.66969243039903], [-60.53555969397994, 46.66967795144225], [-60.535570066458824, 46.669638747023455], [-60.53557114189959, 46.66959497735716], [-60.53557162266264, 46.66957578222533], [-60.53557236106215, 46.669530799326814], [-60.53556143129824, 46.6695080913704], [-60.535559220696626, 46.669503516848614], [-60.535558249322975, 46.66949814105562], [-60.53554771595287, 46.66944027056866], [-60.53554823570451, 46.66940871960276], [-60.535548454365816, 46.66939528766967], [-60.535547469524865, 46.66938992058602], [-60.5355369496525, 46.66933204138821], [-60.535537173290244, 46.669307863845596], [-60.53553760827285, 46.669260066480454], [-60.535538117997895, 46.66923621009489], [-60.53553875599467, 46.669206083638976], [-60.53553967029116, 46.66913682316876], [-60.53553982391196, 46.669125108788165], [-60.53554145950507, 46.66908914498574], [-60.53556751489062, 46.66906270722523], [-60.535592518745645, 46.6690375427631], [-60.53562093337505, 46.66900895989221], [-60.53562893898591, 46.668992473857514], [-60.53563391478111, 46.66898224036145], [-60.53564116008633, 46.66896464896944], [-60.53564861113546, 46.668946558024075], [-60.535648694446486, 46.668925752367095], [-60.53564886111386, 46.66888356506906], [-60.535649548641025, 46.66885579761655], [-60.535650417168895, 46.668820600260105], [-60.53565131530365, 46.66875226641286], [-60.53565149794917, 46.66873962568139], [-60.53565181430808, 46.66870363344541], [-60.53568713116495, 46.668656947783155], [-60.53570606313128, 46.66863190443806], [-60.53571189477847, 46.66861636152181], [-60.535719453259276, 46.66859619394088], [-60.535736244657905, 46.6685633106663], [-60.535746721821056, 46.66854278299146], [-60.535753518438774, 46.66852039404809], [-60.535760561636586, 46.668497182439715], [-60.535775587091955, 46.6684255081211], [-60.535779798628525, 46.66841684210711], [-60.53578856827096, 46.66839878856615], [-60.53581583665804, 46.66834537759536], [-60.53582126069228, 46.66833793467657], [-60.53584232819978, 46.66830904942901], [-60.53588224832386, 46.66826491083562], [-60.5359887798793, 46.668193408317926], [-60.535999011887725, 46.66817970615761], [-60.53601522993884, 46.66815798819347], [-60.53606743413848, 46.6681312047755], [-60.53616045490444, 46.66806931072163], [-60.53616283042525, 46.66806766994912], [-60.536199597919364, 46.66804225482494], [-60.53621083544519, 46.66802368743826], [-60.53622645694287, 46.66799783469884], [-60.53629440973463, 46.66785440255251], [-60.53630862983021, 46.66780071033654], [-60.53630936794282, 46.667755718417375], [-60.53629827054366, 46.667683499209545], [-60.53628920827624, 46.66765767263424], [-60.53628553938236, 46.66764721685944], [-60.536261222780325, 46.66752069625045], [-60.53626149764662, 46.66750602355623], [-60.53626310699203, 46.6674217394335], [-60.53625731434321, 46.66738467059468], [-60.53625196964709, 46.66735040133375], [-60.53627115494511, 46.66718432803174], [-60.53626698316627, 46.66718119622941], [-60.53623458476506, 46.66715681981288], [-60.53622644989595, 46.66711318467664]]}, "properties": {"OBJECTID": 190001, "FEAT_CODE": "WARV50", "FEAT_DESC": "River - Single Line", "RIVNAME_1": " ", "RIVNAME_2": " ", "ZVALUE": 9999, "FID": null, "SHAPE_Length": 388.798691455384}}, {"type": "Feature", "id": 191685, "geometry": {"type": "LineString", "coordinates": [[-60.52930756511862, 46.66760646032911], [-60.529304638789405, 46.66760211321325], [-60.52929531143616, 46.6675881960394], [-60.529275382522506, 46.667514903332304], [-60.52927067762262, 46.66749766611904], [-60.529271831067796, 46.66744369243576], [-60.52927161754407, 46.66743575902706], [-60.52927134444509, 46.66742569138623], [-60.529273079485726, 46.66733860212382], [-60.529274395250766, 46.66727275225299], [-60.529288532719775, 46.66719205980174], [-60.52929017234849, 46.667156096156454], [-60.529304006476636, 46.667123347911804], [-60.52931654986293, 46.667093676697505], [-60.52933265581707, 46.6670621385044], [-60.52934382426842, 46.66704025837862], [-60.52936067047945, 46.66701742995123], [-60.52939677353712, 46.66696850425709], [-60.52942408837451, 46.666914195814904], [-60.529447093892124, 46.66683970678076], [-60.529465499241496, 46.66678009397039], [-60.52948667002143, 46.66675244508155], [-60.529493300197636, 46.66674379554983], [-60.52949504383013, 46.66659083715625], [-60.52949557913769, 46.666570491244784], [-60.52949859280482, 46.666455917300325], [-60.52948614464509, 46.66638456818966], [-60.52948688876428, 46.66633956742221], [-60.52947490537014, 46.666258310604675], [-60.529450424592106, 46.666221782625975], [-60.529415920949035, 46.66612437065209], [-60.52941220370125, 46.66611385960754], [-60.52938764664471, 46.66605033065851], [-60.529371065711715, 46.665967840523145], [-60.52936421497513, 46.66593372737863], [-60.52932650819358, 46.66584292399587], [-60.52931965610824, 46.66581801758316], [-60.529301834424075, 46.66575328417179], [-60.52930160870865, 46.66574504450565], [-60.529301348193634, 46.665735274126725], [-60.529291004715496, 46.665618053634844], [-60.52929215802433, 46.66556407993404], [-60.52930015653671, 46.66554491224663], [-60.52931857608465, 46.6655007523615], [-60.52931925643814, 46.66547349775802], [-60.52932013923612, 46.66543778774458], [-60.52932343610274, 46.665427122251195]]}, "properties": {"OBJECTID": 191685, "FEAT_CODE": "WARV50", "FEAT_DESC": "River - Single Line", "RIVNAME_1": " ", "RIVNAME_2": " ", "ZVALUE": 9999, "FID": null, "SHAPE_Length": 247.70794753014323}}, {"type": "Feature", "id": 191686, "geometry": {"type": "LineString", "coordinates": [[-60.53238060869462, 46.6719234036956], [-60.532380042552106, 46.67191774862896], [-60.53237971200555, 46.67191438458537], [-60.53232865341395, 46.671887183474496], [-60.53227669779327, 46.67185097222182], [-60.53222127710933, 46.67180185250889], [-60.53217364792755, 46.67175964173664], [-60.532096693013344, 46.671669783303415], [-60.532066823595144, 46.67162746977915], [-60.53203282767126, 46.67157930734116], [-60.531931325826214, 46.67142502071145], [-60.53177201511997, 46.671255419606815], [-60.53172682566103, 46.6712073124603], [-60.531688342392265, 46.671162382969094], [-60.531506807860495, 46.67104327643125], [-60.531416781114665, 46.670953126347584], [-60.53137273077351, 46.67090642961167], [-60.53136564663323, 46.670898923874155], [-60.53131372090587, 46.67086180384393], [-60.53126629487606, 46.67081459320184], [-60.53124994807021, 46.67079832871264], [-60.53121228434955, 46.67073542622464], [-60.53109769767901, 46.670581747309946], [-60.53103432343597, 46.67047395682765], [-60.531033389418475, 46.670472361702885], [-60.53098348477964, 46.67039118631682], [-60.53097158801848, 46.6703576033268], [-60.53094527127079, 46.67028326404924], [-60.53088215174047, 46.670147804703504], [-60.53086911425872, 46.67009995044509], [-60.53085750121011, 46.67005727480654], [-60.530858538187864, 46.670022180119865], [-60.530859869233446, 46.66997632806531], [-60.53086367096355, 46.66977841535022], [-60.530877806878806, 46.66969772270166], [-60.53087860913023, 46.66963133976481], [-60.530879214419485, 46.66958075616038], [-60.53088072314084, 46.66950977159761], [-60.53088151835883, 46.6694728087367], [-60.53083268977642, 46.669310658624504], [-60.53082070388181, 46.66922940193501], [-60.53075766279475, 46.669120943484735], [-60.5307326932341, 46.66906640571668], [-60.5307206665595, 46.668986048109296], [-60.53070793847839, 46.668949774202495], [-60.53068255933932, 46.66890422734262], [-60.5306452945677, 46.66883232449588], [-60.53063209297084, 46.668778040823796], [-60.53063291238541, 46.668760058987964], [-60.53063365484572, 46.66871507619421], [-60.53063388521424, 46.66869051180935], [-60.530633987597646, 46.66867908431818], [-60.53063082011364, 46.668661664370305], [-60.53062248875991, 46.66861583764828], [-60.530598824147845, 46.668565089927945], [-60.530597478577675, 46.66856219894522], [-60.53054631114789, 46.668480096094], [-60.53053021443522, 46.6684531991719], [-60.53050865016574, 46.66841718440677], [-60.53050879497006, 46.668401383945124], [-60.53050898299083, 46.66838119253096], [-60.53048368115357, 46.66836264658928], [-60.53039358316406, 46.66824550381313], [-60.53038033319315, 46.66822671413937], [-60.53036779485492, 46.668208947806804], [-60.53031830251288, 46.66811879023434], [-60.530252882273096, 46.668091268997394], [-60.530227094129366, 46.66805471296166], [-60.530227503893556, 46.66804572204536], [-60.53021689796739, 46.66803833816346], [-60.530202161330386, 46.66802807513689], [-60.53018936546739, 46.66801079820904], [-60.530188627318694, 46.668009783292156], [-60.53014033750692, 46.66799106475919], [-60.53004601893885, 46.66795450444814], [-60.52996835770903, 46.66790872811176], [-60.52982535305935, 46.66786244019752], [-60.529695819009675, 46.66780744333853], [-60.5295928160611, 46.66774401973496], [-60.52942214353397, 46.667661719499925], [-60.52930756511862, 46.66760646032911]]}, "properties": {"OBJECTID": 191686, "FEAT_CODE": "WARV50", "FEAT_DESC": "River - Single Line", "RIVNAME_1": " ", "RIVNAME_2": " ", "ZVALUE": 9999, "FID": null, "SHAPE_Length": 563.0415826670085}}, {"type": "Feature", "id": 191687, "geometry": {"type": "LineString", "coordinates": [[-60.52702179221798, 46.67188683798305], [-60.52707478360371, 46.67184298514465], [-60.527113143676985, 46.6718071766582], [-60.52714169803036, 46.6717805338646], [-60.52724694175193, 46.67170901164347], [-60.527274295500106, 46.671682603847906], [-60.527291102039456, 46.671664994740084], [-60.52730038411121, 46.67165526871279], [-60.527327242889484, 46.67154688036029], [-60.52732924154448, 46.67153889578907], [-60.52734262488959, 46.6715031861274], [-60.52735400323097, 46.67140712569685], [-60.52735751189272, 46.67137751134584], [-60.5273586805443, 46.67132353803597], [-60.52733946763379, 46.6712474795826], [-60.52732212938463, 46.67117876046965], [-60.52729745687794, 46.67108912030623], [-60.52729048775256, 46.67106707318388], [-60.52722318555409, 46.6708544203901], [-60.5272244385577, 46.670789433190116], [-60.52722508663236, 46.6707554640951], [-60.52727048485384, 46.67066166926991], [-60.52732035773874, 46.670558629427845], [-60.52736230352619, 46.67044163951618], [-60.52736247642814, 46.67040060432887], [-60.5273625632167, 46.67037864678011], [-60.527377114791264, 46.670288963782255], [-60.527405623206604, 46.670208582330815], [-60.52745939877912, 46.67011884746383], [-60.52750663356758, 46.67007073905654], [-60.52756497361035, 46.67001133304104], [-60.527631064691356, 46.66996686319274], [-60.5277157900532, 46.6699065426041], [-60.52781754139321, 46.66983409836539], [-60.527882736132675, 46.669780609228226], [-60.52792762444962, 46.66972574509389], [-60.52796304250443, 46.669682447908905], [-60.5280421937794, 46.66963826015404], [-60.52809673012298, 46.66961148578741], [-60.528187961895455, 46.66956671309251], [-60.528253641809904, 46.669531233761205], [-60.52832292869887, 46.66948919052888], [-60.52838541147223, 46.66945128407824], [-60.52840946375008, 46.669437314321755], [-60.5284915039566, 46.66938967878822], [-60.52851234276952, 46.669366189803235], [-60.52853147180375, 46.66934464380968], [-60.52862360703324, 46.66927373697492], [-60.52864637490261, 46.669247220736096], [-60.528677455590206, 46.66921100240332], [-60.52870389823421, 46.66917557480466], [-60.52873085298964, 46.66915815779819], [-60.52873726167073, 46.669150934488336], [-60.5287708204626, 46.66911312272719], [-60.52878422832166, 46.66907741341764], [-60.52881541932508, 46.66902787777769], [-60.528851855102566, 46.66896997768952], [-60.52886933530461, 46.668912909930945], [-60.528879518556266, 46.668879677859756], [-60.52889373321266, 46.66882598643936], [-60.528920598161264, 46.668781577149026], [-60.528934327062565, 46.66870986669422], [-60.528944491652595, 46.668689656874726], [-60.52896164330794, 46.66865555840345], [-60.52900690130743, 46.668621212296465], [-60.529055069787226, 46.668584679120464], [-60.529068477315334, 46.66854896976843], [-60.52914912644619, 46.66841481594836], [-60.52929468315951, 46.668290164283356], [-60.52931779092881, 46.668202267845224], [-60.529323152258094, 46.66818188221369], [-60.52932886675947, 46.6681546103912], [-60.52933818609123, 46.66811020889986], [-60.52935191382568, 46.668038507364244], [-60.529361462991886, 46.66801028341701], [-60.529379111957816, 46.667958097094456], [-60.52936794827467, 46.66785885846128], [-60.529368625868244, 46.66783137881288], [-60.52936951154819, 46.66779589386754], [-60.52937043070686, 46.66772698451022], [-60.529370588980484, 46.66771491024227], [-60.529346107245516, 46.6676783912293], [-60.52930756511862, 46.66760646032911]]}, "properties": {"OBJECTID": 191687, "FEAT_CODE": "WARV50", "FEAT_DESC": "River - Single Line", "RIVNAME_1": " ", "RIVNAME_2": " ", "ZVALUE": 9999, "FID": null, "SHAPE_Length": 539.8173169410985}}, {"type": "Feature", "id": 262095, "geometry": {"type": "LineString", "coordinates": [[-60.5415345793149, 46.66888174611872], [-60.54152082102511, 46.66887090260874], [-60.541513765148636, 46.66886534205712], [-60.54148605937118, 46.668834570203884], [-60.54148300225144, 46.668832218538256], [-60.541431963086175, 46.668793025224666], [-60.541396229906255, 46.66877954929687], [-60.541360342869794, 46.668766007051524], [-60.54131774705978, 46.66875193356064], [-60.54129051786674, 46.668742933328694], [-60.541269605398625, 46.66874137671439], [-60.5412072155091, 46.66872587860815], [-60.54115076773261, 46.668701301481505], [-60.5411035907572, 46.668698010115904], [-60.54107666624827, 46.66869612619575], [-60.54103916665141, 46.66867750030797], [-60.54101653654134, 46.66866625896798], [-60.54094375216852, 46.66861045226107], [-60.54089708332516, 46.66857551057575], [-60.54081281753238, 46.66854598817768], [-60.54078388816373, 46.66853585329047], [-60.540769166140066, 46.66853040681973], [-60.540715999129944, 46.66851075090333], [-60.540615294519164, 46.66847331502159], [-60.540578305475734, 46.66845957783261], [-60.54049481935935, 46.66844773850001], [-60.54040761013103, 46.66843324509447], [-60.54031183573424, 46.66845134452128], [-60.54021989502328, 46.66847081329849], [-60.54014150191359, 46.66848127667373], [-60.5401117086902, 46.6684864316284], [-60.54005154224772, 46.66849684603449], [-60.53995024946221, 46.668508346618204], [-60.53984332378478, 46.66851548703935], [-60.53981793805566, 46.668538745263284], [-60.539812667611905, 46.668542240779196], [-60.5397888630583, 46.66855802721263], [-60.539772145661985, 46.66855938650305], [-60.53975063903812, 46.668561128739846], [-60.53968381842784, 46.66856519895433], [-60.53965587776178, 46.66856237486039], [-60.539624904959446, 46.66855924252749], [-60.53959268979647, 46.66855064759922], [-60.53951067706771, 46.6685535808591], [-60.53948580850505, 46.668556231682146], [-60.53944759221756, 46.668560314248424], [-60.53932511905007, 46.668576443397725], [-60.53927484956131, 46.6685589191047], [-60.53925901997502, 46.668553394607], [-60.53925179965071, 46.66853591469081], [-60.539229643289936, 46.668506476671055], [-60.539186075607304, 46.668495108397025], [-60.539125112520324, 46.66849139354475], [-60.539116705528265, 46.668487954711125], [-60.53907791656692, 46.66847211735524], [-60.53903488396549, 46.668441483047424], [-60.5390161419263, 46.6684117134754], [-60.53901470283749, 46.66840943256405], [-60.53895967853502, 46.66839959959684], [-60.538913684190184, 46.66840654750823], [-60.53890361359453, 46.66840404482913], [-60.53885680374517, 46.66839239065657], [-60.53881314553405, 46.668385322177855], [-60.53877659469163, 46.66836597798347], [-60.538756678137986, 46.6683554515808], [-60.53875554989421, 46.668325314091234], [-60.538752540829876, 46.668298592028826], [-60.53875238657804, 46.66829738274058], [-60.53872807161079, 46.668280074840226], [-60.538692585665515, 46.668263192474534], [-60.53868852913919, 46.668261260210805], [-60.538654914887, 46.66823166545555], [-60.538626233393366, 46.66819133215102], [-60.53862174761536, 46.66818503476019], [-60.53859771229305, 46.66815293724043], [-60.53858150172515, 46.66811464531009], [-60.53855422389572, 46.668061256544675], [-60.53847781442527, 46.6679935175348], [-60.53845956283729, 46.6679558386341], [-60.53846006172597, 46.667936508881795], [-60.538460622706566, 46.66791523651711], [-60.53841368913078, 46.66781076493706], [-60.53838655157079, 46.6677862413898], [-60.538361373478004, 46.66776347897192], [-60.53830328174687, 46.66772046052348], [-60.53828876006983, 46.66769277062837], [-60.538255215987114, 46.667656175446076], [-60.53819847303727, 46.667560735355515], [-60.538163094486585, 46.66752452364111], [-60.53814904518241, 46.66750802160359], [-60.53810747930483, 46.66745922999255], [-60.538073513738965, 46.667438249271456], [-60.53800216050472, 46.66739420717339], [-60.537973385132005, 46.66736775831296], [-60.53795547777639, 46.667351290183134], [-60.53791004712272, 46.66732369073115], [-60.53788213509174, 46.66730672818784], [-60.53780111497028, 46.66726339579998], [-60.53777472590786, 46.66725319784612], [-60.53770080001759, 46.66722464275646], [-60.537658866850826, 46.66721847495495], [-60.53757339057706, 46.66720301771836], [-60.53757136867415, 46.66720263218812], [-60.537489749364035, 46.66718716794604], [-60.53728228173879, 46.667156294739506], [-60.53722310763273, 46.66715122243201], [-60.537191025842134, 46.667144609642484], [-60.53717364463803, 46.66714102238434], [-60.53714511680664, 46.66713675406511], [-60.537119756848654, 46.667134407919114], [-60.53707453045313, 46.667130229920154], [-60.53702710661242, 46.667119173751935], [-60.53699486004798, 46.66711877619578], [-60.536973667081604, 46.66711851771715], [-60.536902388764, 46.667130383080895], [-60.53688548800983, 46.6671331959607], [-60.536873237674726, 46.667134363053194], [-60.536824263267576, 46.66713901399064], [-60.53677194813056, 46.667145545894265], [-60.53675723586107, 46.66714737992354], [-60.53667313952265, 46.667151616223926], [-60.536597272405935, 46.66715025188989], [-60.53652975212163, 46.66714904032139], [-60.536461318262994, 46.667137729294424], [-60.53644429816158, 46.667130225807], [-60.53638485701762, 46.66710399786378], [-60.536381293668235, 46.66710243613308], [-60.536379858288946, 46.66710180222471], [-60.536354988149824, 46.66710564930027], [-60.536301271331034, 46.66711396874257], [-60.53622644989595, 46.66711318467664]]}, "properties": {"OBJECTID": 262095, "FEAT_CODE": "WARV50", "FEAT_DESC": "River - Single Line", "RIVNAME_1": "Clyburn Brook", "RIVNAME_2": " ", "ZVALUE": 9999, "FID": null, "SHAPE_Length": 514.1247328704789}}, {"type": "Feature", "id": 262096, "geometry": {"type": "LineString", "coordinates": [[-60.53622644989595, 46.66711318467664], [-60.5362210401024, 46.667118017990425], [-60.536216911532584, 46.6671216999395], [-60.536161687776094, 46.66711916913043], [-60.53612712921031, 46.66711757854442], [-60.536085665048056, 46.667120366036734], [-60.53607740388716, 46.667120917016014], [-60.53601824106928, 46.66712020021358], [-60.53597842200257, 46.667113258369056], [-60.53592682628112, 46.667104253793], [-60.535865526391085, 46.667088434253856], [-60.535845097047265, 46.66708317015175], [-60.53583039644147, 46.667076409536996], [-60.53579224711802, 46.66705891088471], [-60.535688523741264, 46.667003442052554], [-60.535680675415435, 46.666996352099034], [-60.53566595781974, 46.66698306626671], [-60.535646808963456, 46.66695079442788], [-60.535643991155325, 46.66694606282391], [-60.53558910800276, 46.66691304787132], [-60.53557604589025, 46.6668992937178], [-60.53555380068563, 46.66687589190005], [-60.53554552197717, 46.666856705976116], [-60.535542991603215, 46.666850828594164], [-60.535525514568356, 46.66683382936813], [-60.535511143211316, 46.66681983099611], [-60.53548196722409, 46.66679503782505], [-60.535465743754095, 46.66678123352419], [-60.535440469137484, 46.66671751043957], [-60.53543127850714, 46.66669595591367], [-60.535407341598706, 46.666654563072356], [-60.53540651430367, 46.66664487049323], [-60.53540587047801, 46.66663746780897], [-60.535426446243896, 46.66661191094699], [-60.535431337419396, 46.66660583352491], [-60.53543181651024, 46.666601622960165], [-60.535436029061856, 46.66656476071099], [-60.53543683603693, 46.66653407990046], [-60.5354371279732, 46.666522773486136], [-60.535437361368054, 46.66651361675424], [-60.53543774498807, 46.666499144398145], [-60.53543427362635, 46.66648664990402], [-60.535428848711135, 46.666467093487924], [-60.53542842493216, 46.666453989694254], [-60.53542767014476, 46.666431204017556], [-60.53541304359686, 46.66639062382159], [-60.53540714622168, 46.666374270138], [-60.535406275059536, 46.66637186642392], [-60.53538892860268, 46.66635257504921], [-60.53535615213328, 46.666316121543005], [-60.53531315635125, 46.66627182496236], [-60.53529294742212, 46.666265746531984], [-60.535267670044284, 46.6662581458895], [-60.53517358955769, 46.66626836672414], [-60.535149060227546, 46.66625696627827], [-60.53512618254754, 46.6662463304099], [-60.53506932244714, 46.666215126540244], [-60.53505439946178, 46.6662069390673], [-60.53502066824954, 46.66618889640572], [-60.53501838405219, 46.66618766819775], [-60.53500583483784, 46.66617873990828], [-60.534984612189014, 46.66616362180458], [-60.53495308259988, 46.66615322238536], [-60.53491977607792, 46.66614222666645], [-60.53485325452337, 46.66611994917912], [-60.534803075623145, 46.66610798671211], [-60.534740972679586, 46.666093184224714], [-60.53461121504839, 46.666076707111685], [-60.5345629769097, 46.666072949170086], [-60.53454423123946, 46.666071492036096], [-60.53450748562123, 46.66607201374871], [-60.53446179255899, 46.66607265752545], [-60.53439941893605, 46.66608018643832], [-60.53434650994905, 46.666086569429496], [-60.53431733957604, 46.666087533411364], [-60.53426976043505, 46.66608911741771], [-60.53416607122623, 46.66609790626346], [-60.53412019706127, 46.66609735802907], [-60.53405722963785, 46.66609265226634], [-60.534013411012666, 46.66607910765288], [-60.53397165543691, 46.666066192497766], [-60.53387175994357, 46.66608469264032], [-60.53384337471536, 46.666086501412366], [-60.533820050332714, 46.66608798733421], [-60.533814854448515, 46.66608783027735], [-60.53377562882099, 46.66608654331423], [-60.533672518555846, 46.66607169280899], [-60.53359634252217, 46.666049287358085], [-60.53357404855064, 46.66603789878715], [-60.53355406732016, 46.666027685066304], [-60.53343233635662, 46.66598192349957], [-60.533386354858266, 46.665965353068266], [-60.53337308145019, 46.66596056686992], [-60.5332913593898, 46.66593019378579], [-60.53321536100911, 46.665899872115894], [-60.53315076246624, 46.665883331970235], [-60.53302920010469, 46.66583933756309], [-60.53296206601232, 46.6658354232827], [-60.53292755721633, 46.66583821568707], [-60.53289663018433, 46.66584072536605], [-60.532833289541955, 46.66584078075254], [-60.53283128930685, 46.66584078259566], [-60.532825619642885, 46.66584040827711], [-60.532765783721246, 46.66583641734793], [-60.5327359634766, 46.66583931085411], [-60.532709872341535, 46.66584184382467], [-60.532639848293066, 46.665874703051536], [-60.53256309037196, 46.6658719848467], [-60.53253593203414, 46.66587096684062], [-60.53251148855269, 46.66587004340873], [-60.53246711250854, 46.66588397146471], [-60.532412782721934, 46.66589112388104], [-60.53238808357485, 46.66589437979802], [-60.53233020515564, 46.66590108660784], [-60.532278479424704, 46.66589210457181], [-60.53224961614096, 46.66587800004045], [-60.532226840088114, 46.665866870794986], [-60.53210044789175, 46.66584599056927], [-60.53203562064715, 46.66582500797018], [-60.531969171443855, 46.665790841665626], [-60.531949043514715, 46.665790173251075], [-60.531884704588, 46.66578803762113], [-60.53184340425688, 46.66578724520025], [-60.531815517809925, 46.66578671529427], [-60.531778671232956, 46.66578687395878], [-60.53173510360994, 46.665787067533614], [-60.5317023818256, 46.665788224183466], [-60.53166197414556, 46.665789646908614], [-60.53159881354484, 46.66577656583427], [-60.53150545264009, 46.665746021228315], [-60.53143254627654, 46.665739398508826], [-60.53131801611822, 46.66572617129776], [-60.53126685591107, 46.66572027893246], [-60.53126231721626, 46.66571975795718], [-60.53116658427738, 46.665706279424], [-60.53109246185765, 46.665706839047644], [-60.531057087436764, 46.66570711026185], [-60.53101097364094, 46.665699490785244], [-60.53095318781532, 46.665684653449276], [-60.53082608963865, 46.665652029868006], [-60.53081117621571, 46.665642789071626], [-60.53078274706783, 46.66562519263194], [-60.53075152011064, 46.6656107576879], [-60.530718410631685, 46.66559546310536], [-60.53062462731165, 46.66557937128467], [-60.530527055749246, 46.66557555426129], [-60.530473392520626, 46.66555689081152], [-60.530439380186756, 46.66554505956048], [-60.53036290588428, 46.66552522843897], [-60.530290596228575, 46.6655072421676], [-60.530247011691436, 46.66550063998292], [-60.53023643052131, 46.66549903448578], [-60.530224454602326, 46.66549389795323], [-60.530208016590166, 46.665486847092325], [-60.53019057367562, 46.66548721733421], [-60.53012943796938, 46.66548852481273], [-60.530068955062035, 46.66551796163933], [-60.53006348692766, 46.665520624458885], [-60.529991481968985, 46.6654907918824], [-60.52993722097042, 46.66548180802003], [-60.529905665723405, 46.66547659051652], [-60.52985225953385, 46.665475526876335], [-60.529782320745966, 46.66549788346641], [-60.529729058717336, 46.6654962378978], [-60.52968624095805, 46.66549489892913], [-60.52960086129423, 46.6654473176189], [-60.52953165663314, 46.66545700923961], [-60.529450727509534, 46.665459490690324], [-60.529408377484096, 46.66545190688258], [-60.52932343610274, 46.665427122251195]]}, "properties": {"OBJECTID": 262096, "FEAT_CODE": "WARV50", "FEAT_DESC": "River - Single Line", "RIVNAME_1": "Clyburn Brook", "RIVNAME_2": " ", "ZVALUE": 9999, "FID": null, "SHAPE_Length": 625.6582333313867}}, {"type": "Feature", "id": 262097, "geometry": {"type": "LineString", "coordinates": [[-60.52932343610274, 46.665427122251195], [-60.52928045050424, 46.66538702649354], [-60.52925982602466, 46.66535338071759], [-60.52924188741376, 46.665305267341445], [-60.529240105671484, 46.66530047696499], [-60.529237238064894, 46.665292837198514], [-60.52922359392684, 46.66525633631497], [-60.52921662252061, 46.66522860138761], [-60.52919239913866, 46.66519791075955], [-60.529167978712984, 46.66516695487522], [-60.52911516731738, 46.66514826419126], [-60.52910488785046, 46.66514463116002], [-60.529090374820434, 46.66511285436357], [-60.529084618830886, 46.66507308599758], [-60.5290838701233, 46.66506800294848], [-60.52911223795279, 46.66500778647194], [-60.52911937525252, 46.66495388807073], [-60.529090281830925, 46.66489296095513], [-60.529064440800056, 46.66485445954144], [-60.529038633123186, 46.664814653875524], [-60.529059398456376, 46.66475832302763]]}, "properties": {"OBJECTID": 262097, "FEAT_CODE": "WARV50", "FEAT_DESC": "River - Single Line", "RIVNAME_1": "Clyburn Brook", "RIVNAME_2": " ", "ZVALUE": 9999, "FID": null, "SHAPE_Length": 82.01527023683326}}, {"type": "Feature", "id": 262098, "geometry": {"type": "LineString", "coordinates": [[-60.51947254318591, 46.66479727673593], [-60.51940721642848, 46.66479648061071], [-60.519300077021974, 46.664776687830454], [-60.519222952948525, 46.664786300403094], [-60.51905439729065, 46.66476310503014], [-60.51881394638565, 46.66469413354358], [-60.51873741074901, 46.66466947841255], [-60.51866904302427, 46.66464744840791]]}, "properties": {"OBJECTID": 262098, "FEAT_CODE": "WARV50", "FEAT_DESC": "River - Single Line", "RIVNAME_1": "Clyburn Brook", "RIVNAME_2": " ", "ZVALUE": 105.028, "FID": null, "SHAPE_Length": 64.82463843780124}}, {"type": "Feature", "id": 277991, "geometry": {"type": "LineString", "coordinates": [[-60.533854355190364, 46.6625522406323], [-60.533838903424964, 46.66255742425058], [-60.53380125899913, 46.66256999504076], [-60.53349962064668, 46.66264898704535], [-60.533477091601995, 46.66265313598259], [-60.533316377942725, 46.66268283346382], [-60.53326396734039, 46.662691548641156], [-60.533211003321036, 46.66270035985334], [-60.53314525668087, 46.66270884128702], [-60.532906632355505, 46.662699202373034], [-60.532858197568245, 46.66269724841391], [-60.53280851400164, 46.662692000573664], [-60.532676063174094, 46.662678019061524], [-60.53251967911788, 46.66266744486268], [-60.53247347527733, 46.66266702384258], [-60.53237594508538, 46.66266614320356], [-60.53220519592728, 46.66265525858173], [-60.53218169691561, 46.662655156437744], [-60.53215291786047, 46.66265503033593], [-60.53212713626567, 46.66266113376126], [-60.53211460828086, 46.66266411230393], [-60.53208730696976, 46.66266971493395], [-60.53207500839854, 46.66267224843485], [-60.532021502148545, 46.662698992939994], [-60.5319693795077, 46.662752766600235], [-60.53195232515041, 46.66281266099109], [-60.53194136931013, 46.66285115954941], [-60.53193899058577, 46.66293210616014], [-60.53193758608771, 46.663049072885684], [-60.53194607108008, 46.66309670281813], [-60.53197298107733, 46.66324783180519], [-60.53197264939452, 46.663283823734005], [-60.53194538000592, 46.66333723380732], [-60.53191803286747, 46.663363642880455], [-60.5318919507056, 46.663390979227046], [-60.531746654626126, 46.663452641468275], [-60.53165568441556, 46.66346957736597], [-60.53157605820466, 46.66349575784012], [-60.53147239693473, 46.66350431984204], [-60.53140664949195, 46.66351279125982], [-60.53124646827803, 46.66358782917842], [-60.53114217348601, 46.66363669618119], [-60.53086563761446, 46.66379631217439], [-60.53077259238984, 46.66385820142293], [-60.53065349001758, 46.66394742719948], [-60.53041533812084, 46.66412497954355], [-60.53028275217194, 46.66422291350445], [-60.53020368757461, 46.664294104009166], [-60.53017592938293, 46.66432950355782], [-60.530149629302336, 46.66434237216686], [-60.530031525102764, 46.664400182652365], [-60.52999076559798, 46.66442082069608], [-60.529925826158056, 46.66445369809645], [-60.529808270530374, 46.66447995800354], [-60.52957232989955, 46.66452255978916], [-60.52941478819201, 46.66456595497074], [-60.529364603009, 46.66457311448379], [-60.52911346631275, 46.664608943163216]]}, "properties": {"OBJECTID": 277991, "FEAT_CODE": "WARV50", "FEAT_DESC": "River - Single Line", "RIVNAME_1": "South Clyburn Brook", "RIVNAME_2": " ", "ZVALUE": 9999, "FID": null, "SHAPE_Length": 484.9452069029277}}, {"type": "Feature", "id": 277993, "geometry": {"type": "LineString", "coordinates": [[-60.536979296206155, 46.65652404460451], [-60.536934640713646, 46.65658459622801], [-60.536926368008885, 46.656595793755116], [-60.53691812926088, 46.656605093059795], [-60.53688641644308, 46.656640841065524], [-60.53687262185153, 46.656685542818146], [-60.53687163141513, 46.6567453160116], [-60.536871148421874, 46.65677550886394], [-60.5368693845212, 46.65687215548693], [-60.53686852975271, 46.65691944890884], [-60.5368719833134, 46.65698296273581], [-60.536877784372535, 46.65708974406174], [-60.53688863220099, 46.65722497439449], [-60.5369009535078, 46.65727023868596], [-60.536988965182, 46.65743323045032], [-60.53702190807536, 46.65757698247421], [-60.53702605073016, 46.657595125256016], [-60.53703054145907, 46.65760474374598], [-60.537089159349165, 46.65773058121333], [-60.53710014258804, 46.65779091828521], [-60.53710067702421, 46.65779382772426], [-60.53711267052815, 46.65787508403559], [-60.537112296747345, 46.657892805545345], [-60.5371115385376, 46.65792905831532], [-60.5371072265151, 46.65793708324057], [-60.53709725612742, 46.65795572302762], [-60.53707295941647, 46.65800573346029], [-60.53707128617132, 46.658009189334365], [-60.53696405292369, 46.6581256766847], [-60.536871130837035, 46.65821457289425], [-60.53681935175733, 46.65824977164296], [-60.53676591333221, 46.65828610459479], [-60.53660716961259, 46.65835648311596], [-60.53658988451405, 46.65836349956478], [-60.5365419173934, 46.658382976700466], [-60.53648132987399, 46.658400876958844], [-60.53642268967114, 46.65841820715379], [-60.536383990319436, 46.65843537295222], [-60.53635664746285, 46.65846179218779], [-60.536347001050736, 46.65847502102339], [-60.536330161751096, 46.65849811163843], [-60.5363144094487, 46.65852949646491], [-60.53628993390059, 46.65857824290744], [-60.536249558597056, 46.65863228063352], [-60.53617043063309, 46.65867646559453], [-60.53608288282929, 46.65871292726473], [-60.535999891600994, 46.65874748910243], [-60.535858711877175, 46.65880754431658], [-60.53581462005888, 46.65882629467669], [-60.53576160786719, 46.658871051134305], [-60.53566917089848, 46.658977956370364], [-60.53562880813811, 46.65903198514659], [-60.53561939726224, 46.65906245356723], [-60.53561501182683, 46.65907668669879], [-60.535615937946545, 46.65907960458568], [-60.53562643490885, 46.65911294098331], [-60.53564763892134, 46.65914221523472], [-60.535652250957845, 46.659148587472274], [-60.5357168185929, 46.65919497782603], [-60.53582022180009, 46.65924940485574], [-60.53585951790205, 46.65927635100815], [-60.53587223438691, 46.65931262413848], [-60.535870599571204, 46.65934858801156], [-60.5358564874492, 46.65942928188656], [-60.53584273006192, 46.65950188360556], [-60.53580158967761, 46.65957301325445], [-60.53569443098089, 46.65971648233243], [-60.53556493165925, 46.65985910984151], [-60.53554855717637, 46.65987713448306], [-60.53536221363409, 46.66003691419074], [-60.53532225854636, 46.660081951865074], [-60.53531574207394, 46.66009935197105], [-60.53530887048982, 46.66011766239959], [-60.53529454784117, 46.66015409076968], [-60.535280788449214, 46.660189055315314], [-60.53527439379936, 46.66021354986684], [-60.53526652876177, 46.660243646583645], [-60.53526491422407, 46.66036079784618], [-60.535263668363605, 46.660450579740164], [-60.5352627250451, 46.660508409956115], [-60.535262192316885, 46.66054053666698], [-60.5352542989365, 46.66055716910871], [-60.5352072536435, 46.660656358551954], [-60.535167377314885, 46.660728397188905], [-60.535138967424594, 46.66076128196533], [-60.53505975298778, 46.660852983094614], [-60.53499382473612, 46.660951459411336], [-60.53492883437828, 46.66103678023899], [-60.534925719866436, 46.66104087999399], [-60.53479242444769, 46.66118379376967], [-60.53478923521706, 46.6611880989049], [-60.53473948736821, 46.661255568684226], [-60.53470177532461, 46.66131851004467], [-60.53468573351438, 46.66134529851206], [-60.53461510093413, 46.66143221647279], [-60.53459157519204, 46.66146116551495], [-60.53445835641322, 46.66163108886789], [-60.534431499324555, 46.66167550865646], [-60.534389985234306, 46.66178351079452], [-60.53436286837782, 46.6618287529443], [-60.53433622984026, 46.66187324942024], [-60.53432269247006, 46.66190934360321], [-60.534309438378465, 46.66194466991221], [-60.53429854563881, 46.66198297206271], [-60.53428144594306, 46.66204306381871], [-60.53427443491077, 46.66206615005361], [-60.5342676067587, 46.66208866424604], [-60.53422878282139, 46.662154470396715], [-60.53417270698609, 46.662249513770405], [-60.534148902459414, 46.66228888744384], [-60.53414586239814, 46.6622939337587], [-60.534065974532886, 46.66238310872957], [-60.53399542725426, 46.66244741171182], [-60.53398687667636, 46.66245520111385], [-60.53391998193004, 46.66251765686618], [-60.533854355190364, 46.6625522406323]]}, "properties": {"OBJECTID": 277993, "FEAT_CODE": "WARV50", "FEAT_DESC": "River - Single Line", "RIVNAME_1": "South Clyburn Brook", "RIVNAME_2": " ", "ZVALUE": 9999, "FID": null, "SHAPE_Length": 772.2296495823196}}]}