{"type": "FeatureCollection", "features": [{"type": "Feature", "id": 155565, "geometry": {"type": "LineString", "coordinates": [[-60.51866904302427, 46.66464744840791], [-60.518661408477556, 46.6646294631875], [-60.51864596161636, 46.66459309289737], [-60.518588853468074, 46.664571262173055], [-60.51853200663401, 46.664538871354246], [-60.51846148261546, 46.66449941586488], [-60.51842584526721, 46.66447946396365], [-60.51827222550349, 46.66438762628167], [-60.51826294340695, 46.664383356934415], [-60.5182579632797, 46.66438106190526], [-60.518180317335066, 46.664335277826744], [-60.518174702402455, 46.66433143005466], [-60.518141026706495, 46.66430832571829], [-60.5181063919739, 46.66429132040426], [-60.5181026715222, 46.664289493697716], [-60.51783017408801, 46.66418818136022], [-60.517764352961194, 46.66416965300293], [-60.51763491094963, 46.66414164371433], [-60.51753076443003, 46.66413218298384], [-60.51748551345967, 46.664131767590064], [-60.51738702764338, 46.66413086241145], [-60.51721592323558, 46.66415594678127], [-60.517109688888205, 46.66416980375542], [-60.5170857541985, 46.66417291996704], [-60.51705735366835, 46.664182491041885], [-60.51692773805635, 46.66422618740131], [-60.51688773568386, 46.66424331830941], [-60.51687227123596, 46.66424958833368], [-60.51682246707722, 46.66426980028951], [-60.51671749658468, 46.66427832047794], [-60.51668818554187, 46.664278088930885], [-60.51665215778662, 46.66427780150694], [-60.51658681899136, 46.664277282498624], [-60.51656605476691, 46.664279675476116], [-60.51652110941455, 46.66428485519917], [-60.51650717679415, 46.66428964648018], [-60.516469312104356, 46.664302629773], [-60.51637657701701, 46.66432941493767], [-60.51632483388002, 46.664346290645035], [-60.516258657899236, 46.6643637528188], [-60.51616871068309, 46.66436849491753], [-60.516101420860615, 46.6643720371511], [-60.51609759805773, 46.664370163156974], [-60.51606306636897, 46.664353204459275], [-60.51603926213063, 46.664345199561524], [-60.51603730510236, 46.66434454506527], [-60.51594653191083, 46.66427147497617], [-60.515911987273334, 46.664254515951], [-60.51590817713279, 46.66425265122533], [-60.515885894766726, 46.66424937723939], [-60.51584325089896, 46.66424313197718], [-60.51577701832718, 46.66423359331199], [-60.515750858115005, 46.664233924963], [-60.51558107132027, 46.6642590445108], [-60.51525362306081, 46.66430141952716], [-60.51514828132944, 46.66431803000673], [-60.51511599711133, 46.664330468133016], [-60.5149646384392, 46.6643887374056], [-60.51481965130826, 46.664414385762875], [-60.51473370378496, 46.66441400278674], [-60.51466282627596, 46.66441367729257], [-60.51460957706697, 46.66441292492606], [-60.51454524925456, 46.664412021733895], [-60.51444545867667, 46.66438340234545], [-60.51441622081519, 46.66437501800791]]}, "properties": {"OBJECTID": 155565, "FEAT_CODE": "WARV10", "FEAT_DESC": "Double Line River - Water to the left line", "RIVNAME_1": "Clyburn Brook", "RIVNAME_2": " ", "ZVALUE": 9999, "FID": null, "SHAPE_Length": 360.8123311893265}}, {"type": "Feature", "id": 155566, "geometry": {"type": "LineString", "coordinates": [[-60.51441622081519, 46.66437501800791], [-60.51439453442627, 46.66437157669], [-60.514298121413105, 46.664356251262824], [-60.51421080204782, 46.66432022595295], [-60.51420831303923, 46.664319199869794], [-60.514065345068026, 46.66427289294336], [-60.51399992455619, 46.66424537134579], [-60.513981807197645, 46.66423252177531], [-60.513961942077096, 46.66421844623385], [-60.51394991718656, 46.664210426996156], [-60.51394798905837, 46.66420914310789], [-60.51392119445705, 46.66419965079], [-60.51389653474429, 46.66419092486308], [-60.51389012529514, 46.66418930055043], [-60.513857768752274, 46.66418108225938], [-60.51380548963415, 46.664180845596455], [-60.51354413531246, 46.66417876284245], [-60.51349226868702, 46.66416953522757], [-60.5134432324108, 46.66416016214067], [-60.51343913738332, 46.66415938011061], [-60.513424704580345, 46.664149139510236], [-60.51340115524904, 46.66413245481857], [-60.51338235060028, 46.66411920321645], [-60.513336573332104, 46.664086951518804], [-60.513181703519656, 46.66398638599259], [-60.513141153791096, 46.66396528162939], [-60.513129356285106, 46.663959148203375], [-60.513116683091816, 46.6639544356962], [-60.51310365001302, 46.66394958936384], [-60.51299829642459, 46.663943383165154], [-60.5129341665534, 46.663939603440134], [-60.51292577689475, 46.66394068093672], [-60.51286841611768, 46.66394806412928], [-60.512802252243254, 46.66396553356604], [-60.5127508666949, 46.66397431563422], [-60.51269196417455, 46.66398709206986], [-60.51267164416635, 46.66399148295314], [-60.51244909733337, 46.66399835062316], [-60.51222696356486, 46.66399621806783], [-60.51213506552314, 46.66400501844691], [-60.51207642255401, 46.664008719435735], [-60.512018369727905, 46.6640123792359], [-60.511931632495155, 46.66400871004775], [-60.51175612328235, 46.66400127319906], [-60.51158705278794, 46.663982294483475], [-60.51145723010449, 46.66396236970159], [-60.5112612288539, 46.66396079497571], [-60.511242218487006, 46.663958014285086], [-60.51119630306639, 46.663951291092154], [-60.51113007177753, 46.663941749757065], [-60.51100119788025, 46.663907148467345], [-60.51092216927573, 46.66388592573668], [-60.51087235193877, 46.66387706552943], [-60.51081843759041, 46.66386746813191], [-60.510740865989256, 46.66384867993275], [-60.51049285198665, 46.66378388213827], [-60.510403306904905, 46.66374743645935], [-60.51040174133687, 46.66374679938885], [-60.51020813875615, 46.663664286058626], [-60.51018575459299, 46.66365726483411], [-60.51009086860742, 46.66362753345012], [-60.50985678318355, 46.66354413801764], [-60.509675015178054, 46.663488880834976], [-60.50953250660998, 46.663460586780516], [-60.50941474712602, 46.66344588127913], [-60.509375233759066, 46.66344095275133], [-60.509206140925876, 46.663394070697365], [-60.50906277861389, 46.66338464799841], [-60.50901369571237, 46.663377458936324], [-60.50893292972228, 46.66336562874702], [-60.50872420572478, 46.663327773376615], [-60.50865826464903, 46.6633096691358], [-60.50862093053676, 46.66329942395675], [-60.50837416169907, 46.66320764933013], [-60.50829697051147, 46.66317579107209], [-60.5081278484057, 46.66310598433475], [-60.50795619866443, 46.663028328449], [-60.50794600491366, 46.66302372339971], [-60.50785489734694, 46.66298663867474], [-60.507490582246895, 46.662921099547404], [-60.50728143409781, 46.662892241068015], [-60.50713811489543, 46.66288191691024], [-60.50692988558503, 46.66286207759943], [-60.506759969642346, 46.662833173529826], [-60.5066772624615, 46.662820660431656], [-60.506447107355655, 46.66278585250706], [-60.50639549257912, 46.662778877099235], [-60.50630420229033, 46.66276653654999], [-60.50614734606204, 46.66273791636938], [-60.50607015013491, 46.662711033376056], [-60.506010433504485, 46.66268041866005], [-60.50592711590785, 46.662637715432155], [-60.50578414675734, 46.66259139807596], [-60.50569970456748, 46.66256717370489], [-60.50565512899111, 46.66255438465159], [-60.50548521476427, 46.66252547871785], [-60.50540723326341, 46.6625156777251], [-60.505374855518035, 46.66251052548711], [-60.50528914180335, 46.66249689281633], [-60.505147065238454, 46.66245960291601], [-60.505093895936405, 46.66245034305618], [-60.50495311797435, 46.66245470524588], [-60.50487266139644, 46.662457215584936], [-60.50481640214656, 46.66246169384016], [-60.50457089828456, 46.66248122088917], [-60.5044141300896, 46.66250750792434], [-60.50435220225916, 46.6625263608895], [-60.50424310260824, 46.662559573897816], [-60.50415915538835, 46.662581960068906], [-60.50411207982102, 46.662594513235916], [-60.504008305059784, 46.66261740249725], [-60.503915293372934, 46.66263791667132], [-60.503866690686515, 46.662644172552895], [-60.50378380508448, 46.66265485490453], [-60.5037576870817, 46.66265428475011], [-60.50356126416042, 46.66266168737738], [-60.50334000608332, 46.662659682638996], [-60.50320846412227, 46.6626584844739], [-60.502947118543524, 46.66265637764362], [-60.502926055147775, 46.66265419871837], [-60.50266089779934, 46.66262672760045], [-60.502533572615114, 46.66260806217169], [-60.50253105367313, 46.662607692163576], [-60.50242685028023, 46.662571217050534], [-60.50238762344216, 46.662543360909424], [-60.50233734168379, 46.6624711643442], [-60.50228624407024, 46.66241695850408], [-60.502208602168444, 46.66237115460498], [-60.501948803088816, 46.662279081419655], [-60.50180536137404, 46.66221474917671], [-60.501702105218996, 46.66218639389854], [-60.5016739908254, 46.66217979479258], [-60.50154560063555, 46.66214966626237], [-60.50142928548454, 46.66212103440384], [-60.50125968571097, 46.66205702988137], [-60.50118164336029, 46.66202022531328], [-60.501039923664514, 46.66194692994787], [-60.50096188162477, 46.661910125235096], [-60.50085809521349, 46.66186465800859], [-60.500652222686035, 46.66173686131146], [-60.50047110063664, 46.66158260589998], [-60.50035789242633, 46.66151526977787], [-60.500317153624664, 46.66149104277895], [-60.50030089733684, 46.66147534277542], [-60.50021328616586, 46.66139067449011], [-60.500124986094846, 46.661264547056604], [-60.50004924811041, 46.66109279527774], [-60.5000234707023, 46.66105623256488], [-60.500011869358374, 46.661050993043986], [-60.50000043446082, 46.66104582915923], [-60.49998509591088, 46.66103829398124], [-60.49997197459278, 46.661033417215464], [-60.499959380384944, 46.66102873196832], [-60.49994164751812, 46.6610246453538], [-60.49992059094732, 46.66101978408459], [-60.49985478017263, 46.6610012456007], [-60.49981962340333, 46.66100082790863], [-60.499671877346096, 46.660999046368296], [-60.49961342883504, 46.66101048502324], [-60.49958086083754, 46.661016855705824], [-60.49955474370725, 46.661016284607285], [-60.499306465093625, 46.66101445516065], [-60.498874868878055, 46.66101941538159], [-60.498767337718455, 46.66101551535067], [-60.498561670977686, 46.66100806451619], [-60.498457575996376, 46.660997687516435], [-60.498314202931425, 46.66096035172532], [-60.49805446530713, 46.660895270340696], [-60.49789844931879, 46.66084865760868], [-60.49770358444675, 46.66076608635826], [-60.49746906123964, 46.660692564616], [-60.49740014091432, 46.660664110891844], [-60.49737927088617, 46.660655500323706], [-60.4973138165041, 46.66060096001647], [-60.49721583504009, 46.66049245598959], [-60.49719940724761, 46.660474267843966], [-60.4971963832316, 46.66046870278439], [-60.49713555298906, 46.6603567729303], [-60.497123888178955, 46.66034300892492], [-60.49705870102865, 46.66026599284288], [-60.49698273999301, 46.660184231993426], [-60.4968547990045, 46.66003923468133], [-60.49674076233333, 46.65993027977629], [-60.496674523905746, 46.65986699213306], [-60.49659767339123, 46.65977621175729], [-60.49657314987733, 46.65974454458974], [-60.49639413027298, 46.65951346144362], [-60.496304993482006, 46.65937740390543], [-60.49622885441158, 46.659214649521005], [-60.49608981621586, 46.658970410629976], [-60.49608226295016, 46.65894942871543], [-60.496077072023986, 46.658935032378245], [-60.4960390839374, 46.658880201779205], [-60.49599824721501, 46.65883497456327], [-60.49592468159603, 46.65875349943476], [-60.49588665225315, 46.65869956785864], [-60.49582200420138, 46.658607848189796], [-60.49579710225628, 46.658572509645126], [-60.49577193750557, 46.658509472978864], [-60.49574671333587, 46.658446309007964], [-60.49569722298628, 46.658301228461085], [-60.49567208472368, 46.65825261901737], [-60.495660024878674, 46.65822931542442], [-60.49559703086657, 46.65814708162757], [-60.49558358060778, 46.658129543440126], [-60.49555408908596, 46.658094248315585], [-60.49549317298271, 46.65802136575553], [-60.49541073464624, 46.657933369091324], [-60.49533995618425, 46.65785781348419], [-60.49528739893291, 46.65781592019486], [-60.495134467870606, 46.65769401594355], [-60.49510535378476, 46.65766385885003], [-60.49508207696206, 46.65763976048555], [-60.49503144808859, 46.65757566182984], [-60.494992589517636, 46.657539711364734], [-60.4948662624403, 46.65733174854129], [-60.49484044526823, 46.65730124961662], [-60.494789418424965, 46.65724096704275], [-60.49459610140132, 46.65706843537346], [-60.49444293560677, 46.65693189136526], [-60.49430077723109, 46.65684056932973], [-60.493938007091266, 46.656658023296885], [-60.493652478802495, 46.65652936799251], [-60.49357444922186, 46.65649256744607], [-60.493559142007726, 46.65648242214118]]}, "properties": {"OBJECTID": 155566, "FEAT_CODE": "WARV10", "FEAT_DESC": "Double Line River - Water to the left line", "RIVNAME_1": "Clyburn Brook", "RIVNAME_2": " ", "ZVALUE": 9999, "FID": null, "SHAPE_Length": 2004.450316926279}}, {"type": "Feature", "id": 170960, "geometry": {"type": "LineString", "coordinates": [[-60.51866904302427, 46.66464744840791], [-60.51861827228019, 46.66464480774066], [-60.518569797154754, 46.66464227986479], [-60.51847551427925, 46.664626077215964], [-60.518455462510296, 46.66462033220149], [-60.518410998352465, 46.6646075775585], [-60.51822965629622, 46.66453590068098], [-60.518177306966585, 46.66451520800609], [-60.51817382250861, 46.66451308043154], [-60.51807303112859, 46.66445174631132], [-60.5180423145227, 46.664429966140816], [-60.517995796986355, 46.66439697126984], [-60.51794384554197, 46.66436074451018], [-60.517840492582394, 46.66430540243059], [-60.5178352446409, 46.66430239058728], [-60.51777681387281, 46.66426892103362], [-60.51770844970946, 46.664255395316395], [-60.51768481938252, 46.6642507244544], [-60.517580713824074, 46.664240364681675], [-60.517493930251455, 46.66423997463198], [-60.51747615530333, 46.66423989473416], [-60.517435129038674, 46.664243422942555], [-60.51738428565137, 46.66424779997404], [-60.5172401367063, 46.66425547004563], [-60.51716180872261, 46.66428166867429], [-60.51703627532602, 46.664327280746726], [-60.51701690611654, 46.664334320982356], [-60.516935295964565, 46.66435254638365], [-60.51689935809578, 46.664360567783234], [-60.516893835893015, 46.66436154584171], [-60.516754384915934, 46.66438621889715], [-60.516717035861106, 46.66439108667148], [-60.51662417602094, 46.6644031906924], [-60.51654041127994, 46.664410803282486], [-60.51644040780456, 46.664419899079], [-60.516313294315545, 46.664444344565055], [-60.51621751761437, 46.66446275674309], [-60.51609948711309, 46.664470992688955], [-60.51581359073493, 46.66440538359192], [-60.51573519227179, 46.664404580382495], [-60.51564855103716, 46.664416764711724], [-60.51555230458452, 46.66443030624724], [-60.51542123545713, 46.664428961435846], [-60.51539550761309, 46.66442869941504], [-60.51539013027065, 46.6644296535491], [-60.51525053361563, 46.664454348604266], [-60.51511389887353, 46.66447203402837], [-60.51492308353756, 46.66449673163549], [-60.514872194671426, 46.66450152055099], [-60.51475240231634, 46.66451282173874], [-60.51462261794205, 46.66452080070347], [-60.51447929266973, 46.66451048564129], [-60.51438689970858, 46.664501277520806]]}, "properties": {"OBJECTID": 170960, "FEAT_CODE": "WARV20", "FEAT_DESC": "Double Line River - Water to the right line", "RIVNAME_1": "Clyburn Brook", "RIVNAME_2": " ", "ZVALUE": 9999, "FID": null, "SHAPE_Length": 348.59552841237996}}, {"type": "Feature", "id": 170961, "geometry": {"type": "LineString", "coordinates": [[-60.51438689970858, 46.664501277520806], [-60.514373840157184, 46.664500993645945], [-60.514326963932675, 46.66450037967734], [-60.51426932251722, 46.66449962167484], [-60.51423025337032, 46.664485551713206], [-60.5141921610992, 46.66447184496557], [-60.51410059262244, 46.6644446639814], [-60.51405514004933, 46.664421563407444], [-60.51400989110649, 46.664398584239265], [-60.513919670454925, 46.664370523433725], [-60.51389392260202, 46.664361863847155], [-60.51380198327747, 46.66434277435954], [-60.513662810753985, 46.66431148008063], [-60.513593664246756, 46.664295936936995], [-60.513463743315086, 46.66424991294816], [-60.51341001620612, 46.66423450699143], [-60.51333471604575, 46.664212908022385], [-60.51320478248282, 46.664166883462784], [-60.51303521609582, 46.664101997240685], [-60.512970702768776, 46.664083494559605], [-60.512897129651606, 46.66408010341506], [-60.51274893993389, 46.66407327128734], [-60.512722821069914, 46.664072703166205], [-60.512395716341665, 46.66407908735131], [-60.51206906556421, 46.664075580720045], [-60.5119250752735, 46.66407864864965], [-60.511755020242504, 46.664082247206025], [-60.511528711588205, 46.664080211443405], [-60.511402209439154, 46.6640790694013], [-60.51124582669399, 46.664068466105604], [-60.511141681668356, 46.66405899957886], [-60.511064122734055, 46.664040211876376], [-60.51096049056516, 46.664018156656276], [-60.51084273456042, 46.66399309396199], [-60.510738109699474, 46.663965617063084], [-60.51053096645385, 46.663864809960906], [-60.51047951367392, 46.663846590205765], [-60.51032307755221, 46.6638089941431], [-60.51021742016302, 46.66377896534621], [-60.51019273503084, 46.66377194802195], [-60.510049759062596, 46.6637256358799], [-60.5100371211289, 46.66372272375386], [-60.51001095284685, 46.66371669106962], [-60.50999744101869, 46.66371032199396], [-60.50993290196313, 46.663679892323756], [-60.509660410562084, 46.663578560574365], [-60.509570866813775, 46.663542105268924], [-60.509569313907974, 46.66354147746251], [-60.50951743557963, 46.663532247783884], [-60.50940024574011, 46.6635224955541], [-60.509334921153865, 46.663521972704416], [-60.509320701655284, 46.66352673886227], [-60.50925657758542, 46.66354816558168], [-60.509099023619946, 46.66359153251248], [-60.50905927690826, 46.66359566157154], [-60.50902020034659, 46.66359971521748], [-60.508972696675585, 46.66359030159538], [-60.50892823633128, 46.663581512237975], [-60.50887094328649, 46.66357376626823], [-60.50878532816759, 46.66356219932697], [-60.508693805839364, 46.66353410602215], [-60.50866285936555, 46.66352083210069], [-60.5086297080432, 46.66350661015492], [-60.508499727401464, 46.66343357985658], [-60.50834569530087, 46.66331502642852], [-60.50825428663897, 46.663273669568376], [-60.508163850775375, 46.66323276582269], [-60.50804781007673, 46.663169038556234], [-60.50798287491039, 46.663131624314836], [-60.50782762893831, 46.66306794239219], [-60.50777503923759, 46.663049750632894], [-60.50769051096805, 46.66303646059769], [-60.50752827817993, 46.66301101905288], [-60.50744940311311, 46.66299220019874], [-60.50743634399395, 46.66299191553906], [-60.507366264939435, 46.66298450208914], [-60.50725421929675, 46.66297264584199], [-60.50720257810621, 46.66296567022395], [-60.50711131341243, 46.66295333087928], [-60.50699280638548, 46.66294354745903], [-60.50680432218445, 46.662947726824434], [-60.506706232636894, 46.66294990799577], [-60.50647100380032, 46.66294836968493], [-60.506309471278584, 46.662940968240875], [-60.50620880552172, 46.6629363519668], [-60.506104663732174, 46.662926880909055]]}, "properties": {"OBJECTID": 170961, "FEAT_CODE": "WARV20", "FEAT_DESC": "Double Line River - Water to the right line", "RIVNAME_1": "Clyburn Brook", "RIVNAME_2": " ", "ZVALUE": 9999, "FID": null, "SHAPE_Length": 681.8436545018851}}, {"type": "Feature", "id": 170964, "geometry": {"type": "LineString", "coordinates": [[-60.506104663732174, 46.662926880909055], [-60.50608695586568, 46.662922795797556], [-60.50606585878924, 46.66291793478223], [-60.506052847290746, 46.66291462707601], [-60.50602709522985, 46.662908089566514], [-60.50600777192825, 46.662899055328516], [-60.50598869096376, 46.66289015236969], [-60.50596799462946, 46.66286834448628], [-60.50596252109351, 46.66286258224088], [-60.505958048912994, 46.66284983100493], [-60.50593710127866, 46.66279002055231], [-60.5059171170794, 46.662770919126615], [-60.50589953721429, 46.66275411108488], [-60.50582190433138, 46.662708318849134], [-60.50578213441452, 46.662698757591485], [-60.505665462311406, 46.662670707257256], [-60.50560095335561, 46.662652200495096], [-60.505508565353324, 46.662642985287405], [-60.50548244732195, 46.6626424155268], [-60.50542337630933, 46.66263498902817], [-60.505326484016855, 46.662622813478684], [-60.505157420445954, 46.662603825377396], [-60.5050785468566, 46.66258500491379], [-60.50498833410072, 46.66255693720028], [-60.50497789565272, 46.66255453149278], [-60.50494952962006, 46.662547990702734], [-60.50490798861146, 46.662547660272196], [-60.5048841932966, 46.66254746504846], [-60.50487560433745, 46.6625488975964], [-60.50483150165251, 46.662556224055926], [-60.50476949786356, 46.66257275364543], [-60.50470047963912, 46.66259115508518], [-60.504420914359976, 46.662649465575456], [-60.50441142434038, 46.66265144540993], [-60.50437193337847, 46.66266138327948], [-60.50413501343104, 46.6627210107742], [-60.503997176779166, 46.66273642472219], [-60.5039129500523, 46.6627458539231], [-60.50386893538614, 46.6627566558492], [-60.503808499737765, 46.6627714821906], [-60.5037427491035, 46.662779946623345], [-60.50354144509496, 46.6627857486983], [-60.5034940477759, 46.662787116855206], [-60.50341712371181, 46.66278642737196], [-60.503284979065924, 46.662785252136445], [-60.503180838186125, 46.662775778430515], [-60.50312610742577, 46.662775159351995], [-60.503010988455856, 46.662773860575506], [-60.50296769477196, 46.66276475237706], [-60.50292036189813, 46.662754790975264], [-60.5028346633618, 46.6627396988289], [-60.50281532948525, 46.66273629768302], [-60.50275453691969, 46.66273020917473], [-60.50262014858422, 46.66271673546397], [-60.502580971570396, 46.66271587983081]]}, "properties": {"OBJECTID": 170964, "FEAT_CODE": "WARV20", "FEAT_DESC": "Double Line River - Water to the right line", "RIVNAME_1": "Clyburn Brook", "RIVNAME_2": " ", "ZVALUE": 9999, "FID": null, "SHAPE_Length": 290.18146197174747}}, {"type": "Feature", "id": 170965, "geometry": {"type": "LineString", "coordinates": [[-60.502580971570396, 46.66271587983081], [-60.5025160494049, 46.66270636208353], [-60.50238614215555, 46.662660325751155], [-60.50234090641872, 46.66264429006108], [-60.502307683841074, 46.662632512658305], [-60.502256171789334, 46.66258729753819], [-60.50219118735985, 46.66255076989243], [-60.50212132841539, 46.66251052681501], [-60.50198489468382, 46.662431966230606], [-60.50188027762952, 46.66240448136439], [-60.50176387335578, 46.66234883954795], [-60.50160949179943, 46.662267177458766], [-60.501518377797694, 46.662230069521826], [-60.5014074088783, 46.6621779030195], [-60.50140194547654, 46.66217533569888], [-60.50124592278064, 46.662128727416935], [-60.50105020596096, 46.66206414286859], [-60.50102375451813, 46.66205323304747], [-60.500960410393695, 46.662027090295894], [-60.50091043773636, 46.66200352568892], [-60.50088236829696, 46.66199028552812], [-60.50071324634663, 46.66194429020514], [-60.50044120935687, 46.661833946520396], [-60.50041583705523, 46.661823168144096], [-60.500311720662, 46.661778917176804], [-60.500218430683745, 46.66172128611496], [-60.50020749995829, 46.661714540311394], [-60.5001184319596, 46.66163339502441], [-60.50005498471468, 46.661506910892065], [-60.50004582397614, 46.66148729807495], [-60.50000026413563, 46.661389617299825], [-60.4999919524361, 46.66137143600708], [-60.49996743205361, 46.66130790140498], [-60.49992850618554, 46.66124494282025], [-60.49991324895381, 46.66122997558674], [-60.49989098868267, 46.66120813239612], [-60.49988116763289, 46.66120368776852], [-60.499851294911856, 46.66119016492991], [-60.4998160811146, 46.661183896128534], [-60.4997994337134, 46.66118093119945], [-60.499690610935254, 46.66117980273164], [-60.4996426474963, 46.66117930295273], [-60.49961143866351, 46.66117916051851], [-60.49959037160318, 46.66117905984668], [-60.499393994825795, 46.66118556532755], [-60.49926995848537, 46.66118779367552], [-60.49905515479652, 46.66119165463957], [-60.499025981447296, 46.661191592563206], [-60.498963661616386, 46.661191453485706]]}, "properties": {"OBJECTID": 170965, "FEAT_CODE": "WARV20", "FEAT_DESC": "Double Line River - Water to the right line", "RIVNAME_1": "Clyburn Brook", "RIVNAME_2": " ", "ZVALUE": 9999, "FID": null, "SHAPE_Length": 348.5955303379786}}, {"type": "Feature", "id": 171098, "geometry": {"type": "LineString", "coordinates": [[-60.498963661616386, 46.661191453485706], [-60.498805984455906, 46.661180804816134], [-60.498764177861695, 46.66118030434295], [-60.498714545850795, 46.661179704677636], [-60.49866225692031, 46.66117946086162], [-60.498585108594014, 46.661151673851776], [-60.498489523818485, 46.661140997057466], [-60.49841474650615, 46.66113264734379], [-60.49814815691387, 46.66106391535847], [-60.49809050360398, 46.661049055253244], [-60.49788261342906, 46.66099320768613], [-60.497791931475774, 46.66094712442384], [-60.497722399150454, 46.66090416784514], [-60.4976877284778, 46.66088274562808], [-60.4975329161796, 46.66081006834965], [-60.49727393148744, 46.66067209437366], [-60.49719668266517, 46.66061820483326], [-60.49705442318554, 46.660499893726495], [-60.4970032264459, 46.66045110119406], [-60.49697805973495, 46.66042712385824], [-60.49691385114666, 46.660345620219985], [-60.49682441668045, 46.66027256411994], [-60.49659222122361, 46.66006408567444], [-60.496528904226096, 46.65999160112266], [-60.49643292258434, 46.65985542083776], [-60.496413589361865, 46.65982798017812], [-60.496222275004115, 46.65958348788195], [-60.49612045332373, 46.65943907063674], [-60.49603179170985, 46.65932104086859], [-60.4959657560237, 46.65922736495], [-60.495929971839026, 46.65917660548587], [-60.49589675799002, 46.659110386657666], [-60.49586653710619, 46.659050119226556], [-60.49585920374516, 46.65903484798086], [-60.49585341924514, 46.6590228325792], [-60.49569753428905, 46.658755112797294], [-60.49568992825064, 46.65874206751642], [-60.49563828112538, 46.65864282065504], [-60.49552388311712, 46.65849398750715], [-60.49549896352459, 46.6584615824421], [-60.49547834002371, 46.65842474457214], [-60.495422901149475, 46.65832581954809], [-60.49529539664432, 46.65817183919799], [-60.495252510277425, 46.65812743079205], [-60.49524299207161, 46.65811758351966], [-60.4952192777818, 46.65809021767763], [-60.49514123551738, 46.65800015716468], [-60.49507744790449, 46.657909661881106], [-60.49497644534874, 46.657719362564336], [-60.49492887618752, 46.657651280986265], [-60.49490043197926, 46.65761059075726], [-60.49483622972616, 46.657529086041826], [-60.49474753276976, 46.65741194543593], [-60.494708241287064, 46.65735708582028], [-60.49467555201912, 46.657327651265774], [-60.494658046728034, 46.657311887078336], [-60.4945146269496, 46.65724754606244], [-60.4944378427839, 46.657183765019155], [-60.49430955898984, 46.65707475642797], [-60.49428753883518, 46.657057417281884], [-60.49420614405344, 46.656993292051745], [-60.494190316988295, 46.65698477340343], [-60.494153841825614, 46.65696514650678], [-60.493999474520514, 46.65688346531768], [-60.49398657694785, 46.656880284722725], [-60.49395939836873, 46.65687359621571], [-60.49389098078905, 46.65685985702596], [-60.4938687573989, 46.65685540105032], [-60.49383231976969, 46.65684231772378], [-60.493764612627324, 46.65681801926967], [-60.493620094144674, 46.656748091165674], [-60.49351914639014, 46.656699241497776], [-60.493441532777894, 46.65665344118456], [-60.49327648568796, 46.65654949340174], [-60.49315557697346, 46.65648317820763], [-60.493139234782234, 46.65646997722506], [-60.49312116526549, 46.65645540640136], [-60.493098136934606, 46.65644009687367], [-60.49308487261465, 46.65643128326344], [-60.493007814463716, 46.65640288243557], [-60.492986493602714, 46.65639502615237], [-60.49293646668815, 46.65637112383506], [-60.492906143343916, 46.6563524593965], [-60.492874955403494, 46.656333272004396], [-60.492854657405694, 46.65632845305503], [-60.49283430718217, 46.65632363295694], [-60.49276115443284, 46.65628568780941], [-60.492730628394675, 46.656254734157514], [-60.492684427192415, 46.65623035762739], [-60.49264905011411, 46.65623364080563], [-60.49261243940408, 46.65623703191887], [-60.4926050144276, 46.65623196421515], [-60.49254908508866, 46.65619382061753], [-60.4925298948054, 46.65618031409774], [-60.49245650316978, 46.65615573721246], [-60.492428014837834, 46.65615335751895], [-60.492404096321195, 46.656151366026926], [-60.492349905149915, 46.65613894586779], [-60.4923120969181, 46.656113691269645], [-60.492298073905715, 46.65610432994057], [-60.49218480674781, 46.656026013568685], [-60.492161564446164, 46.656012796110055], [-60.492134781234896, 46.655997575030476], [-60.49208485773748, 46.65596919270636], [-60.49208092285868, 46.655966946453], [-60.491988451528236, 46.655920837272205], [-60.491914216418195, 46.6558760819905], [-60.49188074817574, 46.65585590832887], [-60.49187064573589, 46.65585221281608], [-60.491824759292385, 46.655835456667496], [-60.49178205614096, 46.655809788529126], [-60.491767063066895, 46.655800774847194], [-60.49169612521903, 46.655755668758275], [-60.49166711186233, 46.655737239718505], [-60.49166292851482, 46.655734996999925], [-60.49155733704007, 46.65567896087573], [-60.49148260258774, 46.65561874170375], [-60.49146062361418, 46.6556008269219], [-60.49140210495845, 46.655553140164386], [-60.49137336043702, 46.655530883033016], [-60.49134459107291, 46.65550859834986], [-60.491256039368835, 46.65544899386774], [-60.49124715382891, 46.65544301204985]]}, "properties": {"OBJECTID": 171098, "FEAT_CODE": "WARV20", "FEAT_DESC": "Double Line River - Water to the right line", "RIVNAME_1": "Clyburn Brook", "RIVNAME_2": " ", "ZVALUE": 9999, "FID": null, "SHAPE_Length": 911.3001444238067}}, {"type": "Feature", "id": 189530, "geometry": {"type": "LineString", "coordinates": [[-60.516158162076344, 46.658398315410054], [-60.51618345436789, 46.658416864366636], [-60.516261502236325, 46.65845365881117], [-60.51631557674453, 46.65846993497576], [-60.516351768701426, 46.65848081882758], [-60.516468607397364, 46.6585265554644], [-60.516598476309, 46.658573474947765], [-60.51675488577355, 46.658583171559904], [-60.51679082480739, 46.658583601030436], [-60.51693778225948, 46.6585853433167], [-60.51697303539384, 46.65858562283893], [-60.517003114205785, 46.658585861992094], [-60.51702456653983, 46.658590656707666], [-60.51704322384863, 46.65859483274173], [-60.51707827835084, 46.65860372971118], [-60.517081986508664, 46.658604674207815], [-60.51708638088863, 46.6586108984781], [-60.51709426223574, 46.65862204034601], [-60.51710032543216, 46.65863463669918], [-60.51710739080247, 46.658649324762806], [-60.51711519604196, 46.65866098696407], [-60.517131833823356, 46.658685854634314], [-60.51715849970149, 46.65870353321963]]}, "properties": {"OBJECTID": 189530, "FEAT_CODE": "WARV50", "FEAT_DESC": "River - Single Line", "RIVNAME_1": " ", "RIVNAME_2": " ", "ZVALUE": 9999, "FID": null, "SHAPE_Length": 89.18226775913264}}, {"type": "Feature", "id": 189532, "geometry": {"type": "LineString", "coordinates": [[-60.51812488127808, 46.660178876875534], [-60.51810819686289, 46.66021153494699], [-60.51809760006302, 46.66023228343814], [-60.518063426094116, 46.66026664984699], [-60.5180441604796, 46.66028602220587], [-60.51796419193242, 46.660348184901125], [-60.517938145543965, 46.66037461888461], [-60.517924746034886, 46.66041032715838], [-60.517922717166826, 46.66048318134554], [-60.51796042902058, 46.660573097748], [-60.51797273508182, 46.66061836376397], [-60.51796601039472, 46.66063219445937], [-60.51795974722048, 46.66064508119509], [-60.51793793662665, 46.66068777072503], [-60.5179324655908, 46.660698487706625], [-60.51789749413261, 46.66072799487219], [-60.51787943748653, 46.66074322654638], [-60.51780029108827, 46.660787416409434], [-60.5177647915683, 46.660802476423484], [-60.5176549868068, 46.660849060591104], [-60.517589310956694, 46.66088453395165], [-60.51757026182695, 46.66089745808684], [-60.517562328833904, 46.66090284773211], [-60.517495829312665, 46.66095630271866], [-60.51740294139935, 46.66107218322328], [-60.51729610023053, 46.66117876092478], [-60.51728905040979, 46.6611936914936], [-60.51728307112372, 46.66120636836065], [-60.51728216769419, 46.66124264485938], [-60.51728150696161, 46.66126934186136], [-60.51727999034569, 46.66133869723789], [-60.51727916389536, 46.661377288350714], [-60.51727882210494, 46.66141328904971], [-60.5172584897205, 46.661473344117844], [-60.51725162328541, 46.66149368753319], [-60.51724397526281, 46.66150341223756], [-60.51723772772345, 46.661511385392366], [-60.51717129790996, 46.661591832041054], [-60.5170771018661, 46.66170769287117], [-60.517024110723035, 46.661755582036776], [-60.51695846454039, 46.661814914093526], [-60.516934441723194, 46.66185535944414], [-60.51693155198945, 46.66186022857355], [-60.51689179638916, 46.66187800382768], [-60.51685281548165, 46.66189541790003], [-60.516728111521445, 46.661940732656134], [-60.51670791906717, 46.66194806995413], [-60.51657650634709, 46.66199201488268], [-60.51656085688603, 46.66199434794363], [-60.51652383199371, 46.66199987967666], [-60.51647336014251, 46.66200960123768], [-60.51643153941384, 46.66201766571659], [-60.51639010220846, 46.6620230655756], [-60.51630133615461, 46.66203463725874], [-60.516248276259084, 46.66205148433152], [-60.51622265430759, 46.662064625466144], [-60.51619606861254, 46.66207825864884], [-60.51615601378445, 46.662096279141515], [-60.51607646545367, 46.662149449858646], [-60.516023447030385, 46.66219419704445], [-60.51602262295984, 46.66221217870237], [-60.51595580574354, 46.662300734027916], [-60.51588944276715, 46.662408180718494], [-60.51586842630936, 46.66248254832291], [-60.51586136252975, 46.66250746825375], [-60.515820264280215, 46.66260557299485], [-60.51581755998297, 46.66261437902784], [-60.51579258282121, 46.66269586939527], [-60.51577679148936, 46.662812523457866], [-60.51573934525433, 46.6628731514292], [-60.51571042708189, 46.662919979007604], [-60.515615401721135, 46.66305381116319], [-60.51557304591267, 46.66310375767252], [-60.51550899348018, 46.66317929612092], [-60.51533770012638, 46.66329438035397], [-60.515336284801364, 46.663295312577155], [-60.515258136561876, 46.66334754116732], [-60.51517898503377, 46.6633917111005], [-60.515129526631675, 46.66341664571736], [-60.51501974501063, 46.66347196663952], [-60.51493568548429, 46.663542201101414], [-60.51491371921082, 46.66356055126123], [-60.51488042743313, 46.66360124472763], [-60.514833399098166, 46.663658703227306], [-60.51478009111558, 46.663766441985175], [-60.51473894864899, 46.66386544534324], [-60.51471207440248, 46.663909860148536], [-60.51467127489031, 46.66397287182371], [-60.5146040822063, 46.66409830827444], [-60.51442777188694, 46.66435802551554], [-60.51441622081519, 46.66437501800791]]}, "properties": {"OBJECTID": 189532, "FEAT_CODE": "WARV50", "FEAT_DESC": "River - Single Line", "RIVNAME_1": " ", "RIVNAME_2": " ", "ZVALUE": 9999, "FID": null, "SHAPE_Length": 579.2011214097685}}, {"type": "Feature", "id": 191132, "geometry": {"type": "LineString", "coordinates": [[-60.512478225232826, 46.6674080995524], [-60.512479463325604, 46.66738112716263], [-60.5125032004662, 46.66734988332191], [-60.51251981412485, 46.66732800627972], [-60.51252884747864, 46.66731576509486], [-60.51257278482784, 46.667256278372854], [-60.512616111301696, 46.66719073049735], [-60.51262616970848, 46.66717552367679], [-60.5126676901611, 46.66706842953628], [-60.51267861896411, 46.66705020871962], [-60.51272148653171, 46.66697870196986], [-60.51275308028867, 46.666932077357416], [-60.51277617608909, 46.66689799357972], [-60.512829214954486, 46.6668532483587], [-60.51284303219309, 46.6668085500148], [-60.51284326878725, 46.666754115522785], [-60.51284330857427, 46.666745557602255], [-60.5128449814355, 46.6667424350665], [-60.512857606527106, 46.66671886926152], [-60.51288178528868, 46.66668653697318], [-60.512897997703014, 46.66666484914275], [-60.512904305301824, 46.66665844349538], [-60.5129240496527, 46.66663841644037], [-60.51297878400974, 46.66658036135901], [-60.51299138556775, 46.666566991772235], [-60.513027243908724, 46.66653083657346], [-60.513070888731505, 46.666486813907376], [-60.51311004177784, 46.66645976611098], [-60.51313553178975, 46.6664262023169], [-60.51315039124478, 46.66640664497245], [-60.51318211832412, 46.66638530350724], [-60.513216489298536, 46.66636218357605], [-60.513224927832496, 46.66635378130344], [-60.51324390125795, 46.66633488039897], [-60.51326993981689, 46.666308447326024], [-60.51333646325133, 46.666254995335336], [-60.51336597031169, 46.66622875466351], [-60.513375974215414, 46.66621985543308], [-60.513442484375474, 46.66616640309183], [-60.51349510945152, 46.66613064833746], [-60.5135291604471, 46.66611364120151], [-60.5135486279493, 46.666103912760974], [-60.51355193983224, 46.66610153683613], [-60.51356079438521, 46.66609517753384], [-60.513573985473364, 46.66607835578769], [-60.51357467930671, 46.6660774798966], [-60.51357502330142, 46.66604148827448], [-60.513614575201714, 46.66600544920189], [-60.513618753314105, 46.66600014918342], [-60.51362847314164, 46.66598775184106], [-60.513664097427984, 46.66596380404754], [-60.513694570289296, 46.66594329014776], [-60.513747194980986, 46.665907535268644], [-60.513775459986036, 46.665884138413766], [-60.51380019081417, 46.665863688636556], [-60.513867456350006, 46.665765253591935], [-60.51393513406697, 46.665657827692215], [-60.51395189400176, 46.66561962802571], [-60.513962875962726, 46.66559453241101], [-60.51396285713596, 46.66558867314757], [-60.51396273855335, 46.66554053076789], [-60.51393806772838, 46.66547959691062], [-60.51392633624463, 46.66545064157241], [-60.51391478882619, 46.665360392758885], [-60.513915752190556, 46.66530376911147], [-60.51391630117207, 46.66527042787577], [-60.51391593593648, 46.665256731275335], [-60.51391580699653, 46.66525241757916], [-60.51393952804123, 46.66522120008403], [-60.513956167797254, 46.66519929639722], [-60.51395686288399, 46.66516333940235], [-60.51395809247842, 46.66510034069952], [-60.51397270563903, 46.66500976065402], [-60.513985101060214, 46.664986621716814], [-60.5139870025483, 46.66498307214501], [-60.51400613412894, 46.664963841558595], [-60.51404045090076, 46.66492933548176], [-60.514060989586675, 46.66491106245343], [-60.51407997388837, 46.66489418659429], [-60.514138609381824, 46.664854755299], [-60.514146068893076, 46.66484973359001], [-60.51425131544489, 46.664778223325214], [-60.51427819052447, 46.66473380865003], [-60.51432028699736, 46.664644536963756], [-60.514333218834196, 46.66461710775505], [-60.51438689970858, 46.664501277520806]]}, "properties": {"OBJECTID": 191132, "FEAT_CODE": "WARV50", "FEAT_DESC": "River - Single Line", "RIVNAME_1": " ", "RIVNAME_2": " ", "ZVALUE": 9999, "FID": null, "SHAPE_Length": 369.1091693348686}}, {"type": "Feature", "id": 191187, "geometry": {"type": "LineString", "coordinates": [[-60.49825068799225, 46.6700109431304], [-60.49825276346258, 46.66996598965494], [-60.49829311073181, 46.669884974395245], [-60.498372579030786, 46.669777815642995], [-60.49848063913444, 46.66965593769104], [-60.4985463573238, 46.66958182219218], [-60.498588363972694, 46.66946484401699], [-60.49859258725903, 46.66945237271256], [-60.498615608267656, 46.66938444198905], [-60.49861596230975, 46.669348450625094], [-60.49860048309673, 46.669315028839], [-60.498527988456225, 46.66915843083815], [-60.49850352758629, 46.66912189663088], [-60.49848994960903, 46.66910450002429], [-60.49830977615667, 46.669003792820526], [-60.498308973270056, 46.66900334326608], [-60.498294050570884, 46.66898590821676], [-60.49827051967053, 46.66895840308121], [-60.49825440815026, 46.668899039052064], [-60.498245937446455, 46.66886786749481], [-60.49824718381483, 46.66881878297458], [-60.498247536950345, 46.668804904043036], [-60.49827525727264, 46.66874251205901], [-60.49834964454905, 46.66860236595786], [-60.49845138100938, 46.66841068239085], [-60.49852149610654, 46.66828178243496], [-60.498572811208184, 46.66818743532262], [-60.498638862093046, 46.6681159819721], [-60.49866320518173, 46.66808765217489], [-60.4986927435846, 46.66805326216738], [-60.49882538172402, 46.6679553659144], [-60.498830308493, 46.66795144177655], [-60.49897061651704, 46.667839745460526], [-60.498997327412155, 46.66780967642367], [-60.49901059422276, 46.667794720962284], [-60.49903392461443, 46.66776878087726], [-60.49913048313302, 46.66766144637179], [-60.499161626336004, 46.667615499624155], [-60.49918519340046, 46.66758074490036], [-60.49918605160346, 46.6675125723418], [-60.49918666910678, 46.667463780043285], [-60.49919727573017, 46.66743394374523], [-60.499215217400696, 46.6673834063722], [-60.499255146273605, 46.667311381380244], [-60.49930944110409, 46.667239670540866], [-60.49936242878718, 46.667173618950876], [-60.49940237822444, 46.6671238058122], [-60.49943256425267, 46.66708980776403], [-60.499442368084814, 46.66707878142614], [-60.4994819015457, 46.667043646803506], [-60.499614133985844, 46.666954740538046], [-60.49966556509331, 46.666911361214666], [-60.499667170053094, 46.666910010342086], [-60.49970835024266, 46.666838894528425], [-60.49976224141628, 46.66677619242501], [-60.49980180327924, 46.666740149334366], [-60.499920870530566, 46.66662487349909], [-60.500000248487986, 46.66651949356503], [-60.50001556830009, 46.666499129003014], [-60.50006358113489, 46.6663884194084], [-60.50006969627728, 46.666374315446284], [-60.50008510071236, 46.66623875553447], [-60.500068912908255, 46.66620142153639], [-60.500022478083615, 46.666094289945825], [-60.50004942714785, 46.66607687955768], [-60.500128595006196, 46.66603271144477], [-60.50022082250511, 46.66598882877284], [-60.50029920217445, 46.66596174289485], [-60.50040455111192, 46.66594514625353], [-60.500479618946656, 46.665931190536085], [-60.500495534255705, 46.66592823550185], [-60.50060133918485, 46.665901748887656], [-60.50070538194892, 46.66588512341945], [-60.50081887642865, 46.665839581139686], [-60.500837244027835, 46.6658322067632], [-60.500876879299305, 46.66582317324523], [-60.50092954028393, 46.66579475086612], [-60.500942571814825, 46.66578770984363], [-60.50106185096912, 46.665752508495316], [-60.501126299198724, 46.665744026138334], [-60.50117936717068, 46.66572718625619], [-60.50118893908851, 46.665722877536034], [-60.50121941685258, 46.66570916189465], [-60.501283865423865, 46.665700670456566], [-60.50128754058306, 46.66569949979498], [-60.501310399369366, 46.66569225048114], [-60.50138396332169, 46.665655041873926], [-60.50141614101539, 46.6656387623881], [-60.501448539700554, 46.665625628645415], [-60.50148141805249, 46.66561229837923], [-60.50155033448574, 46.66558203494569], [-60.50156147599108, 46.665577139503775], [-60.501693688379795, 46.66548823039071], [-60.5017989107263, 46.66541763101418], [-60.50183848329381, 46.66538158745054], [-60.50186386928248, 46.66535467471705], [-60.50190583192438, 46.66531016955188], [-60.50191965767467, 46.66526547268509], [-60.501987294966035, 46.665131062575576], [-60.502028990429174, 46.66504271359304], [-60.50204235035845, 46.665014359136954], [-60.50206022062788, 46.66495990484318], [-60.50208341255937, 46.66488925919193], [-60.50212494343275, 46.66475426970834], [-60.50213875578321, 46.664709572519556], [-60.5021409005312, 46.66470473248823], [-60.50216646895973, 46.664647188414115], [-60.50218151639604, 46.664547610529546], [-60.50219486447841, 46.664484903627596], [-60.50219658402306, 46.66441242094518], [-60.50219763885558, 46.66436797606321], [-60.502200351170806, 46.66422402979476], [-60.502202192746786, 46.664133865202764], [-60.50220347739484, 46.66407110178186], [-60.5022065276464, 46.66389117275793], [-60.502202571779335, 46.663836601662695], [-60.502196151823185, 46.66374784956537], [-60.50219711828273, 46.66367780736601], [-60.50219728217613, 46.663666876209675], [-60.50219904766921, 46.66365920196046], [-60.50221196427822, 46.66360329846], [-60.50222343488653, 46.66350275144679], [-60.50222732085867, 46.66346863715342], [-60.502230073790805, 46.66345825753823], [-60.502255799412104, 46.66336126181887], [-60.502263279577605, 46.663337089794844], [-60.50226962431211, 46.663316564880624], [-60.50230018897029, 46.66328873018779], [-60.50230919456698, 46.66328053009678], [-60.50231620255932, 46.663273411345045], [-60.50233524988821, 46.66325409986213], [-60.50233649326026, 46.66322711867012], [-60.502389059123495, 46.66316437736295], [-60.50239360390684, 46.663157663793896], [-60.50244375978545, 46.663083674091496], [-60.50247275765233, 46.66302600684705], [-60.50248405387172, 46.66300355611586], [-60.50248769463537, 46.66299631881022], [-60.50251139325791, 46.66294925455622], [-60.50252397497938, 46.66293152978466], [-60.502580971570396, 46.66271587983081]]}, "properties": {"OBJECTID": 191187, "FEAT_CODE": "WARV50", "FEAT_DESC": "River - Single Line", "RIVNAME_1": " ", "RIVNAME_2": " ", "ZVALUE": 9999, "FID": null, "SHAPE_Length": 960.3252258295047}}, {"type": "Feature", "id": 191316, "geometry": {"type": "LineString", "coordinates": [[-60.494771261646484, 46.67584582814336], [-60.49477167781833, 46.67583682849076], [-60.4947803062601, 46.67580433935699], [-60.49478592780148, 46.67578315105745], [-60.49480277940925, 46.67573796340301], [-60.49482622634216, 46.67567512768772], [-60.494845550474665, 46.67564970369123], [-60.494866600709905, 46.675622013564436], [-60.49490446011754, 46.675583981945806], [-60.49492007859342, 46.675568286506824], [-60.494974387804945, 46.67549657809395], [-60.495054702669805, 46.67537144070378], [-60.49507549095204, 46.675310103655946], [-60.49508195550728, 46.67529103975375], [-60.49515701121021, 46.6751348458719], [-60.49524543418232, 46.67495082945029], [-60.49529161103091, 46.674833556903785], [-60.49535506022391, 46.67467243777796], [-60.49538372715635, 46.67461205621586], [-60.49542314239541, 46.67452903264132], [-60.49550505824383, 46.67434092258513], [-60.495545786739584, 46.67425182588314], [-60.49565303501817, 46.67408137909599], [-60.49568438071414, 46.673999519665834], [-60.49570805396192, 46.67393768768931], [-60.495755456224764, 46.67383289746467], [-60.49581727777677, 46.67369618580327], [-60.495885001403785, 46.67358877161686], [-60.49593340286997, 46.673535616893325], [-60.49599105985224, 46.67347230608398], [-60.49607220162965, 46.67338856701885], [-60.496137964734984, 46.67332072675174], [-60.49618068468288, 46.67327309037608], [-60.49621791816217, 46.67323157069782], [-60.49624522780423, 46.67317817001591], [-60.496251805885535, 46.67312296543965], [-60.49626018740876, 46.673052500734705], [-60.4962356667123, 46.67298896543233], [-60.49622294798954, 46.672952687855776], [-60.49606887064209, 46.67280711772056], [-60.4959405477894, 46.67269811044401], [-60.49588155155743, 46.672629167226305], [-60.495863652716515, 46.67260822878205], [-60.495825583239096, 46.67252639713601], [-60.495826236150116, 46.67250067207988], [-60.49582718542241, 46.67246344280238], [-60.495738089595314, 46.67235438534011], [-60.495686990206636, 46.67230016759169], [-60.49557131494506, 46.67220043664747], [-60.49554997430994, 46.672174481896036], [-60.49551931226194, 46.67213719926398], [-60.495474098842145, 46.6720837853136], [-60.49544246063217, 46.67204640928192], [-60.49542261123137, 46.67201789523228], [-60.49539219260153, 46.67197421905624], [-60.49537553223723, 46.67195364965021], [-60.49534024454319, 46.67191009180686], [-60.49528956198877, 46.671846874230276], [-60.495264585749894, 46.6717932284793], [-60.49524048235786, 46.67172070231292], [-60.49524092145403, 46.671676982021836], [-60.49524119508304, 46.67164871972051], [-60.49522632081642, 46.67161016286389], [-60.49521667615846, 46.67158518422112], [-60.49521300114647, 46.67156880512833], [-60.49520476115633, 46.67153182455273], [-60.49521592957254, 46.67143362064383], [-60.495220179736194, 46.67139626567382], [-60.495225066703824, 46.67138048811535], [-60.49524784569807, 46.6713068739174], [-60.49530904204659, 46.67120231399111], [-60.49536850590939, 46.67110072200947], [-60.49540517220695, 46.67103015688414], [-60.495410122900545, 46.67102063555745], [-60.49547808116003, 46.67082322895201], [-60.49548122749998, 46.670670301661175], [-60.49548540395304, 46.67042720116392], [-60.49548585784017, 46.67040040976899], [-60.495491071198785, 46.670378132507125], [-60.49550052143828, 46.6703377324923], [-60.495528584004916, 46.67021145025651], [-60.49553069516998, 46.670115423871586], [-60.49553095843402, 46.67010350493247], [-60.495534659563816, 46.67008763838798], [-60.49554562188567, 46.67004082764445], [-60.495559560603944, 46.66999581004445], [-60.49557328652939, 46.669951435766045], [-60.49558705935211, 46.6698797391879], [-60.495575943684436, 46.66985094844536], [-60.49556254073405, 46.669816203752546], [-60.49553300356446, 46.66973028394609], [-60.495512987133786, 46.66967202197642], [-60.495501788893066, 46.66961022723104], [-60.49550152928089, 46.669608772580744], [-60.495515658199075, 46.66950108469421], [-60.49552992078134, 46.66946857487986], [-60.49554342358319, 46.66943779438015], [-60.49559685289812, 46.66938496588875], [-60.49568948727135, 46.66930419669414], [-60.49571685482941, 46.669277796715875], [-60.49572850919616, 46.669250233632575], [-60.49574325961029, 46.669215367532686], [-60.495744506105794, 46.66918839549538], [-60.49575793022715, 46.66912480005381], [-60.4957899192787, 46.669082697656094], [-60.49579828507238, 46.66907169413781], [-60.49583827979614, 46.66902666212227], [-60.49593099094037, 46.66900079306133], [-60.49595451684709, 46.66898481164168], [-60.49598363007154, 46.66896504666351], [-60.49602737861744, 46.668921104757345], [-60.49603710002499, 46.66891131887677], [-60.49606316116823, 46.66888489020787], [-60.49609011289149, 46.66886748081272], [-60.49609052832762, 46.6688584901307], [-60.49609072599409, 46.66884827071028], [-60.496092486033, 46.668759535430986], [-60.49609284172987, 46.66872354410389], [-60.49609342820319, 46.66868934878591], [-60.496094383983966, 46.668633580084254], [-60.4960950723532, 46.66858444736368], [-60.496095510796096, 46.66855260674577], [-60.4960978241415, 46.668417660711796], [-60.496119710579144, 46.668346330714115], [-60.49612552806721, 46.66832737856514], [-60.49618287104459, 46.66807663133957], [-60.49617911248006, 46.66801254260759], [-60.49617337013113, 46.66791442726848], [-60.496153999999414, 46.667851229668635], [-60.496148376420706, 46.66783288197778], [-60.49605960089439, 46.66768874154804], [-60.496025761913295, 46.66763990573712], [-60.49602160705294, 46.667633910899966], [-60.496009258357205, 46.66756164224952], [-60.49600807214654, 46.66755732337898], [-60.495984639341835, 46.667471996320565], [-60.49598646910527, 46.66738288456128], [-60.49598778242195, 46.667319095874745], [-60.49600594522909, 46.66706748173383], [-60.49600536157756, 46.66705945914799], [-60.495994723895556, 46.666914230731145], [-60.4959750893484, 46.66680583939794], [-60.495971807570605, 46.666787740971195], [-60.49595987451452, 46.666706481626214], [-60.49596526986526, 46.666689023200774], [-60.49597370595965, 46.66666177660046], [-60.49598753654965, 46.66661708955366], [-60.49601265918425, 46.66658350351195], [-60.4960279442206, 46.6665630757214], [-60.49624012336648, 46.66638502615849], [-60.49627836624735, 46.6663594671466], [-60.49631969698395, 46.66633186978162], [-60.49642623379276, 46.6662613041228], [-60.49661227745093, 46.66608269065092], [-60.49665658769762, 46.66604209070893], [-60.49671875369942, 46.66598511504661], [-60.496762737371625, 46.66593261920167], [-60.49677132918398, 46.66592236753856], [-60.496799049580105, 46.66585997588832], [-60.496800692059395, 46.66579611338861], [-60.49680418891003, 46.66560719450401], [-60.49678948606738, 46.665559839781615], [-60.49677915363853, 46.6655265483928], [-60.49675584958998, 46.66545370698624], [-60.49674145551484, 46.66540872595866], [-60.49674216068484, 46.66537138329668], [-60.49674418207094, 46.66526478911805], [-60.496747679007996, 46.6650758702224], [-60.49673576365901, 46.66502251065693], [-60.49664827781885, 46.66485050852334], [-60.49662280966114, 46.66475094434514], [-60.49663154043311, 46.664713624383516], [-60.49663747015183, 46.66468826681088], [-60.49664525263439, 46.66467374053997], [-60.496651775419245, 46.6646615806335], [-60.496812068037045, 46.66447429425538], [-60.496899923377505, 46.664371099965265], [-60.497024932996275, 46.6642242599458], [-60.49714533550643, 46.664108098211194], [-60.49719590650954, 46.66399075892842], [-60.49719950894243, 46.6639823869787], [-60.49721314971329, 46.663969230861156], [-60.497226872984704, 46.66395598654984], [-60.4973162272074, 46.66387889711833], [-60.49731945385112, 46.66387611480614], [-60.497477768145316, 46.6637598824855], [-60.4975569345636, 46.663715716112115], [-60.49763610085359, 46.663671549681055], [-60.49767131421391, 46.66366171852452], [-60.497728801930926, 46.663645678944654], [-60.49784635686121, 46.663619452003644], [-60.49792988414815, 46.663602290152085], [-60.498056197444875, 46.663576344635075], [-60.498087649223216, 46.66356219214851], [-60.498096246501476, 46.66355832135078], [-60.498108829796855, 46.66354059709779], [-60.4981366081924, 46.663505205731894], [-60.498151144810876, 46.66338852657733], [-60.4981520765202, 46.66333435925676], [-60.49815268313201, 46.66329856238409], [-60.49814782296256, 46.66326678580403], [-60.49814162518365, 46.663226322164434], [-60.49815505105048, 46.66319062576988], [-60.49820770340155, 46.66310855672883], [-60.498235339663665, 46.66306547641105], [-60.498236906654135, 46.66305871585631], [-60.49825003926062, 46.66300189953734], [-60.498268127537045, 46.66272330192232], [-60.49827284824529, 46.66271448641472], [-60.49828243145115, 46.662696615506775], [-60.498326355692015, 46.66264418074333], [-60.49833500180692, 46.662633867149246], [-60.49841499578748, 46.66257171871281], [-60.49844146757138, 46.662536298685005], [-60.49848180857164, 46.66245528314971], [-60.49849162627567, 46.662433178454535], [-60.49850952507723, 46.66239289097736], [-60.49852299890233, 46.662384185944134], [-60.49853551589309, 46.66235542645387], [-60.49860488356765, 46.662196081726904], [-60.49864522405174, 46.66211506611987], [-60.49864539089283, 46.66210493600999], [-60.49864676184462, 46.662025092894375], [-60.498648863032024, 46.66192942612714], [-60.498649128619306, 46.66191715622781], [-60.49873095088984, 46.66170205118487], [-60.49874412367729, 46.661672388036294], [-60.498758667105, 46.661639649940824], [-60.498777645928826, 46.66160654087311], [-60.498799910544435, 46.66156766281223], [-60.498820519698214, 46.66152528361838], [-60.49882589238866, 46.66151423240113], [-60.49884824399018, 46.661463269519], [-60.498853649462646, 46.66145094104765], [-60.49888094970247, 46.66139754846051], [-60.4988810915749, 46.66138257591768], [-60.498881303712814, 46.661361548054884], [-60.49893827375542, 46.66124391594487], [-60.498963661616386, 46.661191453485706]]}, "properties": {"OBJECTID": 191316, "FEAT_CODE": "WARV50", "FEAT_DESC": "River - Single Line", "RIVNAME_1": " ", "RIVNAME_2": " ", "ZVALUE": 9999, "FID": null, "SHAPE_Length": 1784.6822619129437}}, {"type": "Feature", "id": 266161, "geometry": {"type": "LineString", "coordinates": [[-60.50683827390973, 46.67212804984333], [-60.50687048250486, 46.67206994757142], [-60.5068781965124, 46.67205602211423], [-60.50687980966523, 46.67205193538978], [-60.50690632248516, 46.67198463715768], [-60.50689485090406, 46.671921388659314], [-60.50689364760941, 46.67191940947469], [-60.50685596378557, 46.671857542435404], [-60.50685984054428, 46.671850292145244], [-60.50687025304861, 46.67183085466398], [-60.506895896783846, 46.671813414213844], [-60.50692326072195, 46.671787002491136], [-60.50700164532308, 46.671759921131404], [-60.50704117752915, 46.6717247838919], [-60.507174572311044, 46.67158189564996], [-60.50732109281396, 46.67146629268503], [-60.50733460200079, 46.67145399648377], [-60.507360665955716, 46.67143025624971], [-60.507409065916455, 46.67136604492663], [-60.507441425080636, 46.671323119386145], [-60.507455248029224, 46.67127842183372], [-60.507470246756306, 46.67117974228055], [-60.50746328013839, 46.67115412107507], [-60.507457934004, 46.67113448404006], [-60.50741941897144, 46.67106254631718], [-60.507394358644994, 46.671032642804875], [-60.50738099765621, 46.67101670996075], [-60.50727912599938, 46.670872292930824], [-60.50720300457488, 46.67073653694583], [-60.50716530433617, 46.670646617349604], [-60.50716733554139, 46.67057376347501], [-60.50716319267239, 46.67051206072027], [-60.507156467177865, 46.670412430621546], [-60.50717233433052, 46.670294879503636], [-60.50716199698625, 46.67017855708404], [-60.50716217361429, 46.67013976291423], [-60.50716228015032, 46.67011556484768], [-60.507162558925835, 46.670087338637614], [-60.50716262853991, 46.67007957335124], [-60.50713816096694, 46.67004304986645], [-60.50712822302818, 46.67003257347676], [-60.50711197454773, 46.67001547067813], [-60.50706093085734, 46.669988258555385], [-60.506917941539, 46.66994194227552], [-60.50689753702876, 46.66993731251924], [-60.50683901534239, 46.66992402190444], [-60.50674831042896, 46.6698779543644], [-60.506721908226815, 46.66986387904025], [-60.50669726746835, 46.669850733094], [-60.50669670615131, 46.66984957788384], [-60.50668414170975, 46.66982344757947], [-60.50664654843315, 46.669759647471594], [-60.506583840353, 46.669588166420255], [-60.5065829843296, 46.669581766915115], [-60.50657315558674, 46.66950783545214], [-60.5065616198601, 46.669417586175385], [-60.506562353430645, 46.669373800271146], [-60.50656388114736, 46.66928263887288], [-60.50655671962664, 46.6692016017441], [-60.50655272035363, 46.66915639867066], [-60.50654159841805, 46.66905715863553], [-60.50651661210846, 46.66900351512766], [-60.50651244033364, 46.66899047348405], [-60.506478890567024, 46.668885695511214], [-60.50644084387653, 46.66883176719054], [-60.50638199661524, 46.66873097342595], [-60.50634026120553, 46.66865947806812], [-60.506238396536176, 46.66851506019671], [-60.506212624628695, 46.668478499057564], [-60.506187983715286, 46.668425600986055], [-60.5061876388912, 46.66842485548437], [-60.50617527645224, 46.66835258767414], [-60.50617645294968, 46.66829861467902], [-60.50619417151219, 46.66823602966532], [-60.50620455427394, 46.66819933001754], [-60.506217549840635, 46.66817261410196], [-60.506207255729066, 46.66805540151999], [-60.5062152979681, 46.66802098176936], [-60.506221906646914, 46.66799271360067], [-60.50624376288004, 46.66793452970481], [-60.506248725119306, 46.66792130025341], [-60.5062560747828, 46.667909031843976], [-60.50630253290182, 46.66783157594288], [-60.506316769914065, 46.667777878759665], [-60.50631794582091, 46.66772391474592], [-60.50633335825635, 46.66761626253462], [-60.50631561487054, 46.66757030073094], [-60.50629481092289, 46.66751641537578], [-60.506288032868746, 46.667465409825354], [-60.50628413992909, 46.667436084655286], [-60.50628600095929, 46.6673101283668], [-60.50628717686753, 46.66725616434976], [-60.50627566139621, 46.667203561521426], [-60.506275293477174, 46.66720189753897], [-60.50626299597007, 46.66715663047218], [-60.50624840459089, 46.667135927769], [-60.50623722465439, 46.66712006934293], [-60.50621182531792, 46.66707542552025], [-60.50620402095907, 46.66706433859014], [-60.506186054487365, 46.66703885538965], [-60.50616113375716, 46.6670122215471], [-60.50613536298959, 46.66697565140595], [-60.50610052339626, 46.66693018968912], [-60.50605890052369, 46.66687588623516], [-60.50602203214179, 46.666767984788706], [-60.50600890740966, 46.66674069920441], [-60.5060092564517, 46.66670470770664], [-60.506018255009785, 46.66668955934532], [-60.50603618060416, 46.66665939605724], [-60.506104247216236, 46.66654388345359], [-60.506117940358564, 46.66652557955022], [-60.50614465795016, 46.66648986613256], [-60.50623680367115, 46.66641897749828], [-60.506316315998184, 46.666338813509796], [-60.50632027112889, 46.666329000005376], [-60.50633107208853, 46.66630223621217], [-60.50633122166471, 46.666286768855606], [-60.5063314209018, 46.66626624470671], [-60.506306022272, 46.66622159191441], [-60.50625505334341, 46.66616442977586], [-60.50624137921482, 46.666149083940134], [-60.5062042033842, 46.66607627497181], [-60.50615309899299, 46.66602206175909], [-60.50601171108779, 46.66591278076672], [-60.5059078480367, 46.665840317175174], [-60.50585637176517, 46.66579419551651], [-60.5057925573706, 46.66570370579759], [-60.50576840037583, 46.665632089625696], [-60.50578215883806, 46.66556038249579], [-60.50582331895247, 46.66546138273116], [-60.50586948181166, 46.66540763496118], [-60.50587718949969, 46.66539865930081], [-60.505969760453986, 46.66531878037003], [-60.506023152194985, 46.66523804686828], [-60.50601174750351, 46.66520179901217], [-60.50599858174964, 46.665175412502954], [-60.50599758846302, 46.66517398687345], [-60.50597281150238, 46.66513885132436], [-60.505969677974356, 46.66513166415468], [-60.505960993117746, 46.66511159421936], [-60.50596092839189, 46.665084593468535], [-60.5059739232675, 46.66505787755524], [-60.50602737866285, 46.665004162776505], [-60.50612042805497, 46.66494227571614], [-60.50625263158693, 46.66485336114608], [-60.50627240981015, 46.66483348896644], [-60.506306074269055, 46.66479962795965], [-60.506465171166404, 46.66466630972067], [-60.50647250973115, 46.664655976003466], [-60.506572803024774, 46.664514751477604], [-60.506612719951654, 46.664442723651895], [-60.50664096966361, 46.664391293902995], [-60.50666693665126, 46.66434401727065], [-60.506708079318464, 46.6642459077739], [-60.50670868128981, 46.66421719359994], [-60.506709228909635, 46.664191934156506], [-60.506701654080494, 46.66418637812508], [-60.50669658311895, 46.66418265864466], [-60.50663041657664, 46.66409443102874], [-60.506594353151876, 46.66404633281857], [-60.506568954854934, 46.66400168907571], [-60.50651865598627, 46.66390158568864], [-60.506498437752725, 46.66385260899245], [-60.506492779575105, 46.66383892293998], [-60.5064902245495, 46.66381944569727], [-60.50648213709236, 46.663757692838466], [-60.506471604262764, 46.66372380397569], [-60.506457101129996, 46.66367704884445], [-60.50641086717349, 46.66359401663264], [-60.506406375624536, 46.66358594487997], [-60.506304998353585, 46.66345953713333], [-60.50628648650714, 46.66342547424726], [-60.50624112089021, 46.663342046909314], [-60.506211585439466, 46.66328420017451], [-60.50620394683116, 46.66326923794585], [-60.506165011900684, 46.66320629032682], [-60.506104663732174, 46.662926880909055]]}, "properties": {"OBJECTID": 266161, "FEAT_CODE": "WARV50", "FEAT_DESC": "River - Single Line", "RIVNAME_1": "Curtis Brook", "RIVNAME_2": " ", "ZVALUE": 9999, "FID": null, "SHAPE_Length": 1131.5795526394427}}, {"type": "Feature", "id": 277706, "geometry": {"type": "LineString", "coordinates": [[-60.51094770350636, 46.65100328564215], [-60.51089550544345, 46.65103003076916], [-60.510864888136034, 46.65104246798733], [-60.51083024898596, 46.65105653660825], [-60.510794953910086, 46.6510663880352], [-60.5107375759176, 46.65108240956899], [-60.51064079338664, 46.65112576959163], [-60.510618802751814, 46.651135622611925], [-60.51042215636223, 46.651206039655314], [-60.51033223727469, 46.65124962984724], [-60.510276444317746, 46.651276665411544], [-60.51016925817353, 46.65132257944841], [-60.51009248134211, 46.65135546686571], [-60.50993457704289, 46.6514357174734], [-60.50989570625158, 46.651452843589354], [-60.50981585668204, 46.65148803085265], [-60.50976276406047, 46.65150577418519], [-60.50961830225714, 46.65154942694351], [-60.50958022095122, 46.65156330322085], [-60.50944817930385, 46.65161141117446], [-60.50937819361041, 46.651640405119814], [-60.509342914034875, 46.65165502632803], [-60.509277177690734, 46.65166349423759], [-60.50918893578384, 46.65168021067431], [-60.50909391756782, 46.651698201396826], [-60.509001242205834, 46.651724081900696], [-60.508974124317035, 46.651733156924344], [-60.508922928828326, 46.65175027521101], [-60.508856366166846, 46.65177672446843], [-60.50877811903104, 46.65182991850965], [-60.508685055225385, 46.65189268945644], [-60.50865066540603, 46.65191126274728], [-60.50861938480803, 46.65192815781112], [-60.508579389164126, 46.65194528597082], [-60.508500182757736, 46.65196245973853], [-60.50839564833677, 46.651961981946634], [-60.50826589345105, 46.6519699542764], [-60.50814793067982, 46.65197728345494], [-60.508116677847376, 46.6519824792521], [-60.50809525026048, 46.6519860352006], [-60.50791233564246, 46.65198474881318], [-60.507852418972234, 46.651997671640366], [-60.50779485194953, 46.6520100876599], [-60.507725405905695, 46.652021623752304], [-60.50768949092992, 46.65202759079762], [-60.507492345559335, 46.65207999233682], [-60.50732659973815, 46.65213196205386], [-60.50726956578091, 46.652149834305916], [-60.50715353017107, 46.65219056671323], [-60.507045052940875, 46.652228646852954], [-60.50700124997996, 46.652244710476964], [-60.5069014928587, 46.65228130663521], [-60.50685781348797, 46.65229865986972], [-60.50683492859646, 46.65230775468149], [-60.50680969824014, 46.6523164113574], [-60.506783139896534, 46.652325525061244], [-60.50659947568636, 46.65236921920883], [-60.506496163713926, 46.65239045584446], [-60.50638965848332, 46.65241235173332], [-60.50624520516261, 46.65245599141682], [-60.506178640791354, 46.65248243007904], [-60.505981808999, 46.652544141642615], [-60.5059558573365, 46.65255227840919], [-60.50571912507391, 46.6526128132405], [-60.50558771384971, 46.65265674558453], [-60.50550252572597, 46.65267946565917], [-60.505456716066846, 46.65269168700128], [-60.50521951455866, 46.65276211033709], [-60.50494364680922, 46.65284968907688], [-60.5048522467513, 46.65287560304631], [-60.50468117126317, 46.65290156021917], [-60.50453752947617, 46.65292722486385], [-60.50448324610832, 46.65293470699158], [-60.50441915044523, 46.652943540907884], [-60.50417090820159, 46.65294172274019], [-60.50411864014669, 46.6529414818588], [-60.50409443543649, 46.65294800037191], [-60.50405379332247, 46.652958965977945], [-60.50397606614489, 46.65298851662117], [-60.50396200530769, 46.652993861563914], [-60.50390756223171, 46.65303007628071], [-60.50386897542404, 46.65305572935477], [-60.503815879412706, 46.65307346985313], [-60.50377754661345, 46.65308253281757], [-60.50351464607796, 46.653115483433545], [-60.503304849439196, 46.65315861974781], [-60.50304319949931, 46.65319249656544], [-60.502938248885656, 46.653201004492075], [-60.50282070595198, 46.65322723691545], [-60.50264722741556, 46.65324090784284], [-60.50262395711434, 46.65324273955908], [-60.50253294155216, 46.653260551256345], [-60.5024784599085, 46.653273742972324], [-60.50242721689824, 46.653286141420665], [-60.50229193503663, 46.653335412312664], [-60.50225706715855, 46.65334812337195], [-60.502163971701734, 46.653382988955975], [-60.50208565278315, 46.65340917746434], [-60.501954236828496, 46.65345310553098], [-60.50192048605571, 46.65345745308217], [-60.50188851036938, 46.65346156940958], [-60.50180970100678, 46.65346974742188], [-60.50179195375571, 46.653469710678785], [-60.501718207703036, 46.65346954844084], [-60.50158021912761, 46.65345330383535], [-60.501549228523054, 46.65344965676758], [-60.50151644292012, 46.65344553848024], [-60.501471260835054, 46.65343985334408], [-60.50144469155716, 46.6534491725649], [-60.5013966085132, 46.65347240335554], [-60.501391221506935, 46.653475003581605], [-60.50138310512294, 46.653483511032064], [-60.50136512919738, 46.65350233279904], [-60.50132525546115, 46.6535734598646], [-60.50132082566374, 46.6535842168199], [-60.50131054127231, 46.6536091375176], [-60.501310189551965, 46.65364512901677], [-60.50129673957822, 46.65368173427283], [-60.50126224255045, 46.65372750938392], [-60.501215996204316, 46.653788867371496], [-60.501176473864895, 46.65382400287811], [-60.50112679450441, 46.65384499372052], [-60.501071170329695, 46.653868491563834], [-60.50097755810375, 46.653892131142854], [-60.500900581452264, 46.65391157132836], [-60.50075610648113, 46.65395521260658], [-60.500650325184125, 46.6539816998703], [-60.50053196361876, 46.65402591164062], [-60.50047916737455, 46.65404334214982], [-60.50042711471861, 46.65406051889534], [-60.50012504309995, 46.65426311558365], [-60.499999571609656, 46.65434726545424], [-60.49998444741159, 46.65435779754119], [-60.4999644753119, 46.654371706554315], [-60.49969269121513, 46.654548351894235], [-60.49950095573949, 46.65467295531615], [-60.49944349603451, 46.65469625923228], [-60.499370413080904, 46.65472589030683], [-60.49920236468677, 46.654814679059506], [-60.499185565206, 46.65482355443846], [-60.49917479444799, 46.65482867375491], [-60.499093343218426, 46.65486743642164], [-60.4990655286234, 46.65490372723956], [-60.49903946203356, 46.65493017450711], [-60.49901168949214, 46.65494118580614], [-60.49897290470394, 46.654956600130134], [-60.49893002682327, 46.654978575762954], [-60.4989206962407, 46.65498335756433], [-60.49888627615559, 46.655000487290195], [-60.49881501492746, 46.65503594472491], [-60.498762806311184, 46.65506270208365], [-60.49874776086267, 46.655066134890795], [-60.49872317866079, 46.65507173503071], [-60.49872276386084, 46.65508072575256], [-60.49872017822401, 46.65508435910914], [-60.49871018284153, 46.65509845013918], [-60.49864242809111, 46.65517886614831], [-60.4985898459108, 46.65521371507194], [-60.4985319936064, 46.65524663972257], [-60.49851065152544, 46.65525878155098], [-60.49849238714119, 46.65526682379948], [-60.49839189904472, 46.65531108237008], [-60.498289891985266, 46.65536616137309], [-60.498260563202436, 46.65538199833121], [-60.49820467722738, 46.6553941133111], [-60.49818133528192, 46.6553991734831], [-60.49811517798784, 46.65541662556376], [-60.49799681128088, 46.655460834597605], [-60.497959173956275, 46.655473744742785], [-60.497945016792954, 46.65547860084912], [-60.497905726434034, 46.65551175134472], [-60.49789197744025, 46.65552333922288], [-60.49786461814226, 46.65554973993571], [-60.49783814958732, 46.655585159928485], [-60.49782515320242, 46.65561187492325], [-60.497836672349536, 46.65570212493842], [-60.49782041710846, 46.655827766364524], [-60.49778084957827, 46.655863799685264], [-60.49776204054008, 46.65587344086176], [-60.49772863965663, 46.65589055654265], [-60.49766206663339, 46.65591699905865], [-60.497597214277725, 46.65593447939681], [-60.49753147115902, 46.65594294040921], [-60.497426971075086, 46.65594155336835], [-60.49713954400773, 46.655938862352635], [-60.49708685814311, 46.65594760890989], [-60.49696841557007, 46.655964824833724], [-60.49687787688738, 46.65597273369737], [-60.49674079785898, 46.65597178482496], [-60.49657735090153, 46.655970654502646], [-60.49638016247101, 46.655995136583165], [-60.49629362794656, 46.65599473584589], [-60.49622335002281, 46.65599440301081], [-60.49594895406446, 46.655991994332275], [-60.49588834160411, 46.6559952028764], [-60.495804851736104, 46.655999629336264], [-60.49575262245825, 46.65599848550294], [-60.49571387060581, 46.65601654538306], [-60.49560974650157, 46.656065302774074], [-60.49558162535206, 46.65607845655627], [-60.49551677259405, 46.65609592670614], [-60.495437556302164, 46.6561130912124], [-60.495372228050094, 46.65611256027454], [-60.49533805931713, 46.65611996565942], [-60.49529301169203, 46.656129724679225], [-60.49512237026037, 46.65617368565578], [-60.49509304084561, 46.656176211090674], [-60.4950305113946, 46.65618158213592], [-60.49486666530495, 46.65622301865559], [-60.49475542928627, 46.65625113592514], [-60.49469805674688, 46.65627416937332], [-60.49462358483977, 46.656304054976886], [-60.4945456737221, 46.656321247462216], [-60.49436137370092, 46.6563558452351], [-60.49435763690502, 46.65635666333158], [-60.494283172260715, 46.65637309417846], [-60.49424401888866, 46.65638342293752], [-60.494217012602675, 46.656390543952696], [-60.49409909786722, 46.65642485908293], [-60.49408296603118, 46.65642915844819], [-60.493968084013595, 46.65645978699082], [-60.493559142007726, 46.65648242214118]]}, "properties": {"OBJECTID": 277706, "FEAT_CODE": "WARV50", "FEAT_DESC": "River - Single Line", "RIVNAME_1": "Soapstone Brook", "RIVNAME_2": " ", "ZVALUE": 9999, "FID": null, "SHAPE_Length": 1537.1111479576289}}]}