{"type": "FeatureCollection", "features": [{"type": "Feature", "id": 174723, "geometry": {"type": "LineString", "coordinates": [[-60.488322019167306, 46.95837614872907], [-60.48839013959675, 46.95826875107363], [-60.48845643240958, 46.958179888049344], [-60.488470077257766, 46.9581616127517], [-60.488562060684856, 46.958067256937085], [-60.48861781392093, 46.958010065411564], [-60.488637019302324, 46.957987844399334], [-60.488672011349166, 46.95794735907115], [-60.48870435374806, 46.95790900243815], [-60.48872489559837, 46.957884623884986], [-60.48875278928542, 46.95782224916544], [-60.48876806465016, 46.95777279065353], [-60.488780675403625, 46.95773195809463], [-60.488836783186784, 46.957544201762275], [-60.488877798979296, 46.95745420780298], [-60.488919285979385, 46.9573822229949], [-60.48894021913728, 46.957320838403355], [-60.48894670821741, 46.95730183005338], [-60.488934738917926, 46.95722058167095], [-60.48892444071764, 46.95710335430613], [-60.48889889139417, 46.95703170725901], [-60.4888746845382, 46.956959180725434], [-60.48884869957669, 46.95692295479663], [-60.48882286253306, 46.95688693909432], [-60.48873333298388, 46.95677788123653], [-60.488671619937904, 46.95669793494636], [-60.48864286956365, 46.956660703337256], [-60.488515987897834, 46.95652915492604], [-60.48847613779591, 46.95648785489935], [-60.488446142164726, 46.95645982030677], [-60.488321258587916, 46.956343164563414], [-60.48820420790862, 46.95626050042324], [-60.488082033290254, 46.95618004552799], [-60.48799636258741, 46.95612364636813], [-60.4879623719599, 46.956087748448624], [-60.487945025861045, 46.9560694318074], [-60.487929778086425, 46.95605430202528], [-60.48788098103908, 46.956005920814746], [-60.487790178669684, 46.955923832497774], [-60.48773658665534, 46.9558866312179], [-60.48771252752666, 46.95586993103868], [-60.48762136804024, 46.955823823407066], [-60.48757823729281, 46.955812185098026], [-60.48751623578371, 46.95579542572877], [-60.48733266110264, 46.955758096938055], [-60.4870855004185, 46.95567527431367], [-60.487046828910046, 46.95566019696229], [-60.48696803941207, 46.955629497485496], [-60.48692492252213, 46.95561785023368], [-60.48686290832392, 46.955601090229685], [-60.48677137790659, 46.95559098043305], [-60.48661490671581, 46.95553624694546], [-60.48652332670463, 46.95549914661015], [-60.48625016956347, 46.95542700939848], [-60.48617019610805, 46.95540588573653], [-60.48609282671856, 46.95537995954407], [-60.48592303892278, 46.95532306066155], [-60.48587615332585, 46.95531443500782], [-60.48581748768897, 46.955303642625665], [-60.48573341554419, 46.95530323525199], [-60.485712364683984, 46.955303132677656], [-60.48560728382173, 46.95530172361728], [-60.48549029515345, 46.955273954476], [-60.48546028458181, 46.955250211482486], [-60.48539903417311, 46.95520175351836], [-60.485367987878, 46.95516982526757], [-60.485283689345906, 46.955083126171424], [-60.4852191651957, 46.95500161329601], [-60.485155014015014, 46.954884110908026], [-60.48514252374463, 46.95484719076592], [-60.485130770960765, 46.954812482688865], [-60.485118386839886, 46.954740215162154], [-60.48511870965921, 46.95472603917414], [-60.4851208181878, 46.954632275580295], [-60.48511091410417, 46.954479067791745], [-60.48511135251484, 46.954448407409], [-60.485112081122416, 46.954398098673956], [-60.485126824160865, 46.954342941285766], [-60.48514075848556, 46.95429073592946], [-60.485141023439546, 46.95426461644005], [-60.485141517142836, 46.954218757253145], [-60.48513044606704, 46.954146518579634], [-60.485116197207574, 46.954126649676105], [-60.48507863131587, 46.95407428435926], [-60.484937661236856, 46.95388919967386], [-60.484912713314564, 46.95385645139402], [-60.48487815892446, 46.953814429538575], [-60.48477097432549, 46.9536841467681], [-60.484563955506964, 46.95350230743673], [-60.484473218183474, 46.9534120193876], [-60.48440950377191, 46.95334862166229], [-60.484138858505375, 46.953094287300075], [-60.48410280731191, 46.953060664749664], [-60.48406078753248, 46.95302147530215], [-60.483971695556065, 46.95290342380993], [-60.48394318714051, 46.95287403479993], [-60.483919040290864, 46.95284916940412], [-60.48381682557494, 46.95275872743671], [-60.48374311207025, 46.95266672527556], [-60.48370011532549, 46.95261307013613], [-60.48363648769341, 46.952540575460596], [-60.483599610035725, 46.9524822761562], [-60.48358509810943, 46.95245935046501], [-60.483423299987464, 46.95235004889686], [-60.48334411558768, 46.95229653366734], [-60.483261528783295, 46.95224074768818]]}, "properties": {"OBJECTID": 174723, "FEAT_CODE": "WARV50", "FEAT_DESC": "River - Single Line", "RIVNAME_1": " ", "RIVNAME_2": " ", "ZVALUE": 9999, "FID": null, "SHAPE_Length": 893.0612996066734}}, {"type": "Feature", "id": 174724, "geometry": {"type": "LineString", "coordinates": [[-60.47900858018953, 46.95758277628887], [-60.479100154521745, 46.95759199331975], [-60.47912906185073, 46.957587716487225], [-60.479153111474766, 46.957584160576786], [-60.47918289608035, 46.95757715823512], [-60.479191641035236, 46.95757511003233], [-60.47920087583469, 46.95757130873433], [-60.47929752561789, 46.95753153659818], [-60.47933822575851, 46.95750454398513], [-60.479370854788144, 46.95748288120694], [-60.47941827148789, 46.95745141082031], [-60.479497848873336, 46.95738026844823], [-60.479533284582345, 46.95736125028025], [-60.47956391916433, 46.95734482617315], [-60.47961361989064, 46.95733663351174], [-60.4796169049227, 46.95733609390862], [-60.47965755890898, 46.95728210191298], [-60.4796982943019, 46.95724567855871], [-60.479737149276005, 46.957210950660695], [-60.47976370005759, 46.957193320625336], [-60.47997727035669, 46.95705154980561], [-60.48000105129168, 46.957024049349], [-60.48003147670549, 46.95698884772498], [-60.48007161981272, 46.9569177364372], [-60.480072685412466, 46.956846367522864], [-60.48007285000284, 46.956835868826914], [-60.480069526428025, 46.956814566007075], [-60.48006173001675, 46.95676452853637], [-60.48006190943015, 46.956747838567175], [-60.48006211940438, 46.95672853943976], [-60.48011954772816, 46.95667530366395], [-60.480129442724284, 46.95666611717906], [-60.480275930963735, 46.95654156029656], [-60.48029371281879, 46.95651137183976], [-60.48034448709474, 46.95642517754627], [-60.48037247469819, 46.95637722397017], [-60.48043883044628, 46.956263465537035], [-60.480600089791864, 46.956076228555055], [-60.48060058488281, 46.95603014443378], [-60.480600854665354, 46.956004250046924], [-60.48059430457173, 46.955961529578204], [-60.48058977632358, 46.955932010775875], [-60.48059005012503, 46.955904631573055], [-60.48059015219805, 46.95589602137669], [-60.48064431439816, 46.955834217970214], [-60.48072397633666, 46.955789174915836], [-60.48076518906075, 46.955773613341655], [-60.48081630364764, 46.95575431000751], [-60.48088318400385, 46.9557172289109], [-60.48089592353104, 46.95571015685008], [-60.480950126981384, 46.955647463264214], [-60.48101783616372, 46.955549060295304], [-60.48104282890328, 46.95550804217057], [-60.48107195091848, 46.955460257383635], [-60.481138862024906, 46.9554068338691], [-60.481323603611905, 46.95536320353891], [-60.48138333486208, 46.955340642839666], [-60.48141592980824, 46.955328338122676], [-60.48150872014611, 46.95528358348667], [-60.48167224608046, 46.95516047073728], [-60.481721267888545, 46.95512357207282], [-60.48197615731632, 46.95490149609952], [-60.48202904612177, 46.954838764071305], [-60.48205703552096, 46.95480248236507], [-60.482068984475816, 46.9547744421283], [-60.48208362260164, 46.95474007147727], [-60.48228509916545, 46.95450782003459], [-60.482446815833626, 46.954338589335535], [-60.482467522315474, 46.954310732737234], [-60.48250012538842, 46.95426686692464], [-60.48254068493771, 46.954186764499205], [-60.48256979708912, 46.95404251432539], [-60.482574247987586, 46.9538356255794], [-60.48257588801806, 46.95377266571728], [-60.4825960641131, 46.95372529568088], [-60.48260247394034, 46.9537102546773], [-60.48265581692893, 46.953665531187376], [-60.48274899610871, 46.95361268462063], [-60.4827525055568, 46.95360875708318], [-60.48278922219747, 46.95356768150659], [-60.482884028012435, 46.95345186566873], [-60.48294658208141, 46.953382524264676], [-60.48296443831187, 46.95336274035264], [-60.48311175471171, 46.953220190196426], [-60.48316468816497, 46.95318445688138], [-60.48323117257123, 46.95314002217402], [-60.48326313943396, 46.95311109018528], [-60.483270976586766, 46.953104000027736], [-60.483325554515034, 46.95303320506524], [-60.4833342393181, 46.95301869102532], [-60.48335265126568, 46.952987894983806], [-60.4833751588612, 46.95293506844027], [-60.48337923544339, 46.95292549272084], [-60.48338380893235, 46.952903922702], [-60.48339442538143, 46.952853831431504], [-60.48339487189063, 46.95282301823354], [-60.483395594854315, 46.95277286235946], [-60.4833578781094, 46.95269883153413], [-60.48334504884772, 46.95267365696823], [-60.48330645697886, 46.95262781106475], [-60.483071555073145, 46.9525362498668], [-60.483006752909844, 46.95251682559178], [-60.482966541270514, 46.952495989332924], [-60.482954146603106, 46.95248957007784], [-60.48291003432668, 46.952466155155015], [-60.482902853262104, 46.95246234342186], [-60.482862954388494, 46.95244436682316], [-60.48282196506254, 46.9524003308936], [-60.48281165578661, 46.9523892418012], [-60.482799772449766, 46.95235903930523], [-60.48278699507712, 46.952326603282174], [-60.48275630010135, 46.95228585359522], [-60.482684308700165, 46.95219025285624], [-60.48263451326669, 46.95201906826781], [-60.482635133077885, 46.95198429013517], [-60.48263610521052, 46.95192911806179], [-60.48262456902324, 46.951838861033366], [-60.48258677981314, 46.95177593363288]]}, "properties": {"OBJECTID": 174724, "FEAT_CODE": "WARV50", "FEAT_DESC": "River - Single Line", "RIVNAME_1": " ", "RIVNAME_2": " ", "ZVALUE": 9999, "FID": null, "SHAPE_Length": 801.7280718855096}}, {"type": "Feature", "id": 174868, "geometry": {"type": "LineString", "coordinates": [[-60.473190312014395, 46.954697019185055], [-60.47319136110047, 46.95469623240358], [-60.47329661810813, 46.95461657196472], [-60.4733294849739, 46.95460187270699], [-60.4733368959199, 46.95459856257403], [-60.47345713556666, 46.95450132397119], [-60.47345796483466, 46.95450073932036], [-60.47346937552489, 46.95449259480978], [-60.47356424435429, 46.95437590610508], [-60.47359169337005, 46.954348424959036], [-60.473644248386485, 46.95429576876536], [-60.473724294673325, 46.95424263957417], [-60.473750403396664, 46.95421096206545], [-60.47380514449555, 46.95414453094596], [-60.47389785350066, 46.954073682343555], [-60.473937615874846, 46.954029203055], [-60.47393808767301, 46.95402867350506], [-60.474084626040415, 46.953931114871786], [-60.47419094239097, 46.953850667045295], [-60.4742441236555, 46.953800877216416], [-60.47428579666398, 46.95376186663382], [-60.474325593908596, 46.953725847438605], [-60.47449999554426, 46.953538909045065], [-60.47454498580138, 46.95350452529253], [-60.47459271570422, 46.95346806012463], [-60.47472574236268, 46.95340620015693], [-60.47481811152266, 46.953370441063974], [-60.47493716342493, 46.9533541695133], [-60.47502910924987, 46.953327400332945], [-60.47518839354396, 46.95326611924455], [-60.475492095897806, 46.95315222784014], [-60.47550943459589, 46.95314657176278], [-60.475572182526285, 46.9531260965202], [-60.475743791142385, 46.9530821854645], [-60.4757599792096, 46.95307863682939], [-60.475822154786066, 46.953065015384546], [-60.4758629865467, 46.95306535815273], [-60.4759535181998, 46.95306611327259], [-60.47609929273296, 46.95304053060815], [-60.47633281517347, 46.952989380858455], [-60.47637550926555, 46.95298002714068], [-60.47648105013881, 46.952971555480836], [-60.47660010071735, 46.95295528217172], [-60.47669204507524, 46.952928511623924], [-60.47675181746162, 46.95290198550052], [-60.476771240710825, 46.95289336039275], [-60.47687758425136, 46.952867816160335], [-60.47693015671022, 46.95286806645846], [-60.47702364921776, 46.95285727676125], [-60.477074181481534, 46.95285144339457], [-60.47736319201861, 46.9528542156062], [-60.47742536254205, 46.952857179117984], [-60.477574317887004, 46.952864269611915], [-60.477745036580096, 46.952839234729225], [-60.47779222397593, 46.952835217193496], [-60.47783739246121, 46.95283137112336], [-60.4780184763543, 46.952832986612364], [-60.47817897504143, 46.952834400119265], [-60.478271386250086, 46.952825637439865], [-60.47857470274465, 46.95274772705369], [-60.478983980784776, 46.952652351740454], [-60.4790754584191, 46.95263547736142], [-60.47926022536417, 46.952618831201974], [-60.47931470772666, 46.95261255289932], [-60.4794042746972, 46.95260221474562], [-60.47978729206729, 46.9525062580756], [-60.479958853260825, 46.95246323960009], [-60.480007290470255, 46.95244743243339], [-60.4800389367989, 46.95243710508851], [-60.480143994181454, 46.95241062955475], [-60.480173135318914, 46.9524029918276], [-60.48021053980549, 46.952393187214476], [-60.480345771118365, 46.95235358884765], [-60.48044774152737, 46.95232371527264], [-60.480594651026934, 46.9522789111074], [-60.480791747961455, 46.952218796760164], [-60.480870939959686, 46.95218364261498], [-60.48093784704011, 46.95213021911553], [-60.48101661672425, 46.95210405499575], [-60.4810658499832, 46.95209115372086], [-60.48114967953353, 46.95206918663537], [-60.481308104732776, 46.95199797875986], [-60.481362688093085, 46.951980011454914], [-60.48146695618963, 46.9519456788366], [-60.481784432707755, 46.95182292150961], [-60.481876551131634, 46.951787304196856], [-60.48199681628752, 46.95171705546379], [-60.48212893933948, 46.95164616759173], [-60.48214375301075, 46.95164192185362], [-60.4822221917398, 46.951619421387086]]}, "properties": {"OBJECTID": 174868, "FEAT_CODE": "WARV50", "FEAT_DESC": "River - Single Line", "RIVNAME_1": " ", "RIVNAME_2": " ", "ZVALUE": 9999, "FID": null, "SHAPE_Length": 802.535460056403}}, {"type": "Feature", "id": 174869, "geometry": {"type": "LineString", "coordinates": [[-60.47440943971269, 46.9554906851567], [-60.47446162115895, 46.955526934640766], [-60.474526086012744, 46.95558145405235], [-60.47456239078422, 46.95560708473404], [-60.47460369393731, 46.95563626349911], [-60.47464997801078, 46.955654563883385], [-60.474695294307836, 46.95567248291355], [-60.474799571838936, 46.95571889038512], [-60.474863225789214, 46.95576384332158], [-60.474877167537066, 46.95577369037453], [-60.474916220142426, 46.9558096409218], [-60.47496793514765, 46.95582789003441], [-60.47499466155095, 46.95584647864868], [-60.47503924965056, 46.95586479544555], [-60.475084907250135, 46.9558835677968], [-60.47510893124735, 46.955905678522186], [-60.47512397278141, 46.95591952755657], [-60.475175775620464, 46.95599176604061], [-60.47518400081976, 46.95599992101884], [-60.47523983177092, 46.95605527544541], [-60.475266276540424, 46.95607007802396], [-60.475305131126945, 46.956091813980514], [-60.47535154673667, 46.956119062404404], [-60.47538315054909, 46.95613763254813], [-60.47540234019962, 46.95617198375337], [-60.47540860798464, 46.95618319132879], [-60.47548662762783, 46.95622900982946], [-60.47551208372036, 46.95624667035224], [-60.4756131105379, 46.956445986504114]]}, "properties": {"OBJECTID": 174869, "FEAT_CODE": "WARV50", "FEAT_DESC": "River - Single Line", "RIVNAME_1": " ", "RIVNAME_2": " ", "ZVALUE": 9999, "FID": null, "SHAPE_Length": 144.48783897533048}}, {"type": "Feature", "id": 174870, "geometry": {"type": "LineString", "coordinates": [[-60.4731177756047, 46.956432305948724], [-60.47336741483385, 46.9564342187561], [-60.47347248399965, 46.95643563880612], [-60.47357985958869, 46.95642325057458], [-60.4736165455496, 46.9564190208901], [-60.47369493133536, 46.95642885101428], [-60.473944583750814, 46.95643076285213], [-60.473997146079114, 46.956431023265324], [-60.47424678541257, 46.9564329341542], [-60.47425991541471, 46.95643322397702], [-60.47458833482642, 46.95643687302642], [-60.47468121930585, 46.95644612252242], [-60.474708428907896, 46.95644635404745], [-60.474746911677045, 46.95644667236456], [-60.474799574012714, 46.95644732159084], [-60.47493081647802, 46.95644893092855], [-60.47498657493, 46.95644886544222], [-60.47500836818948, 46.95644884238244], [-60.47514361870163, 46.956450188942725], [-60.47523170538748, 46.95645107065694], [-60.475245258524154, 46.95644237028227], [-60.47542920567321, 46.95644372903663], [-60.47548315561502, 46.95644438835756], [-60.4756131105379, 46.956445986504114]]}, "properties": {"OBJECTID": 174870, "FEAT_CODE": "WARV50", "FEAT_DESC": "River - Single Line", "RIVNAME_1": " ", "RIVNAME_2": " ", "ZVALUE": 9999, "FID": null, "SHAPE_Length": 190.67687109776296}}, {"type": "Feature", "id": 174871, "geometry": {"type": "LineString", "coordinates": [[-60.4756131105379, 46.956445986504114], [-60.47564429624111, 46.95645054425172], [-60.475678379892905, 46.95645552589888], [-60.475742996461825, 46.95645547547239], [-60.47575723150575, 46.95645546552155], [-60.47591576639057, 46.95646616225342], [-60.47595253222817, 46.95647503673745], [-60.475993755995916, 46.95648498148052], [-60.476034418786185, 46.956491485055665], [-60.47611116493988, 46.956503770193855], [-60.47625486507697, 46.95655013692287], [-60.47650414172012, 46.95661593076084], [-60.47664700781294, 46.95665237923895], [-60.47674622178065, 46.956684121192794], [-60.476764842361135, 46.95669007544541], [-60.47680396502116, 46.95669188308462], [-60.476987800228436, 46.95670039139802], [-60.47722389065199, 46.95673889465372], [-60.477285142170764, 46.95676988015643], [-60.47731504280492, 46.956785001431825], [-60.47733648362398, 46.95679247567326], [-60.477419803415266, 46.95682150878281], [-60.4775442106391, 46.956858089162004], [-60.4776414832693, 46.956886691739264], [-60.47771219087237, 46.95689799674184], [-60.47775889373366, 46.95690547878831], [-60.4779551725054, 46.95695210238685], [-60.47816642269962, 46.95702108618054], [-60.47826844280584, 46.95705440055379], [-60.4783341812273, 46.957081947601786], [-60.478347118794744, 46.957091088141375], [-60.47841178212802, 46.95713675427935], [-60.47845363240936, 46.95716582670221], [-60.47846396791045, 46.957173002011146], [-60.47851569903722, 46.957191240863736], [-60.478582269771216, 46.95720080727236], [-60.47866024831441, 46.95721962442859], [-60.47868566368232, 46.95723818328226], [-60.47872514204713, 46.95726515147336], [-60.478788813678946, 46.9573646480603], [-60.47882483004051, 46.95740655096445], [-60.47882744711929, 46.9574095964339], [-60.47900858018953, 46.95758277628887]]}, "properties": {"OBJECTID": 174871, "FEAT_CODE": "WARV50", "FEAT_DESC": "River - Single Line", "RIVNAME_1": " ", "RIVNAME_2": " ", "ZVALUE": 9999, "FID": null, "SHAPE_Length": 299.996115220923}}, {"type": "Feature", "id": 175312, "geometry": {"type": "LineString", "coordinates": [[-60.48654527044157, 46.94251794032436], [-60.48654591391003, 46.94245593936531], [-60.486546012854106, 46.94244597016681], [-60.48654968969216, 46.94231105943488], [-60.4865440813948, 46.94228799668438], [-60.48653647693644, 46.94225677259568], [-60.48648794014211, 46.942058618800466], [-60.48647766155776, 46.94194140037042], [-60.48643940367714, 46.94186046498533], [-60.48642655045377, 46.94184199477543], [-60.48640123755724, 46.941805629960854], [-60.486389324582895, 46.94175137165335], [-60.48638986169629, 46.94171717660332], [-60.48639128113672, 46.94162542255548], [-60.48640318742945, 46.941561140168226], [-60.48642116160323, 46.94146408914408], [-60.486423131591714, 46.94133813133645], [-60.486425087590376, 46.94121219121812], [-60.486426042789546, 46.94120722651471], [-60.48644067741341, 46.941131538774975], [-60.48650461468649, 46.94103673034118], [-60.48650704461263, 46.941033102950335], [-60.486603045279246, 46.94086332254106], [-60.48667030348624, 46.94077390562687], [-60.48671088794178, 46.94069290221736], [-60.48676581122872, 46.940558226128495], [-60.48678055840463, 46.94049555399612], [-60.48678184321902, 46.94044678727664], [-60.486782205999944, 46.94043258513609], [-60.48673119366078, 46.9403153719395], [-60.486728758773474, 46.94031152969463], [-60.48667981028613, 46.94023414831151], [-60.486668125354164, 46.9402086932251], [-60.48665477158023, 46.94017959270626], [-60.48665671494591, 46.940076636847394], [-60.48665834749348, 46.939990701093166], [-60.48664871415717, 46.93991582116678], [-60.48663523568304, 46.93981109564041], [-60.48659912590963, 46.93968431033885], [-60.48655493678711, 46.93960014886922], [-60.48652312556188, 46.93953954982841], [-60.48644057117752, 46.93944524912186], [-60.48638094102696, 46.93937713635241], [-60.4863048453807, 46.9393110286767], [-60.4862130181482, 46.939231256165975], [-60.486122919627974, 46.93914852474763], [-60.4860845232565, 46.93911324030943], [-60.486033948997814, 46.939070893720505], [-60.48595429526976, 46.93900418566337], [-60.48582538039243, 46.938895159718776], [-60.48574821843391, 46.93883136808798], [-60.48571422231562, 46.93878995260098], [-60.48565872427961, 46.93872229921985], [-60.48558067047195, 46.93864950643556], [-60.48545628522301, 46.938539184691045], [-60.485438119483874, 46.938523072454366], [-60.48527146490569, 46.93835022940757], [-60.48520691961763, 46.938304632572944], [-60.48519388361248, 46.938295418617166], [-60.48516895023121, 46.93828073249516], [-60.48510182170595, 46.93824119844246], [-60.484945865530975, 46.93817657432659], [-60.484918520897516, 46.93816680283874], [-60.48484119107197, 46.93813916664114], [-60.48469620545671, 46.938104571477915], [-60.48456702027411, 46.93807375227569], [-60.48452085475805, 46.93805933719417], [-60.484449178131506, 46.938036963692575], [-60.48434486995079, 46.93799147310633], [-60.48428378562122, 46.9379665335566], [-60.48416309876682, 46.93791728090285], [-60.48381046587834, 46.93781593262001], [-60.48369266698827, 46.937778244259654], [-60.48368167934413, 46.93777663470665], [-60.483627418604435, 46.937768709818506], [-60.48328626942753, 46.93770271028265], [-60.483033098334786, 46.937656922924326], [-60.48302569827235, 46.93765558121426], [-60.4828540493379, 46.93764550561341], [-60.4827367686859, 46.93765282487027], [-60.4825975242585, 46.937665366422195], [-60.482552055156596, 46.93766945971575], [-60.48251491474438, 46.93766910152769], [-60.48240757722978, 46.93766808074746], [-60.48231494138138, 46.937655594092014], [-60.48226395577904, 46.93764872156005], [-60.48221595779546, 46.93764230172291], [-60.482119021890576, 46.93762933331093], [-60.48196751537641, 46.93759936988236], [-60.48188339061712, 46.93758275044641], [-60.481849111209044, 46.937582464005], [-60.481817721092085, 46.937582205143585], [-60.48178757873889, 46.93758195573598], [-60.481686382050675, 46.9375811144249], [-60.481555554175465, 46.93759713374552], [-60.48136998379159, 46.937631746704845], [-60.48123784801042, 46.93767563514199], [-60.481132431422395, 46.93773811951319], [-60.481038448709945, 46.93780893700295], [-60.48099260202728, 46.93785494976292], [-60.480932277323745, 46.93791549283731], [-60.480893924831435, 46.93794963829519], [-60.48085137697973, 46.93798750713591], [-60.48074511131388, 46.93804006407113], [-60.48063922519329, 46.93808452976739], [-60.4802165609192, 46.93821561386168], [-60.48009801265324, 46.938249900823614], [-60.479742147391256, 46.93830146829939], [-60.47962317695279, 46.93834473591303], [-60.47951686719534, 46.938398190681795], [-60.47935692629797, 46.93855845718769], [-60.4793026926403, 46.93859416013657], [-60.479285618487154, 46.93860184748921], [-60.479184568938216, 46.938647354333376], [-60.47906779207621, 46.93868613397862], [-60.47905242893858, 46.9386912401564], [-60.47886651908263, 46.938760939402826], [-60.478801316263564, 46.93877840153708], [-60.478760220670836, 46.93880936303116], [-60.478707328252995, 46.938849225995675], [-60.47863214914973, 46.938899487153186], [-60.47857438843925, 46.93893809085002], [-60.478532027574126, 46.93897360509556], [-60.478467699763605, 46.9390275340598], [-60.47836142975286, 46.939080088687305], [-60.478241991486954, 46.93913325294096], [-60.4780962882127, 46.939185838175355], [-60.47799937651969, 46.939222093754566], [-60.47788498480357, 46.939264875520784], [-60.47779260224274, 46.93928694864501], [-60.47774013886005, 46.93929948031724], [-60.47759571521014, 46.93932509479859], [-60.47746394969375, 46.93933298927905], [-60.47734378030089, 46.939342129209145], [-60.47725296423782, 46.93934903637819], [-60.4770953272185, 46.939348260518315], [-60.47698551336901, 46.939332204982456], [-60.47696482933414, 46.93932918404935], [-60.47695312039714, 46.93932614503291], [-60.4768207383288, 46.93929180879565], [-60.47656802537659, 46.939212197331614], [-60.476350737591304, 46.93914375200229], [-60.47626943704982, 46.9391075719462], [-60.47624648986193, 46.93909735540793], [-60.47582983898013, 46.93890457601877], [-60.47581832457326, 46.938901874156265], [-60.47571157861403, 46.938876768635666], [-60.47555913377649, 46.93887122750227], [-60.47539677270081, 46.938865323380064], [-60.47533970477132, 46.93887322563558], [-60.47527906539583, 46.93888163402143], [-60.47520457174642, 46.93890635863921], [-60.47517228398816, 46.938917066467205], [-60.475027014486464, 46.938960657925676], [-60.47498882762808, 46.93896995760242], [-60.47492201012228, 46.93898623896519], [-60.47467207259418, 46.939020320511474], [-60.47456655945924, 46.93902878205474], [-60.47452195013807, 46.939028247421646], [-60.47447463649122, 46.93902766207978], [-60.474306486290125, 46.93898365997887], [-60.47422672674135, 46.93896279353478], [-60.47412248127313, 46.93891639504564], [-60.47410344275955, 46.9389085682186], [-60.473965211311494, 46.93885172691817], [-60.47376986119441, 46.938787117769564], [-60.47375669320068, 46.938787726983286], [-60.473682928619546, 46.9387483726689], [-60.473652871615364, 46.93873233797742], [-60.473562175899815, 46.938677238700784], [-60.47354800114067, 46.93866601839006], [-60.473470971799145, 46.9386050291816], [-60.47342193780723, 46.938557257327346], [-60.47336795415164, 46.938504660443996], [-60.47329080789003, 46.938440860703004], [-60.47309596047532, 46.93835194499395], [-60.473029691010844, 46.9383217012259], [-60.47292582876089, 46.93826721059772], [-60.472614751233415, 46.93809295005467], [-60.47248501957047, 46.93800188981619], [-60.47223991053874, 46.937766089331156], [-60.47213595214728, 46.937657599175935], [-60.47209456296947, 46.937607124812565], [-60.47204650065867, 46.93754852949047], [-60.47193873672255, 46.937441628968735], [-60.471918464849416, 46.93742150827767], [-60.471848902365046, 46.93735242144175], [-60.47169880650535, 46.937203376872326], [-60.47166482530308, 46.93717165889702], [-60.47162077542043, 46.93713054798351], [-60.47153046560706, 46.93706735609388], [-60.47148433187577, 46.93703785336126], [-60.47138761302579, 46.93697600463473], [-60.47135955019995, 46.93695950943264], [-60.4713096243157, 46.936930183806915], [-60.471262759081476, 46.93691091518781], [-60.471219399984946, 46.93689308295496], [-60.47111248304351, 46.93685862790913], [-60.471048561153914, 46.93683801927516], [-60.47086123978434, 46.936750192996406], [-60.47085318016094, 46.9367464060669], [-60.47076294291558, 46.93670931356586], [-60.47058660483122, 46.936620964664314], [-60.470580661760096, 46.93661798945807], [-60.47045056822738, 46.93656291666478], [-60.47036002363501, 46.936530685749794], [-60.47029421165853, 46.93650726307399], [-60.47024654228745, 46.936502564362044], [-60.47018827973519, 46.93649682146514], [-60.47013662584876, 46.93650557877944], [-60.47006910144413, 46.93651849388154], [-60.47004381810162, 46.9365233255074], [-60.469937927572026, 46.93653988292711], [-60.46975451415708, 46.93655652584006], [-60.469725263802225, 46.936556319973114], [-60.46963630353697, 46.93655571158388], [-60.46959057237628, 46.93654334293404], [-60.46953121923616, 46.93652728921371], [-60.469427405601905, 46.936499785794815], [-60.46937895114961, 46.936490560633565], [-60.46937398990929, 46.93648961395657], [-60.469259032615874, 46.93648361558578], [-60.46916431164267, 46.93647867666992], [-60.46902021944192, 46.93646918979537], [-60.468902349606765, 46.93644276088628], [-60.46881091132846, 46.93642226225138], [-60.46877781630874, 46.93641387158554], [-60.4687719600723, 46.93641240111378], [-60.46875925892991, 46.936403120684226], [-60.468746133880316, 46.93640283032446], [-60.4687298108514, 46.93639735752795], [-60.468720265306125, 46.93639415853656], [-60.46867786393696, 46.936376382520095], [-60.46865455695615, 46.936366606458954], [-60.46862557956405, 46.936363400533054], [-60.46856306323077, 46.936356482763294], [-60.46854877299952, 46.9363566615718], [-60.46853675763893, 46.93635680071431], [-60.46847819968446, 46.936361786752], [-60.46844442915854, 46.9363646573538], [-60.468352935483026, 46.93635453349089], [-60.468156356807256, 46.93634388419437], [-60.468050383299996, 46.93633433962637], [-60.467980328034194, 46.936336002175416], [-60.46777548930628, 46.93634086447393], [-60.46767000991594, 46.93634842044346], [-60.4675259743664, 46.93633802399243], [-60.46747731720066, 46.93634424559206], [-60.46745988229987, 46.936346469531806], [-60.46739294236318, 46.9363728861661], [-60.46738236055627, 46.9363785645815], [-60.467260825857025, 46.936443757250224], [-60.467141408873466, 46.93649691940745], [-60.46700882806163, 46.93654977202358], [-60.46699307585255, 46.93655420201081], [-60.466916936467456, 46.936575645001156], [-60.46683858139161, 46.93656580179667], [-60.466773298089606, 46.93652925859633], [-60.466768034940614, 46.93652023261528], [-60.46671009640004, 46.936420765845675], [-60.46667106340854, 46.936384803775894], [-60.46664566188665, 46.93636624246314], [-60.466272488193674, 46.93594940435366]]}, "properties": {"OBJECTID": 175312, "FEAT_CODE": "WARV50", "FEAT_DESC": "River - Single Line", "RIVNAME_1": " ", "RIVNAME_2": " ", "ZVALUE": 9999, "FID": null, "SHAPE_Length": 2219.05034173488}}, {"type": "Feature", "id": 180155, "geometry": {"type": "LineString", "coordinates": [[-60.47037562498927, 46.954851714703814], [-60.47029634003704, 46.954832862988965], [-60.47013912436501, 46.954822187610226], [-60.47006071540832, 46.954812354524364], [-60.4700120710463, 46.95480624830343], [-60.46998233316563, 46.954802512975846], [-60.4699166015535, 46.954774970245296], [-60.469870517916206, 46.954769190567816], [-60.46983820626612, 46.95476512830925], [-60.469772926578415, 46.954755594339254], [-60.46974215287269, 46.95475013515282], [-60.469720816271575, 46.95474634254883], [-60.46960297648931, 46.954736537146935], [-60.46956705154473, 46.95472799418766], [-60.469523691575255, 46.95471769389483], [-60.46946835321879, 46.95470053210161], [-60.46943301505843, 46.954689581231456], [-60.469354167911675, 46.954661739117654], [-60.46927522634517, 46.954634785803975], [-60.46921041042077, 46.95461626234308], [-60.469171870121855, 46.95459741106775], [-60.46909301012212, 46.95456956848837], [-60.46908366953637, 46.954563071288725], [-60.46904084643963, 46.95453331692841], [-60.4689890802835, 46.95448808371073], [-60.46893821699125, 46.95445185186764], [-60.46889221143391, 46.95441907524299], [-60.46888608281357, 46.954414700945854], [-60.46888013671471, 46.954410636666346], [-60.468846611575344, 46.954387729483216], [-60.468806541620694, 46.95436509148535], [-60.46871731237039, 46.95431468268832], [-60.46858712562957, 46.95423259868502], [-60.468483239632214, 46.954150214466765], [-60.46845769675021, 46.95414253980747], [-60.46839252264279, 46.95412299101924], [-60.4683663609594, 46.954110604947836], [-60.4683526696285, 46.95410411942049], [-60.468291815329444, 46.95406154662286], [-60.46826233601899, 46.9540409246425], [-60.46825369509714, 46.95403687269997], [-60.4681839015902, 46.954004091419144], [-60.46811986943698, 46.95394057854205], [-60.46797655478988, 46.953858212349445], [-60.467925254919194, 46.95383097881477], [-60.46780743210639, 46.95378605616327], [-60.46775483363813, 46.95376601135446], [-60.467676837443086, 46.9537201880502], [-60.467612381869976, 46.95366566494064], [-60.467586407658345, 46.95365015103693], [-60.4675216250781, 46.953611468630356], [-60.46743236520903, 46.95354839594504], [-60.467327016141816, 46.953473960769514], [-60.46721128839195, 46.953392204212896], [-60.46718678903503, 46.95338192453272], [-60.46714556039147, 46.953364650954846], [-60.467028971127, 46.95330087399768], [-60.46692469167298, 46.95325446834529], [-60.46689794008105, 46.95323677721086], [-60.46686582994114, 46.95320870809321], [-60.46684619053203, 46.953191534373964], [-60.46679490800475, 46.9531364024807], [-60.46666600017701, 46.95302735528519], [-60.466642273732106, 46.95300043465604], [-60.46656246303922, 46.952909861243235], [-60.46655126849107, 46.952891704522074], [-60.46651241177665, 46.95282866713512], [-60.466498291324775, 46.95279788242183], [-60.46648738798674, 46.95277411649783], [-60.46647502942635, 46.952701847424635], [-60.46647667512656, 46.95263888785628], [-60.46645196723101, 46.95252226613776], [-60.46645391385408, 46.95243122601053], [-60.46645524603526, 46.952369339429765], [-60.46645608362432, 46.95234046980533], [-60.46645732981627, 46.95229738112915], [-60.46645112405834, 46.95224872779504], [-60.46644580731329, 46.95220713169904], [-60.46642118223347, 46.95211659214866], [-60.46641720927549, 46.95210526389054], [-60.4664084386228, 46.95208031225643], [-60.466388353380246, 46.95204086399172], [-60.466357924944255, 46.95198109996903], [-60.4663197303984, 46.95192715759359], [-60.46630398982516, 46.95190452645887], [-60.466281578383, 46.951872316203456], [-60.46622678939318, 46.951841656842014], [-60.4662162641476, 46.95183577212989], [-60.466205400724085, 46.95182814303807], [-60.46615140083346, 46.95179023857321], [-60.46608649808, 46.95171771481239], [-60.46602245837246, 46.951654191558355], [-60.46590587412465, 46.95159041353699], [-60.46584014899544, 46.95156285957671], [-60.46568332931922, 46.95151619807856], [-60.46556415662135, 46.95147412300023], [-60.46550106026189, 46.9514518557396], [-60.46545119863968, 46.9514192892714], [-60.46533277303138, 46.95134193472732], [-60.46520302295693, 46.95125086604037], [-60.46515767405441, 46.95121903837119], [-60.46513814808482, 46.95120533164442], [-60.465104223019814, 46.95117872471619], [-60.46503423113517, 46.95112383448267], [-60.46499470284379, 46.95109983021363], [-60.46494351100028, 46.95106872795574], [-60.46490405732212, 46.95104175549532], [-60.46484045730152, 46.950969250875154], [-60.464812250106824, 46.950931782236424], [-60.464737819665814, 46.95083288524391], [-60.46467688956825, 46.95075367211296], [-60.464661053165194, 46.95073309049266], [-60.4646579218445, 46.95072982631145], [-60.46458340795215, 46.950652175026214], [-60.464518988083135, 46.950596759976555], [-60.46449307556098, 46.95056107899376], [-60.46448033358942, 46.950524798910195], [-60.46448199501076, 46.95046183069376], [-60.46448284425331, 46.95044385964511], [-60.46447948477057, 46.95043151897415], [-60.46447051401983, 46.95039858925015], [-60.46447130013884, 46.950326611202655], [-60.46447253629763, 46.95027264199405], [-60.464487287738535, 46.950182965538836], [-60.46453217825967, 46.950095144854124], [-60.464542315876784, 46.95007529175388], [-60.46455583022866, 46.95003960247736], [-60.464565109117736, 46.95001010995208], [-60.46459722405871, 46.94991452762288], [-60.46463827380055, 46.94982454292028], [-60.46463910701091, 46.949785215856764], [-60.464640320916345, 46.94972559450499], [-60.4646417899567, 46.949661686075814], [-60.46464279281159, 46.94961765606621], [-60.464643110470945, 46.94958812696147], [-60.46464356636615, 46.94954565973298], [-60.464645264263126, 46.94950972661537], [-60.464633341478006, 46.94949365942536], [-60.46463167324465, 46.949491417599354], [-60.46457992913238, 46.94944617381732], [-60.46455896382642, 46.949431238167804], [-60.464529073114846, 46.94940994912509], [-60.464513105634424, 46.9494024407531], [-60.46445064799557, 46.949373113495696], [-60.46441901177713, 46.949362900046104], [-60.46430697764599, 46.94932673245557], [-60.46429383635457, 46.949326441233836], [-60.464226184893604, 46.94931052490373], [-60.464175559284634, 46.94929863063125], [-60.46416935489404, 46.949297548189264], [-60.46390051028493, 46.94925112828838], [-60.46384880507521, 46.94923288333918], [-60.46384416563054, 46.94923094462207], [-60.46378308389004, 46.94920532826308], [-60.46375767750669, 46.949186766248424], [-60.463640251378415, 46.94914096608111], [-60.463562277026696, 46.94912213870075], [-60.46331391029643, 46.949066235975216], [-60.463064749637304, 46.94902741403334], [-60.46295285666931, 46.94902637303709], [-60.46285457289743, 46.94902545370667], [-60.46275129658986, 46.949020058858984], [-60.462644821308984, 46.94901450298534], [-60.46257742819306, 46.94900120124142], [-60.462552377260124, 46.94899625398662], [-60.46252740603813, 46.9489885096694], [-60.46246171374805, 46.94896814502003], [-60.46243803769731, 46.94895746859158], [-60.46242182457017, 46.94895016146502], [-60.462227691223184, 46.94883156310975], [-60.46211114703555, 46.948766882107044], [-60.462088815035955, 46.948757522335974], [-60.461979707723444, 46.948711769974295], [-60.46192715324422, 46.94871150418668], [-60.461797064087754, 46.948683420101666], [-60.46171867895133, 46.94867358178311], [-60.46162674058648, 46.948672442180204], [-60.46144589626913, 46.948671066976765], [-60.46139034021524, 46.94867063535589]]}, "properties": {"OBJECTID": 180155, "FEAT_CODE": "WARV50", "FEAT_DESC": "River - Single Line", "RIVNAME_1": " ", "RIVNAME_2": " ", "ZVALUE": 9999, "FID": null, "SHAPE_Length": 1088.8331287094277}}, {"type": "Feature", "id": 280530, "geometry": {"type": "LineString", "coordinates": [[-60.48956613625484, 46.954401411069725], [-60.48953978398782, 46.95437473460466], [-60.48942315626524, 46.95428308154584], [-60.48935914894582, 46.95424657943708], [-60.48928820903244, 46.95422818499495], [-60.48921500902059, 46.95420921895019], [-60.48917704004708, 46.95420890777495], [-60.489149305771605, 46.95420867717787], [-60.4887284982093, 46.95421384164839], [-60.488630889417564, 46.95422187774874], [-60.488426357218806, 46.954238708187205], [-60.488247274598805, 46.95425993065801], [-60.488214894487854, 46.954263764583686], [-60.48812294511229, 46.95426264608259], [-60.488018244987416, 46.95425314811544], [-60.48799321287898, 46.954253030555016], [-60.48796568488262, 46.95425288519401], [-60.48775469204795, 46.954295967889465], [-60.48764919243748, 46.95430354192525], [-60.48754447920509, 46.95429404323633], [-60.48750082023246, 46.95427462679635], [-60.487440205599384, 46.954247656492186], [-60.487361664983474, 46.9542021406993], [-60.487298159740384, 46.95416533347709], [-60.487255763023974, 46.9541332824798], [-60.486973201875486, 46.9539197215849], [-60.486878252582365, 46.95384124919038], [-60.48681884713625, 46.953792130542794], [-60.486758357053745, 46.95374428395698], [-60.48672758634266, 46.95371993963231], [-60.48668018493735, 46.95369064930747], [-60.486520672491245, 46.95359210268449], [-60.48644769265864, 46.95354098477272], [-60.48636415084587, 46.95348247125602], [-60.48615740008146, 46.953292568227674], [-60.48606803719081, 46.95321048311693], [-60.486005148290964, 46.95316252942599], [-60.48592464688265, 46.95310113957128], [-60.48568848204972, 46.95291439615905], [-60.48551024764933, 46.952773454419415], [-60.48543622488138, 46.95270397211235], [-60.48539441781441, 46.95266471583423], [-60.485316802738446, 46.952609913553246], [-60.485160348244875, 46.95252728018484], [-60.48500472396093, 46.952426666005195], [-60.48495258715213, 46.952417411575645], [-60.48492712920938, 46.952399762108314], [-60.48492729338945, 46.95238448469971], [-60.4849275020522, 46.95236377261838], [-60.48491488653971, 46.95235561183384], [-60.48477187867986, 46.952263158136844], [-60.48470614260522, 46.95223561481723], [-60.48444339241632, 46.95223343848602], [-60.48437817472699, 46.95225090348205], [-60.48433761772186, 46.95226153109062], [-60.48431165721705, 46.952268339863686], [-60.48427526367746, 46.95228042689822], [-60.48423287567364, 46.95229450598923], [-60.48419621214726, 46.95229413186301], [-60.484154058976074, 46.952293673022474], [-60.48412560389956, 46.9522866937878], [-60.48411378037238, 46.952283787991355], [-60.484049779118045, 46.95224728301551], [-60.48395975491485, 46.952121111519894], [-60.483920319684565, 46.952093246120306], [-60.48382875371552, 46.95208403310434], [-60.48374563315394, 46.95210743965154], [-60.48373685631289, 46.952109910473034], [-60.4837295734769, 46.952111631198285], [-60.4835521409722, 46.95215354526469], [-60.48351619615969, 46.95215886536155], [-60.48349918997262, 46.952161380166146], [-60.48347664721236, 46.952176579381174], [-60.48347204634513, 46.952179681989186], [-60.483419535798504, 46.95220642532728], [-60.48335258280466, 46.95223285999545], [-60.483309099165325, 46.95223947212502], [-60.483300958158544, 46.95224071497758], [-60.483261528783295, 46.95224074768818]]}, "properties": {"OBJECTID": 280530, "FEAT_CODE": "WARV50", "FEAT_DESC": "River - Single Line", "RIVNAME_1": "Wilkie Brook", "RIVNAME_2": " ", "ZVALUE": 9999, "FID": null, "SHAPE_Length": 608.8047983935863}}, {"type": "Feature", "id": 280531, "geometry": {"type": "LineString", "coordinates": [[-60.483261528783295, 46.95224074768818], [-60.483230169456405, 46.95224048991626], [-60.48319584127412, 46.95224020283256], [-60.483077547662106, 46.952212402484854], [-60.48299994878235, 46.952157598974864], [-60.48297490836142, 46.95210305162242], [-60.48298841152619, 46.952067350963844], [-60.48299739073727, 46.952053563377646], [-60.483029467000456, 46.95200435815858], [-60.48316324178052, 46.951870509469344], [-60.48318400970414, 46.95183907231637], [-60.48320426784896, 46.951808415896025], [-60.4832044144884, 46.95179408304085], [-60.48320464182717, 46.951772426430466], [-60.48318231688621, 46.95171770486321], [-60.48317871018779, 46.951708860094264], [-60.48310111190924, 46.95165405666051], [-60.48301270201931, 46.95163837882812], [-60.48299683968603, 46.95163556406232], [-60.4829646481125, 46.951635404902014], [-60.482891724001654, 46.95163505166064], [-60.4828121123127, 46.95167919739332], [-60.482799034182825, 46.95168538927549], [-60.48271937155766, 46.95172305423847], [-60.48270091545324, 46.95173490542621], [-60.48267871933453, 46.95174915817201], [-60.48258677981314, 46.95177593363288]]}, "properties": {"OBJECTID": 280531, "FEAT_CODE": "WARV50", "FEAT_DESC": "River - Single Line", "RIVNAME_1": "Wilkie Brook", "RIVNAME_2": " ", "ZVALUE": 9999, "FID": null, "SHAPE_Length": 130.99852625865663}}, {"type": "Feature", "id": 280532, "geometry": {"type": "LineString", "coordinates": [[-60.48258677981314, 46.95177593363288], [-60.48250138091536, 46.951775350685864], [-60.48246853492704, 46.9517751319909], [-60.482416862845, 46.951755996259436], [-60.48235532539671, 46.9517132359403], [-60.48233795240714, 46.951701163435594], [-60.48226073470874, 46.95163826832154], [-60.48222490287563, 46.95162074096177], [-60.4822221917398, 46.951619421387086]]}, "properties": {"OBJECTID": 280532, "FEAT_CODE": "WARV50", "FEAT_DESC": "River - Single Line", "RIVNAME_1": "Wilkie Brook", "RIVNAME_2": " ", "ZVALUE": 9999, "FID": null, "SHAPE_Length": 34.773628423827915}}, {"type": "Feature", "id": 280533, "geometry": {"type": "LineString", "coordinates": [[-60.4822221917398, 46.951619421387086], [-60.48215645780986, 46.95159187663981], [-60.48203864839369, 46.951582084710545], [-60.482000116454174, 46.95158176775675], [-60.481907261944414, 46.95158099329967], [-60.48177631059007, 46.95157091188945], [-60.48172207380664, 46.95156190674647], [-60.4816576394593, 46.95155120123645], [-60.481627139834615, 46.951545796275234], [-60.4816055037133, 46.95154195429776], [-60.481495189434206, 46.95150716438041], [-60.48148894740692, 46.95150519110931], [-60.48137060953368, 46.95145038973853], [-60.48128030670953, 46.95138630599159], [-60.48113865294052, 46.9512679951729], [-60.480994882143214, 46.95116763641869], [-60.48073493987843, 46.95102152256413], [-60.48067463881296, 46.95097934651523], [-60.48064459632181, 46.950958337352596], [-60.480554295192796, 46.950894253060135], [-60.48037440304436, 46.950695004432866], [-60.48025817502242, 46.95056735300663], [-60.480167740310435, 46.95045016884753], [-60.48006468805052, 46.95034980565035], [-60.47989590898712, 46.95024979467573], [-60.47967503875923, 46.95013963666208], [-60.479608103216755, 46.950084300736435], [-60.47959786865937, 46.950075840825825], [-60.4795719880121, 46.95003927304535], [-60.47956940077035, 46.95003224150004], [-60.47956033757961, 46.95000751842536], [-60.47955919365222, 46.950003893457065], [-60.4795596598984, 46.94997186576767], [-60.479560367829485, 46.949922942478096], [-60.47953038639806, 46.94985645125759], [-60.479523471201034, 46.949841116899435], [-60.47951102432631, 46.94982603866685], [-60.479471232583556, 46.94977787015064], [-60.47944396066924, 46.9497519000156], [-60.47943350747947, 46.949741941368615], [-60.47939427610964, 46.94970646536181], [-60.47934274165226, 46.949659847006934], [-60.47920286771926, 46.949478099980894], [-60.479189156540606, 46.94946028503115], [-60.47918388587753, 46.94945470626298], [-60.47913782269559, 46.94940604848538], [-60.4790987721099, 46.94937009038796], [-60.47904579074207, 46.94935092427079], [-60.4790271811912, 46.94935093724088], [-60.479006363548635, 46.94935095555557], [-60.47888878524047, 46.94934978690486], [-60.478783055441596, 46.94934873521392], [-60.478652578195394, 46.94935665950727], [-60.47858034267741, 46.94936856690107], [-60.47854662225598, 46.9493741234376], [-60.478529921240614, 46.94937659023021], [-60.478493686509026, 46.949381956353605], [-60.478361987019966, 46.9494438499501], [-60.478335233368995, 46.94945272775485], [-60.478308573297774, 46.94946157161795], [-60.47821580077266, 46.94947842583767], [-60.47807173001267, 46.9494959492511], [-60.47803233185258, 46.949495080897265], [-60.47793993662198, 46.94947594549632], [-60.477835625067485, 46.949430458014426], [-60.47780161174507, 46.949430221242736], [-60.477717399173784, 46.9494296428613], [-60.47767171564197, 46.949420743333114], [-60.47766529536051, 46.94941949487585], [-60.477522415786154, 46.949356048998595], [-60.47751390639562, 46.949350038777546], [-60.47748297283655, 46.9493281811818]]}, "properties": {"OBJECTID": 280533, "FEAT_CODE": "WARV50", "FEAT_DESC": "River - Single Line", "RIVNAME_1": "Wilkie Brook", "RIVNAME_2": " ", "ZVALUE": 9999, "FID": null, "SHAPE_Length": 496.0351965336902}}, {"type": "Feature", "id": 280685, "geometry": {"type": "LineString", "coordinates": [[-60.47748297283655, 46.9493281811818], [-60.477447773133335, 46.94931180917298], [-60.47744439097426, 46.94931023170607], [-60.477373353085774, 46.949260041683786], [-60.47732737241679, 46.94922755696288], [-60.47726031669193, 46.94918044247355], [-60.47715944745049, 46.949109561879254], [-60.47713469582994, 46.949092070220466], [-60.47708185914033, 46.94905475453073], [-60.47699025267317, 46.94899063860287], [-60.47687446144544, 46.94888189210522], [-60.476847450168655, 46.948862991641995], [-60.476692520351264, 46.94875458782637], [-60.47663531198984, 46.948698465706066], [-60.47652544167549, 46.948590713365064], [-60.47646371399334, 46.94855384926211], [-60.47643468438606, 46.94853651508445], [-60.47634396956255, 46.94848141772442], [-60.4762675361131, 46.94843785757399], [-60.476135339010554, 46.94836252332274], [-60.47604417276648, 46.94831731513827], [-60.4759674529255, 46.94829633703855], [-60.4759403748507, 46.94828892715715], [-60.47582545600177, 46.94828770601998], [-60.47578275395292, 46.948287249973305], [-60.475676376387455, 46.94831370137156], [-60.475609478634695, 46.948335633018665], [-60.47557093087302, 46.94834827272185], [-60.47542521285079, 46.94840085423375], [-60.47536850365612, 46.9484176738726], [-60.475306596654264, 46.948436034691476], [-60.47527904405152, 46.94843954849169], [-60.47524049106853, 46.948444475456235], [-60.47517607751719, 46.94841695579534], [-60.475110774252, 46.94838041703422], [-60.47505944517109, 46.94832618773852], [-60.475046273440626, 46.948298898787684], [-60.47507460090493, 46.94822752843273], [-60.47507420119555, 46.94821200459317], [-60.475074134158994, 46.94820951927089], [-60.47503639859368, 46.94814569055043], [-60.474817489461046, 46.947910474240636], [-60.4747526524343, 46.94786404618428], [-60.47473011885329, 46.94786004809983], [-60.47470052156532, 46.94785479618525], [-60.47460896468799, 46.94784557595323], [-60.474502629785185, 46.94787112725826], [-60.474465008896736, 46.94788892572224], [-60.474409888801915, 46.94791498637932], [-60.47428454518744, 46.947984215128045], [-60.4742641723199, 46.94799545568731], [-60.4742609158545, 46.947998470610166], [-60.4741968409084, 46.94805786538035], [-60.47412917171794, 46.94815536536086], [-60.47410619220636, 46.94817926454759], [-60.47410291667718, 46.94818268401951], [-60.474036854441415, 46.94821812334003], [-60.47400628252858, 46.948224360003884], [-60.47399704726192, 46.94822624399446], [-60.47397069780628, 46.94822960405135], [-60.473864823113075, 46.948243123684605], [-60.47377460217382, 46.948230638487864], [-60.47365593115666, 46.94821421328291], [-60.47361603861572, 46.94819623356769], [-60.47352489092678, 46.94815012383235], [-60.47345013739576, 46.948132067273576], [-60.473446940510584, 46.94813130372744], [-60.473381681672535, 46.94812176324993], [-60.47330240592467, 46.948130812020516], [-60.47293385031099, 46.94819915911688], [-60.47287845330369, 46.94820624211839], [-60.47280163864987, 46.94821604685305], [-60.472524934868325, 46.94823153374233], [-60.47223610361568, 46.94826956561084], [-60.472208889291274, 46.948273149140384], [-60.47211470825367, 46.948276666132465], [-60.47181526131233, 46.94828785108901], [-60.4717480846825, 46.94827606244382], [-60.47170968710082, 46.948269319387556], [-60.47162090030214, 46.94824788274434], [-60.47155377422961, 46.94823167638026], [-60.47146178148248, 46.94820353618776], [-60.471421474378204, 46.948179867901146], [-60.47138377635726, 46.9481577241656], [-60.47132107801361, 46.94809552941525], [-60.47131974703519, 46.94809421308243], [-60.47128895567631, 46.94805072230253], [-60.47128155046171, 46.94804026329752], [-60.4712301834212, 46.9479590421284], [-60.47120388584696, 46.947931462642444], [-60.471139433320246, 46.947876941535306], [-60.471132874951664, 46.9478738897713], [-60.471100854692374, 46.94785898997711], [-60.471035554962235, 46.947822448953076], [-60.47095715599455, 46.947812616665125], [-60.47086329006307, 46.947811972851056], [-60.47083893363891, 46.94781180346381], [-60.470806620374034, 46.94781455399914], [-60.47074657250898, 46.94781966128266], [-60.470735532701326, 46.94782358399063], [-60.47054876240945, 46.94788999291998], [-60.47045638840748, 46.94789784122073], [-60.470337302726456, 46.94791143450786], [-60.47031104937565, 46.94791442686928], [-60.47019240299301, 46.94792260305912], [-60.47014582652558, 46.947922104241634], [-60.47011359333271, 46.94792176054636], [-60.47003647914147, 46.94788495773154], [-60.469971604006474, 46.947839426051864], [-60.469801963198805, 46.947730381572285], [-60.4695815760141, 46.94763822247639], [-60.469482683813546, 46.94759675293107], [-60.46945014494297, 46.94758311012296], [-60.46932086133176, 46.94751005524248], [-60.469225573154866, 46.94747214796408], [-60.46920347622964, 46.94746336174721], [-60.46910129617074, 46.94742502294705], [-60.469007199381984, 46.94738972467534], [-60.468890661143114, 46.94735294896758], [-60.46879826000797, 46.94733380602038], [-60.468736001011635, 46.94730918319568], [-60.468706664693244, 46.94729758189783], [-60.46850023025815, 46.947160723190656], [-60.46844749322669, 46.947144581353896], [-60.46840825373086, 46.94713258988475], [-60.46836925244646, 46.947123627482995], [-60.46833342236065, 46.94712321270117], [-60.46819850839818, 46.9471216404746], [-60.46815266611653, 46.947115901417455], [-60.468120110625314, 46.947111815261096], [-60.468101836445335, 46.94710668619368], [-60.468053978640455, 46.947093252977524], [-60.46801540164072, 46.9470753004074], [-60.46797678449705, 46.947030348627806], [-60.46793905824431, 46.94696651773352], [-60.46794797800937, 46.94693316522171], [-60.46795341830916, 46.94691283889118], [-60.467973644420674, 46.94688885300342], [-60.468006314985296, 46.946850113431594], [-60.468056982287685, 46.946793971200094], [-60.468086739224674, 46.94676099876676], [-60.46811426688626, 46.94673460958176], [-60.46810339941595, 46.94668502520085], [-60.46810237159491, 46.946680349748924], [-60.468092554666015, 46.946670053153774], [-60.46807607625803, 46.94665276958155], [-60.46799270490199, 46.94658738869439], [-60.46797216326857, 46.94657127511416], [-60.467890108090785, 46.946503349437286], [-60.46775210162333, 46.94638911628886], [-60.46763679916324, 46.946298370015235], [-60.467599187929586, 46.94625634718147], [-60.467571888001736, 46.94622583784317], [-60.4675201464352, 46.94615270616968], [-60.46750477210626, 46.94611899597769], [-60.46748322741243, 46.94607179404889], [-60.46746844503258, 46.94602971847687], [-60.46745772859268, 46.94599922517746], [-60.46746200979356, 46.945786267246746], [-60.46746259083402, 46.9457572479206], [-60.46746445249145, 46.945751214504725], [-60.46749050504233, 46.94566697142894], [-60.46753231252992, 46.945532905180094], [-60.46754152223725, 46.945495914337975], [-60.467561512347885, 46.94541565880823], [-60.46754956473921, 46.945334399432404], [-60.467536779357566, 46.94529901864818], [-60.46745969800335, 46.94521708260816], [-60.46738286627261, 46.94513543102232], [-60.46737097243627, 46.94508116213082], [-60.46741069832014, 46.9450190453522], [-60.46755811382521, 46.944902615591054], [-60.46764910091456, 46.94480403360291], [-60.467664749873364, 46.94478708301909], [-60.46771370584701, 46.944682234086756], [-60.46781531416128, 46.94446464445471], [-60.467926967350145, 46.944233831852294], [-60.46797985265816, 46.944124498038846], [-60.468000138874324, 46.94409197300165], [-60.46807509825689, 46.94397181531605], [-60.468157557824895, 46.94378375177549], [-60.46815179158202, 46.94375194615449], [-60.46814610026821, 46.943720502168645], [-60.46813291356961, 46.94369418399865], [-60.46812785880544, 46.943689635424775], [-60.46808117825459, 46.94364797001251], [-60.467938314665346, 46.9435566141157], [-60.467873870605324, 46.943502091296665], [-60.467858496183965, 46.94348064737364], [-60.46782208910228, 46.94342984978636], [-60.467772468764736, 46.94333965719818], [-60.46773342978021, 46.94330370440921], [-60.46768045901517, 46.9432845242141], [-60.4675597049039, 46.943308337026956], [-60.46754914658353, 46.94331042519889], [-60.46749171227632, 46.94330201745045], [-60.46741864338832, 46.94329132874071], [-60.467248253158566, 46.94325425928785], [-60.46713941112834, 46.943215834215344], [-60.46703886760417, 46.943180328574634], [-60.467007180155704, 46.94317126661814], [-60.466974053053036, 46.943161803805005], [-60.46692978332469, 46.94314982644643], [-60.46686894476774, 46.9431333695151], [-60.46681725742983, 46.943115126275096], [-60.46676322893661, 46.9430924754496], [-60.46675152888739, 46.94308757270266], [-60.46673825918251, 46.943078063486254], [-60.46668797491512, 46.943042068354345], [-60.4665064627622, 46.94287875936112], [-60.466441981493844, 46.942797236573], [-60.46643008860958, 46.94274297658206], [-60.466431747125796, 46.94268000821079], [-60.46644176487395, 46.942647616049825], [-60.46645966081924, 46.9425897409193], [-60.46646012662371, 46.94254535698396], [-60.46646043059692, 46.94251776242464], [-60.46645086876024, 46.94250765131658], [-60.466409115783996, 46.942463529474885], [-60.466365719326184, 46.942433068377305], [-60.46634425017779, 46.94241799588536], [-60.46625054050925, 46.94239698597717], [-60.4661349084901, 46.94237106279446], [-60.46605780495947, 46.942334257472396], [-60.46602106286223, 46.942317046797555], [-60.465940815994806, 46.942279469826445], [-60.4659086638681, 46.942248816606636], [-60.465836450849814, 46.94217996443398], [-60.46582301372636, 46.94216065100743], [-60.46579830585518, 46.94212512294173], [-60.46572178741462, 46.94202278740249], [-60.46568336192038, 46.94197138644416], [-60.465657070057816, 46.9419438057689], [-60.46551463882285, 46.94184347492771], [-60.4654440560119, 46.941803564824006], [-60.46538537511052, 46.94177039792442], [-60.465125920171225, 46.94158826114662], [-60.46509996806384, 46.941566294521145], [-60.46506148174057, 46.94153372783729], [-60.465029893572606, 46.941494492389225], [-60.46501059345506, 46.941470513249975], [-60.46497176807526, 46.94141563839974], [-60.464946540719744, 46.941379999640375], [-60.46477820804503, 46.941216079887596], [-60.46471165952255, 46.941159222762835], [-60.46459759571666, 46.94106178716979], [-60.464563366425935, 46.941037585134296], [-60.46452003188889, 46.94100697170513], [-60.4644416188202, 46.940970136258514], [-60.464414204973, 46.9409646600633], [-60.464350500458885, 46.94095191803381], [-60.46429270438567, 46.94093954989287], [-60.46421911595508, 46.94092380791993], [-60.46406232891904, 46.940877135760466], [-60.46401666113109, 46.940867547127716], [-60.463971253333284, 46.94085801823582], [-60.46394901021417, 46.94085406944637], [-60.46391913128305, 46.94084876348111], [-60.46387525077662, 46.940811640104094], [-60.46385469453918, 46.94079423851657], [-60.46372408402168, 46.94069414941864], [-60.46367901780624, 46.94066766402556], [-60.46364609679852, 46.94064832341507], [-60.463599498110405, 46.940628409613396], [-60.46358169865798, 46.94062079748805], [-60.46355403283173, 46.94061732237622], [-60.4635033117354, 46.940610960310714], [-60.46341178258778, 46.94060173167396], [-60.463214382834934, 46.94060814567003], [-60.463188512782274, 46.94059948160499], [-60.46314839449966, 46.94057868535883], [-60.46313592835487, 46.94057221734734], [-60.46310337890073, 46.94056587101876], [-60.46308384923213, 46.94056206321724], [-60.463071105229766, 46.940553690154786], [-60.46300545095355, 46.94052522710631], [-60.46295285356785, 46.94049796247635], [-60.46278498761435, 46.94037994727057], [-60.462779779782835, 46.940376151015236], [-60.46277228662408, 46.94037066618395], [-60.462720127614155, 46.94033441171942], [-60.46268198708154, 46.94027956925915], [-60.462670098468436, 46.94022530894018], [-60.46267104280448, 46.940154189251345], [-60.46267164299384, 46.94010925032181], [-60.46266184170515, 46.93998304070887], [-60.46267489270462, 46.93992932443843], [-60.46268341209123, 46.93990837365804], [-60.462689760537074, 46.93989276540453], [-60.46282431496388, 46.939686961942826], [-60.46283869099593, 46.93963328403316], [-60.46280053290268, 46.939606339505026], [-60.462668765222034, 46.939614216887094], [-60.46263108215255, 46.93960752259444], [-60.46261664462025, 46.93960496156485], [-60.462607260622434, 46.93959945278926], [-60.462538659493575, 46.93955914383741], [-60.462516018818036, 46.939503583114586], [-60.46251275826276, 46.939495564292585], [-60.462553802776746, 46.939405580102836], [-60.462556730629565, 46.93939617761321], [-60.46256774087575, 46.93936089196098], [-60.46256520962968, 46.939310762896234], [-60.462558260310544, 46.939172593242674], [-60.46257392765015, 46.939091045708196], [-60.46259121677248, 46.93905690723393], [-60.46261450425087, 46.939010950509555], [-60.462629938151935, 46.93899020706449], [-60.46266782386178, 46.93893923738544], [-60.462775345480864, 46.938832728368965], [-60.462881634378114, 46.938752290318675], [-60.462919052030664, 46.938717608179196], [-60.46294896655203, 46.93868988722263], [-60.46299004749855, 46.93862690202467], [-60.463003522265154, 46.938564204654746], [-60.46296269741646, 46.93848138646157], [-60.46294117588354, 46.93843772990243], [-60.462928012593636, 46.93841043968002], [-60.46292963186952, 46.93835394104399], [-60.46293005687099, 46.93833938935856], [-60.46293019467733, 46.93833063594992], [-60.46293129848942, 46.93825752189929], [-60.46295108694062, 46.938205241899524], [-60.46295832354925, 46.9381861255373], [-60.46296211121228, 46.93817909995657], [-60.46297272368873, 46.93815944648438], [-60.463026079792776, 46.93811473234638], [-60.46306584345721, 46.93807960720461], [-60.4630716350611, 46.938067433369554], [-60.46307897303708, 46.93805200902145], [-60.46311426005513, 46.93800623725076], [-60.463133561080824, 46.93798122374353], [-60.46310727242327, 46.937953642528086], [-60.46306909059283, 46.93789969920428], [-60.463070327358764, 46.93784572992644], [-60.46308474506465, 46.93779115295293], [-60.46312993886853, 46.93775399731688], [-60.4631380450863, 46.937747337463136], [-60.46321698071412, 46.93770766309847], [-60.46324436921314, 46.9376938982021], [-60.46331084991599, 46.937649474910934], [-60.46333421957833, 46.93762177074115], [-60.463363742351866, 46.93758675143437], [-60.463380355932905, 46.937544921328644], [-60.46340262623907, 46.93753408474057], [-60.463456069857365, 46.93750807319834], [-60.4635605676205, 46.937472970032495], [-60.46359762990243, 46.93746051743201], [-60.46365599471378, 46.93741655299087], [-60.46368684562607, 46.93736871182647], [-60.46372462825758, 46.937310143970386], [-60.46373365301174, 46.93726234994848], [-60.463742049778396, 46.937217835804276], [-60.463721137097174, 46.93715072231361], [-60.46369904475025, 46.937131657734206], [-60.46368741818694, 46.937121617607666], [-60.463670652724105, 46.937107161828656], [-60.46366836754475, 46.937105194290076], [-60.46357570491354, 46.93702525895134], [-60.463497872821364, 46.93693121718859], [-60.46348016445007, 46.93682021236627], [-60.463478876058865, 46.93681216529338], [-60.4634787969949, 46.93680605291334], [-60.46347813508423, 46.93675833214912], [-60.46353636730359, 46.93658229787956]]}, "properties": {"OBJECTID": 280685, "FEAT_CODE": "WARV50", "FEAT_DESC": "River - Single Line", "RIVNAME_1": "Wilkie Brook", "RIVNAME_2": " ", "ZVALUE": 9999, "FID": null, "SHAPE_Length": 2389.6960394592165}}, {"type": "Feature", "id": 280705, "geometry": {"type": "LineString", "coordinates": [[-60.50272132257389, 46.93578688495245], [-60.50269454495061, 46.93579143019613], [-60.50266967408701, 46.93579565707274], [-60.50263139093494, 46.93580774469386], [-60.50261634977407, 46.93581249208356], [-60.50227252080778, 46.935944487298805], [-60.50192790681, 46.93609444521241], [-60.50182202822216, 46.93613893065196], [-60.50158060736367, 46.936184623205946], [-60.501506549359604, 46.93619863812058], [-60.501435831089296, 46.93621965548007], [-60.50124142171758, 46.93627744318276], [-60.50081965616813, 46.9363906240856], [-60.50072024788696, 46.936423658559164], [-60.50063415795289, 46.93645226816382], [-60.500567763021316, 46.93646986964494], [-60.50050245856187, 46.936487188927856], [-60.500447147104104, 46.936500676727626], [-60.5003974702775, 46.93651279368681], [-60.500278852489956, 46.93652100166562], [-60.500108070506734, 46.93651997035021], [-60.500055175797236, 46.936527265154524], [-60.50000097244905, 46.93653472932938], [-60.49999105848127, 46.9365360156232], [-60.49998907585513, 46.936536269285746], [-60.49996236450348, 46.93654558503876], [-60.499870919975486, 46.93656248580295], [-60.499698964281116, 46.93661542483835], [-60.49959271913221, 46.93666799969835], [-60.499498326740245, 46.93670079174379], [-60.49931493601507, 46.936764522612876], [-60.49912949090838, 46.936853163718325], [-60.49901407982155, 46.936908147539846], [-60.4988513430556, 46.93698567527459], [-60.498778230162614, 46.93702786831454], [-60.498744677460344, 46.93704723959164], [-60.49850632323019, 46.9371716207597], [-60.498452236818835, 46.93719206394265], [-60.49841403930059, 46.937206500878624], [-60.49830766801495, 46.93723297252882], [-60.4980693246154, 46.93732945477744], [-60.497964291693556, 46.93735595627327], [-60.4976703242119, 46.9374105619079], [-60.49759583840351, 46.93742439394836], [-60.497437044902796, 46.93747672650152], [-60.49734471828565, 46.937512495769234], [-60.497238833185314, 46.937529078582564], [-60.497057135203995, 46.937521162365655], [-60.49698969811391, 46.937518229263716], [-60.49676643701275, 46.93751604584973], [-60.49667409702901, 46.937523916036625], [-60.49658218869654, 46.93755070340564], [-60.49653077234756, 46.93757923159526], [-60.49650260883333, 46.93759486836984], [-60.4964604621371, 46.93763395769377], [-60.49636802360613, 46.937719715585445], [-60.49630109982342, 46.937793945462985], [-60.49628765969026, 46.937808851418175], [-60.496246714513205, 46.93789794981357], [-60.49620488858215, 46.938005927732945], [-60.49618289864138, 46.93809230008262], [-60.496177542727814, 46.93811332255324], [-60.49616280713243, 46.93820388538725], [-60.49616235692213, 46.93822142443211], [-60.49615960289511, 46.9383289164035], [-60.496184237555006, 46.938405563684725], [-60.49619746652814, 46.938446737593736], [-60.49628060826164, 46.93857976863814], [-60.49635030110354, 46.93869127568142], [-60.49643907608063, 46.93884439960663], [-60.49651477948864, 46.939052143000296], [-60.496513389604786, 46.9390988466454], [-60.49651233147922, 46.93913308433499], [-60.49649455649718, 46.93942967670318], [-60.49648092014849, 46.93946821989447], [-60.49646580118179, 46.93951094237883], [-60.49646052498396, 46.93952490204836], [-60.496452323547096, 46.939546645218414], [-60.49631819392158, 46.93968950118746], [-60.4962612791288, 46.93974656313277], [-60.49623824620094, 46.939769646643526], [-60.49622824038791, 46.93977626726576], [-60.496144698206976, 46.939831495569784], [-60.496073373954346, 46.939878873694184], [-60.49606469556619, 46.939884641406174], [-60.495800908946585, 46.93999046152049], [-60.49565481327014, 46.94005205993632], [-60.49546231886685, 46.94014524751304], [-60.49536309452462, 46.94019326541799], [-60.49527032877132, 46.94023803183175], [-60.49517805061654, 46.94027290946924], [-60.49515768495717, 46.94027627040036], [-60.495072117490665, 46.94029038917736], [-60.49491409881722, 46.94029772903686], [-60.494809520153545, 46.940314338212474], [-60.494650673882916, 46.9403675566922], [-60.49454441640082, 46.94042012659516], [-60.494451742593455, 46.94049189265546], [-60.49443173151927, 46.94050510660063], [-60.494358165054294, 46.940553739475234], [-60.494344672610886, 46.94058944174127], [-60.494307038710566, 46.94068179773168], [-60.49428976774214, 46.94072413082206], [-60.49424876334061, 46.94078622888785], [-60.49419458337513, 46.94081531646504], [-60.49418272324344, 46.94082168031307], [-60.49406408209054, 46.94082988135385], [-60.49403512153458, 46.940842836232164], [-60.49402382146427, 46.94084789841265], [-60.49398453592631, 46.94090103459706], [-60.493956575236794, 46.940937319882224], [-60.493916882924246, 46.94099944656562], [-60.49391562320442, 46.94102642626939], [-60.493928850604036, 46.941055226175834], [-60.493940670556775, 46.94108096244642], [-60.493971335975914, 46.94111254712006], [-60.49399331195491, 46.94113521202596], [-60.49400058162906, 46.94117510373158], [-60.49400482549146, 46.94119846920733], [-60.494000421693414, 46.94140535967603], [-60.493985594271344, 46.94143418409174], [-60.49397296313382, 46.941458745880134], [-60.49396724734754, 46.94146634220703], [-60.49394631738262, 46.94149416001686], [-60.49391926235061, 46.94153946455725], [-60.49391973545873, 46.941557473781145], [-60.493996544753166, 46.94165724983198], [-60.494010806426985, 46.94169345191099], [-60.49402121425357, 46.941719886197], [-60.494040653320276, 46.94177268861947], [-60.49407136237882, 46.94185597594589], [-60.494093620372055, 46.94202655264299], [-60.494105634926406, 46.94213480892907], [-60.49410203051835, 46.94229671973094], [-60.49411442459269, 46.94236898660428], [-60.49417325724918, 46.942499488853215], [-60.49424062738608, 46.94264893284366], [-60.494278490629995, 46.94273886536082], [-60.494353311071826, 46.94293758231484], [-60.49435212766695, 46.9429992384862], [-60.49435053358013, 46.9430815123546], [-60.49434959295941, 46.94311798444028], [-60.49434890820053, 46.94314447276283], [-60.49435781259085, 46.94318679407821], [-60.49437364423512, 46.94326199800732], [-60.49439483956599, 46.943338840289755], [-60.4943983679608, 46.94335164274554], [-60.4943971087991, 46.94337861345787], [-60.49438694914438, 46.943398360715165], [-60.49436964828118, 46.94343202669941], [-60.49422360726581, 46.943548502996514], [-60.494209274388325, 46.94360218568516], [-60.49421911478874, 46.943633746191836], [-60.494234418143925, 46.94368283122573], [-60.49427265870898, 46.94374555772258], [-60.49428446149729, 46.94376492197485], [-60.49427054836222, 46.94380961443347], [-60.49426534515964, 46.94382339560582], [-60.49425705495376, 46.94384531665393], [-60.49419064467591, 46.943916757683326], [-60.49405693023306, 46.94405062962061], [-60.49402304335505, 46.944095316579705], [-60.49397571302775, 46.94415774395169], [-60.49392973736952, 46.94420382201548], [-60.493895755364726, 46.94423787852908], [-60.493787768022955, 46.94432730748786], [-60.493641817962455, 46.944469892367835], [-60.4936270011045, 46.94448552379831], [-60.49357409292414, 46.944541313237494], [-60.493410006635855, 46.94465915709608], [-60.49340140059083, 46.94466532216443], [-60.49339294060317, 46.94467032950561], [-60.49328113719935, 46.94473648286463], [-60.49317570949227, 46.94477107081399], [-60.493131420576724, 46.944785795507904], [-60.49296481126134, 46.944841154425596], [-60.49292118751693, 46.944865828979836], [-60.49288517630594, 46.944886197600006], [-60.4928565778138, 46.94490456876792], [-60.4928445341985, 46.94491230536831], [-60.49272514911246, 46.94499248415643], [-60.49263200787522, 46.945045339683794], [-60.492534060097846, 46.945077877091904], [-60.49244647046949, 46.94510696964668], [-60.49235416852142, 46.94514185348619], [-60.49230646218576, 46.94514983439095], [-60.49224953806728, 46.94515935014442], [-60.492091504799966, 46.945166685817064], [-60.49201487118003, 46.94516632006369], [-60.491986401359796, 46.94516618201292], [-60.49185302915761, 46.9451317155881], [-60.4916592040554, 46.94508161470694], [-60.491502757818935, 46.94502688830528], [-60.491415929381944, 46.94500342210313], [-60.49139764470761, 46.94499848552115], [-60.49134175788681, 46.944991995583564], [-60.49114931729295, 46.944969642426315], [-60.49105833101634, 46.94494938757636], [-60.49097894597273, 46.94493170889387], [-60.490875104044534, 46.94490423344428], [-60.49065218174655, 46.94486604698941], [-60.49046906216576, 46.944819733632976], [-60.490412000360664, 46.94481139958541], [-60.490338545674945, 46.94480067209118], [-60.49025686369536, 46.944788846151404], [-60.49020670342398, 46.94478158132031], [-60.49000073643066, 46.94476974684451], [-60.4898266552908, 46.94475974543166], [-60.489616912818605, 46.944748844373756], [-60.48952391182035, 46.944748081857036], [-60.4894855557157, 46.94474776227152], [-60.489451623932055, 46.94474753074769], [-60.489367325921236, 46.944746968054666], [-60.48930949034246, 46.94475602137358], [-60.48926142428957, 46.944763543143615], [-60.48913553654899, 46.944805372936216], [-60.48905052169135, 46.94483361045111], [-60.48893101663309, 46.944859786085495], [-60.488864709067556, 46.94487268500144], [-60.48883952577475, 46.94487757697814], [-60.48878701648162, 46.94487642458027], [-60.48867578322036, 46.944875504217656], [-60.48839294443773, 46.944873174945535], [-60.48828416589493, 46.94488887603267], [-60.488273859766096, 46.94489035969207], [-60.488268271310865, 46.944891559934334], [-60.488155722173374, 46.94491566459161], [-60.48812182638206, 46.94491999617404], [-60.48808963579333, 46.94492411319653], [-60.487932611157326, 46.94492281680915], [-60.487761242241554, 46.94492140325488], [-60.48768026060939, 46.944921011125494], [-60.48765613948526, 46.944920895482134], [-60.48763404203324, 46.94491769246571], [-60.4875243111489, 46.944901801920956], [-60.48740105875835, 46.94490049941059], [-60.487366699183006, 46.94490014088159], [-60.48734090796057, 46.94489556077822], [-60.48731456876309, 46.944890896640224], [-60.4871319651064, 46.94486168817567], [-60.48706670746867, 46.9448521555299], [-60.48685612339418, 46.944859229781905], [-60.48647560022905, 46.944847271687756], [-60.48598959574121, 46.94484289419046], [-60.485882662069734, 46.94484192158556], [-60.48577943282743, 46.94484097628186], [-60.48551587581824, 46.94485679244592], [-60.485107041361225, 46.944916194085266], [-60.48505633566452, 46.94492730984082], [-60.485028705566144, 46.94493337112199], [-60.48485632977063, 46.944994378131156], [-60.48472417829732, 46.945038270250585], [-60.48467628587206, 46.94505300245522], [-60.48455216753852, 46.94509119433809], [-60.48441801289405, 46.94515678469152], [-60.48435313445112, 46.94518850322409], [-60.484235042901275, 46.945240803381274], [-60.484230227342984, 46.94524289336456], [-60.48400969822207, 46.9453384421076], [-60.48381248405046, 46.94542550370001], [-60.48377084594729, 46.94544388283817], [-60.483748658013624, 46.94545886493036], [-60.48371792073514, 46.94547961663206], [-60.48363752359678, 46.94556875183046], [-60.48359664358091, 46.945630371841794], [-60.48354278246388, 46.945711559093965], [-60.48349048913586, 46.945763793635614], [-60.4834890140906, 46.94576526409969], [-60.48326249147673, 46.94591596308842], [-60.483223362088125, 46.94592931252861], [-60.48321040829826, 46.94593372530658], [-60.48317643586206, 46.9459449922995], [-60.48315699962724, 46.94595144934613], [-60.48310853820517, 46.94597296294958], [-60.483077831556955, 46.94598660560299], [-60.483040483335564, 46.94601128844545], [-60.4829842577008, 46.946048443205605], [-60.48281145985556, 46.946146335517255], [-60.482769756873324, 46.94616019515007], [-60.482732699863035, 46.946172501082586], [-60.482614046003, 46.94618068098974], [-60.48260418709162, 46.94618214697955], [-60.482561113521214, 46.94618852485407], [-60.48249505876059, 46.94622397821519], [-60.48241455654741, 46.946286993894354], [-60.48236084134992, 46.94633980859607], [-60.48228048845091, 46.94645593310301], [-60.48221316817734, 46.94651834774607], [-60.48220322813705, 46.946525742540636], [-60.482093342157796, 46.94660750519163], [-60.48198669066599, 46.94672395072306], [-60.48193291427312, 46.9467497655866], [-60.481927868319865, 46.94675059948207], [-60.48187993937502, 46.94675849914677], [-60.481848565083766, 46.94675834865046], [-60.48182737320791, 46.94675824224771], [-60.48178450547302, 46.94675350106515], [-60.48173587205226, 46.94674812900513], [-60.48167061279681, 46.94673860224837], [-60.481617685334925, 46.94677432602161], [-60.48153598728427, 46.94689022241079], [-60.48152335856162, 46.9469081412975], [-60.481521438123075, 46.946910699863416], [-60.481482714294465, 46.94696214322243], [-60.48141665829517, 46.94699758693433], [-60.48135013334931, 46.94701502142624], [-60.48129961056232, 46.94701434129314], [-60.4812450689922, 46.94701360867137], [-60.481221137389184, 46.94701755458721], [-60.4811920937329, 46.947022341905466], [-60.481171271794885, 46.947031989907366], [-60.481153137015355, 46.94704038314243], [-60.48103166222456, 46.947164600957315], [-60.48097831147176, 46.94720932354525], [-60.48093851048552, 46.94724534498197], [-60.480845776074815, 46.947289200456986], [-60.48081435185416, 46.94730186376625], [-60.480780141316814, 46.94731565364608], [-60.48068434515387, 46.947347463339746], [-60.48059458312656, 46.947377263950784], [-60.48056315879697, 46.947389927188716], [-60.480528948141064, 46.947403716990934], [-60.480487876134276, 46.94743881034152], [-60.48043494635308, 46.94747455151539], [-60.48032944589096, 46.94748212774811], [-60.480276952081134, 46.94750886102086], [-60.48022402251455, 46.94754459310257], [-60.48019582837423, 46.947551990711744], [-60.48015749652394, 46.94756202687888], [-60.480116428205356, 46.94762501840917], [-60.48010092399433, 46.94763531429232], [-60.480077090732195, 46.94765115038146], [-60.48003724258624, 46.947660172177414], [-60.47998540354812, 46.9476866677526], [-60.47991740647076, 46.94772142889043], [-60.479784868248174, 46.94780130451177], [-60.47977100188374, 46.94781114145582], [-60.479759038451945, 46.94781963439932], [-60.47966520273792, 46.94789752750194], [-60.479652375661686, 46.947908179273185], [-60.47964559832186, 46.947911737756485], [-60.47958500450798, 46.94794359295996], [-60.479506240358454, 46.947969756215315], [-60.47930142031408, 46.94802896925176], [-60.4792024878496, 46.94805755881424], [-60.479157642594934, 46.94806328441741], [-60.479136383253284, 46.94806600185165], [-60.47913302213217, 46.94806649476662], [-60.479083448879905, 46.94807383506871], [-60.479030472255744, 46.94808256727336], [-60.47900066300023, 46.94810754988713], [-60.478977118928626, 46.948127288871795], [-60.478921343439985, 46.948201745189344], [-60.47882989751633, 46.948323832462], [-60.47882942556967, 46.94835037937903], [-60.478829098322066, 46.94836881199907], [-60.478876576147876, 46.94844243849892], [-60.47890504358889, 46.9484865779669], [-60.47889832079489, 46.948504356705634], [-60.47889155185356, 46.948522278418025], [-60.47888245425039, 46.94855144310539], [-60.478863684145416, 46.94861165869018], [-60.47884292017003, 46.948639909365234], [-60.4788370088349, 46.948647968597406], [-60.478770058628676, 46.9486743916503], [-60.47874380232828, 46.948673813109956], [-60.478690402630235, 46.94869153526472], [-60.47866461427237, 46.948708965875056], [-60.47855748319132, 46.9488073987787], [-60.47852719850635, 46.94883549359333], [-60.478490155612974, 46.948869811067254], [-60.47843643312004, 46.948896633412204], [-60.478331355998996, 46.94894910628736], [-60.478160869811575, 46.94900973088998], [-60.47813355150209, 46.94901944214904], [-60.478040389222286, 46.949072285350226], [-60.47786710459376, 46.949152169609675], [-60.477801466542616, 46.94917861201959], [-60.477786260124006, 46.94918171461015], [-60.477761659160485, 46.94918673398008], [-60.47748297283655, 46.9493281811818]]}, "properties": {"OBJECTID": 280705, "FEAT_CODE": "WARV50", "FEAT_DESC": "River - Single Line", "RIVNAME_1": "Zwicker Brook", "RIVNAME_2": " ", "ZVALUE": 9999, "FID": null, "SHAPE_Length": 2930.244684631773}}]}