{"type": "FeatureCollection", "features": [{"type": "Feature", "id": 53705, "geometry": {"type": "LineString", "coordinates": [[-60.98057385225504, 45.706674660986025], [-60.980624385943884, 45.706690172073166], [-60.98066406807873, 45.706702358935146], [-60.98066342004491, 45.7067203493552], [-60.98065434504883, 45.70673974793235], [-60.98065089305904, 45.70674713067093], [-60.980639684769, 45.70674978578267]]}, "properties": {"OBJECTID": 53705, "FEAT_CODE": "WALK20", "FEAT_DESC": "Lake - Water to the right line", "RIVNAME_1": " ", "RIVNAME_2": " ", "ZVALUE": 165.3, "FID": null, "SHAPE_Length": 13.722768543459242}}, {"type": "Feature", "id": 53706, "geometry": {"type": "LineString", "coordinates": [[-60.980639684769, 45.70674978578267], [-60.98061202018511, 45.70675634434573], [-60.980586355389654, 45.70675589052816], [-60.980560956547706, 45.70674734056232], [-60.98055412416858, 45.706728020742936], [-60.980548129994524, 45.70671110999484], [-60.98054877774109, 45.70669312857126], [-60.98055719734081, 45.70668693179197], [-60.98057385225504, 45.706674660986025]]}, "properties": {"OBJECTID": 53706, "FEAT_CODE": "WALK20", "FEAT_DESC": "Lake - Water to the right line", "RIVNAME_1": " ", "RIVNAME_2": " ", "ZVALUE": 165.3, "FID": null, "SHAPE_Length": 15.447331515056097}}, {"type": "Feature", "id": 53707, "geometry": {"type": "LineString", "coordinates": [[-60.98039497169633, 45.706683198972776], [-60.98042064929426, 45.70668365305983], [-60.98045887404779, 45.70669242986761], [-60.98047137596293, 45.70670165188664], [-60.980477904416425, 45.706715142728896], [-60.98048453934897, 45.706728887479976], [-60.98049246913677, 45.706753762287136], [-60.98049608198262, 45.70676509535049], [-60.98048912571063, 45.70677025589107], [-60.98048420299982, 45.70677388622832]]}, "properties": {"OBJECTID": 53707, "FEAT_CODE": "WALK20", "FEAT_DESC": "Lake - Water to the right line", "RIVNAME_1": " ", "RIVNAME_2": " ", "ZVALUE": 165.3, "FID": null, "SHAPE_Length": 15.209721725477788}}, {"type": "Feature", "id": 53708, "geometry": {"type": "LineString", "coordinates": [[-60.98048420299982, 45.70677388622832], [-60.98044568653966, 45.70677320511597], [-60.980434457955965, 45.70676572479114], [-60.98041934072622, 45.706755637433304], [-60.980404863654016, 45.70673954876671], [-60.98039463527682, 45.70672819771999], [-60.98039497169633, 45.706683198972776]]}, "properties": {"OBJECTID": 53708, "FEAT_CODE": "WALK20", "FEAT_DESC": "Lake - Water to the right line", "RIVNAME_1": " ", "RIVNAME_2": " ", "ZVALUE": 165.3, "FID": null, "SHAPE_Length": 14.438512033553842}}, {"type": "Feature", "id": 59403, "geometry": {"type": "LineString", "coordinates": [[-60.978193117671985, 45.707321110145614], [-60.97820564596069, 45.70729432912407], [-60.97822465245107, 45.70728776188308], [-60.978257682907135, 45.707276348374734], [-60.978372973659894, 45.707285590060174], [-60.97838548819183, 45.7072948125304], [-60.97838483941369, 45.7073128029233], [-60.978397353953554, 45.707322025392344], [-60.97844906570426, 45.7073490434928], [-60.978454509395085, 45.70736445945083], [-60.9784618781853, 45.70738527404456]]}, "properties": {"OBJECTID": 59403, "FEAT_CODE": "WALK20", "FEAT_DESC": "Lake - Water to the right line", "RIVNAME_1": " ", "RIVNAME_2": " ", "ZVALUE": 170.3, "FID": null, "SHAPE_Length": 30.684744572218783}}, {"type": "Feature", "id": 59404, "geometry": {"type": "LineString", "coordinates": [[-60.9784618781853, 45.70738527404456], [-60.97846058067331, 45.70742125483141], [-60.978435862281636, 45.70742981822153], [-60.97843289339437, 45.70743198889974], [-60.97842266650453, 45.70743948566893], [-60.97841808340649, 45.707438324428246], [-60.97838447402689, 45.70742980865772], [-60.97824351883172, 45.70738410889189], [-60.97821813292262, 45.70737555863431], [-60.978212977450404, 45.70737210101401], [-60.97820433450748, 45.70736631341664], [-60.978193117671985, 45.707321110145614]]}, "properties": {"OBJECTID": 59404, "FEAT_CODE": "WALK20", "FEAT_DESC": "Lake - Water to the right line", "RIVNAME_1": " ", "RIVNAME_2": " ", "ZVALUE": 170.3, "FID": null, "SHAPE_Length": 31.668160144661307}}, {"type": "Feature", "id": 77306, "geometry": {"type": "LineString", "coordinates": [[-60.98004685308047, 45.70675355019772], [-60.98006034012094, 45.70673578686811], [-60.980085382076616, 45.70671822790919], [-60.980122202989, 45.70673494583127], [-60.98012480727059, 45.70673611700973], [-60.98014992009249, 45.706745472098575], [-60.980162589855546, 45.70674539914976], [-60.980188481774725, 45.706745254016624], [-60.98020064704942, 45.706763462049736]]}, "properties": {"OBJECTID": 77306, "FEAT_CODE": "WALK20", "FEAT_DESC": "Lake - Water to the right line", "RIVNAME_1": " ", "RIVNAME_2": " ", "ZVALUE": 165.7, "FID": null, "SHAPE_Length": 16.10359702304711}}, {"type": "Feature", "id": 77307, "geometry": {"type": "LineString", "coordinates": [[-60.98020064704942, 45.706763462049736], [-60.980197974878074, 45.70676738420394], [-60.98018845644256, 45.70678125732562], [-60.980187808254385, 45.70679924774015], [-60.98016180650878, 45.70680778880699], [-60.98014649708977, 45.70681052435229], [-60.98011137857325, 45.70681679794411], [-60.98009855258499, 45.70681657109312], [-60.980060003431035, 45.706780785609396], [-60.98004685308047, 45.70675355019772]]}, "properties": {"OBJECTID": 77307, "FEAT_CODE": "WALK20", "FEAT_DESC": "Lake - Water to the right line", "RIVNAME_1": " ", "RIVNAME_2": " ", "ZVALUE": 165.7, "FID": null, "SHAPE_Length": 19.658801334601378}}, {"type": "Feature", "id": 77351, "geometry": {"type": "LineString", "coordinates": [[-60.98029057164491, 45.70687127250252], [-60.98023852248526, 45.70685325020676], [-60.98022634466489, 45.706835032955134], [-60.980226668753275, 45.706826037747724], [-60.980233922867036, 45.70681546392532], [-60.98023887187313, 45.70680825169013], [-60.98026552177127, 45.70678172019018]]}, "properties": {"OBJECTID": 77351, "FEAT_CODE": "WALK20", "FEAT_DESC": "Lake - Water to the right line", "RIVNAME_1": " ", "RIVNAME_2": " ", "ZVALUE": 165.7, "FID": null, "SHAPE_Length": 13.555007551317633}}, {"type": "Feature", "id": 77352, "geometry": {"type": "LineString", "coordinates": [[-60.98026552177127, 45.70678172019018], [-60.98027836059169, 45.70678194724934], [-60.98030374656507, 45.70679049705047], [-60.98030277433775, 45.7068174826741], [-60.9803165732998, 45.70682671864736], [-60.98031560075334, 45.70685371326624], [-60.980300219864034, 45.70686449440777], [-60.98029057164491, 45.70687127250252]]}, "properties": {"OBJECTID": 77352, "FEAT_CODE": "WALK20", "FEAT_DESC": "Lake - Water to the right line", "RIVNAME_1": " ", "RIVNAME_2": " ", "ZVALUE": 165.7, "FID": null, "SHAPE_Length": 13.438040209924218}}, {"type": "Feature", "id": 130864, "geometry": {"type": "LineString", "coordinates": [[-60.99313003215491, 45.71002472258725], [-60.993116217795354, 45.71012349009451], [-60.99310369162509, 45.71018627650466], [-60.99307669175635, 45.71022270586127], [-60.99297328899862, 45.71031179812929], [-60.992935377398545, 45.71033003382344], [-60.992914774650394, 45.710322714021295], [-60.99290873605374, 45.710320564684096], [-60.99284514940086, 45.71030234538707], [-60.99280691980107, 45.7102935816526], [-60.992755497331196, 45.71030055368412], [-60.992742367176575, 45.71030233911803], [-60.99266497448471, 45.71031087986266], [-60.9926225145977, 45.710369656718065], [-60.99261360639945, 45.71038198443128], [-60.992612962116205, 45.71039997497181], [-60.99261883287312, 45.71040429960019], [-60.99262547972266, 45.7104091959275], [-60.992677510964455, 45.71042720324161], [-60.992754581696644, 45.71042765776228], [-60.99275879102316, 45.71042922589973], [-60.99277993876676, 45.710437113366375], [-60.992783853530746, 45.710442960769626], [-60.992792134295826, 45.71045532957546], [-60.99275361051202, 45.710490656221104], [-60.99265277421582, 45.710553258555166], [-60.99263797934179, 45.71056242248391]]}, "properties": {"OBJECTID": 130864, "FEAT_CODE": "WALK20", "FEAT_DESC": "Lake - Water to the right line", "RIVNAME_1": "River Tillard", "RIVNAME_2": " ", "ZVALUE": 159.4, "FID": null, "SHAPE_Length": 105.23508360680093}}, {"type": "Feature", "id": 130865, "geometry": {"type": "LineString", "coordinates": [[-60.99263797934179, 45.71056242248391], [-60.992612299774954, 45.71056197111321], [-60.9925779694729, 45.71053831629135], [-60.99257344319979, 45.71053519441577], [-60.992574087498745, 45.710517203876115], [-60.99259848771687, 45.71048880278139], [-60.99261295292966, 45.71047198227057], [-60.992599441265746, 45.71045464300154], [-60.99257440604592, 45.71043620108306], [-60.992510497219726, 45.710426976869485], [-60.99249242593247, 45.71042897244983], [-60.992433104325116, 45.7104355174533], [-60.99241989315489, 45.71043059573119], [-60.99240774699469, 45.71042607076845], [-60.992346449527126, 45.71038267982298], [-60.992343842975956, 45.71038084281554], [-60.99231074533076, 45.71036582347451], [-60.99230465194651, 45.710363052077824], [-60.99224074325288, 45.71035382771529], [-60.99217646101134, 45.7103535976823], [-60.9921122814894, 45.710353369419074], [-60.99204869507373, 45.710335149682365], [-60.991934077410896, 45.71027101896909], [-60.991905404214684, 45.71025587028407], [-60.99183194457166, 45.710217026701706], [-60.99176707443629, 45.710198784234535], [-60.991671747159764, 45.710192238401426], [-60.99162609565577, 45.710189104350754], [-60.991615606752745, 45.71018781277977], [-60.991549347596745, 45.71017965380928], [-60.991305927588904, 45.710124967425195], [-60.991222130306326, 45.71010321441464], [-60.99116461939862, 45.71008827837754], [-60.99116269012374, 45.71008690330284], [-60.99112578357305, 45.71006059245511], [-60.99110193316935, 45.71003169396673], [-60.99108884427682, 45.710015838106976], [-60.991088204753815, 45.70999783399171], [-60.99110793312219, 45.709984013553104], [-60.9911145613536, 45.7099793866539], [-60.99113139279385, 45.709975776317414], [-60.99115340263969, 45.70997106894323], [-60.99117908191296, 45.70997152063735], [-60.99119163691727, 45.709943838582205], [-60.99119228164626, 45.70992584805592], [-60.99116560888518, 45.709917269048425], [-60.991123438562404, 45.709905195096226], [-60.9911020358025, 45.70989905801776], [-60.99101179099719, 45.709907371567006], [-60.99098611175593, 45.709906919835774], [-60.99097412817389, 45.70990288363027], [-60.9909607226764, 45.70989837236304], [-60.99090969228871, 45.70985246997601], [-60.99090881635049, 45.7098521755375], [-60.99088430324581, 45.709843922486826], [-60.99086421455392, 45.70984664739793], [-60.99081975055595, 45.70985268786485], [-60.99076868231846, 45.70984368857627], [-60.99069681195972, 45.70982075886827], [-60.99053876818712, 45.70977034520363], [-60.990320720265004, 45.70968820024487], [-60.990316451583396, 45.709687216033416], [-60.99028251782867, 45.70967941813933], [-60.990256752613334, 45.709664167195584], [-60.99020576432755, 45.70963395386028], [-60.99015373464621, 45.70961594544316], [-60.99014668948193, 45.709616433520644], [-60.99003910788089, 45.70962382912956], [-60.989948198530826, 45.709651041104294], [-60.98984512123878, 45.70969512260678], [-60.98980624770797, 45.70970433939833], [-60.98971351508458, 45.70970357119334], [-60.98961358973013, 45.70970274830384], [-60.989536810457246, 45.709694195951215], [-60.989370154308716, 45.709684061247984], [-60.98935771475945, 45.70968701057061], [-60.98933128071306, 45.70969327787666], [-60.989253888424706, 45.709701816315516], [-60.98918965835895, 45.709701585518], [-60.989151462370856, 45.709691912054765], [-60.989101362695486, 45.709655925371145], [-60.98904933368881, 45.70963790746121], [-60.98898160807641, 45.709661341457824], [-60.98897257963795, 45.70966446781677]]}, "properties": {"OBJECTID": 130865, "FEAT_CODE": "WALK20", "FEAT_DESC": "Lake - Water to the right line", "RIVNAME_1": "River Tillard", "RIVNAME_2": " ", "ZVALUE": 159.4, "FID": null, "SHAPE_Length": 353.3821755142404}}, {"type": "Feature", "id": 130866, "geometry": {"type": "LineString", "coordinates": [[-60.98897257963795, 45.70966446781677], [-60.98892118949291, 45.70966445396543], [-60.988908034140394, 45.709637220403096], [-60.98890900927641, 45.7095742310357], [-60.988896176710185, 45.7095380013214], [-60.98889201263239, 45.7095158397003], [-60.98888431234895, 45.70947478585237], [-60.988833251793814, 45.70942978209428], [-60.988801401179394, 45.7093979519451], [-60.98876999733026, 45.709366561699596], [-60.98871797577185, 45.70931254003033], [-60.98869358787172, 45.709276106786604], [-60.98868245835897, 45.709244695537045], [-60.98868075550726, 45.70923987704979], [-60.98864285753026, 45.709186104083464], [-60.9886049990406, 45.70909542796644]]}, "properties": {"OBJECTID": 130866, "FEAT_CODE": "WALK20", "FEAT_DESC": "Lake - Water to the right line", "RIVNAME_1": "River Tillard", "RIVNAME_2": " ", "ZVALUE": 159.4, "FID": null, "SHAPE_Length": 73.42803638464068}}, {"type": "Feature", "id": 130867, "geometry": {"type": "LineString", "coordinates": [[-60.9886049990406, 45.70909542796644], [-60.98861783845659, 45.70909565409728], [-60.98863215242181, 45.70908808438408], [-60.98866891273554, 45.70906865071699], [-60.98875914363082, 45.70906033877537], [-60.988804534060776, 45.70907644872495], [-60.98883651526529, 45.709087804047854], [-60.9888612381048, 45.70911526022741], [-60.98886056538468, 45.70927724720427], [-60.98886338994383, 45.709281239354226], [-60.98887279165891, 45.70929456428469], [-60.98889731843712, 45.70932390719909], [-60.98891098005758, 45.70934025044761], [-60.988940242814515, 45.70939085594999], [-60.98899928705223, 45.70949301126213], [-60.98903362436688, 45.709525722229536], [-60.98903779871342, 45.709529693138094], [-60.98906281950865, 45.709548135582324], [-60.989072429309694, 45.709551365111565], [-60.98908822096698, 45.70955668369612], [-60.989126739543686, 45.709557361926656], [-60.98915886622833, 45.70954461521789], [-60.989217971438336, 45.709521165251594], [-60.98927986321492, 45.709521390868304], [-60.989282201298, 45.70952139602971], [-60.98928403218653, 45.709521572279904], [-60.989384627068354, 45.70953130016861], [-60.98939617181954, 45.709527507003806], [-60.98941062875806, 45.70952275700297], [-60.98942656962689, 45.70951102139727], [-60.98943570139377, 45.70950429644775], [-60.989499937811416, 45.70946852348177], [-60.98961620346215, 45.70945075915832], [-60.989641536126065, 45.709454778468086], [-60.98968007806607, 45.70946089348748], [-60.98971895144594, 45.70945167673602], [-60.989745598231785, 45.709425142980756], [-60.98975213597714, 45.70941515901158], [-60.98975784405811, 45.70940645657265], [-60.989784155380015, 45.70938891783768], [-60.989812511928385, 45.70938098308935], [-60.98984774629993, 45.709371135182295], [-60.9899504941487, 45.709372052549284], [-60.98996370161136, 45.7093623749777], [-60.989976929502824, 45.709336721105586], [-60.98997749591808, 45.70933561495878], [-60.98997422101443, 45.70932375709455], [-60.98996498558309, 45.70929038109982], [-60.98994140191707, 45.70927413337232], [-60.989926118324966, 45.70926360330592], [-60.98983717753999, 45.709235935139866], [-60.989772954385366, 45.7091997010535], [-60.98976043752228, 45.70919047979566], [-60.989769279954395, 45.70918393874591], [-60.989772315608285, 45.70918168794044], [-60.98982367338898, 45.70918259193172], [-60.989849707108704, 45.70917314913608], [-60.98986351425917, 45.70914638935621], [-60.98986352058991, 45.70911038572882], [-60.98985826517308, 45.70910252542004], [-60.98985132630118, 45.70909216922379], [-60.989812136979396, 45.709074377655185], [-60.989813104707174, 45.709047391884425], [-60.98981673643468, 45.70903962499568], [-60.989825627901105, 45.709020609508805], [-60.989872912094775, 45.70898749925094], [-60.98990338029018, 45.70896617225229], [-60.98995538298148, 45.70894908566564], [-60.99001055502805, 45.70894142480917], [-60.99001865080506, 45.70894029816257], [-60.9900572012339, 45.70894007654653], [-60.99008372852673, 45.70895090348849], [-60.99014710308748, 45.70897676239117], [-60.99017213685485, 45.70899520482193], [-60.990185324905916, 45.70902153962291], [-60.99018467987421, 45.70903953014095], [-60.99014676212558, 45.70909376854302], [-60.99016906563404, 45.70913102888392], [-60.990184326146455, 45.70915653606706], [-60.99018368111139, 45.70917452658467], [-60.990157970519206, 45.7092469816849], [-60.990157325473646, 45.70926497220192], [-60.99016051251811, 45.709267098504604], [-60.99016987467185, 45.70927329389166], [-60.990182007879596, 45.70927780986488], [-60.990195231093125, 45.70928274106022], [-60.99022186312975, 45.70927703509608], [-60.99023407201863, 45.709274423655515], [-60.990246133403, 45.7092899014961], [-60.990247569829606, 45.70929176296482], [-60.99028545608574, 45.70931043154571], [-60.990306490516986, 45.70931751639555], [-60.99031084479386, 45.70931897916323], [-60.99034936323618, 45.70931965697886], [-60.99036849387695, 45.709315340136115], [-60.99042707733345, 45.70930212252536], [-60.99045216238026, 45.70928366196493], [-60.990452807331636, 45.70926567144471], [-60.99040141035503, 45.70922966340251], [-60.990389215864866, 45.70921144695191], [-60.990389538027436, 45.709202460687294], [-60.99051832577073, 45.70915791298723], [-60.99055683126787, 45.709158590505155], [-60.99058218770609, 45.709168037588185], [-60.99062010624004, 45.70918580653278], [-60.99064677889139, 45.709194376666225], [-60.99069814955072, 45.70919528049051], [-60.990748881921675, 45.709213274837445], [-60.99079930474565, 45.70924026465032], [-60.990863528629156, 45.70927649817108], [-60.99091488087202, 45.70931340531108], [-60.99092614379182, 45.70931281136612], [-60.990927752596114, 45.709312731656894], [-60.991003867417675, 45.70934017334784], [-60.99103017274166, 45.70935863795727], [-60.991131335820285, 45.709439625696376], [-60.99113792741966, 45.70944318900115], [-60.99118301075019, 45.70946753745657], [-60.99129893500387, 45.709494779085176], [-60.99132333754654, 45.709531212026945], [-60.991323619352144, 45.70955489844066], [-60.99132399645479, 45.709585247221504], [-60.99133652054393, 45.70959355933977], [-60.99134762680805, 45.70959769708909], [-60.99136187763611, 45.70960299725921], [-60.99142610763959, 45.709603226833046], [-60.99147717577489, 45.70961222582605], [-60.99165634947041, 45.70963157851441], [-60.99175943473739, 45.709658593892755], [-60.99179764402252, 45.70966826671658], [-60.99180680195976, 45.70968124508175], [-60.99180987097393, 45.7096855924933], [-60.99182270578772, 45.70972181291614], [-60.991830290626204, 45.70973208133958], [-60.991836184813344, 45.70974005179888], [-60.991864880118435, 45.70975349971505], [-60.99187409130033, 45.70975782011276], [-60.99192512742993, 45.70976771843548], [-60.99216952600593, 45.7097954179064], [-60.99222058160644, 45.709804416345825], [-60.992227241190655, 45.70980931292075], [-60.992233112179, 45.70981362857259], [-60.99224236923899, 45.709832810288155], [-60.99224626884446, 45.70984087167359], [-60.99228860561536, 45.709841129911446], [-60.99232333843486, 45.7098413354671], [-60.992338283626836, 45.7098376557892], [-60.99236092803754, 45.70983208624698], [-60.99240009593568, 45.70977876918647], [-60.99242611700429, 45.70976931658071], [-60.992477488246344, 45.70977021961369], [-60.99252823424721, 45.709788222407624], [-60.99259245989755, 45.70982445498189], [-60.99266952525446, 45.70986091319964], [-60.99277132749613, 45.70988790511088], [-60.99286940971556, 45.709908278872746], [-60.99295115522515, 45.70992526912587], [-60.992958841439695, 45.70994060678076], [-60.992964344796945, 45.70995160362738], [-60.992950824410954, 45.71000627171032], [-60.992958856273376, 45.71001159740099], [-60.99296337419667, 45.71001459310177], [-60.99297035034499, 45.710025003767434], [-60.99297556969877, 45.71003280929198], [-60.99302692835982, 45.71003371185628], [-60.99307864129256, 45.710024719596774], [-60.993129235451605, 45.71002472658894], [-60.99313003215491, 45.71002472258725]]}, "properties": {"OBJECTID": 130867, "FEAT_CODE": "WALK20", "FEAT_DESC": "Lake - Water to the right line", "RIVNAME_1": "River Tillard", "RIVNAME_2": " ", "ZVALUE": 159.4, "FID": null, "SHAPE_Length": 577.2077778063613}}, {"type": "Feature", "id": 137898, "geometry": {"type": "LineString", "coordinates": [[-61.001269555096194, 45.70604773726067], [-61.00125239334096, 45.70606570880841], [-61.00124419921697, 45.70607429630791], [-61.001231669304204, 45.706101079826276], [-61.00122264891066, 45.70615157922944], [-61.00121724077323, 45.70618183573804], [-61.001204370872294, 45.70621851433358], [-61.00117805271835, 45.70627205933551], [-61.00115269669138, 45.706298618359035], [-61.00110066765343, 45.70631660968319], [-61.00098537523587, 45.70634339467954], [-61.00089547098071, 45.70634272106761], [-61.0008490199586, 45.70632965767456], [-61.0008306021614, 45.70632448376362], [-61.00078293910151, 45.70630758272927], [-61.00077985614568, 45.7063064936524], [-61.000703431730884, 45.706252050238156], [-61.00062635235951, 45.706179593431045], [-61.000601970764684, 45.70614316283027], [-61.00059344018683, 45.70613524567432], [-61.000563421251144, 45.70610739327411], [-61.0004221292909, 45.70603470319684], [-61.00037202536771, 45.70599872227005], [-61.00033491901511, 45.70595023257646], [-61.000295922186005, 45.70589927951517], [-61.000244534587075, 45.70586327605443], [-61.000219177923356, 45.70585383110976], [-61.00007724494555, 45.705799140254115], [-61.00003552909848, 45.70577543933253], [-61.00000044933643, 45.70575549999004], [-60.999950076685934, 45.705726705919474], [-60.99990381566983, 45.70569429345037], [-60.9998986894689, 45.70569070230843], [-60.99981769906462, 45.705638257545175], [-60.9996186768429, 45.70550937960585], [-60.999541933346975, 45.70546393975573], [-60.99944277720663, 45.70541836827219], [-60.999285353487224, 45.7053460242555], [-60.99917070488059, 45.705282809312564], [-60.99911935067738, 45.70524590583188], [-60.99911232192393, 45.70523767284042], [-60.99908113693037, 45.70520113171156], [-60.99908305132439, 45.70503914834948], [-60.9990789956944, 45.70503076042478], [-60.999069892035585, 45.70501191497328], [-60.99900727275848, 45.70493070946568], [-60.9989176927574, 45.70484903152015], [-60.99887215204798, 45.70481411098548], [-60.99876514063883, 45.70473204646866], [-60.99870059550158, 45.70470481267958], [-60.99863704559704, 45.704685688139556], [-60.99860073353211, 45.70468590687394], [-60.99855995014221, 45.704686146246665], [-60.998544897723534, 45.70468244409112], [-60.99852047197025, 45.704676453440015], [-60.99850635021849, 45.70464560275346], [-60.99848353078421, 45.704595697657766], [-60.9984456587897, 45.70450503351591], [-60.99840711241029, 45.70446924527329], [-60.99835669002215, 45.7044422588093], [-60.99833528463578, 45.70443623104652], [-60.99829182425627, 45.70442402010788], [-60.998189727122124, 45.70440512877004], [-60.998147236439365, 45.704404978031405], [-60.99812551575565, 45.70440490332485], [-60.99806889508402, 45.704417673247946], [-60.998047797891985, 45.70442244296092], [-60.9980259348389, 45.704428873419495], [-60.99795821702076, 45.70444877552149], [-60.997893349993745, 45.70446654933295], [-60.99787351107631, 45.7044666605836], [-60.99781625549388, 45.704466988952255], [-60.997752384602734, 45.70445686823209], [-60.99766309544015, 45.7044030883066], [-60.9976120190242, 45.70435809716619], [-60.99758699887451, 45.70430365283192], [-60.997549416709454, 45.704240887383634], [-60.997524383831106, 45.70418644281138], [-60.99748587007035, 45.70414976373397], [-60.99746755874904, 45.704140198685664], [-60.99743416458704, 45.704122754361926], [-60.9973323574961, 45.704095766494724], [-60.997281004137264, 45.704094865955945], [-60.997254652672886, 45.70411330581999], [-60.997242509049805, 45.70413247188706], [-60.9972151721448, 45.7041756200445], [-60.99719419715197, 45.704221202007496], [-60.99719010294024, 45.70423008614265], [-60.99718272091351, 45.70425189197486], [-60.99716281795106, 45.70431061610321], [-60.99712394617925, 45.70439184294517], [-60.99709179461306, 45.70443562670845], [-60.9970847994969, 45.7044451620368], [-60.99700804374737, 45.7044717187788], [-60.996981150934616, 45.704467907760936], [-60.99694285703207, 45.704462474621565], [-60.99684104958116, 45.70443548631144], [-60.99676366702386, 45.704408035253834], [-60.996712604820395, 45.70436302595773], [-60.99668726412899, 45.7043175767433], [-60.996678286328965, 45.70429703212821], [-60.99667537717061, 45.7042903654055], [-60.996688859906754, 45.70423660527165], [-60.99671484736075, 45.704192047424364], [-60.99675373061573, 45.70414682468332], [-60.99676194855383, 45.70411888589849], [-60.996766904992796, 45.70410205107009], [-60.99679418112881, 45.703949513518374], [-60.99679426013621, 45.70394190910908], [-60.9967951613671, 45.70385052936158], [-60.99676979547052, 45.7038050707187], [-60.99670621662584, 45.70375084992177], [-60.99665451189162, 45.70372384020734], [-60.9966141428163, 45.70371394209106], [-60.99653989981887, 45.703695726912734], [-60.99646184370347, 45.70368715680628], [-60.99639861487173, 45.70369504847307], [-60.99633309280374, 45.70373080278908], [-60.99632796139508, 45.70373563627508], [-60.99629455666774, 45.703767030538664], [-60.99627297298035, 45.70381093648201], [-60.996268235414576, 45.70382056537605], [-60.996229366329565, 45.70382980243974], [-60.99617798142075, 45.703829791943946], [-60.996140107433426, 45.70384712928247], [-60.996036046365, 45.7039551148253], [-60.99593169318532, 45.70410719975627], [-60.995879983802, 45.70415219713782], [-60.99580324075354, 45.70417875329366], [-60.99573901686337, 45.704178526285595], [-60.99563595635086, 45.704186618576486], [-60.995610247497055, 45.7041870674577], [-60.99554666712636, 45.70416884075317], [-60.995405386041064, 45.704096162626136], [-60.995341805521356, 45.704077944805384], [-60.9952650654048, 45.70406848788623], [-60.99518859588463, 45.704075534390604], [-60.99517485587663, 45.7040768143473], [-60.995141805240664, 45.70408427198539], [-60.9950971376166, 45.7040943519681], [-60.99504517843055, 45.70411254878531], [-60.99499436410378, 45.70413034263418], [-60.99494302706027, 45.70414622808462], [-60.99487875148104, 45.70416612578885], [-60.99482739813486, 45.70416522414615], [-60.99477603947543, 45.70415513242633], [-60.99473682506734, 45.704147432148275], [-60.99470429523701, 45.70414391765628], [-60.994647246321634, 45.70413775838505], [-60.9945179594349, 45.704143885986085], [-60.99446709143072, 45.704146296049444], [-60.99439629438462, 45.70414595285423], [-60.99432580546074, 45.70414561502641], [-60.99431076902174, 45.70415081452303], [-60.99430109083735, 45.70415418192052], [-60.99418451260789, 45.70421694123567], [-60.99405201395322, 45.704252868020184], [-60.99399122583492, 45.70426935211727], [-60.99392776026541, 45.70427916445811], [-60.99387625637998, 45.704287134670885], [-60.993797584638074, 45.70433165748019], [-60.99376491230709, 45.704343252796946], [-60.99374685187641, 45.70434966822886], [-60.99371098577982, 45.70436004630286], [-60.99365597254147, 45.704375974603394], [-60.99359271039576, 45.70438476422439], [-60.99350861291974, 45.704374483792925], [-60.99343794554311, 45.704365843414145], [-60.993309260907864, 45.704324977314286], [-60.993296952863396, 45.70432106166041], [-60.99322117809074, 45.70428463550837], [-60.99315664069141, 45.704221385949786], [-60.99309306080466, 45.704203166887105], [-60.99279830316465, 45.70411157768091], [-60.992683660488076, 45.704084351069284], [-60.992592793633726, 45.70411066581854], [-60.99256711702166, 45.704110214486754], [-60.99252889198087, 45.7041014417265], [-60.99249102125194, 45.70408277414614], [-60.992484620547806, 45.70407891724067], [-60.99247718900648, 45.70407443015035], [-60.992409792367205, 45.70407383946441], [-60.99237445042461, 45.70407352421365], [-60.992250540991144, 45.704093425208804], [-60.99220777337132, 45.70410029712494], [-60.992156420169415, 45.704099394282686], [-60.99215060015736, 45.70409510652166], [-60.99214391685385, 45.704090173516605], [-60.99212134008576, 45.70407992955403], [-60.992104717382134, 45.7040723825409], [-60.99208417718826, 45.70406876306652], [-60.992053654153395, 45.70406338390328], [-60.99187352653716, 45.70410702162451], [-60.99178391121969, 45.70413424882981], [-60.99160248913647, 45.70424987089091], [-60.991357121818574, 45.70442917477064], [-60.99127973176977, 45.70447371838764], [-60.99109895218988, 45.7045713490631], [-60.991063049502294, 45.70457986246659], [-60.99102121266373, 45.7045897836282], [-60.99098852424881, 45.70459284497529], [-60.99093227342496, 45.704598111079925], [-60.99079034144849, 45.70461542519863], [-60.99066188721637, 45.70465096825433], [-60.99061017892065, 45.70465995950396], [-60.99054803335567, 45.70466839804474], [-60.99054563219121, 45.70466872483397], [-60.9904955681888, 45.704631840165334], [-60.990494572273974, 45.70463166962542], [-60.99044322086351, 45.70462281911347], [-60.990421050984146, 45.70463348215973], [-60.99040531238017, 45.70464105403544], [-60.990365829837025, 45.70466736209293], [-60.99033920686269, 45.70468219520639], [-60.99030161240087, 45.704703135901944], [-60.99027584535064, 45.70470663387635], [-60.9902370655792, 45.70471190105582], [-60.99019882768423, 45.70470312728968], [-60.990199150471604, 45.704694123028474], [-60.99020561066797, 45.70468520877376], [-60.990212665741616, 45.70467546789999], [-60.99035364221707, 45.70461314198224], [-60.990381530033574, 45.70459455972821], [-60.99039312472675, 45.70458683392819], [-60.990392150481206, 45.70457781584372], [-60.990354293010085, 45.70455914778858], [-60.990328906426186, 45.704550600210084], [-60.9902007805135, 45.704541144719805], [-60.990183257746956, 45.70453684892915], [-60.990161303987136, 45.704531449048744], [-60.990161948924985, 45.70451345851671], [-60.990175109770945, 45.704504689189015]]}, "properties": {"OBJECTID": 137898, "FEAT_CODE": "WALK20", "FEAT_DESC": "Lake - Water to the right line", "RIVNAME_1": "River Tillard", "RIVNAME_2": " ", "ZVALUE": 152.5, "FID": null, "SHAPE_Length": 1243.3771316807492}}, {"type": "Feature", "id": 142775, "geometry": {"type": "LineString", "coordinates": [[-60.972395251882595, 45.7133227543317], [-60.97240785175584, 45.713314355140525], [-60.97240840471396, 45.71331398691873], [-60.97242227498154, 45.713309183650416], [-60.97243312660815, 45.7133054249013], [-60.97254907967899, 45.71329667334821], [-60.972600798281505, 45.71328769946968], [-60.97266532490379, 45.71327984402742], [-60.9727045289209, 45.713261638011225], [-60.97275248728186, 45.71321062597117], [-60.97275530654233, 45.71320763370146], [-60.97275584633156, 45.71320727424513], [-60.972768472131385, 45.713198866473356], [-60.97279447794469, 45.713190327168434], [-60.97283335651162, 45.713181116262156], [-60.97292294530322, 45.71319080730545], [-60.9729822200812, 45.7131842806126], [-60.97300033169464, 45.71318227983634], [-60.973167074104346, 45.71311953242258], [-60.97332252281892, 45.713084487233196], [-60.97334364087192, 45.713078579345314], [-60.973386122880335, 45.71306671391593], [-60.97341715919772, 45.71303133295133], [-60.97342498572435, 45.7130223988964], [-60.97355377795659, 45.71301388315706], [-60.97361361114106, 45.71300576387892], [-60.97368289536253, 45.71299637211048], [-60.973784811881934, 45.71297319378357], [-60.973837059415985, 45.71296130342631], [-60.97396132212603, 45.71293733327481], [-60.973978090461785, 45.712934102388026], [-60.974017000784585, 45.712931822359074], [-60.974119722606375, 45.71292581379467], [-60.974197120991356, 45.7129172947277], [-60.97422497997822, 45.71291292839768], [-60.97424880714205, 45.71290920161786], [-60.97437730665149, 45.712837673235974], [-60.9743928712464, 45.71282153160353], [-60.974429366303, 45.712783690918656], [-60.974444874458754, 45.71277302084443], [-60.97446889449426, 45.71275648911369], [-60.9745067810536, 45.71273915920424], [-60.97451827313695, 45.71274682479712], [-60.974533127715006, 45.71275672825003], [-60.97450611462956, 45.71279315297481], [-60.97450609835049, 45.71282915641258], [-60.97453116103666, 45.71284670268623], [-60.974762381515305, 45.71284810299828], [-60.97482693987058, 45.71283934680341], [-60.97486611039624, 45.712822039543454], [-60.974877255073636, 45.71280625151288], [-60.97489183892493, 45.71278560095646], [-60.974902589914684, 45.712767195672136], [-60.974917860575744, 45.71274104872084], [-60.97492700689953, 45.712729005641364], [-60.97493135072742, 45.71272328606645], [-60.97497021580134, 45.71271407419279], [-60.97498357423642, 45.71271169178891], [-60.97502066266461, 45.712705067666406], [-60.975072007292276, 45.71274198178736], [-60.975084848121256, 45.71281331682476], [-60.97509669744391, 45.71287653344157], [-60.97510885587438, 45.7129667583312], [-60.97513420825181, 45.71301221249517], [-60.9752225015458, 45.713092977119146], [-60.97522724718233, 45.71310280926523], [-60.975235663429466, 45.713120222266305], [-60.97523564805525, 45.713139141950876], [-60.97523562193131, 45.71315622525487], [-60.975247825419366, 45.713174434475704], [-60.975250406817835, 45.71317624442448], [-60.97527288816914, 45.71319198958727], [-60.97532424916438, 45.7131929001578], [-60.97538978297494, 45.713157149144216], [-60.97540381289183, 45.713152186327136], [-60.97544055478108, 45.713139156263026], [-60.97545854248643, 45.71313916010769], [-60.97549193538493, 45.71313916701264], [-60.975556153456274, 45.7131754090282], [-60.97561837028931, 45.71317563881239], [-60.97562038718287, 45.71317564756109], [-60.975788025132246, 45.713158816942396], [-60.97584228683984, 45.713165503285644], [-60.975864774231276, 45.71316827809729], [-60.97590267807808, 45.71318604266174], [-60.97594152335793, 45.71317773920098], [-60.975966738743516, 45.7131675919998], [-60.97603148506415, 45.71314153866575], [-60.97608127870386, 45.7131360394582], [-60.97610888415183, 45.71313300031299], [-60.97617275237327, 45.71315261106192], [-60.97619910793447, 45.71316070189884], [-60.976250501735024, 45.7131607035398], [-60.97626662718238, 45.713157127890156], [-60.97628806292496, 45.71315237720639], [-60.97631410068643, 45.71314293757278], [-60.97631475026084, 45.713124947221324], [-60.97626304750341, 45.71309791933964], [-60.97625655166591, 45.71309314174847], [-60.976250531740895, 45.71308870562478], [-60.976271942471044, 45.71308535864603], [-60.976302217461196, 45.71308062057849], [-60.97639250165223, 45.71307141926504], [-60.97645172499144, 45.7130716405571], [-60.97652094322787, 45.713071894894796], [-60.97663559133768, 45.71306402516243], [-60.976726174495994, 45.71304582795086], [-60.9768039105844, 45.71302830316709]]}, "properties": {"OBJECTID": 142775, "FEAT_CODE": "WALK20", "FEAT_DESC": "Lake - Water to the right line", "RIVNAME_1": " ", "RIVNAME_2": " ", "ZVALUE": 171.8, "FID": null, "SHAPE_Length": 444.5985789829509}}, {"type": "Feature", "id": 142776, "geometry": {"type": "LineString", "coordinates": [[-60.9768039105844, 45.71302830316709], [-60.97682894099622, 45.71305530834158], [-60.97687935899778, 45.713109748044864], [-60.9768803054856, 45.713118765742756], [-60.976969570304966, 45.71313744880033], [-60.977034114030836, 45.7131646948213], [-60.977109889396715, 45.71320114068248], [-60.97713301280297, 45.71321655481561], [-60.97713623710717, 45.713218709143746], [-60.97714860590198, 45.7132408995], [-60.97716157841129, 45.71326416265795], [-60.977160604452266, 45.713291148198564], [-60.97714033144736, 45.713305334614745], [-60.97710919622487, 45.713327141433474], [-60.97697975430771, 45.713353651537886], [-60.976735986240506, 45.713415039939136], [-60.97671527758012, 45.71341886749142], [-60.97659370364072, 45.71344132211636], [-60.976555771905176, 45.71345955200931], [-60.976513706958684, 45.713480516946994], [-60.97650344918503, 45.71348562774457], [-60.97645139082363, 45.71353961102403], [-60.97643884514963, 45.713602395242205], [-60.976438434546615, 45.713635475386376], [-60.97643818054797, 45.71365638904764], [-60.976446071145105, 45.713674494716216], [-60.97645004659782, 45.713683602090164], [-60.97646549141426, 45.71370208463339], [-60.976488227918466, 45.713729283259035], [-60.97654182576589, 45.71376683069606], [-60.97656467067359, 45.713782843070845], [-60.97656433094007, 45.71382784170141], [-60.97651479220258, 45.71391736931649], [-60.97649973945171, 45.713944609449904], [-60.97649938682014, 45.71398960785067], [-60.97650031924772, 45.713992963716606], [-60.97651188715374, 45.714034842983985], [-60.976507503233634, 45.71404060691212], [-60.976498397491355, 45.71405259682921], [-60.976472359331524, 45.71406203649683], [-60.976370237342664, 45.714079137952595], [-60.97627931475231, 45.71410632979498], [-60.97626242083368, 45.71410840667515], [-60.976138639065205, 45.714123638948905], [-60.97610089273084, 45.71412035075217], [-60.976022083491756, 45.71411346351742], [-60.975799374980895, 45.71404522271285], [-60.97575394374095, 45.714031303106324], [-60.975702874369965, 45.714022297062264], [-60.97558692050087, 45.714031042804784], [-60.975566379810054, 45.71402807742396], [-60.975523010718945, 45.71402180906663], [-60.97542353189574, 45.71399596808955], [-60.97538171663638, 45.71398510074639], [-60.97533035491362, 45.713984190189535], [-60.97530624080749, 45.7139883801561], [-60.975278635734014, 45.7139931742951], [-60.9752021947394, 45.71401072100029], [-60.97507208446696, 45.71409122266921], [-60.97503383964333, 45.71411844743364], [-60.97499944188642, 45.71412383213631], [-60.974982152797374, 45.714126531885114], [-60.974943598915594, 45.71412674834995], [-60.97487968914347, 45.71411751425179], [-60.974832329315454, 45.714117502519905], [-60.97477690048073, 45.71411749169271], [-60.97473150234344, 45.7141275507431], [-60.97466032868067, 45.714143327302395], [-60.97460989330264, 45.714152333872306], [-60.97458356222368, 45.71416986875097], [-60.97457007159911, 45.71418763135227], [-60.974582570731684, 45.71423285767458], [-60.97457757253028, 45.71424352514185], [-60.97457003905977, 45.714259638212454], [-60.9745314687939, 45.714295857965894], [-60.97449462757743, 45.71432120824668], [-60.97449193952062, 45.714323059767786], [-60.97446625851827, 45.714322604289656], [-60.97433876384485, 45.714295140356356], [-60.97412373612472, 45.714293837417934], [-60.974107537436545, 45.71429373908602], [-60.97409982037217, 45.71430390825521], [-60.97409404663185, 45.714311501627655], [-60.97408561431844, 45.71433008297789], [-60.974081482193505, 45.71433918162345], [-60.97407713782387, 45.71434491015607], [-60.97406799136921, 45.71435694416156], [-60.97405515086357, 45.714356716375434], [-60.97404402951494, 45.71434092047447], [-60.97402948647231, 45.714320257375405], [-60.974022652562, 45.714304573534775], [-60.9740176214825, 45.71429304410178], [-60.97401466038777, 45.7142910743738], [-60.973991274281076, 45.714275474931995], [-60.973927689698385, 45.71425724514014], [-60.973889168253756, 45.71425656173129], [-60.97384662141862, 45.714266644012234], [-60.97381140992528, 45.714274984226705], [-60.97377288847124, 45.71427430077844], [-60.97373784017339, 45.71424934042573], [-60.973735310138615, 45.714247531354346], [-60.973607832908584, 45.714184063193855], [-60.973543797857026, 45.714165150124956], [-60.97354299703928, 45.71416491089183], [-60.973376641097374, 45.71411065361655], [-60.97335161075711, 45.71409220757391], [-60.97335099950195, 45.71407535598657], [-60.97335097693476, 45.71407420346707], [-60.9734027138096, 45.71402920782783], [-60.97340333181183, 45.71401211702736], [-60.973392215094236, 45.7139890933971], [-60.973390183146925, 45.71398488090752], [-60.9733529629896, 45.713948216688806], [-60.973301262994134, 45.71391757814403], [-60.973276230403364, 45.71390275041825], [-60.973186625028106, 45.71385795573179], [-60.97313589875371, 45.71380394997526], [-60.97313650139105, 45.71375531064156], [-60.97313656654336, 45.71374995624422], [-60.97314088800907, 45.71373917781833], [-60.973161988818624, 45.713686500823215], [-60.97316292424603, 45.713594905952576], [-60.973162998710805, 45.71358751751001], [-60.97313931569168, 45.71341280316717], [-60.973138655759364, 45.71340795795492], [-60.97311362580514, 45.713389511864605], [-60.973049391567415, 45.713389280912715], [-60.97295913926282, 45.71339757105349], [-60.972946311825964, 45.71339734337434], [-60.97293343901572, 45.713398014981486], [-60.97288337927062, 45.713361122707994], [-60.97283102698576, 45.713352092605135], [-60.972792473653655, 45.71335230835255], [-60.972761640941904, 45.71336641455911], [-60.972754586162665, 45.713369637675434], [-60.97270286718093, 45.7133786206178], [-60.972648826838466, 45.71337860640142], [-60.97260007994202, 45.713378596122034], [-60.972519884803056, 45.71335536317525], [-60.972408079298, 45.71332298207244], [-60.97240696219576, 45.713322962239225], [-60.972395251882595, 45.7133227543317]]}, "properties": {"OBJECTID": 142776, "FEAT_CODE": "WALK20", "FEAT_DESC": "Lake - Water to the right line", "RIVNAME_1": " ", "RIVNAME_2": " ", "ZVALUE": 171.8, "FID": null, "SHAPE_Length": 603.883732621186}}, {"type": "Feature", "id": 193289, "geometry": {"type": "LineString", "coordinates": [[-60.98430846236307, 45.70560291916361], [-60.98432130094561, 45.705603145763945], [-60.98434226290134, 45.70559968133775], [-60.9844246884305, 45.70558607752151], [-60.98443309585711, 45.70558591987181], [-60.98445039825294, 45.705585622175995], [-60.98450113813395, 45.70560361944743], [-60.98450745811419, 45.705608996534345], [-60.98456470697956, 45.70565784686041], [-60.98460289939818, 45.705667521804855], [-60.98461702185781, 45.705667771029034], [-60.9847451685887, 45.70560521663048], [-60.98478371635973, 45.70560500575176], [-60.98480939353343, 45.70560545884421], [-60.98488708175687, 45.70562393146079], [-60.98489993318738, 45.705624158222726], [-60.98493784407489, 45.70560592517284], [-60.984954393961765, 45.70559153665242], [-60.98498956345335, 45.70556093292786], [-60.985004367121974, 45.705548304776876], [-60.985041250418206, 45.70551684018134], [-60.98506825307293, 45.70548041274629], [-60.985056858177344, 45.70545681825746], [-60.98505510055243, 45.70545317786976], [-60.985038377401125, 45.705441649640505], [-60.985016238295394, 45.70542639847184], [-60.985014482384194, 45.70542235307143], [-60.9850043699896, 45.70539917724669], [-60.98501557730604, 45.70538366834582], [-60.98503005610192, 45.70536363568607], [-60.98509525129581, 45.70533687403431], [-60.9851588389726, 45.70531909392609], [-60.98532648328295, 45.70530134931418], [-60.985390675892205, 45.705302481723734], [-60.9854289130618, 45.70531126608864], [-60.985439100507364, 45.7053187725623], [-60.98544141583628, 45.70532047857894], [-60.98546679291091, 45.70536503083843], [-60.985493026474884, 45.70538360348405], [-60.98553068566822, 45.70541026248807], [-60.985597169070545, 45.705430949228095], [-60.98561961820643, 45.70543793388818], [-60.985645295316836, 45.705438386791485], [-60.9857110591913, 45.705448709692355], [-60.985761531605384, 45.70545663863471], [-60.985799077749846, 45.705484303661144], [-60.98581604079332, 45.70550775325455], [-60.98582479119555, 45.70551986083193], [-60.985863944441135, 45.70553855324046], [-60.985926885801, 45.705538763186574], [-60.985974034652365, 45.70547435587082], [-60.985979573788605, 45.705466784754506], [-60.986044445206645, 45.70544902679249], [-60.98606657180901, 45.70543352132786], [-60.9860694844208, 45.705431475471464], [-60.98607061034711, 45.705369019799534], [-60.986070785968664, 45.705359481899684], [-60.98608226371974, 45.70535395970616], [-60.98610869630665, 45.705341248450836], [-60.98613437338052, 45.70534170124348], [-60.9861785295483, 45.705348078470166], [-60.98619827526541, 45.70535092891843], [-60.986230792066486, 45.70536232142753], [-60.9863010396714, 45.70538694453657], [-60.98632964888999, 45.70538695393467], [-60.986352425853525, 45.70538695950122], [-60.98636203170565, 45.705377398855596], [-60.986379072530966, 45.705360417512864], [-60.986391596468756, 45.705333635511316], [-60.98639728668943, 45.70532614804699], [-60.986405081167085, 45.70531587138855], [-60.98641499310716, 45.705313525888535], [-60.98644395214919, 45.7053066557065], [-60.98654571516013, 45.70537055636375], [-60.98657228098729, 45.70537523716701], [-60.98659677860389, 45.705379557467786], [-60.98660335664136, 45.70537739620019], [-60.98662276591055, 45.70537101467957], [-60.98664709959524, 45.70535414386587], [-60.986687335438866, 45.70532623920776], [-60.9867522226474, 45.70523648259889], [-60.986790791560075, 45.70520025865199], [-60.98679784686065, 45.70519661163035], [-60.98684313408933, 45.70517327843189], [-60.98691988287724, 45.70514671940165], [-60.9869587210405, 45.70513841206067], [-60.987035151207124, 45.705156861040614], [-60.98704818042927, 45.705156784662506], [-60.98707367333359, 45.70515663993561], [-60.98708684764347, 45.70514787120176], [-60.987176757412534, 45.705112552029384], [-60.98721595108249, 45.705094340830975], [-60.98724936818911, 45.70508853011826], [-60.98726766027312, 45.705085351135], [-60.98729247039559, 45.70509134196833], [-60.98734407763826, 45.70510379968254], [-60.98737832826849, 45.70510983985849], [-60.9873951409809, 45.70511280042799], [-60.98760194532454, 45.70507774070163], [-60.98766584717972, 45.70508696755464], [-60.987698543939764, 45.705096571629646], [-60.98779297296032, 45.70512431118359], [-60.98779443784078, 45.705124300990256], [-60.987831520747164, 45.705124090274914], [-60.98786145820561, 45.70513075638469], [-60.987871016702655, 45.705132886999316], [-60.98797376985261, 45.70513379724557], [-60.988075594249935, 45.7051247900029], [-60.988236439584, 45.70510350998241], [-60.988333739402755, 45.70509063341028], [-60.98850074381524, 45.70505487098307], [-60.98871910195628, 45.705020012732184], [-60.9890652435918, 45.70511161716758]]}, "properties": {"OBJECTID": 193289, "FEAT_CODE": "WARV50", "FEAT_DESC": "River - Single Line", "RIVNAME_1": " ", "RIVNAME_2": " ", "ZVALUE": 9999, "FID": null, "SHAPE_Length": 458.66891861926905}}, {"type": "Feature", "id": 193290, "geometry": {"type": "LineString", "coordinates": [[-60.98004298985259, 45.7030099901377], [-60.98009566597505, 45.70303297414478], [-60.98010749123304, 45.7030381338166], [-60.98014571314352, 45.70304691968695], [-60.98020189036523, 45.70306686024123], [-60.980223072481635, 45.70307438161684], [-60.980311719799964, 45.70311015297425], [-60.98040129404913, 45.70311983791628], [-60.98054453991245, 45.70312059784173], [-60.98061962414282, 45.703120998436816], [-60.980681363466864, 45.70311776966487], [-60.9807869519449, 45.703112255839855], [-60.9808770392827, 45.70310519872302], [-60.980890012483876, 45.703104167957875], [-60.98100593083613, 45.70313142898101], [-60.98107257776418, 45.70314888091904], [-60.98114591792521, 45.70316810731337], [-60.98123547959525, 45.70317779137794], [-60.98127585444718, 45.70318351860204], [-60.98130067476349, 45.703187044662556], [-60.981340849994716, 45.703203668478324], [-60.9813892905878, 45.70322371471925], [-60.981441311129274, 45.703241735996805], [-60.9816204685796, 45.70329620787549], [-60.981684043499534, 45.70331443324898], [-60.98177457835153, 45.70333313503284], [-60.98194086599859, 45.703388279062494], [-60.98205616234939, 45.703397517137155], [-60.98217492715727, 45.70339783343684], [-60.98223599232053, 45.70339799426885], [-60.98231253742448, 45.70340742950527], [-60.98245401467571, 45.70344415055945], [-60.98250472819991, 45.70349815203503], [-60.98252975701024, 45.70351659607442], [-60.982555433192246, 45.70351704965747], [-60.98258427115872, 45.703497108944646], [-60.98265950845762, 45.703445071404204], [-60.98272277072057, 45.70343629684562], [-60.982774468264886, 45.70346331275242], [-60.982843838456176, 45.703463655958316], [-60.98291575188446, 45.70346400803758], [-60.98294173091473, 45.70347461094597], [-60.98300565304904, 45.70350069953824], [-60.98305702493574, 45.70350070673485], [-60.983146389602496, 45.70347375197948], [-60.98317261062579, 45.703465844168306], [-60.98322399532125, 45.70346585151597], [-60.98323677669651, 45.703470154655925], [-60.98324939312004, 45.70347440087586], [-60.983274722455974, 45.70351985288891], [-60.98328657944044, 45.703583068875126], [-60.98328210124682, 45.70359828239721], [-60.98327340732375, 45.70362784098417], [-60.98325991161862, 45.7036816083202], [-60.98326003916482, 45.70370770430664], [-60.983260214280264, 45.70374462026657], [-60.9832855891428, 45.70379952406928], [-60.98333530297896, 45.70390706312829], [-60.98337416306128, 45.703933852068985], [-60.98345122457607, 45.703934312718104], [-60.983474250092975, 45.70393060585909], [-60.983501617063254, 45.70392620157196], [-60.98353931602546, 45.703925985127924], [-60.98357871092332, 45.70392576261184], [-60.983595239344766, 45.70392982583858], [-60.98361818581006, 45.703935460533344], [-60.9836466864873, 45.70394882608728], [-60.98365608573586, 45.70395323148247], [-60.98366043952058, 45.703954334459205], [-60.98369427683586, 45.70396290671136], [-60.9837719853753, 45.70394537668194], [-60.98383553883784, 45.703999604245496], [-60.98389643414907, 45.70399557575149], [-60.9839643219493, 45.70399107660175], [-60.98398935146541, 45.70400952033149], [-60.98400253549431, 45.70403585579956], [-60.98401405996384, 45.704144070546704], [-60.98401404998565, 45.70418007414002], [-60.98407695996021, 45.70428829586081], [-60.98410837510512, 45.70446749209534], [-60.98411320340702, 45.704495057199], [-60.98411306678058, 45.704515648942326], [-60.98411152665366, 45.70475605491091], [-60.98412607027632, 45.704805321756744], [-60.984135576322636, 45.70483748790024], [-60.98414693991282, 45.70488551948695], [-60.98416122343512, 45.704945951904236], [-60.98417553958033, 45.70497653777397], [-60.98418627589056, 45.70499949966327], [-60.98424077756404, 45.70514152441256], [-60.98424853036909, 45.70516171535047], [-60.984285732806775, 45.705270374276935], [-60.984293364091876, 45.70528787178523], [-60.984336766048074, 45.70538739614901], [-60.984335786009055, 45.70545038543559], [-60.98433450051748, 45.705457554498444], [-60.98430846236307, 45.70560291916361]]}, "properties": {"OBJECTID": 193290, "FEAT_CODE": "WARV50", "FEAT_DESC": "River - Single Line", "RIVNAME_1": " ", "RIVNAME_2": " ", "ZVALUE": 9999, "FID": null, "SHAPE_Length": 558.2473940449905}}, {"type": "Feature", "id": 193291, "geometry": {"type": "LineString", "coordinates": [[-60.98057385225504, 45.706674660986025], [-60.980626503214886, 45.706639597229426], [-60.980626827560904, 45.70663059302428], [-60.980636507300204, 45.706615804622196], [-60.98063906291251, 45.70661190739948], [-60.980644341558865, 45.70661016454551], [-60.98066506449723, 45.706603366220925], [-60.98070359300448, 45.7065680437146], [-60.980713574848444, 45.70656341370727], [-60.980742802574035, 45.70654983502217], [-60.98091009456693, 45.706505987943736], [-60.98096084607165, 45.70648798323452], [-60.98101331260682, 45.706487992699714], [-60.98106362093546, 45.70648799999088], [-60.981192397252876, 45.706479475353575], [-60.98121794423336, 45.706479629921326], [-60.9812694621983, 45.70647993753369], [-60.98132081723634, 45.706480845305826], [-60.98142423988287, 45.70646287130872], [-60.98148846605559, 45.7064631064115], [-60.98159088463827, 45.70647301742926], [-60.98159181279953, 45.70647328585971], [-60.981654475954564, 45.70649124309716], [-60.98171545158739, 45.706512896865945], [-60.98173184043889, 45.70651871307705], [-60.981772588373474, 45.70652270953248], [-60.98182145278156, 45.70652749747385], [-60.9818348067453, 45.70652661734498], [-60.98195022878021, 45.70651898097672], [-60.98200211205112, 45.70653769263349], [-60.98202632273871, 45.706546419304715], [-60.98211589155034, 45.70659210655198], [-60.98216129052061, 45.70660822830518], [-60.982193269247865, 45.70661957645179], [-60.982248787808274, 45.706627596103814], [-60.98225717185787, 45.70662880634403], [-60.98232139824028, 45.70662904098154], [-60.98238092659409, 45.70662916558065], [-60.98243701220773, 45.706629283333626], [-60.98245662951518, 45.70662250115512], [-60.98248904723815, 45.70661130062065], [-60.982526926865766, 45.70659397691595], [-60.982553899629615, 45.7065584406451], [-60.98256581061937, 45.7065487500233], [-60.98257778393768, 45.70649770118531], [-60.98259312860192, 45.706432220388194], [-60.982593509765394, 45.7064084196367], [-60.98259411065385, 45.70636923116005], [-60.982632991942396, 45.70628800944226], [-60.98272324078566, 45.706207695072585], [-60.98277102848294, 45.70611744066792], [-60.98277564631781, 45.70610871031473], [-60.98278359627966, 45.706093063089575], [-60.98286687430193, 45.70592940278471], [-60.9828672087101, 45.70588440399077], [-60.98285567545763, 45.70581219276119], [-60.98288136311408, 45.7057766517125], [-60.98295273606042, 45.705727480047074], [-60.982959085437315, 45.70572310972055], [-60.98296322948101, 45.70571647721133], [-60.982998615156774, 45.70565990120423], [-60.98299862055407, 45.70562975715003], [-60.982998636806215, 45.7055878850619], [-60.98299876480787, 45.70557075853278], [-60.98299897077352, 45.70554289525845], [-60.983012780212654, 45.705516136331006], [-60.983039916030734, 45.70551032392582], [-60.983051619490844, 45.70550782133835], [-60.98308934516298, 45.705502249954215], [-60.98323114321324, 45.705481288665595], [-60.98330820685054, 45.705481749446925], [-60.98335336770507, 45.70549590431919], [-60.983423808103204, 45.705517994339004], [-60.983489328268114, 45.705531869588576], [-60.983641826861835, 45.70556414827409], [-60.98368333727354, 45.70557014671828], [-60.98370572821736, 45.70557338633623], [-60.98374638568307, 45.70556630933387], [-60.9837574386845, 45.70556438925234], [-60.98389906122066, 45.70552008459669], [-60.983963286694824, 45.70552030929415], [-60.984141473697946, 45.705566668211034], [-60.98416110306164, 45.705573468370744], [-60.984193497315864, 45.70558468827925], [-60.984269901435184, 45.70560313865051], [-60.98430626502495, 45.70560293438621], [-60.98430846236307, 45.70560291916361]]}, "properties": {"OBJECTID": 193291, "FEAT_CODE": "WARV50", "FEAT_DESC": "River - Single Line", "RIVNAME_1": " ", "RIVNAME_2": " ", "ZVALUE": 9999, "FID": null, "SHAPE_Length": 401.51182422862234}}, {"type": "Feature", "id": 193292, "geometry": {"type": "LineString", "coordinates": [[-60.98447959194206, 45.70931162553641], [-60.98456919918006, 45.70935642041889], [-60.98459667506561, 45.709371927861206], [-60.98463340653001, 45.70939264815584], [-60.98467557380006, 45.70941154716371], [-60.98473583430948, 45.70943856024383], [-60.98490283483934, 45.70947481050462], [-60.985030324208914, 45.70950226256653], [-60.985171946498035, 45.70949396008573], [-60.98532318191413, 45.709494863953736], [-60.985403154150774, 45.70949533862244], [-60.98553193690162, 45.70948680920029], [-60.98562120848074, 45.70946947288217], [-60.98568574827678, 45.70946071921761], [-60.98595682107878, 45.709389892190046], [-60.986200917533914, 45.70931858883799], [-60.98631746146534, 45.70929274094101], [-60.986356024947916, 45.70929252080531], [-60.98640645421537, 45.70928350893451], [-60.98650999237589, 45.70927744060658], [-60.986548075805196, 45.70927520473384], [-60.986882062843506, 45.70927659207462], [-60.986903290821395, 45.70927326688223], [-60.9869337436601, 45.70926850212589], [-60.98698481888506, 45.70924149951597], [-60.98707505058672, 45.70923317991905], [-60.98707898268412, 45.70923315921561], [-60.98711360087166, 45.709232968295694], [-60.987229543389354, 45.70922421064359], [-60.98726839784198, 45.7092158854854], [-60.987291107595425, 45.70919454846206], [-60.98730694325175, 45.70917966997101], [-60.98731886697773, 45.70915924096625], [-60.987358962773804, 45.70909057738366], [-60.98737863841733, 45.709076810663795], [-60.98738531981177, 45.70907213991261], [-60.987458782114714, 45.70904672873934], [-60.987462073434564, 45.70904558961567], [-60.98750063176286, 45.70900936526184], [-60.98756612044476, 45.708974515542046], [-60.98765606843802, 45.70893829658812], [-60.98791296793936, 45.708868115262604]]}, "properties": {"OBJECTID": 193292, "FEAT_CODE": "WARV50", "FEAT_DESC": "River - Single Line", "RIVNAME_1": " ", "RIVNAME_2": " ", "ZVALUE": 9999, "FID": null, "SHAPE_Length": 294.3761882491306}}, {"type": "Feature", "id": 194344, "geometry": {"type": "LineString", "coordinates": [[-60.9768039105844, 45.71302830316709], [-60.97686851283844, 45.71291154442301], [-60.97688136811501, 45.712875759428826], [-60.976934074473945, 45.71280379456581], [-60.97696040450408, 45.71278625012271], [-60.97708675830646, 45.71270678686496], [-60.977102389835665, 45.712696955701844], [-60.97721772054633, 45.712634191793846], [-60.9772335663081, 45.71262554352921], [-60.97728325219597, 45.71259844865395], [-60.97734681805857, 45.71258157261679], [-60.977463417900324, 45.71255483466367], [-60.977603777545795, 45.71254651921092], [-60.97779678841621, 45.71253823579722], [-60.97795061023856, 45.71254816015432], [-60.978104789065256, 45.71254818959985], [-60.97829778029038, 45.71254080508419], [-60.978593279022675, 45.712505531594246], [-60.978709845714434, 45.7124796918742], [-60.978760603043895, 45.712461697259116], [-60.97879285747958, 45.712444095229095], [-60.978826133534355, 45.71242595321271], [-60.978868128735364, 45.71239654331237], [-60.97892894640171, 45.712353956101396], [-60.978983685765584, 45.712338120073156], [-60.979019832471906, 45.71232766159077], [-60.979051327701086, 45.71232790390086], [-60.979109745470595, 45.71232835258391], [-60.979215007850144, 45.71234234845632], [-60.97925040229533, 45.712347052160794], [-60.979519538164006, 45.712366215482135], [-60.97953296935264, 45.71236786625027], [-60.979596274382445, 45.71237566490001], [-60.97973789161305, 45.712403372796906], [-60.97985330305353, 45.71241776363832], [-60.979956614495634, 45.71243064420435], [-60.98004556786586, 45.712422316554594], [-60.98020005047217, 45.712378252979384], [-60.980219593664145, 45.712376087356624], [-60.9802774479635, 45.712369711771366], [-60.98032851664303, 45.712378715758824], [-60.980414819930594, 45.71240577762219], [-60.98044412993876, 45.712414963833844], [-60.980585099534714, 45.71246066108877], [-60.98070004490449, 45.71247979532379], [-60.98077812327983, 45.71248837658562], [-60.98093063630915, 45.71253428651055], [-60.98104657467848, 45.71256152978884], [-60.98107336714385, 45.71256713396627], [-60.98113584011747, 45.712580209599494], [-60.98124254763789, 45.71259548927733], [-60.981264942513114, 45.7125986934343], [-60.98130473769248, 45.712611071076644], [-60.981353884116615, 45.712626368280844], [-60.981559400504594, 45.712699307925504], [-60.98167976961214, 45.71273589982665], [-60.98173860083515, 45.71275378027238], [-60.98194412970942, 45.71279071572004], [-60.98216184991518, 45.71280986434141], [-60.982350229946775, 45.712837072083715], [-60.98235359170621, 45.71283755451975], [-60.98250837559842, 45.712856490658645], [-60.982585449352904, 45.71285695209798], [-60.982765633457646, 45.71284843369476], [-60.982780382254475, 45.71284596692579], [-60.982867751111435, 45.71283133544018], [-60.98291367510034, 45.7128312284688], [-60.98295769744128, 45.7128311238963], [-60.98317607874644, 45.71283227139641], [-60.98338129554683, 45.712842204952715], [-60.98357463053716, 45.71282491655948], [-60.98375383481387, 45.712808269457625], [-60.98394750566889, 45.71278199443288], [-60.98412053998154, 45.71276756007646], [-60.984152409348106, 45.712764909282896], [-60.98424020985333, 45.7127582681911], [-60.984268359875315, 45.7127561457783], [-60.98434608021236, 45.712738624581036], [-60.98435892042895, 45.7127388512044], [-60.984360441496854, 45.712738355996414], [-60.984384924350614, 45.71273030922568], [-60.984406851583785, 45.71270972405405], [-60.9844234872493, 45.71269408600914], [-60.98448878634297, 45.71266396921351], [-60.984500570371814, 45.71265855159946], [-60.98452722148707, 45.712632010148056], [-60.984591153983814, 45.712605235524066], [-60.98466274893415, 45.71258046827565], [-60.984667900922254, 45.712578686997965], [-60.984678134259084, 45.71257637432471], [-60.984745621219105, 45.71256115652676], [-60.984976873823015, 45.7125616366163], [-60.98513069731257, 45.71257155132305], [-60.98528515819861, 45.7125994789279], [-60.98536161736011, 45.71261702941811], [-60.98541265450297, 45.71262693966673], [-60.98553482930267, 45.71264302823046], [-60.985554599110145, 45.71264563618463], [-60.98556898610373, 45.71264894127079], [-60.98559282876123, 45.712654411346996], [-60.98568240642329, 45.712664092176276], [-60.985721647422146, 45.71266975280967], [-60.98574632969675, 45.712673311463426], [-60.98576539614678, 45.712678688263196], [-60.985811200268635, 45.71269156635415], [-60.98591854299848, 45.71269171329624], [-60.98597693605436, 45.7126917889894], [-60.98611856632027, 45.71268348547203], [-60.98614510519973, 45.71268364742446], [-60.98619562710984, 45.71268394424453], [-60.98632207464947, 45.71272630901542], [-60.98641400338429, 45.7127571019022]]}, "properties": {"OBJECTID": 194344, "FEAT_CODE": "WARV50", "FEAT_DESC": "River - Single Line", "RIVNAME_1": " ", "RIVNAME_2": " ", "ZVALUE": 9999, "FID": null, "SHAPE_Length": 804.2988362446466}}, {"type": "Feature", "id": 223487, "geometry": {"type": "LineString", "coordinates": [[-60.99531057542082, 45.710304244607215], [-60.99525949314494, 45.710295247083494], [-60.99514087105261, 45.710252813554774], [-60.99510601120047, 45.71024034735681], [-60.99506641977985, 45.710233369659704], [-60.99500387253303, 45.71022235255742], [-60.994913336681584, 45.710210429985665], [-60.99486193080477, 45.71020365883353], [-60.99469527191626, 45.71019353186203], [-60.99463104116018, 45.71019330411563], [-60.99456713223183, 45.710184081051764], [-60.994477225456436, 45.710147398613685], [-60.99441989665815, 45.71011442054592], [-60.994414282157855, 45.71011118962318], [-60.994260470391005, 45.71002928016588], [-60.99420101149941, 45.71000844283934], [-60.994157679375775, 45.70999327128511], [-60.99408855759329, 45.7099929393271], [-60.994016391525044, 45.70999258985854], [-60.993913918921585, 45.709983589149694], [-60.993709366498706, 45.709955693329746], [-60.99367084754018, 45.70995501663965], [-60.993619134758006, 45.70996400917014], [-60.99355133772719, 45.70999881280013], [-60.99351573734168, 45.71001709829412], [-60.993505718016095, 45.71001883946046], [-60.9934640241574, 45.71002609974816], [-60.99340296437551, 45.71002594502523], [-60.99328417254374, 45.71002563094736], [-60.993131457679695, 45.710024738636506], [-60.99313003215491, 45.71002472258725]]}, "properties": {"OBJECTID": 223487, "FEAT_CODE": "WARV50", "FEAT_DESC": "River - Single Line", "RIVNAME_1": " ", "RIVNAME_2": " ", "ZVALUE": 9999, "FID": null, "SHAPE_Length": 181.0516594590314}}, {"type": "Feature", "id": 223983, "geometry": {"type": "LineString", "coordinates": [[-60.99231308544831, 45.71235150605895], [-60.99230443707256, 45.71233361318953], [-60.99229992788014, 45.71232427196176], [-60.99228865855245, 45.712243965570984], [-60.99228899844768, 45.71219896689587], [-60.99230348352804, 45.712045305635115], [-60.99230902962863, 45.71200848131816], [-60.99231699053948, 45.711955533781335], [-60.992316673149574, 45.71192852541028], [-60.99234332474236, 45.71186598742089], [-60.992343329862166, 45.71182997478755], [-60.99231863044604, 45.711694535621895], [-60.992322968792074, 45.71168246063202], [-60.99233147561005, 45.711658748711045], [-60.99237193332523, 45.7115694596257], [-60.992397650324754, 45.71153300789093], [-60.99243649725023, 45.71148868611968], [-60.99255277527098, 45.71139892057635], [-60.99264366294138, 45.71130060779554], [-60.99273426490328, 45.71117438703191], [-60.992768266621, 45.71113403940601], [-60.99278659546698, 45.711112300264936], [-60.992789614568935, 45.711103694431294], [-60.992799472077614, 45.71107562275901], [-60.99281296037048, 45.711021863232745], [-60.99281393151801, 45.71095886477796], [-60.99280433925969, 45.710932170444025], [-60.99278822853768, 45.71088730567406], [-60.99274665002638, 45.710823874407275], [-60.9926992973519, 45.71075162873363], [-60.992662043341916, 45.710643862844044], [-60.99263797934179, 45.71056242248391]]}, "properties": {"OBJECTID": 223983, "FEAT_CODE": "WARV50", "FEAT_DESC": "River - Single Line", "RIVNAME_1": " ", "RIVNAME_2": " ", "ZVALUE": 9999, "FID": null, "SHAPE_Length": 212.37981820679022}}, {"type": "Feature", "id": 283495, "geometry": {"type": "LineString", "coordinates": [[-60.9886049990406, 45.70909542796644], [-60.98860487258306, 45.709095371733625], [-60.98860406344848, 45.70909500644645], [-60.9884646765212, 45.70903175012093], [-60.98844107500766, 45.70901601482123], [-60.98843832709344, 45.70901418423503], [-60.98838739260731, 45.70898609525122], [-60.98832368373161, 45.70895095851858], [-60.988310782324334, 45.70894637481001], [-60.988246299707605, 45.70892349267921], [-60.988169554022114, 45.7089140399027], [-60.98813813506237, 45.708910651123865], [-60.988079968996104, 45.70890436088593], [-60.98801606273391, 45.70889513419622], [-60.98791296793936, 45.708868115262604]]}, "properties": {"OBJECTID": 283495, "FEAT_CODE": "WARV50", "FEAT_DESC": "River - Single Line", "RIVNAME_1": "River Tillard", "RIVNAME_2": " ", "ZVALUE": 9999, "FID": null, "SHAPE_Length": 60.73892951249147}}, {"type": "Feature", "id": 283496, "geometry": {"type": "LineString", "coordinates": [[-60.98791296793936, 45.708868115262604], [-60.98790247913061, 45.70886038768269], [-60.98787541851802, 45.70884045089109], [-60.98787513440606, 45.708782866901615], [-60.98787511051321, 45.70877744791752], [-60.987875585701794, 45.70877530506614], [-60.98788892640772, 45.70871467578531], [-60.987901468938915, 45.70870062128236], [-60.987993334931375, 45.70859770291696], [-60.988004054274505, 45.70858647857976], [-60.988018698171416, 45.708571146948024], [-60.98805786174958, 45.70855383503186], [-60.988121775068976, 45.70852705808031], [-60.98814291435721, 45.70851939264379], [-60.9881477959146, 45.7085176154452], [-60.98816920007884, 45.70851116079534], [-60.98826340190692, 45.708482748100906], [-60.98831129559633, 45.70846309662157], [-60.98832859897655, 45.70845599364701], [-60.988353994274135, 45.70842853807424], [-60.988365669023324, 45.70842075988843], [-60.98839348044775, 45.70840223078912], [-60.988444568637696, 45.70830322026394], [-60.98844489142447, 45.70829422501337], [-60.98847154543979, 45.70823168793373], [-60.98848539934008, 45.70813203055737], [-60.98848799992336, 45.70780893374129], [-60.9884886031008, 45.70772660379564], [-60.988488659838886, 45.7077189359968], [-60.98848623321875, 45.70770135042998], [-60.988477441479304, 45.70763773897234], [-60.98845307635722, 45.70749328582231], [-60.988472375974375, 45.70745202342575], [-60.988478110437924, 45.707439721137995], [-60.988504801927895, 45.7074122883582], [-60.98858219825492, 45.70736774674881], [-60.98859940122027, 45.70735197406107], [-60.988620722406026, 45.70733242150045], [-60.98863356817654, 45.70729665299323], [-60.98863617875816, 45.70708066746859], [-60.98857228869084, 45.70699943386914], [-60.98856734585575, 45.70698394620814], [-60.98856074076887, 45.70696322672801], [-60.9885482388503, 45.706881998093095], [-60.98854863205206, 45.70682843143532], [-60.98854889860727, 45.70679200033269], [-60.9885647595651, 45.70673807603828], [-60.988575236092544, 45.70670245482536], [-60.98857525209599, 45.70668804460509], [-60.98857524287413, 45.70666646019267], [-60.98855021810004, 45.70661200480776], [-60.988547457202266, 45.706606600622194], [-60.988499813013824, 45.70651300679203], [-60.98848794962462, 45.70644979126853], [-60.98849284586526, 45.70643614207537], [-60.988513641519376, 45.706378236277146], [-60.98853546128664, 45.706343345910845], [-60.98855316552805, 45.70631502574718], [-60.98859545441067, 45.70628217006026], [-60.98865624485457, 45.70623493267242], [-60.98866584882031, 45.70621574979742], [-60.98867008407082, 45.70620727349581], [-60.988657542812156, 45.70616294802047], [-60.988644658254294, 45.70614752751337], [-60.988619356376454, 45.706117270783935], [-60.98859669537106, 45.70610543147756], [-60.98856765352045, 45.70609025744689], [-60.98854262155782, 45.70607181468617], [-60.98847870558556, 45.70606258807792], [-60.988401015168975, 45.70604412687155], [-60.98835059668156, 45.70601712705781], [-60.9882992165113, 45.70598112734419], [-60.98827419229065, 45.705926671902255], [-60.98826926301758, 45.70587035620338], [-60.988262343830904, 45.70579144909628], [-60.98827023734012, 45.70576945483258], [-60.988275189764714, 45.705755671622946], [-60.988335034587365, 45.70567355710591], [-60.98835355947711, 45.70564814072753], [-60.988482999951174, 45.7055136064055], [-60.9885213528786, 45.705487315109444], [-60.988573877675414, 45.70545130036367], [-60.988781019197575, 45.70533523597999], [-60.988792022720865, 45.705327526935065], [-60.98885745121899, 45.70528167624977], [-60.9890652435918, 45.70511161716758]]}, "properties": {"OBJECTID": 283496, "FEAT_CODE": "WARV50", "FEAT_DESC": "River - Single Line", "RIVNAME_1": "River Tillard", "RIVNAME_2": " ", "ZVALUE": 9999, "FID": null, "SHAPE_Length": 491.00009057789725}}, {"type": "Feature", "id": 283498, "geometry": {"type": "LineString", "coordinates": [[-60.986663686838625, 45.72057790687968], [-60.9867523354153, 45.72068568948724], [-60.986794242055026, 45.720708876515616], [-60.986802734393535, 45.720713571682], [-60.98682941185808, 45.72072214277327], [-60.98688078011822, 45.72072304826347], [-60.98691933863207, 45.72072282784373], [-60.986957259269936, 45.7207045943294], [-60.986991697718835, 45.72068098888237], [-60.98704816386684, 45.7206422901006], [-60.98707385634091, 45.72060673926999], [-60.98708767650049, 45.720543967421335], [-60.98708769892708, 45.72053726213179], [-60.98708801605077, 45.720462974133426], [-60.98707582033002, 45.720444757339735], [-60.98707615184448, 45.72039975858586], [-60.98706460634068, 45.72029154405601], [-60.987064247110986, 45.72025969247083], [-60.98706398932484, 45.72023753666396], [-60.98708180313967, 45.72020703149286], [-60.987090005055826, 45.72019298160463], [-60.98710237545055, 45.72017628690868], [-60.9871170141181, 45.7201565448745], [-60.98715554792213, 45.72012122935351], [-60.98720896447135, 45.72009049656036], [-60.98723296319186, 45.720076689065074], [-60.98731338764678, 45.72004853842569], [-60.987335758531266, 45.72004069683334], [-60.987478066257886, 45.7200144017221], [-60.98757482187856, 45.720015260620116], [-60.987580833507124, 45.720015321547066], [-60.987646036818155, 45.720021700015536], [-60.987670468760705, 45.72002409271667], [-60.98768376031103, 45.72002790028208], [-60.987734051715556, 45.72004231479693], [-60.98787570540692, 45.72007001318496], [-60.9879675232848, 45.720089218637874], [-60.988054265020395, 45.720107362491575], [-60.988158026314586, 45.72011639113536], [-60.988259030315234, 45.72011703626312], [-60.98840213317737, 45.72011798178844], [-60.98871337098118, 45.72008764880988], [-60.98876189535927, 45.72008292279959], [-60.98915955047064, 45.72006652271136], [-60.98929263824154, 45.72005184520345], [-60.989314363791735, 45.72004944641891], [-60.98939177009676, 45.720040917188605], [-60.98940128902902, 45.720038492506134], [-60.989494221866025, 45.72001481797648], [-60.98962303543398, 45.71997027179472], [-60.98971332276286, 45.71992505632088], [-60.989739651992444, 45.71990751793578], [-60.989766310540986, 45.719844980742174], [-60.98976631198094, 45.71981449465195], [-60.989766323799145, 45.71977297361643], [-60.98975414061009, 45.719682749968115], [-60.98973030090449, 45.71963591259321], [-60.98970373525177, 45.719583752690355], [-60.989601956738824, 45.71944784737776], [-60.9895826981293, 45.71942912848007], [-60.98950012680602, 45.71934884484032], [-60.989398658251396, 45.719275951242366], [-60.98934836685514, 45.71924757703132], [-60.98933442410259, 45.719239716780976], [-60.98900201279521, 45.71908534876017], [-60.988883175906565, 45.7190256052429], [-60.988784912842156, 45.718976214941755], [-60.98868276787539, 45.71892221072442], [-60.98868036709884, 45.718920719294935], [-60.988579694113966, 45.71885828904328], [-60.98845100271666, 45.718746274177995], [-60.98841396985069, 45.718714055662595], [-60.988407981986086, 45.718706893470866], [-60.98837577541268, 45.71866837829889], [-60.9883253529924, 45.71860538378061], [-60.988312841860676, 45.718560158792684], [-60.98831317231874, 45.71851516000436], [-60.98832392745394, 45.71847543036354], [-60.98833983924788, 45.71841661958948], [-60.98835300371178, 45.71840785055156], [-60.98836451635195, 45.71840249976964], [-60.98839220646095, 45.7183896391391], [-60.988424820828655, 45.71837598314604], [-60.98845613100729, 45.718362862229554], [-60.98847333520306, 45.718345721466285], [-60.988482783086226, 45.718336319893965], [-60.988490313926135, 45.71832591245616], [-60.98850847323056, 45.718300777689244], [-60.988517040510445, 45.718281900634786], [-60.98852103155132, 45.71827309601927], [-60.98852108397252, 45.71826483409598], [-60.98852165982356, 45.71818399795468], [-60.9885101098767, 45.71814779083709], [-60.988470954474536, 45.718093095653096], [-60.98831871244661, 45.71796710142631], [-60.98830801068566, 45.71795165635416], [-60.98828084149704, 45.717912428800496], [-60.9881909291331, 45.71780373397909], [-60.9881533619019, 45.71774096582896], [-60.98813809372383, 45.71770776248491], [-60.98812833264037, 45.71768651937012], [-60.98812898616, 45.71763252534418], [-60.98814216571503, 45.71755174920999], [-60.98822056052219, 45.71740821533627], [-60.98824619523338, 45.71736776670594], [-60.98826006077209, 45.71734590468254], [-60.988375594916846, 45.71724589630755], [-60.988466939667795, 45.71716682995334], [-60.98851866725588, 45.71712183632724], [-60.988545002856426, 45.71706829462786], [-60.98855820659596, 45.71702262246853], [-60.98855950540351, 45.7169506379521], [-60.9885723539508, 45.71691486055097], [-60.98859803083805, 45.716879309084455], [-60.988688940144115, 45.71681700360145], [-60.988856961968025, 45.71668225744106], [-60.98896069928946, 45.71662016863929], [-60.989114903787964, 45.71654817625616], [-60.98916723658651, 45.716522094930596], [-60.989231804121395, 45.716477327052985], [-60.98924432937297, 45.716450544806484], [-60.9892481437932, 45.71643734460235], [-60.989257532382425, 45.71640487254962], [-60.98925794443189, 45.716363664570096], [-60.98925851438208, 45.71630587966687], [-60.9892716847448, 45.71626111592601], [-60.98929737404373, 45.716225555516765], [-60.989387952732066, 45.716136240876175], [-60.989416936548295, 45.71611629203892], [-60.989427476259394, 45.71610903382561], [-60.989478885486534, 45.7161090387791], [-60.989553782893516, 45.71610940318885], [-60.98962018850996, 45.71610972607754], [-60.98969143455174, 45.71611015213385], [-60.98969726696115, 45.71611018279217], [-60.98976719357336, 45.716098317314966], [-60.9898511077163, 45.71608408772556], [-60.98993266397024, 45.716058574418945], [-60.98999275256487, 45.71603977595395], [-60.99004256403488, 45.71601410889739], [-60.9900451167473, 45.716012794684325], [-60.99008367838394, 45.71597656955229], [-60.990087054329365, 45.7159727225647], [-60.990122530313535, 45.71593224868318], [-60.99014889605598, 45.71587780704348], [-60.99017459057699, 45.71580625182663], [-60.990175880950595, 45.71577027083349], [-60.99012483269665, 45.71561725681201], [-60.99009980238272, 45.71556281075002], [-60.99003654613951, 45.7154635873893], [-60.989998642841094, 45.71540981483571], [-60.98999200875552, 45.71537445945055], [-60.989986776215495, 45.71534659950075], [-60.98999995244923, 45.7152658230677], [-60.98998711799588, 45.71522959347633], [-60.98998392202777, 45.715218034043296], [-60.98997460649988, 45.71518435964019], [-60.98988563670393, 45.71508559271684], [-60.98972091352581, 45.714949479597855], [-60.989697691599574, 45.714933472227685], [-60.98968204287707, 45.714922692686706], [-60.98952918634351, 45.71484980366068], [-60.98946573066201, 45.71481743534523], [-60.989439598643294, 45.714804112972686], [-60.989350301210344, 45.71475033549092], [-60.98928558087617, 45.71468947487736], [-60.98927323830695, 45.7146778713978], [-60.989221882375304, 45.71464096348779], [-60.98903048023202, 45.71453228250103], [-60.98902403574602, 45.714529261723776], [-60.988992571501, 45.714514513218035], [-60.988990696259336, 45.71451377812494], [-60.98887727088088, 45.71446927840244], [-60.98872446539115, 45.714401474714414], [-60.988672383741644, 45.714378361197205], [-60.988468142975535, 45.714269453151644], [-60.988314328968265, 45.71418753569498], [-60.988255849793035, 45.71414614542302], [-60.988250424145996, 45.714142305462644], [-60.98822582233054, 45.714126102465514], [-60.98808473898883, 45.714033175795386], [-60.98803367505976, 45.71398817165459], [-60.987944412580276, 45.713933493586694], [-60.98783853541546, 45.71388995389568], [-60.98779120614661, 45.7138704871731], [-60.98777191373788, 45.71386065127245], [-60.98770162112565, 45.71382480415945], [-60.98761204409925, 45.713743118401695], [-60.987536196372965, 45.71367627311147], [-60.98750991760914, 45.71365310969288], [-60.9873066589237, 45.7134812103556], [-60.987204565700715, 45.71339030186243], [-60.987183867697084, 45.713361296112176], [-60.987153188174474, 45.71331828900746], [-60.98716429566615, 45.71328054585896], [-60.98717953130312, 45.713228744007516], [-60.98716944045095, 45.71320562278967], [-60.98716766009321, 45.71320153199206], [-60.98712942980714, 45.71319275734733], [-60.98705972747309, 45.71319917960173], [-60.98694895424728, 45.71320937833996], [-60.986884720215606, 45.71320914617859], [-60.986878722982766, 45.713206916244076], [-60.98685936262362, 45.71319969826051], [-60.986806260635376, 45.71317857310701], [-60.98676942401981, 45.713163909298494], [-60.98662845554354, 45.71308222499615], [-60.98641235304559, 45.71294609233417], [-60.98637976857332, 45.71292287147872], [-60.986335934083854, 45.712891639445644], [-60.986322779326336, 45.71286440470883], [-60.98631682729567, 45.71284804408153], [-60.986309928283696, 45.71282907448854], [-60.986365714252486, 45.71279049902455], [-60.98641400338429, 45.7127571019022]]}, "properties": {"OBJECTID": 283498, "FEAT_CODE": "WARV50", "FEAT_DESC": "River - Single Line", "RIVNAME_1": "River Tillard", "RIVNAME_2": " ", "ZVALUE": 9999, "FID": null, "SHAPE_Length": 1397.5118576495624}}, {"type": "Feature", "id": 283499, "geometry": {"type": "LineString", "coordinates": [[-60.98641400338429, 45.7127571019022], [-60.986441723516315, 45.71275228009564], [-60.98646571980367, 45.712748112701796], [-60.9865164430153, 45.71273100513006], [-60.9865553277006, 45.712685785937296], [-60.986564179528976, 45.71266112643179], [-60.98656817644868, 45.71265000874157], [-60.98656893098063, 45.71261541346713], [-60.98657012346634, 45.71256004276543], [-60.986549566694656, 45.71251746598274], [-60.986543814201966, 45.71250556434491], [-60.98650591619855, 45.71245179069563], [-60.98640414895405, 45.71235189528677], [-60.98639160861062, 45.71230756061926], [-60.9863928956629, 45.71230427997051], [-60.986405773696035, 45.71227090655584], [-60.98642337593078, 45.71224694139807], [-60.986444948973954, 45.712217591683476], [-60.9864685272528, 45.712192507756455], [-60.9864957125821, 45.71216358101545], [-60.98652205190343, 45.71214604353186], [-60.98666400823191, 45.71205672770666], [-60.98678093400048, 45.711984990326535], [-60.986821763114285, 45.711967888220485], [-60.986844851874814, 45.71195821418094], [-60.98690806124449, 45.71191467477759], [-60.98692256643914, 45.711904669399786], [-60.98696113965738, 45.711868454505726], [-60.98696707462206, 45.71186025125954], [-60.986986827972544, 45.711832903576585], [-60.986995210014236, 45.71179484236813], [-60.9870006450827, 45.71177014960337], [-60.98700084094869, 45.71172355523367], [-60.987000984917536, 45.71168913820923], [-60.986999432576134, 45.71168764369535], [-60.9869637248701, 45.71165337781311], [-60.98678425696843, 45.711498998604476], [-60.98670118343486, 45.71142203432009], [-60.98661888164601, 45.71134576765055], [-60.986504599700176, 45.71123664174898], [-60.98647954242838, 45.71118309446958], [-60.986479543233045, 45.71115267133252], [-60.98647955065502, 45.71114709988627], [-60.986480226986146, 45.711145797674455], [-60.986493360242484, 45.71112033156263], [-60.9865135395568, 45.711096861869514], [-60.98653224378402, 45.711075112347245], [-60.98657015790717, 45.71105687882485], [-60.9866030845216, 45.71104336385908], [-60.98663535878875, 45.71103012541307], [-60.98664852173782, 45.71102135653631], [-60.98678983296661, 45.71098604376523], [-60.986879429339204, 45.71095972025908], [-60.987072450228744, 45.71087941387593], [-60.98721441971266, 45.71082611031565], [-60.987408090531744, 45.71076381668407], [-60.98747200702862, 45.71073703115833], [-60.987536896677206, 45.71071928167992], [-60.987550046574306, 45.710710512468914], [-60.98758857373402, 45.710675187637825], [-60.987595771321956, 45.710659364814504], [-60.9876011306679, 45.71064750601312], [-60.98762874281733, 45.710557983235695], [-60.987644729497866, 45.710546779742536], [-60.98765379704726, 45.71054042284306], [-60.987680477623115, 45.71051299007535], [-60.98770551897692, 45.710495429444386], [-60.98770870891259, 45.71048995907857], [-60.98773152909188, 45.710450883077996], [-60.98774537759265, 45.71038722046104], [-60.98774506238945, 45.71036021210745], [-60.987771374783385, 45.71034267385716], [-60.987789420383, 45.71033674516386], [-60.987797389926804, 45.710334131296726], [-60.98783594129774, 45.71033391044696], [-60.987875858367175, 45.71033429870661], [-60.98795153083362, 45.710335046868444], [-60.98804115039997, 45.71034382649722], [-60.98816381777109, 45.71036719368716], [-60.98823383532496, 45.71038052435875], [-60.988311759756215, 45.7103901238647], [-60.988464078500506, 45.710408882500005], [-60.988887032410666, 45.71041093895815], [-60.98888798287264, 45.71041094669465], [-60.98901676730409, 45.71040241426927], [-60.989081011008636, 45.71040264540357], [-60.98911924956572, 45.710385001806706], [-60.98915807556685, 45.71036709851241], [-60.9891611801629, 45.71036400284974], [-60.98918472306384, 45.71034056490381], [-60.98919372797481, 45.71032484580861], [-60.98921075136741, 45.710295118427155], [-60.98921960000732, 45.71027050365635], [-60.98922361066977, 45.71025934110692], [-60.989211423128, 45.710205120922474], [-60.9891472061143, 45.71013288286452], [-60.98903288928003, 45.710024658955625], [-60.98900721727148, 45.70998819327105], [-60.98899535238394, 45.7099249868098], [-60.98897257963795, 45.70966446781677]]}, "properties": {"OBJECTID": 283499, "FEAT_CODE": "WARV50", "FEAT_DESC": "River - Single Line", "RIVNAME_1": "River Tillard", "RIVNAME_2": " ", "ZVALUE": 9999, "FID": null, "SHAPE_Length": 560.4332378712306}}]}