{"type": "FeatureCollection", "features": [{"type": "Feature", "id": 21823, "geometry": {"type": "LineString", "coordinates": [[-60.956882196542644, 45.53229421958192], [-60.95681389109289, 45.53230637312625], [-60.956638570678514, 45.53233756638074], [-60.95654829445205, 45.53235484431792], [-60.95643399295891, 45.53236360914346], [-60.95630496111036, 45.53239010357538], [-60.95619294476554, 45.53241815358937], [-60.956164084179036, 45.532425387025924], [-60.955984125786344, 45.532478873199445], [-60.955875441613045, 45.532503670115], [-60.95583044920327, 45.53251393611255], [-60.95570141707462, 45.53254042085546], [-60.95561477380274, 45.53256592716923], [-60.95561208097765, 45.532566725067625], [-60.95556021335471, 45.53258469889259], [-60.95554131051691, 45.53259775420296], [-60.95552211826823, 45.53261102035667], [-60.95551797900925, 45.53261674300519], [-60.955508634593336, 45.53262968141554], [-60.95550904002877, 45.53264146222245], [-60.95550926235331, 45.532647695021915], [-60.95552285077806, 45.53265723654529], [-60.955534240719196, 45.532665244507086], [-60.95555043792547, 45.5326710072342], [-60.9555848170033, 45.53268325230579], [-60.95562661415944, 45.53268835722504], [-60.95566259717139, 45.53269274595372], [-60.9557752503026, 45.532693439637654], [-60.9558162498373, 45.5326936965725], [-60.95599555676755, 45.53265821037065], [-60.95604136789812, 45.53265398075509], [-60.956085508313755, 45.53264991024013], [-60.9561111062099, 45.532650368440706], [-60.95635511615742, 45.5325611236095], [-60.95652191707022, 45.53251730268467], [-60.95659409643299, 45.53250569570407], [-60.95668809856434, 45.53249057267965], [-60.95682440319536, 45.532476854613535], [-60.956855214163504, 45.53247376044834], [-60.95687779298658, 45.53247376840369], [-60.956957657849216, 45.532473793221236], [-60.957059430119244, 45.5324927163742], [-60.95714690170758, 45.53249735974402], [-60.95723838696201, 45.53250221887], [-60.9572729366073, 45.53249950651811], [-60.95734113670666, 45.53249415570907], [-60.95738198056183, 45.53248703732739], [-60.95744424475755, 45.53247619756354], [-60.957546366020395, 45.532450120609056], [-60.95762612741508, 45.53243178069419], [-60.957662598563864, 45.53242339584318], [-60.958047099892504, 45.53234476123105], [-60.95809159830121, 45.53233362141186], [-60.958187987996936, 45.53230948465676], [-60.95832917659716, 45.532265194095665], [-60.95833252647292, 45.53226357977256], [-60.958496030209055, 45.532184466374325], [-60.95856069542826, 45.53216672001507], [-60.95874030521082, 45.53212312484689], [-60.95876659934704, 45.53210469241294], [-60.95877602711161, 45.53208447326768], [-60.95877908212814, 45.532077912010614], [-60.958779407667436, 45.5320689166465], [-60.95877665704827, 45.53206600509881], [-60.95875350673856, 45.532041450076335], [-60.958720673031046, 45.53201799110668], [-60.95871605433757, 45.53201467711348], [-60.95870776370277, 45.532010199332184], [-60.958614304693626, 45.531959751106236], [-60.95851188432986, 45.53192371550206], [-60.95850883898928, 45.53192293195915], [-60.958473800710316, 45.531914033422986], [-60.95838596425309, 45.531913831130595], [-60.95835854639509, 45.53191377295587], [-60.95828139542481, 45.53192229476264], [-60.95821961190309, 45.53193473678845], [-60.95819107463793, 45.531940482322874], [-60.95811423935703, 45.53197601321311], [-60.958038430217236, 45.53200230018378], [-60.958037716838284, 45.5320025484608], [-60.95790833800532, 45.53207404442001], [-60.95787580928488, 45.532085326229414], [-60.95783181525987, 45.53210057952528], [-60.95752383835857, 45.532152678596816], [-60.95741044221955, 45.5321665192602], [-60.95738233437673, 45.53216994996861], [-60.95733897743987, 45.53218139796918], [-60.957280181302885, 45.53219691732521], [-60.95703590417383, 45.532258264690064], [-60.95691253773478, 45.532287120470045], [-60.956882196542644, 45.53229421958192]]}, "properties": {"OBJECTID": 21823, "FEAT_CODE": "WACOIS10", "FEAT_DESC": "Coastal Island - Water to the right line", "RIVNAME_1": " ", "RIVNAME_2": " ", "ZVALUE": 0.7, "FID": null, "SHAPE_Length": 553.9241741164167}}, {"type": "Feature", "id": 21824, "geometry": {"type": "LineString", "coordinates": [[-60.95589727768351, 45.532154176015], [-60.956051907148044, 45.53212813125128], [-60.95608856644076, 45.53212409784263], [-60.95612905835926, 45.532119619957506], [-60.95619213116567, 45.53211084762026], [-60.95624401095495, 45.53209287372485], [-60.95628276595536, 45.53208366607872], [-60.956299987177225, 45.53207176870311], [-60.956320860330806, 45.53205734434624], [-60.95632285070503, 45.532054724620686], [-60.956334311003914, 45.532039582717715], [-60.95633368298023, 45.53202156910963], [-60.95632763656319, 45.532002522400475], [-60.956322187894116, 45.531985358635694], [-60.95631132432047, 45.53197060028349], [-60.9563087610794, 45.53196711595412], [-60.95630331520031, 45.53196507422739], [-60.95628348942598, 45.531957662452854], [-60.9561929763904, 45.53195745557178], [-60.95616823510907, 45.53195739977306], [-60.956066394727166, 45.53197537945806], [-60.95603374503524, 45.53198433627175], [-60.95600172899396, 45.53199312439526], [-60.95587396489475, 45.53201964103453], [-60.95582213046145, 45.532036715455476], [-60.95580010438664, 45.5320596251998], [-60.95577022640228, 45.53209069346032], [-60.95576523952865, 45.53210461002322], [-60.95575740338035, 45.532126468626785], [-60.95576955016751, 45.53214468845678], [-60.955782010181615, 45.532153912709276], [-60.955871076599365, 45.53215411202131], [-60.95589727768351, 45.532154176015]]}, "properties": {"OBJECTID": 21824, "FEAT_CODE": "WACOIS10", "FEAT_DESC": "Coastal Island - Water to the right line", "RIVNAME_1": " ", "RIVNAME_2": " ", "ZVALUE": 0.7, "FID": null, "SHAPE_Length": 109.8026867374818}}, {"type": "Feature", "id": 21825, "geometry": {"type": "LineString", "coordinates": [[-60.95647529439091, 45.53334457710793], [-60.956411290070406, 45.53330832701898], [-60.95636037421808, 45.53329931469359], [-60.95633544070815, 45.53328086607595], [-60.95628879315613, 45.53325444081483], [-60.956271436877124, 45.533244606915645], [-60.95625209465831, 45.53324221745076], [-60.95619493541624, 45.533235145572995], [-60.95593819551696, 45.53321614798543], [-60.95587416754145, 45.533215901899965], [-60.95584667118895, 45.533222232556206], [-60.955797968346, 45.53323344024787], [-60.955757201213316, 45.533240541433315], [-60.95574641339574, 45.533242418571355], [-60.955727927745166, 45.533251025795124], [-60.95570733146869, 45.533260621363404], [-60.95569345307494, 45.53327038220748], [-60.955682361117425, 45.53327817667224], [-60.95568138297669, 45.53330516270667], [-60.9556941577986, 45.53334139614964], [-60.95574536257053, 45.533377417491174], [-60.95577179469755, 45.53339161750555], [-60.955795613526135, 45.53340442055171], [-60.95584747046457, 45.533422451158465], [-60.95589417547449, 45.53343704107367], [-60.955936118894044, 45.53345014154655], [-60.955999821138924, 45.533459382948195], [-60.9562050070586, 45.53348735894353], [-60.95625784746397, 45.53350016827859], [-60.95628118258242, 45.53350582462817], [-60.956355081834005, 45.533517480633186], [-60.95639706811211, 45.5335241008525], [-60.95643546555889, 45.53352478805669], [-60.956461422375305, 45.53351535130194], [-60.9564739193772, 45.53348857141126], [-60.95647396925152, 45.53348330661247], [-60.95647529439091, 45.53334457710793]]}, "properties": {"OBJECTID": 21825, "FEAT_CODE": "WACOIS10", "FEAT_DESC": "Coastal Island - Water to the right line", "RIVNAME_1": " ", "RIVNAME_2": " ", "ZVALUE": 0.7, "FID": null, "SHAPE_Length": 159.0692334125712}}, {"type": "Feature", "id": 21826, "geometry": {"type": "LineString", "coordinates": [[-60.9567452072905, 45.533282798569154], [-60.95668729121747, 45.53330686648654], [-60.95661647534717, 45.533336311264854], [-60.95661982643444, 45.53334032275269], [-60.9566545234457, 45.53338198905263], [-60.956666716170545, 45.53339930948712], [-60.95667812882739, 45.533410234123046], [-60.95670507711158, 45.53343600067512], [-60.9567090396607, 45.533437628787745], [-60.956794680048866, 45.53347270865814], [-60.95687023662635, 45.53350826511956], [-60.95689748882411, 45.53351327133732], [-60.95697329063461, 45.53352721127956], [-60.95704517322225, 45.53353443817808], [-60.95734335849697, 45.53356443604374], [-60.957533022747725, 45.53357013309342], [-60.95771437149537, 45.53357557308486], [-60.957810085870435, 45.533580408378434], [-60.95790741100656, 45.53358532640575], [-60.95794515715222, 45.53360400381703], [-60.95794450577263, 45.53362199453103], [-60.95790104633696, 45.53363200072118], [-60.95786829382045, 45.53363953403238], [-60.95770183577432, 45.53363880720348], [-60.95753536494179, 45.533638079903], [-60.957329829036354, 45.53365509694744], [-60.95711982410536, 45.53367067448813], [-60.95699722198783, 45.53367975943276], [-60.95695879183735, 45.533679971950725], [-60.9569224978842, 45.53369687486394], [-60.95691970997897, 45.53369817515801], [-60.95690753866769, 45.53371596874375], [-60.956917682470916, 45.53373116421532], [-60.95691968648103, 45.53373417946359], [-60.956932192414264, 45.533742504291354], [-60.9569433346398, 45.53374534100044], [-60.95697026417583, 45.53375218666953], [-60.95702913998685, 45.53376881212032], [-60.95703492103406, 45.5337704457541], [-60.95725195375711, 45.533789630641735], [-60.95737968497104, 45.53379912560284], [-60.95769982868362, 45.533800342511505], [-60.9579048259125, 45.533777698429745], [-60.957931277017046, 45.53377476903383], [-60.95844223889358, 45.53377671391104], [-60.958685847391074, 45.53376936768199], [-60.95882702951007, 45.53376109012312], [-60.95900592211908, 45.533728247137084], [-60.95901913766925, 45.533725819007095], [-60.9590311682171, 45.533722514582365], [-60.95908381731791, 45.533708072612455], [-60.95909923741949, 45.53370064321523], [-60.95912161858973, 45.53368984577583], [-60.959174117401474, 45.533654779371545], [-60.9592128950723, 45.533609566411506], [-60.95927759651839, 45.5335558155705], [-60.9593284900481, 45.533529712585256], [-60.959482850516174, 45.53347576370655], [-60.959624053255745, 45.533431489804826], [-60.95980430431958, 45.53336990206379], [-60.95994487770009, 45.533307605154846], [-60.96015108412879, 45.53323657928618], [-60.9602200074225, 45.53322045626002], [-60.960304792419024, 45.533200620007], [-60.960369145781875, 45.53319186823633], [-60.9604073788736, 45.53319213711374], [-60.96053559921451, 45.533193041151144], [-60.960578822952115, 45.53319838576384], [-60.96061210112309, 45.53320250859207], [-60.9607526311454, 45.5332122193677], [-60.960864120182286, 45.5332129052388], [-60.960906285551374, 45.533213163161484], [-60.96093460400119, 45.53320745804721], [-60.96099659479118, 45.53319497324838], [-60.96104716170501, 45.533177873846356], [-60.96107344281049, 45.533159440651225], [-60.96107409318193, 45.533141449900704], [-60.9610683582256, 45.53313747698719], [-60.96103535903098, 45.53311465481754], [-60.96101494689027, 45.533110680849276], [-60.96098448786048, 45.533104745235526], [-60.96095377039323, 45.53310029019363], [-60.960920785100214, 45.533095506607616], [-60.96083145167005, 45.53308671034146], [-60.96066404387194, 45.53307651963115], [-60.96054630656063, 45.53307579397396], [-60.96051038985363, 45.53307557551778], [-60.9604450804211, 45.53307747839387], [-60.96024243367582, 45.53308339082498], [-60.95993541849766, 45.53307340542408], [-60.95981891438586, 45.53307222398627], [-60.95962745975241, 45.533089505764515], [-60.959601486630426, 45.53308950070836], [-60.959525014862926, 45.533089475368065], [-60.959307623677354, 45.53311529430549], [-60.959243455777106, 45.533132014838365], [-60.95913954309329, 45.53315909642686], [-60.959088639695416, 45.533150085541614], [-60.95906369253728, 45.53313163727635], [-60.95904692667543, 45.53311680069412], [-60.95901281099945, 45.53308663102053], [-60.95900469104036, 45.53308061711023], [-60.95900033777023, 45.533077397885265], [-60.95896223353583, 45.53306861572121], [-60.958858821537824, 45.53305956625744], [-60.958774385025684, 45.53305879495892], [-60.958756396809136, 45.5330586264118], [-60.95862831836453, 45.533094150695845], [-60.95851970652583, 45.533093595090996], [-60.95848746349565, 45.533093432677326], [-60.95844370732708, 45.53310492796563], [-60.958320662615705, 45.53313724747142], [-60.95817978465013, 45.53317254238995], [-60.9581470791839, 45.5331724166169], [-60.95811575699606, 45.533172288567016], [-60.95802642363327, 45.53316349910681], [-60.95787309524237, 45.53315355608274], [-60.95774471362603, 45.53316206140509], [-60.957627007917296, 45.533173898950935], [-60.957577608998626, 45.53317887513487], [-60.95739864993667, 45.53316937313381], [-60.95716816884697, 45.5331679502886], [-60.95712744064039, 45.53317504365884], [-60.95711661415346, 45.533176929235786], [-60.95710381507785, 45.53317670024681], [-60.957098636085135, 45.53318425859368], [-60.95709164426812, 45.53319448486131], [-60.95710976453661, 45.533201262901166], [-60.95711691661032, 45.53320393819367], [-60.95727024496906, 45.53321388223333], [-60.95732133832942, 45.5332286040777], [-60.95733362108446, 45.533232127239586], [-60.95735989331887, 45.53324969046792], [-60.95735956753987, 45.533258685822204], [-60.957349015977705, 45.53326641810646], [-60.95734639728536, 45.5332683515208], [-60.95729845293851, 45.533272768527816], [-60.95725644522609, 45.533276643634764], [-60.957224163710094, 45.533276480175644], [-60.9571155899781, 45.53327592391606], [-60.95700203207564, 45.53328002199944], [-60.956898861633064, 45.53328374775884], [-60.956788627603046, 45.53328306246753], [-60.9567452072905, 45.533282798569154]]}, "properties": {"OBJECTID": 21826, "FEAT_CODE": "WACOIS10", "FEAT_DESC": "Coastal Island - Water to the right line", "RIVNAME_1": " ", "RIVNAME_2": " ", "ZVALUE": 0.7, "FID": null, "SHAPE_Length": 954.6237445826051}}, {"type": "Feature", "id": 21827, "geometry": {"type": "LineString", "coordinates": [[-60.95966775392034, 45.53424146786117], [-60.95989823931092, 45.534242894731825], [-60.96023153158796, 45.534199342552924], [-60.96034383655325, 45.53418389538879], [-60.96035896067222, 45.534181816237236], [-60.96062786393366, 45.53418301875007], [-60.96065412592569, 45.53416548543068], [-60.96065477645364, 45.53414749468804], [-60.96064167299475, 45.53412025711819], [-60.960627027874594, 45.53410661079858], [-60.96060326366967, 45.534084466513434], [-60.96053988515938, 45.534066232285454], [-60.96053408237786, 45.53406377933379], [-60.96047555205233, 45.53403897979095], [-60.9604258284694, 45.534034149122945], [-60.960373450449715, 45.53402905499024], [-60.960245717769936, 45.53401957235681], [-60.960078936564656, 45.53402739434583], [-60.96000306284014, 45.53403594013372], [-60.95987433244127, 45.53408944752472], [-60.959809631247516, 45.53414318970307], [-60.959788934433604, 45.534154512436984], [-60.95974430016528, 45.53417893623078], [-60.959707306835526, 45.53420916728144], [-60.95966775392034, 45.53424146786117]]}, "properties": {"OBJECTID": 21827, "FEAT_CODE": "WACOIS10", "FEAT_DESC": "Coastal Island - Water to the right line", "RIVNAME_1": " ", "RIVNAME_2": " ", "ZVALUE": 0.7, "FID": null, "SHAPE_Length": 172.12430303899833}}, {"type": "Feature", "id": 21828, "geometry": {"type": "LineString", "coordinates": [[-60.9591968404252, 45.53260204719198], [-60.959231361073286, 45.532602259113226], [-60.95935049306975, 45.53260299305074], [-60.95936997388108, 45.532598363544864], [-60.959389247953254, 45.5325937843481], [-60.95949073747342, 45.53258479661155], [-60.95965817806527, 45.53255898490001], [-60.959695764805325, 45.5325441834878], [-60.9597478249642, 45.5325236818913], [-60.959759230330874, 45.53250861967501], [-60.9597612746884, 45.53250591984366], [-60.95974784662893, 45.532487677546804], [-60.95971010059971, 45.532469000730714], [-60.9596463987876, 45.53245976140671], [-60.959632025482925, 45.53245490496711], [-60.95962109379002, 45.53245120816842], [-60.95962013930641, 45.5324421899297], [-60.9596598702464, 45.532405995027126], [-60.959672365477324, 45.53237921475099], [-60.95966178793828, 45.532371392741354], [-60.95965989196461, 45.532369990682916], [-60.95962113727717, 45.532379199481184], [-60.95950589269154, 45.53241404496154], [-60.959472866652476, 45.53242562437873], [-60.95940340155222, 45.53245001836083], [-60.959308259687695, 45.532471532095265], [-60.959248459919046, 45.532485063269014], [-60.95915943815295, 45.532502374692875], [-60.95912590349688, 45.532525529441436], [-60.95912005824138, 45.53252956551088], [-60.95911635954488, 45.53253126363421], [-60.9590822903096, 45.532546892827355], [-60.95908163931658, 45.53256488355744], [-60.95912033959845, 45.5325925788199], [-60.9591968404252, 45.53260204719198]]}, "properties": {"OBJECTID": 21828, "FEAT_CODE": "WACOIS10", "FEAT_DESC": "Coastal Island - Water to the right line", "RIVNAME_1": " ", "RIVNAME_2": " ", "ZVALUE": 0.7, "FID": null, "SHAPE_Length": 132.7166333333645}}, {"type": "Feature", "id": 21829, "geometry": {"type": "LineString", "coordinates": [[-60.958988783897475, 45.53152088677927], [-60.9589769395525, 45.531529676249924], [-60.95899389062004, 45.53155424643707], [-60.95901466260107, 45.53158435763813], [-60.95903162300757, 45.53159168171738], [-60.95907771234084, 45.53161158803018], [-60.95911598996003, 45.531616259716024], [-60.95915549170831, 45.531621079284655], [-60.95933349182974, 45.53162156021315], [-60.95935828876564, 45.53161724174467], [-60.95938504477462, 45.531612580231936], [-60.95942443008436, 45.53158628053283], [-60.95942378827425, 45.53156826669474], [-60.959414657820915, 45.53156151465902], [-60.9594113149779, 45.53155904260206], [-60.95936073808294, 45.531541045486954], [-60.95931032397695, 45.531530585249925], [-60.95927048584656, 45.53152232127055], [-60.95920711096919, 45.53150407735673], [-60.95918280089994, 45.53147830453366], [-60.959181209427484, 45.53147662887265], [-60.95914375750975, 45.53144984705524], [-60.95910406685207, 45.53144281881567], [-60.959092855969956, 45.531440827200576], [-60.95902915510107, 45.53143159654775], [-60.9589766583195, 45.53146666293238], [-60.958988783897475, 45.53152088677927]]}, "properties": {"OBJECTID": 21829, "FEAT_CODE": "WACOIS10", "FEAT_DESC": "Coastal Island - Water to the right line", "RIVNAME_1": " ", "RIVNAME_2": " ", "ZVALUE": 0.7, "FID": null, "SHAPE_Length": 91.65486475797731}}, {"type": "Feature", "id": 21869, "geometry": {"type": "LineString", "coordinates": [[-60.96176628115532, 45.533018789996014], [-60.96178957567475, 45.53302168113158], [-60.961842782738835, 45.53302826560738], [-60.96187674089145, 45.53303802594295], [-60.961906160865816, 45.5330464901069], [-60.96194459062394, 45.53304627591572], [-60.962047372993574, 45.53307099140369], [-60.96209822447703, 45.533083222465294], [-60.962161927439304, 45.53309246043929], [-60.962266968791106, 45.533102157067475], [-60.96236745325186, 45.53311143023649], [-60.96244394260145, 45.53312089622498], [-60.962451089656284, 45.533124426205696], [-60.962481689996494, 45.53313957215828], [-60.962507951034425, 45.53315713400064], [-60.96253257407818, 45.533184585911535], [-60.96253221291271, 45.53326371785598], [-60.96253220931787, 45.5332655900376], [-60.96252674932862, 45.533272792570244], [-60.96251876026556, 45.53328335242139], [-60.96251220168492, 45.53328551269113], [-60.96249283701908, 45.53329189103476], [-60.962463549059834, 45.53329713817772], [-60.962442562890175, 45.53330089523818], [-60.962198599119446, 45.53331814444696], [-60.96219397834832, 45.53331913312308], [-60.96215986353679, 45.533326463330376], [-60.96216050654691, 45.53334446816789], [-60.96218080859847, 45.533367090414245], [-60.962185129822544, 45.533371911155996], [-60.96227411925356, 45.533390601522065], [-60.96237104940695, 45.53340645412958], [-60.96244089811202, 45.533417880890255], [-60.96258142906321, 45.533427589429], [-60.96291437014169, 45.53342902905182], [-60.96296624912222, 45.533411052089434], [-60.96297577204461, 45.533390645274764], [-60.96297874303488, 45.53338427143263], [-60.962979717688214, 45.53335728527591], [-60.96297472843042, 45.533353937841746], [-60.962965963495016, 45.53334803872429], [-60.962947489393905, 45.53334146232999], [-60.962915396950095, 45.533330034375076], [-60.96288563457814, 45.53332572290923], [-60.96285169358268, 45.53332079681514], [-60.96274954749254, 45.53331177346366], [-60.96271115003971, 45.533311088384316], [-60.96270706116476, 45.53330727994039], [-60.96267274023502, 45.533275289462544], [-60.96260940129866, 45.53318505663603], [-60.96260019017431, 45.533163856521305], [-60.96259757700674, 45.533157842111216], [-60.96259759686634, 45.533121837738605], [-60.962622565046566, 45.53310428087849], [-60.962645805090105, 45.53309875476217], [-60.962661319781844, 45.53309507106256], [-60.96286685269078, 45.53307803535955], [-60.962903924687446, 45.533073926113744], [-60.962944017462576, 45.53306951069913], [-60.96305895654302, 45.533042748362455], [-60.963225753700584, 45.53299892657638], [-60.96330355550043, 45.53297240167079], [-60.96332855555604, 45.5329539541075], [-60.96333421745707, 45.53294292963528], [-60.96334232909602, 45.5329271962333], [-60.96332889976784, 45.53290895433726], [-60.96329111975124, 45.53289117822001], [-60.96321398752795, 45.532863698967674], [-60.96317056183515, 45.53285898183333], [-60.96312468652902, 45.53285400495707], [-60.963016010964076, 45.53285345249556], [-60.9629838320092, 45.53285329249557], [-60.962933233133725, 45.532871301305455], [-60.962894154027104, 45.53288949760793], [-60.9628426260024, 45.5329335842279], [-60.962803858607415, 45.5329427938797], [-60.96279105953958, 45.532942565528856], [-60.962727038683745, 45.53290631868798], [-60.962675897611895, 45.53289005020981], [-60.962613094720076, 45.53287008117078], [-60.962561546117826, 45.53284559629161], [-60.96253630061976, 45.53283360631087], [-60.96245982592165, 45.532752131187145], [-60.96242206592947, 45.53269835941058], [-60.962397788089525, 45.532625907721474], [-60.96241060704936, 45.53259013174145], [-60.962418325769995, 45.53257358128629], [-60.96242310102829, 45.53256335114326], [-60.96244446440843, 45.5325533990024], [-60.96246218037655, 45.5325451460044], [-60.962488428233435, 45.53252761200696], [-60.96253837671689, 45.532527603154634], [-60.96265245753039, 45.53251500277395], [-60.96269266641362, 45.53251055351443], [-60.96273206307695, 45.5325016431651], [-60.96277015533604, 45.53249303357227], [-60.96277607956413, 45.53248396706386], [-60.96278235670742, 45.532474348778294], [-60.96278300651847, 45.53245635800648], [-60.962770175070396, 45.53245702919377], [-60.96276719233332, 45.53245628288631], [-60.96273210311218, 45.532447348745656], [-60.96268119972291, 45.5324383394624], [-60.962578775613984, 45.532437412059764], [-60.96253972148782, 45.53242868615018], [-60.96252691731146, 45.532419384486275], [-60.96253197000986, 45.53241600918905], [-60.96254004120218, 45.53241061748005], [-60.96255945740252, 45.53240422204494], [-60.962565964032116, 45.532402078847625], [-60.96261842225501, 45.532392861526304], [-60.962719343688065, 45.53237511163209], [-60.9627274023829, 45.532369710685636], [-60.9627324675391, 45.53236634460299], [-60.96272507641923, 45.53236106405541], [-60.962695012993095, 45.53233957291067], [-60.962681584010284, 45.53232133094273], [-60.962694707854226, 45.53231256391778], [-60.96275875470493, 45.53227680178136], [-60.96277187852658, 45.53226803474708], [-60.96277156055116, 45.53224102552509], [-60.96276090611925, 45.532225038358], [-60.962759424254955, 45.53222280662941], [-60.96272167736782, 45.53220413079412], [-60.96266484908996, 45.532187193763725], [-60.96263171562795, 45.53217730435696], [-60.96259331894993, 45.532176619251196], [-60.96249085506818, 45.53221261391256], [-60.96240089251461, 45.53222090989512], [-60.96233749545685, 45.532238681060775], [-60.96233701779764, 45.53223914059836], [-60.962272473437054, 45.532301429107235], [-60.962248272952614, 45.532317595408536], [-60.962233101709096, 45.5323277300285], [-60.96215653524981, 45.53235516737054], [-60.96206628580627, 45.532372459152036], [-60.96202402125417, 45.53237212787794], [-60.961976647979114, 45.532371759412804], [-60.9618623677422, 45.532344516322894], [-60.96181845467604, 45.53233912388636], [-60.96170808590019, 45.532325560249035], [-60.961478855226794, 45.53232506854904], [-60.961375130867296, 45.53236012158448], [-60.961315103505626, 45.53240158044849], [-60.961297633854805, 45.532413645166834], [-60.961259813432996, 45.53246787711641], [-60.96125667254591, 45.53247398684702], [-60.96124602623444, 45.53249463449776], [-60.96124537593248, 45.53251262525225], [-60.961271941396475, 45.53252210075342], [-60.9613231694276, 45.53252212428007], [-60.96132461027083, 45.532521591931754], [-60.9613491253226, 45.532512677395026], [-60.96136281460637, 45.53250315551816], [-60.96141349835591, 45.53246792065507], [-60.961472500918106, 45.53244312263593], [-60.96147722106063, 45.53244115463405], [-60.9615418659864, 45.53242430634217], [-60.96156343500679, 45.53242425933827], [-60.961631523589666, 45.532424106657686], [-60.96167219843901, 45.53241952205698], [-60.9617073949279, 45.53241555974359], [-60.96182057199536, 45.53244781495825], [-60.96183542901244, 45.53245204967334], [-60.961869081553296, 45.53245218229285], [-60.96189946906237, 45.532452292629365], [-60.96192472912044, 45.53246174467827], [-60.961932874584235, 45.532467767837595], [-60.961937203032015, 45.53247096850548], [-60.961950631804925, 45.532489210557], [-60.96194943378552, 45.532491529481504], [-60.96193685772465, 45.53251596825569], [-60.9619195577412, 45.532545669414134], [-60.961910914467, 45.53256051111104], [-60.96191121922758, 45.53258752009849], [-60.96191634605924, 45.53259520860518], [-60.961923368119976, 45.53260573930831], [-60.96202281541721, 45.53260611910398], [-60.96211545040801, 45.532606467244456], [-60.962144668306934, 45.53261661996343], [-60.96216730874245, 45.532624495005024], [-60.962169167938875, 45.53262656245283], [-60.962191931719296, 45.532651937989556], [-60.96222969113481, 45.5327057188337], [-60.96223180797792, 45.53271341661747], [-60.96224214507269, 45.53275094700007], [-60.96222388679925, 45.532788741167046], [-60.96221584443956, 45.53280538484581], [-60.962190876271386, 45.53282294161792], [-60.96215212165341, 45.532832151276466], [-60.961998143496324, 45.532840195562486], [-60.96197213012781, 45.53284307970711], [-60.961920991392844, 45.53284872881064], [-60.961910926718275, 45.53285222164926], [-60.961896360965845, 45.532857290364376], [-60.96186016051974, 45.53287414251116], [-60.9618572684228, 45.5328754950733], [-60.96183797285832, 45.53288882345216], [-60.96177977113117, 45.53292901897407], [-60.96177472827751, 45.53294310582019], [-60.96176695168906, 45.53296479487304], [-60.961753807154295, 45.53300956614936], [-60.96176628115532, 45.533018789996014]]}, "properties": {"OBJECTID": 21869, "FEAT_CODE": "WACOIS10", "FEAT_DESC": "Coastal Island - Water to the right line", "RIVNAME_1": " ", "RIVNAME_2": " ", "ZVALUE": 0.7, "FID": null, "SHAPE_Length": 790.1769514871759}}]}