{"type": "FeatureCollection", "features": [{"type": "Feature", "id": 129661, "geometry": {"type": "LineString", "coordinates": [[-60.58362699095955, 45.70088760335005], [-60.58365396788042, 45.7007981732004], [-60.58369453492039, 45.70072902186729], [-60.58370665221217, 45.700708368957095], [-60.583810710597085, 45.700618760717845], [-60.58385497417775, 45.7005988510361], [-60.583927296997935, 45.700566321593534], [-60.584107234539076, 45.70050442155938], [-60.58424933526702, 45.70048380043245], [-60.58433991210786, 45.7004706310448], [-60.5845709565385, 45.700444924414384], [-60.58472620350521, 45.70041940521255], [-60.58478989049617, 45.700401850242784], [-60.58485528674962, 45.70037533038633], [-60.584932073754516, 45.70032204840387], [-60.5849539198363, 45.70029739766436], [-60.584971229024866, 45.70027787154534], [-60.585078140992486, 45.70006230842954], [-60.5850873781387, 45.70005273770154], [-60.58510368739537, 45.70003584571018], [-60.58513837240284, 45.70000597585737], [-60.58519460374148, 45.69998286237666], [-60.585323672785954, 45.69993878671857], [-60.58542758276714, 45.69991218089772], [-60.58565936068019, 45.6998693766625], [-60.58582658200141, 45.69983420804944], [-60.58590702877954, 45.69981402747624], [-60.58592916946413, 45.699808473909954], [-60.58594889683591, 45.69979781075184], [-60.58599492605036, 45.69977296001174], [-60.58613342520735, 45.69972046884283], [-60.58634356327692, 45.69964082367406], [-60.586481975799416, 45.699574216673305], [-60.58656395821667, 45.6995347609388], [-60.5866673577348, 45.699490141187205], [-60.586680951876545, 45.69948707113428], [-60.5867438896579, 45.699472856612736], [-60.586933612501966, 45.699432356298004], [-60.587027812532625, 45.699412249562954], [-60.58703911787494, 45.69940684484348], [-60.587195683422856, 45.699332087640244], [-60.58731303806953, 45.699261659272956], [-60.58739910252026, 45.69921866178582], [-60.58745481509717, 45.699190846704525], [-60.58763642763666, 45.69911997548301], [-60.587691870047436, 45.699097240146294], [-60.587765841281474, 45.69906690333382], [-60.58783247150334, 45.69902894955623], [-60.587921237517136, 45.6989783758932], [-60.5881412268594, 45.69888131154444], [-60.58820859313586, 45.698841464880815], [-60.58823085515616, 45.69882829857902], [-60.588263012538434, 45.69880636727799], [-60.5883486329729, 45.69874797697445], [-60.58843525533159, 45.69864896822272], [-60.58846615173752, 45.698613643737], [-60.58851818768967, 45.6985688465939], [-60.588550694646514, 45.698537885583356], [-60.58858380537715, 45.69850632524607], [-60.5886875627422, 45.69845360131], [-60.588933079707054, 45.69833007150135], [-60.58897547065257, 45.69832285671156], [-60.588984839054675, 45.698321263330094], [-60.5890228682636, 45.69830316421506], [-60.58916338203967, 45.69830433990022], [-60.589164113935034, 45.698304346352394], [-60.58934425957487, 45.69829734858435], [-60.58935768771019, 45.69829932427234], [-60.58947316900484, 45.698316271904936], [-60.589656945996914, 45.698345516350535], [-60.58976659968352, 45.69836297073751], [-60.58987246788763, 45.69837256824634], [-60.58988303666604, 45.69837352941117], [-60.590178401050736, 45.69837525396506], [-60.59024441535371, 45.69838504511934], [-60.59036985981379, 45.698403606267135], [-60.59046756905876, 45.698425515437705], [-60.59049837042348, 45.698432421118845], [-60.59065066760208, 45.69850494257672], [-60.590679938687316, 45.69853311229952], [-60.59068890580577, 45.698541753456034], [-60.590700691208056, 45.698596008171876], [-60.590695655700785, 45.69861275180403], [-60.590687221589185, 45.69864072898734], [-60.59065494470419, 45.698684296868656], [-60.59063404033356, 45.69871251497036], [-60.59059501455517, 45.69878369952827], [-60.59055401727396, 45.69890075660138], [-60.590551932032405, 45.69909872572536], [-60.5905100618125, 45.69929586430465], [-60.5904545458553, 45.699511617014444], [-60.59043807993212, 45.69974529566911], [-60.590436724013266, 45.69981599695109], [-60.590434985441085, 45.69990725745288], [-60.590446907921425, 45.69998850908947], [-60.590451371582255, 45.700003904992094], [-60.590463363881604, 45.70005663391621], [-60.5904811659189, 45.700151124083874], [-60.590494624410326, 45.700222642036366], [-60.5905053999714, 45.700330881473654], [-60.59050400716788, 45.70042784690155], [-60.590503452635474, 45.7004658554402], [-60.59050782987846, 45.700509863707104], [-60.590515112306235, 45.70058311453304], [-60.59055131926326, 45.700726994525475], [-60.590636405216614, 45.70098891895013], [-60.590652326980475, 45.70102704112484], [-60.59068532288652, 45.701106064089586], [-60.59074370135205, 45.70124877365525], [-60.590748096243615, 45.70125949657179], [-60.590754093943815, 45.7012705863444], [-60.590796889959506, 45.70134964503591], [-60.5908343568142, 45.70140445058041], [-60.59092387329737, 45.70150354109964], [-60.59107524243523, 45.70165795149024], [-60.591150092390805, 45.70173963950228], [-60.591422583068315, 45.702057695523266], [-60.591553765500436, 45.70221080634532], [-60.591667793949064, 45.70233742529709], [-60.59171084645598, 45.70237617355704], [-60.591769224507196, 45.7024286745263], [-60.591945782342535, 45.70256471288624], [-60.59204875889817, 45.702619990464015], [-60.59216189516526, 45.70268607636994], [-60.592187848544135, 45.702701232284454], [-60.592301238950235, 45.70274196759145], [-60.59239279381714, 45.702774861553074], [-60.59258652407179, 45.70285688595656], [-60.592609801802475, 45.70286674677929], [-60.59276170130032, 45.702949167074], [-60.59290205087848, 45.70303132567902], [-60.593093005340364, 45.70313166174189], [-60.59346191778341, 45.70330595608804], [-60.59361591429095, 45.703369508334156], [-60.593661323626485, 45.70339290480937], [-60.59370514902687, 45.703415493800556], [-60.59380644659202, 45.703479735397664], [-60.59394679866531, 45.70356190176151], [-60.59400740912919, 45.70360885899348], [-60.59409848062481, 45.70367941057551], [-60.59412191583654, 45.70370028262796], [-60.59414921155046, 45.703724593389445], [-60.59427424142984, 45.703924340589026], [-60.59440084125809, 45.70408722562749], [-60.59442121616604, 45.704138105478705], [-60.594436821531325, 45.70417709353535], [-60.59456214315139, 45.70442996144028], [-60.5946049270503, 45.7044942117622], [-60.5947250732364, 45.70467462042946], [-60.5947515808994, 45.70472749260989], [-60.594774774179406, 45.70477377824537], [-60.59481464225072, 45.70484581593395], [-60.59484988541777, 45.704909475271506], [-60.59487252584277, 45.704942301750386], [-60.59492487106731, 45.70501816660816], [-60.59525271420413, 45.70537160997188], [-60.59535418176376, 45.70546195664125], [-60.59549338371578, 45.70557109983957], [-60.59574848820545, 45.70571922741841], [-60.595760370961884, 45.70572612935783], [-60.59601568071418, 45.70585392740642], [-60.59602060144968, 45.70585661429185], [-60.59606714830278, 45.7058820139658], [-60.59611711180554, 45.70594517272046], [-60.596155396733046, 45.70598109160394], [-60.59616668974929, 45.70601732433136], [-60.596165896849335, 45.706088235485055], [-60.59616578578128, 45.70609831426193], [-60.59616097775549, 45.706115764982925], [-60.5961384011788, 45.70619764879858], [-60.596098219661016, 45.70629581381548], [-60.59606118027312, 45.70635306343756], [-60.596045935413365, 45.70637662212266], [-60.595953216215555, 45.7065015840612], [-60.59594012148225, 45.70653731234139], [-60.59591455127147, 45.70656467705919], [-60.59591018867523, 45.7065675465339], [-60.59590131727722, 45.706573399417415], [-60.595836842124186, 45.70660894597471], [-60.595814889219625, 45.706616071587476], [-60.59581078510677, 45.7066174073307], [-60.59570815065045, 45.706644049450844], [-60.595672892745725, 45.706647474502255], [-60.59554044141785, 45.70666031116634], [-60.59528279349878, 45.706676487752276], [-60.595132941302026, 45.70667508694438], [-60.59512870367195, 45.706675042698755], [-60.59500104366792, 45.70665615213016], [-60.59486414024375, 45.70662094593522], [-60.594821877519784, 45.706610073610996], [-60.594737309624506, 45.70658572673373], [-60.59469370606411, 45.7065731699342], [-60.59466349972393, 45.706569347272996], [-60.59461704043651, 45.7065634630311], [-60.59451470476218, 45.70655319729042], [-60.594449499952745, 45.70655274171365], [-60.5943862733447, 45.70655229177233], [-60.59403875197214, 45.706567472160835], [-60.59394222293207, 45.70658205399224], [-60.59392366744083, 45.70658484934429], [-60.59372998778364, 45.70663746522658], [-60.59372762905149, 45.706638243610854], [-60.59370393045433, 45.70664592609494], [-60.59358305635558, 45.70668354117692], [-60.59353595951137, 45.70669819233046], [-60.593475129396325, 45.70672211308049], [-60.59335562547744, 45.70676909983222], [-60.59303183142288, 45.70691979217933], [-60.59288915669723, 45.70698159169402], [-60.592721296032614, 45.70706086203855], [-60.5927159052376, 45.70706373671699], [-60.59260426562881, 45.70712321084233], [-60.59244849319185, 45.70722072863563], [-60.592319923363846, 45.7072828248371], [-60.59218839233139, 45.7073375856461], [-60.592151176230644, 45.707353083654986], [-60.592100718169824, 45.70737268589048], [-60.5918545927802, 45.70746833347641], [-60.59156998488409, 45.70757394302973], [-60.59145377652727, 45.70761740590159], [-60.59125905580404, 45.707724001591885], [-60.591198481447435, 45.70774909665074], [-60.591194962949984, 45.70775055259384], [-60.591142932709765, 45.707795360026395], [-60.59111610184751, 45.707821796971686], [-60.591089742860504, 45.70786714595337], [-60.59108023141176, 45.70788906973494], [-60.59106264945353, 45.70792958132333], [-60.59105353824268, 45.70795444787039], [-60.59103646587229, 45.70800103687521], [-60.59102228059051, 45.7080916476415], [-60.591021435211694, 45.70814987523717], [-60.591020982508375, 45.70818163019325], [-60.59103051833545, 45.708233569086254], [-60.59103243484374, 45.70824397866419], [-60.59103233009578, 45.7082535895155], [-60.59103152328865, 45.7083249683752], [-60.591017613259815, 45.708379580970046], [-60.59102407178826, 45.70841194978605], [-60.59104086588116, 45.70849618435403], [-60.591051368086056, 45.708640421812994], [-60.59104954496333, 45.70880240122476], [-60.591060571863096, 45.708874650804724], [-60.59107790339338, 45.70895355911109], [-60.5910842116487, 45.70898225234559], [-60.59108670660819, 45.708988470661396], [-60.59110974547383, 45.7090457889741], [-60.591134381501746, 45.70910032366542], [-60.5911712436338, 45.70919921213664], [-60.5912083683227, 45.70926210216415], [-60.591316914777636, 45.70939460933871], [-60.59137194518836, 45.709461783458075], [-60.59143602640987, 45.70952523303479], [-60.591523723034705, 45.70960719168173], [-60.59162492965745, 45.709733540074346], [-60.59176425837749, 45.7098697024023], [-60.591903464142916, 45.70997884098793], [-60.591989923302606, 45.71002295100704], [-60.59208199008772, 45.71006991551583], [-60.59213216017776, 45.71012465540754], [-60.59215686510904, 45.710151603283705], [-60.592172274345685, 45.710166446822534], [-60.592195099121135, 45.710188413498756], [-60.592284381911035, 45.710233500936006], [-60.592335465152225, 45.710270582045716], [-60.59239787802919, 45.71034300588577], [-60.592525283764516, 45.71039789795204], [-60.5926153011252, 45.71042589873409], [-60.59264706606524, 45.71046496666881], [-60.59270316427079, 45.71053396284338], [-60.59274325419626, 45.71056257609341], [-60.5928564931015, 45.710643407003545], [-60.59289400685266, 45.71069730367819], [-60.592904856332304, 45.71076447275868], [-60.59291735040569, 45.710841811621506], [-60.59297899216028, 45.71093222086002], [-60.59309368795069, 45.71101385632582], [-60.59311713129757, 45.71102113723696], [-60.59318370697708, 45.711041847689614], [-60.593202040743236, 45.71105053304749], [-60.59322148249433, 45.71105974581203], [-60.593241069268345, 45.71107754857411], [-60.5932721809016, 45.71110581937441], [-60.593279691430844, 45.71112749004345], [-60.59328475619902, 45.71114208838954], [-60.59328300169114, 45.71121315922563], [-60.593256493740974, 45.711321512471166], [-60.59324685884972, 45.711419312159315], [-60.593240556393525, 45.71148319435148], [-60.593302324384545, 45.71160060903322], [-60.593313866239185, 45.711690862193144], [-60.593326566733005, 45.71175413680541], [-60.59334529386421, 45.71218567886418]]}, "properties": {"OBJECTID": 129661, "FEAT_CODE": "WALK20", "FEAT_DESC": "Lake - Water to the right line", "RIVNAME_1": " ", "RIVNAME_2": " ", "ZVALUE": 77.8, "FID": null, "SHAPE_Length": 2706.964857462864}}, {"type": "Feature", "id": 129662, "geometry": {"type": "LineString", "coordinates": [[-60.59334529386421, 45.71218567886418], [-60.59331902658661, 45.71215528695042], [-60.59318127666997, 45.71199591030191], [-60.593167942032615, 45.71197761825013], [-60.59315625124146, 45.711950368859306], [-60.59315780749075, 45.71182438782302], [-60.593150407323535, 45.711808822144775], [-60.59314485874564, 45.71179711191442], [-60.5931191776241, 45.711765643188436], [-60.593108241479236, 45.71175223521768], [-60.593107852682934, 45.71173885155292], [-60.59310771745734, 45.711734222194266], [-60.59309526710052, 45.7117249587628], [-60.59306781544715, 45.71165544152753], [-60.59304543857685, 45.711598794661874], [-60.59298379563795, 45.711508394444856], [-60.592984193785284, 45.711475792254326], [-60.59298535260823, 45.71138240441669], [-60.59297393621839, 45.71131915683179], [-60.59296804481892, 45.711306755289954], [-60.59296097483386, 45.71129188063367], [-60.592857042142434, 45.71121779874398], [-60.592782705072466, 45.71116480894568], [-60.59277357246475, 45.71115667753946], [-60.5927319683963, 45.71111963445794], [-60.59270506666612, 45.711074719426115], [-60.59268281561633, 45.71103758928238], [-60.592552240961986, 45.710929317722425], [-60.59253022009311, 45.710911058476036], [-60.59250532032074, 45.710892522501744], [-60.59242775194804, 45.71087379411475], [-60.59239292964901, 45.710853554733966], [-60.59236507673075, 45.710837368725976], [-60.592326018007796, 45.710819443261315], [-60.59218589969009, 45.710791285875295], [-60.59208170422, 45.710777189330315], [-60.59204411110218, 45.7107721030847], [-60.59196130753637, 45.71076877268393], [-60.59176194334981, 45.71076074266814], [-60.59171148867252, 45.71074999345714], [-60.59167282309351, 45.71074176112579], [-60.59159545547513, 45.71072136222191], [-60.591531808171, 45.7107045830341], [-60.59141511305124, 45.71066863784989], [-60.59135301879354, 45.710649506059454], [-60.59124052623065, 45.71058723143955], [-60.591187380070174, 45.71055780216849], [-60.59117802023726, 45.71055107899543], [-60.59111134634832, 45.7105030922956], [-60.59105165031662, 45.71043743980854], [-60.590946955366576, 45.710322304565885], [-60.59090905718085, 45.710277400125904], [-60.590896351585194, 45.71024928299137], [-60.59085978351267, 45.71016835762828], [-60.59085140007218, 45.710155660368535], [-60.590847720839896, 45.71015009213613], [-60.59073225655302, 45.71008644916489], [-60.590643910961326, 45.71004948117797], [-60.5905258000884, 45.71000048977152], [-60.59040155467177, 45.70994895652033], [-60.590197372501486, 45.70985733789505], [-60.59013262968141, 45.70983887861999], [-60.59004313800273, 45.7098288799515], [-60.58998337049576, 45.70982857258883], [-60.58987613946048, 45.70982805545796], [-60.58967115547511, 45.709844430865694], [-60.58936209900312, 45.709833748039365], [-60.58933632592607, 45.70983286187867], [-60.5890409403492, 45.70983022565858], [-60.589021414982085, 45.70983283771649], [-60.5889130116068, 45.70984732658269], [-60.588686661640516, 45.70984548109949], [-60.58856624284148, 45.70984450421887], [-60.58850309577666, 45.70985197357279], [-60.5884241942077, 45.70986130639691], [-60.58812880862066, 45.709858667814395], [-60.58800075705742, 45.709848762145135], [-60.5878352359387, 45.70978405882821], [-60.58779028758243, 45.709760039726845], [-60.587733508556774, 45.70972970400193], [-60.587669406104, 45.709666242893356], [-60.58755500385689, 45.70963862310367], [-60.58747123756111, 45.70960815811103], [-60.58745252866045, 45.7096013541111], [-60.587430123531306, 45.70959147468041], [-60.587287344517435, 45.70952855622192], [-60.58724220099399, 45.70950281358972], [-60.5872234038473, 45.709492092255545], [-60.5871981812056, 45.70946917381153], [-60.587172711930165, 45.70944601612439], [-60.587131806047644, 45.70942271225338], [-60.58704480379137, 45.70937312346345], [-60.587020255008674, 45.709346492808706], [-60.58684385750844, 45.70914655230522], [-60.58655196635753, 45.708883845777116], [-60.586492933605854, 45.70882234535818], [-60.58646466551374, 45.70879289066257], [-60.58629902761054, 45.708701179651555], [-60.586280637789805, 45.708682203858395], [-60.586273195499786, 45.708674530705714], [-60.58624806865685, 45.708656564619865], [-60.58620963054328, 45.70862908211418], [-60.58612000675664, 45.708592083589444], [-60.586069277818574, 45.7085469062769], [-60.58600583475376, 45.70852846312984], [-60.58591805456352, 45.708519658531394], [-60.58590349701269, 45.70851819862482], [-60.585878174047224, 45.70850956234132], [-60.58582215058041, 45.70849574045383], [-60.58576249174667, 45.708481013582805], [-60.5856860916583, 45.70843529331663], [-60.5856830832534, 45.70843206135625], [-60.58563575060511, 45.70838112301695], [-60.585578735247076, 45.708298773467824], [-60.585497868550725, 45.70818198578457], [-60.58546834915304, 45.70815654582509], [-60.585434692202355, 45.70812754397951], [-60.58524437615893, 45.707982203697334], [-60.58519327385527, 45.707946019088936], [-60.58511622118685, 45.70794528961025], [-60.58501310973401, 45.707953009930826], [-60.58496923267405, 45.70793698724826], [-60.58493721955242, 45.70792530193288], [-60.58489894030581, 45.7078893884092], [-60.58489932741997, 45.707880404602996], [-60.584835616766846, 45.70785001082172], [-60.58478477113863, 45.70782576677799], [-60.584708106183605, 45.70781604422915], [-60.58466343062166, 45.707806332237546], [-60.584579551577974, 45.707788122079315], [-60.58447666944349, 45.707747898463836], [-60.58441404060336, 45.70772341398267], [-60.58427330521805, 45.707650228819794], [-60.584224151411696, 45.707622212897114], [-60.58420935583645, 45.70761376296538], [-60.58417274805339, 45.7075688925645], [-60.58415398512284, 45.70754190664503], [-60.584147343852855, 45.70753235108956], [-60.58414340066527, 45.70751951324972], [-60.58412254224928, 45.70745172648026], [-60.58402163755668, 45.707378465630164], [-60.58389387207887, 45.707332566410464], [-60.58388142423485, 45.707323302017976], [-60.583871102304435, 45.70731598181896], [-60.58385526990534, 45.707304764597644], [-60.58383704383217, 45.70728768207947], [-60.58381696687906, 45.7072688322013], [-60.58379284658957, 45.70723231781382], [-60.583792794764996, 45.707218023135304], [-60.58379272605231, 45.70720531227473]]}, "properties": {"OBJECTID": 129662, "FEAT_CODE": "WALK20", "FEAT_DESC": "Lake - Water to the right line", "RIVNAME_1": " ", "RIVNAME_2": " ", "ZVALUE": 77.8, "FID": null, "SHAPE_Length": 1021.601895119413}}, {"type": "Feature", "id": 129663, "geometry": {"type": "LineString", "coordinates": [[-60.58379272605231, 45.70720531227473], [-60.58379376852242, 45.70715132835712], [-60.58379713068581, 45.70714903224127], [-60.583832154342645, 45.70712513763803], [-60.58394651175075, 45.70706422643097], [-60.58394918091863, 45.707062806745796], [-60.58398059688413, 45.707041239025905], [-60.58414379236242, 45.706929209211474], [-60.58419580169866, 45.70688529561792], [-60.58419696372543, 45.706858335215706], [-60.584192268523246, 45.70685191717819], [-60.5841835947119, 45.70684004136847], [-60.584183982314094, 45.70683104857255], [-60.58419208761952, 45.70682571144973], [-60.58419721813893, 45.706822327611135], [-60.584201908392565, 45.706821706764444], [-60.584261821427404, 45.706813793328166], [-60.58439064038115, 45.70680571744864], [-60.58445446850876, 45.706815168650714], [-60.58450518118653, 45.70682160606264], [-60.58453113205052, 45.70682489134294], [-60.58453786148274, 45.706831208383306], [-60.58456941035713, 45.706860804976664], [-60.584612465996884, 45.70691524469518], [-60.58461936152115, 45.70692396851013], [-60.584631143538076, 45.706928412205954], [-60.58464464482161, 45.70693350433661], [-60.58467031565644, 45.70693404735867], [-60.58473479801661, 45.70689850726068], [-60.584771420075135, 45.70685748127881], [-60.584814440705735, 45.706809281817954], [-60.584996867691565, 45.70663042011752], [-60.58502319218255, 45.706585971901646], [-60.585036720045466, 45.706540352932414], [-60.58503733507219, 45.70649626105561], [-60.585023397909794, 45.70645387762295], [-60.585013480613284, 45.70642374855711], [-60.58500117797105, 45.70635148037739], [-60.585001831763954, 45.70630648921975], [-60.58501493336003, 45.70627076233256], [-60.585041766269214, 45.70624432685782], [-60.585067145430806, 45.70623523255504], [-60.58506786299376, 45.70623497770136], [-60.58512918310963, 45.706228380711416], [-60.58522145495791, 45.70621842382564], [-60.58525671016477, 45.70621835031847], [-60.58525999947796, 45.70621833887194], [-60.58529811822913, 45.706228136997126], [-60.585488603642325, 45.70636434480183], [-60.58561592663553, 45.7064553908874], [-60.58564363884944, 45.706462520580004], [-60.585654045226015, 45.70646519789066], [-60.58568052931555, 45.70644685578812], [-60.58570607886127, 45.70642038402115], [-60.58577160011436, 45.70633086832133], [-60.58579394142484, 45.70628641671684], [-60.58581233435996, 45.70624982050611], [-60.5858909690741, 45.706124578006246], [-60.58590029937283, 45.706100337563896], [-60.58591845493877, 45.7060531421428], [-60.58597167158261, 45.70589135819667], [-60.5859723249633, 45.70584635802153], [-60.58596234499133, 45.7057201330596], [-60.58596497427749, 45.705551996001624], [-60.585965997230375, 45.70548618432927], [-60.5859541636916, 45.70543282825733], [-60.58593939345257, 45.70540172357036], [-60.58592825032248, 45.70537827440679], [-60.585853203958216, 45.705219188271506], [-60.58581759310189, 45.70514371806374], [-60.585804515382556, 45.70508942656668], [-60.58581877810184, 45.70502672113559], [-60.58582630801815, 45.70500132650603], [-60.5858323048924, 45.704981102040044], [-60.585841130296885, 45.70496619396041], [-60.585858627900095, 45.70493665359078], [-60.58595020466441, 45.70483867865412], [-60.58601572396743, 45.70474915375354], [-60.58610570349026, 45.70460472676942], [-60.58612198837987, 45.70457858110025], [-60.586135476076095, 45.704533861239604], [-60.58615000379248, 45.704435157367215], [-60.58615065657776, 45.704390166170136], [-60.58613044997695, 45.70432361765389], [-60.58612590522678, 45.70430863392268], [-60.58608878936348, 45.70424574237341], [-60.585975544599215, 45.704101132439014], [-60.585900045281306, 45.70399256834158], [-60.58588723443984, 45.70397414247146], [-60.585879516202674, 45.703963943172965], [-60.58581189341067, 45.70387443864414], [-60.585773487899736, 45.703829872759904], [-60.585749482833194, 45.70380202016633], [-60.58564803400467, 45.70371166530823], [-60.58563848643529, 45.70369770989919], [-60.58561057045457, 45.70365686714572], [-60.58560225809425, 45.70364704230821], [-60.5855726809066, 45.70361196106316], [-60.585535883568, 45.703512171959126], [-60.5855164556531, 45.703449042168714], [-60.5855110818833, 45.70343153860236], [-60.58552718269707, 45.70320685404313], [-60.58554174977509, 45.70310725096076], [-60.585542790322584, 45.703053266956246], [-60.585531770621614, 45.702981034927994], [-60.58548184480142, 45.702827862276244], [-60.585461538414194, 45.70277708126993], [-60.58544589300357, 45.70273798311198], [-60.58541126962252, 45.702682281827684], [-60.58539543568881, 45.70265680719235], [-60.58528184715336, 45.70252029016313], [-60.58525766922497, 45.70249587218711], [-60.585156282482075, 45.70239341183646], [-60.58511030765872, 45.70233672330225], [-60.58510505032012, 45.70233023940299], [-60.58510294688592, 45.70232240904951], [-60.58509286987971, 45.7022849677802], [-60.5850933584837, 45.702251260359034], [-60.58509352341748, 45.702239976590285], [-60.58510181392454, 45.702225849337566], [-60.58514620653269, 45.70215018067695], [-60.58514775645696, 45.702114200445216], [-60.58514099901546, 45.70210049302053], [-60.58513476173757, 45.702087831711744], [-60.58505967778693, 45.701952128782395], [-60.585055847274866, 45.70193787118818], [-60.5850474970656, 45.70190686614723], [-60.58504904665264, 45.7018708949094], [-60.58505596697452, 45.70186143720347], [-60.585074981320325, 45.70183543941139], [-60.585127010569686, 45.70179063468808], [-60.58519199527852, 45.70177310694161], [-60.58520939884653, 45.70177316896881], [-60.5852433709825, 45.70177329335848], [-60.58529066836507, 45.70177928916161], [-60.58532002782162, 45.70178301539242], [-60.58557543954284, 45.701847832062526], [-60.58558828663944, 45.70184810371783], [-60.58563446982754, 45.70186028651028], [-60.58572924999123, 45.70188527914024], [-60.585767822761355, 45.701892224398286], [-60.58578023853033, 45.701894458131726], [-60.58584407419883, 45.70190390872755], [-60.58593434012708, 45.701895916078435], [-60.585962331081845, 45.701891152268075], [-60.585986103593534, 45.701887100355], [-60.58599747836178, 45.70187532449797], [-60.58601164966873, 45.70186065543393], [-60.58602027960737, 45.70183714724414], [-60.586024749857266, 45.70182491937865], [-60.585987287119224, 45.70177012134121], [-60.58592490459863, 45.70169769452743], [-60.585915792308754, 45.701689148941846], [-60.58588661596118, 45.70166178110077], [-60.58585719267667, 45.70164074473729], [-60.58582305904782, 45.70161633240956], [-60.58579855244303, 45.7015888112505], [-60.58578598391479, 45.70155254149601], [-60.58578614488275, 45.70154164468454], [-60.58578728980989, 45.70146255907455], [-60.585761473976696, 45.701435910325515], [-60.585739167655035, 45.70141964192421], [-60.58569918799802, 45.7013904884357], [-60.58554599166554, 45.70127349442885], [-60.58550766117777, 45.701244231728985], [-60.58548234190503, 45.70123558642227], [-60.58538117954485, 45.70119834326818], [-60.58537212129821, 45.701199879905424], [-60.58532941702245, 45.70120714973635], [-60.585318776512345, 45.70121440454982], [-60.585289713901595, 45.70123421321943], [-60.58522561307118, 45.701260760718604], [-60.5850701106637, 45.70132227921122], [-60.58498074158129, 45.701339291148614], [-60.58481196553947, 45.70141042964755], [-60.58463154280429, 45.70145342741757], [-60.58455373736332, 45.70147067463156], [-60.58454090319712, 45.70147040313316], [-60.58442662591061, 45.70148561857397], [-60.58434839538143, 45.70149603389432], [-60.58433346934959, 45.70150137974807], [-60.58432230078286, 45.7015053829355], [-60.5843184828472, 45.70151051374299], [-60.58428275621033, 45.701558561332845], [-60.58425064498603, 45.70156980829147], [-60.584231889483526, 45.70157637825742], [-60.58422664312575, 45.70157441305282], [-60.584206608636464, 45.70156684238151], [-60.584091169452364, 45.70150319311411], [-60.58404201811849, 45.70148180187355], [-60.58402812251739, 45.701475756217484], [-60.583913191996764, 45.70143011953884], [-60.58382384804885, 45.70135712106471], [-60.58377793131634, 45.701307778031136], [-60.58369739304853, 45.70122123026178], [-60.58366070821554, 45.70114844590646], [-60.583636431168266, 45.70108582522153], [-60.58362490603536, 45.700995580281045], [-60.58362611584381, 45.700932940891555], [-60.58362646982695, 45.70091459533479], [-60.583626867093514, 45.70089435148205], [-60.58362699095955, 45.70088760335005]]}, "properties": {"OBJECTID": 129663, "FEAT_CODE": "WALK20", "FEAT_DESC": "Lake - Water to the right line", "RIVNAME_1": " ", "RIVNAME_2": " ", "ZVALUE": 77.8, "FID": null, "SHAPE_Length": 1168.8780945191138}}, {"type": "Feature", "id": 193755, "geometry": {"type": "LineString", "coordinates": [[-60.59853994271475, 45.700609956627176], [-60.598565983296055, 45.700601503298785], [-60.59873339186706, 45.700531233801975], [-60.59883681049501, 45.70048658453148], [-60.59890122354433, 45.70045527442172], [-60.59892732990183, 45.700442582921724], [-60.59903694045641, 45.700389819656564], [-60.59914767918212, 45.70033650394302], [-60.59939373457497, 45.70023005588973], [-60.59941541732908, 45.700220169597934], [-60.59947103368021, 45.700194785904515], [-60.599651852213334, 45.700141880885035], [-60.59984585090935, 45.70008115172703], [-60.599876078914626, 45.70007209304263], [-60.59993563741699, 45.700054235815735], [-60.59994885638762, 45.70004551266749], [-60.59999956338973, 45.700031276778475], [-60.600013821925806, 45.70002797607497], [-60.60011263016639, 45.700000358550305], [-60.600168560886466, 45.69998442317599], [-60.60027118102249, 45.69995777762943], [-60.60041358600482, 45.69993197618721], [-60.60052319559841, 45.699904990344706], [-60.600555093120676, 45.69989713669441], [-60.60065844421135, 45.69985340335376], [-60.60074861483748, 45.6998174938707], [-60.60089074861539, 45.69973768011511], [-60.60096934312344, 45.69970241832929], [-60.601119922977894, 45.69965515835127], [-60.60113600295634, 45.69965011357558], [-60.60122703309971, 45.69962412287503], [-60.601368192306744, 45.69959738496818], [-60.601523430194, 45.69957184271803], [-60.60161369062255, 45.69956383754725], [-60.601677898549305, 45.69956428609991], [-60.60170019544315, 45.699559245811685], [-60.60175442635606, 45.69954699137117], [-60.6018286669307, 45.6995213046226], [-60.60185742969549, 45.69951135054237], [-60.6018866260404, 45.69950627510389], [-60.60205155341681, 45.69947762326749], [-60.60216700608229, 45.69945123560789], [-60.60225713628797, 45.69941623318421], [-60.60228231472798, 45.6993987779013], [-60.60233524055407, 45.69936206705587], [-60.60236206201852, 45.699335627250676], [-60.60238356278511, 45.69931135296911], [-60.602401203073555, 45.69929144411753], [-60.602429730306056, 45.699266867317384], [-60.60245321596485, 45.69924664014706], [-60.6025439862174, 45.69916661891411], [-60.602622257193566, 45.69909502114394], [-60.60262285855583, 45.699094475707845], [-60.60263201333704, 45.69908345266968], [-60.60267431870339, 45.69903254912196], [-60.60270486547978, 45.69899408109952], [-60.60275306124706, 45.69893339108665], [-60.60280541996289, 45.698880484309704], [-60.60284382978669, 45.698853387578396], [-60.602888175553176, 45.69883076293594], [-60.60289635668097, 45.698826587201864], [-60.60292340077564, 45.698817460867794], [-60.602999319546, 45.69879184459079], [-60.60303145817425, 45.69878433734721], [-60.60303824364687, 45.69878276059809], [-60.60312284351453, 45.69878363640949], [-60.60320515898386, 45.69878446420677], [-60.60327337213489, 45.69876932518682], [-60.60328296827458, 45.69876720435232], [-60.603346661195026, 45.69874963014719], [-60.603357910838156, 45.6987457888169], [-60.6033988161804, 45.6987318227371], [-60.603476867120754, 45.698678554804744], [-60.60347874650236, 45.69867124943056], [-60.603490736670764, 45.69862483987861], [-60.60350125225994, 45.6985414052485], [-60.60350432014775, 45.69851711292012], [-60.60350619951954, 45.69850980754512], [-60.603518176791695, 45.69846339771859], [-60.60353899682337, 45.698421070916616], [-60.60354490549049, 45.69840905257179], [-60.6035512775934, 45.69839911418419], [-60.60358481370814, 45.698346883119946], [-60.60359622107785, 45.698318913382906], [-60.603610643293486, 45.69828351808214], [-60.60363778308383, 45.69822496006879], [-60.60367714951229, 45.69813999766941], [-60.60375509215083, 45.69800929162453], [-60.60378369339813, 45.69796131342249], [-60.603823618171106, 45.69785395918504], [-60.6038504527215, 45.69778179419329], [-60.60390553107971, 45.69757502678328], [-60.603917565140065, 45.69753508982374], [-60.60393247441457, 45.69748558212147], [-60.603947539825434, 45.69744414259449], [-60.60397177476886, 45.69737749464179], [-60.6040031769426, 45.69732858504509], [-60.604011681738044, 45.69731532500625], [-60.60409063477598, 45.69718106652086], [-60.60410516878198, 45.697161677286815], [-60.60411787704728, 45.69714473401933], [-60.60422134346646, 45.69703799281699], [-60.60426427968444, 45.6969938976635], [-60.60427373778959, 45.69698417699994], [-60.60430066700047, 45.69689474094899], [-60.60430217510438, 45.696839002355084], [-60.60430285468711, 45.6968137777914], [-60.604297549113724, 45.6967918480341], [-60.60427884777067, 45.69671427202329], [-60.60427916783199, 45.696668301596645], [-60.60427935545438, 45.69664226562083], [-60.60429118814234, 45.6966064288509], [-60.604305913449444, 45.69656181378154], [-60.604359062469136, 45.69649002074377], [-60.60437890376097, 45.69646034666076], [-60.604424939544906, 45.69639149169691], [-60.60452984843201, 45.69622087331708], [-60.60462240008042, 45.69606889771787], [-60.604687495003446, 45.69598835412098], [-60.60474100154472, 45.695908467493425], [-60.60481998915204, 45.69577330910372], [-60.60492537225514, 45.69562160241126], [-60.605094481424175, 45.69545143002859], [-60.60514683458755, 45.695398522038836], [-60.60530179703616, 45.69531896281681], [-60.60541877544634, 45.69525660882574], [-60.60550966531293, 45.695203608732335], [-60.6056398503494, 45.695042520371125]]}, "properties": {"OBJECTID": 193755, "FEAT_CODE": "WARV50", "FEAT_DESC": "River - Single Line", "RIVNAME_1": " ", "RIVNAME_2": " ", "ZVALUE": 9999, "FID": null, "SHAPE_Length": 903.8418094507715}}, {"type": "Feature", "id": 194837, "geometry": {"type": "LineString", "coordinates": [[-60.57808387453856, 45.69821567701308], [-60.57812291949893, 45.69823361611011], [-60.578186466657264, 45.69827905991656], [-60.578191872879245, 45.698284449174494], [-60.57822341301671, 45.6983158475843], [-60.578287348393765, 45.69835230756036], [-60.57835167227745, 45.698379774731556], [-60.57838274331381, 45.69840657263337], [-60.578414830985544, 45.69843422018036], [-60.57851531245628, 45.6985164511387], [-60.5785237606775, 45.698522489958734], [-60.57857887230966, 45.69856191299527], [-60.57859683422464, 45.69857876575255], [-60.578617141294295, 45.698597828481255], [-60.57869976746482, 45.698648555140544], [-60.578794832586915, 45.69870690833071], [-60.57891022068496, 45.69877147101479], [-60.578973380374045, 45.698825916171046], [-60.57910713903116, 45.698913055652866], [-60.57911331104572, 45.698917074947694], [-60.579251299572185, 45.69905322441653], [-60.57926349524783, 45.69906351009669], [-60.579391349044265, 45.699171406390725], [-60.579453732742714, 45.699243845841664], [-60.579491226631056, 45.69929773761178], [-60.5795171311063, 45.69935229279324], [-60.579540475354555, 45.69949590366445], [-60.579561688667354, 45.69974838153595], [-60.579573476290726, 45.699802637449515], [-60.57957727039865, 45.69981324005348], [-60.579586079249104, 45.69983800853136], [-60.579600078446184, 45.69986900771663], [-60.57963532213639, 45.699947064441666], [-60.57967280342236, 45.70000096487986], [-60.57967856933965, 45.70000695575658], [-60.57967896138564, 45.70000739611508], [-60.57967962801027, 45.70000802231399], [-60.57970867832992, 45.700035542099016], [-60.57971104807875, 45.70003777957459], [-60.5797608360455, 45.70008809741478], [-60.57983659511817, 45.700164663583024], [-60.579925971115074, 45.700236756777855], [-60.580040476049064, 45.70031920258161], [-60.58011658404052, 45.70037401152398], [-60.58020545325931, 45.70042810074661], [-60.58025967615018, 45.70045812507477], [-60.58037104409762, 45.70051981975372], [-60.58039947177439, 45.70053142138925], [-60.58045940663251, 45.700555896029094], [-60.580651079905216, 45.700639166311184], [-60.580740726209115, 45.700675269568784], [-60.580740338138085, 45.700684262351565], [-60.580854181096015, 45.700784776324205], [-60.580930217309806, 45.70083860208825], [-60.581082870044206, 45.70090304293139], [-60.581115765338964, 45.70092126476107], [-60.58124846374204, 45.70099476071606], [-60.581338511823326, 45.701021871007356], [-60.58145766804118, 45.701042739018064], [-60.581607525454224, 45.70106897369], [-60.581684180603865, 45.7010786981345], [-60.581729103422695, 45.701073906925835], [-60.58176161160777, 45.701070436950154], [-60.581820149421894, 45.70106270269326], [-60.58182620854392, 45.701061903911345], [-60.58196720827974, 45.70100908371915], [-60.58203220582057, 45.700991558042766], [-60.58209680263042, 45.70098302484805], [-60.58216801825419, 45.70097769211333], [-60.5821999015132, 45.70097530690235], [-60.58227655704238, 45.700985021955866], [-60.58231509753849, 45.7009849469167], [-60.58239333662312, 45.70099368730928], [-60.58249408883654, 45.70100493853344], [-60.58259643810786, 45.701014306266664], [-60.582609272151295, 45.70101457798141], [-60.58273807790212, 45.70100650369502], [-60.58280584720971, 45.70099380678918], [-60.58282873046227, 45.70098952068448], [-60.58289243149324, 45.70097196707171], [-60.58315186081209, 45.70088384815554], [-60.583180903022644, 45.700875848915246], [-60.5832155616278, 45.70086629435769], [-60.583248378898325, 45.70086071526438], [-60.58326732412594, 45.700857488847916], [-60.583340799292266, 45.70085098806996], [-60.583357588646415, 45.700849498208456], [-60.583361419079964, 45.70085003832995], [-60.58362699095955, 45.70088760335005]]}, "properties": {"OBJECTID": 194837, "FEAT_CODE": "WARV50", "FEAT_DESC": "River - Single Line", "RIVNAME_1": " ", "RIVNAME_2": " ", "ZVALUE": 9999, "FID": null, "SHAPE_Length": 604.5224334378487}}, {"type": "Feature", "id": 194843, "geometry": {"type": "LineString", "coordinates": [[-60.58214485785587, 45.70668887675778], [-60.58217058015904, 45.706688521332794], [-60.58227264526937, 45.70673479641043], [-60.58229564760489, 45.7067438884169], [-60.58252780836293, 45.70683560056126], [-60.582605618416025, 45.706860137459685], [-60.58261654405082, 45.7068635821245], [-60.58266841937659, 45.70688178226766], [-60.5827583187064, 45.70688278536521], [-60.58283446126309, 45.70687449617533], [-60.58291231392494, 45.70685634203874], [-60.58295083291066, 45.70685715742416], [-60.58301504861055, 45.7068576166394], [-60.58307887614551, 45.70686707759986], [-60.583130764856435, 45.70688526881487], [-60.583215954599034, 45.706946334526826], [-60.583333894255425, 45.70703088384992], [-60.583421842386535, 45.70707685010936], [-60.58354961932926, 45.70712275910412], [-60.58356883990365, 45.707129286544586], [-60.58379272605231, 45.70720531227473]]}, "properties": {"OBJECTID": 194843, "FEAT_CODE": "WARV50", "FEAT_DESC": "River - Single Line", "RIVNAME_1": " ", "RIVNAME_2": " ", "ZVALUE": 9999, "FID": null, "SHAPE_Length": 146.76807318895067}}, {"type": "Feature", "id": 268774, "geometry": {"type": "LineString", "coordinates": [[-60.59334529386421, 45.71218567886418], [-60.593357744362756, 45.71219494227057], [-60.59342042173035, 45.71223136714987], [-60.593431746070635, 45.712235440245685], [-60.59344699263817, 45.712240928151864], [-60.59349773088235, 45.71228610234567], [-60.59352918726571, 45.71229978073349], [-60.59356079461607, 45.712313534302126], [-60.5935986958876, 45.71235844691027], [-60.59363626845224, 45.71239695287586], [-60.59366146056942, 45.712422767557236], [-60.593757367410646, 45.71249083792532], [-60.59387841055364, 45.71257675579439], [-60.593993970691216, 45.71264644623221], [-60.594029952011844, 45.71266815869792], [-60.594051955936266, 45.7126760661564], [-60.59418432196357, 45.71272361704458], [-60.594312381453996, 45.712733515926615], [-60.59436325581991, 45.712715685688146], [-60.594415786654515, 45.71268889833845], [-60.59447951099459, 45.7126713297643], [-60.59456979338061, 45.71266333062403], [-60.594607917839944, 45.71267313474384], [-60.59477439188037, 45.71274594914976], [-60.59485067959847, 45.71276465795796], [-60.59488933648927, 45.71279229515295], [-60.594914256316386, 45.712810101942516], [-60.59496525639702, 45.71281927704501], [-60.59497426108473, 45.71283160003883], [-60.59497860504171, 45.7128375601777], [-60.59501595780314, 45.71286534988067], [-60.5950674697632, 45.712892537692625], [-60.595105758954624, 45.71292844797706], [-60.59515530279725, 45.713001499330204], [-60.595188606172144, 45.713059582021415], [-60.595217462304895, 45.71310992020244], [-60.59522981788891, 45.71318128821123], [-60.59526349630545, 45.713270756216154], [-60.59529094559018, 45.713343702229075], [-60.59532419220317, 45.713363592497345], [-60.59536736030939, 45.713389416322514], [-60.59537993781068, 45.71342567613821], [-60.59537929203226, 45.71347066746955], [-60.59539043877086, 45.713569913056375], [-60.59540302877408, 45.713606182132786], [-60.595420984234444, 45.71362550732923], [-60.595453383935755, 45.713660348363454], [-60.59547751452177, 45.713696860457496], [-60.59547641238486, 45.71377404770446], [-60.59547622309504, 45.71378684312005], [-60.595489224831766, 45.71381321977185], [-60.59553954166866, 45.713868285254094], [-60.59555151434238, 45.7138895996768], [-60.595564608822066, 45.713912917937414], [-60.59556164032455, 45.714101876122], [-60.595587054491595, 45.71413842422027], [-60.595617782444684, 45.71416821645356], [-60.595624061510115, 45.714174298322966], [-60.595629577677535, 45.71418019310904], [-60.5956756500596, 45.714229381519225], [-60.59570060338404, 45.71424702682], [-60.59572985550166, 45.71425551861919], [-60.59576405664554, 45.71426545576313], [-60.59585080607211, 45.714286850444196], [-60.59587975628101, 45.714293994701414], [-60.59596853646696, 45.71432106666636], [-60.59605779028477, 45.7143670506017], [-60.59606594194578, 45.714377105300976], [-60.59610904467714, 45.71443023645203], [-60.596157594663694, 45.71447559740097], [-60.596196755669986, 45.714512191735686], [-60.59621722448235, 45.71453643924725], [-60.59623466089181, 45.71455709453219], [-60.596245292437075, 45.714564753155976], [-60.59627329913265, 45.71458491087609], [-60.596362080015176, 45.71461198164747], [-60.59642720300482, 45.714621453385156], [-60.59647855215974, 45.71462253426865], [-60.596709265339996, 45.714605788060304], [-60.5967606144912, 45.714606868816745], [-60.596981021015225, 45.71458536863813], [-60.59701867149611, 45.71458169650003], [-60.59714673585136, 45.71459159229471], [-60.5972109604713, 45.71459205269646], [-60.59723496575655, 45.71460065872399], [-60.5972615773564, 45.71461021068758], [-60.59734350834593, 45.71465470737612], [-60.59736328443902, 45.71466545663043], [-60.597389880310146, 45.71469695263254], [-60.59740120354771, 45.71471035932941], [-60.597502253980274, 45.71481059625085], [-60.597527708676274, 45.71484623566473], [-60.59752739360121, 45.714862574822405], [-60.59752667898837, 45.714900219903654], [-60.59752773938705, 45.7149021594243], [-60.59755170961425, 45.71494575147138], [-60.59760807212768, 45.714986046601915], [-60.597615290987754, 45.71499119402927], [-60.597653456105895, 45.71500009878279], [-60.59772391256143, 45.71500716171489], [-60.597755808222495, 45.71501035302374], [-60.5977748089871, 45.715010419728635], [-60.597807196336376, 45.71501053402989], [-60.59798815341557, 45.71498553767749], [-60.59801529584523, 45.71498091508062], [-60.59803992738705, 45.71497671671103], [-60.59812444061179, 45.714959799436514], [-60.59812935223652, 45.71495882263449], [-60.59823311923861, 45.71490609032184], [-60.59827192835042, 45.714869993594085], [-60.59831136585372, 45.71483242490783], [-60.59833756805621, 45.714807467237414], [-60.59833833893529, 45.71478948148355], [-60.598379676433865, 45.71472107036008], [-60.59840335136674, 45.71468192797367], [-60.59844260811225, 45.714664760670416], [-60.598455843685706, 45.714656038059275], [-60.59867445149122, 45.71462193140409], [-60.59874956071652, 45.71462175574988], [-60.59875155242648, 45.7146217526297], [-60.598778545528916, 45.714628404943994], [-60.59886725443599, 45.714650288583606], [-60.59890503391548, 45.714650200927245], [-60.598905804925266, 45.714650199138205], [-60.59908521914489, 45.714661172538115], [-60.59935484199551, 45.71463623812653], [-60.59950937782737, 45.71462778574099], [-60.59956108667055, 45.714619871814335], [-60.59963856000487, 45.71461159938352], [-60.59975763892369, 45.71457900773234], [-60.59983097905045, 45.71455893800763], [-60.59988275198364, 45.714550125183955], [-60.59992423167056, 45.71454464236864], [-60.59994736220458, 45.71454158216505], [-60.600000457352586, 45.714531896981214], [-60.600010278541575, 45.71452998817702], [-60.60003803217461, 45.714524585858854], [-60.60007606917564, 45.71450648325729], [-60.600179974324206, 45.714480764029354], [-60.600309053300265, 45.714436671693015], [-60.600463691014504, 45.71436611336559], [-60.600696584040634, 45.71426839604382], [-60.60079957695698, 45.714233656098685], [-60.60081209002164, 45.71420188451415], [-60.6008140056773, 45.71419705523234], [-60.600840693761334, 45.71414361007852], [-60.60087869136288, 45.71412641548041], [-60.60092211513097, 45.71411182814895], [-60.60095693772435, 45.71410006641764], [-60.600982364101746, 45.71404577563179], [-60.600983775415784, 45.713982798391676], [-60.60097955126647, 45.71397672398759], [-60.60094625170241, 45.71392890420411], [-60.60093418455294, 45.713910648699695], [-60.600923857744704, 45.71390366298829], [-60.60092044868159, 45.713901359117926], [-60.60090018870902, 45.7138916984331], [-60.600805863663005, 45.71384674585712], [-60.60080727516125, 45.71378376862105], [-60.600820753723085, 45.71373904690087], [-60.600821010118054, 45.713703048348286], [-60.60086020136794, 45.71365796678123], [-60.60089972301359, 45.7136273747273], [-60.60095189596626, 45.71358698536618], [-60.60098353135518, 45.71357043114496], [-60.601003154121365, 45.713560159247876], [-60.601106530517264, 45.71351642609516], [-60.601235619390955, 45.71347233291489], [-60.601236902297025, 45.71347057767082], [-60.601249252029426, 45.71345371723649], [-60.601250021938135, 45.71343573143997], [-60.6012631275542, 45.713400011817264], [-60.60127594458231, 45.713357526390396], [-60.601276606034446, 45.713355281038474], [-60.601295495823656, 45.71333901703866], [-60.60132863408854, 45.713310459975176], [-60.60135195687478, 45.713295090177354], [-60.60136829922281, 45.713284308257926], [-60.60141955728821, 45.713257472948904], [-60.60146668223104, 45.713251253064115], [-60.601484165811385, 45.71324892902386], [-60.60172822320669, 45.713250454940145], [-60.601779571305535, 45.713251533416226], [-60.60187014801389, 45.71320663063937], [-60.60187427746965, 45.713203810048725], [-60.60190852989626, 45.713180433781055], [-60.60199906790513, 45.713136430187376], [-60.60203838703801, 45.713118353855464], [-60.6020764224465, 45.71310025055126], [-60.6021409922217, 45.71309260553906], [-60.60217096733732, 45.71307730326337], [-60.602193533065815, 45.713065805821124], [-60.60221312654108, 45.713047801253786], [-60.602271104350585, 45.712994526760276], [-60.602323657877974, 45.71296772724852], [-60.602361680256955, 45.712949623575376], [-60.60236395012813, 45.712947321980636], [-60.60244091961577, 45.71286937843846], [-60.60246598773998, 45.712808698092836], [-60.60246673221048, 45.71280691352731], [-60.60246707800234, 45.71280603869127], [-60.60248109529608, 45.712771211164394], [-60.60255906337099, 45.71269093925073], [-60.60257141168541, 45.7126722964469], [-60.602587452140206, 45.71253761844049], [-60.60258764869983, 45.71251079962847], [-60.60258770736314, 45.71250161985418], [-60.60262399309181, 45.71245202118304], [-60.602653209932704, 45.71241208516153], [-60.602653594648, 45.71240309225239], [-60.60265928765822, 45.71239435480846], [-60.6027058369969, 45.71232318020965], [-60.602916091451924, 45.71206386538062], [-60.60292920883469, 45.712027236708074], [-60.60292907915683, 45.71200023102523], [-60.60292477623244, 45.711993894009154], [-60.60290490586896, 45.71196461970504], [-60.60289115728838, 45.71195533009103], [-60.60284093874077, 45.71192817296537], [-60.602790962478245, 45.71186501695585], [-60.60274676927869, 45.71179672576023], [-60.602702986472, 45.71172905523002], [-60.60269067288645, 45.711656788807915], [-60.60268694460812, 45.7116481325915], [-60.60267897748444, 45.71162954029963], [-60.60268758955743, 45.71161143110472], [-60.602691684576406, 45.711602804124084], [-60.60270002342697, 45.71158357306942], [-60.602718753089555, 45.711540392516284], [-60.60274473392523, 45.71150400692422], [-60.60279672019981, 45.71146009340466], [-60.60293645290627, 45.71138989386085], [-60.60299104878676, 45.71136246183795], [-60.603069515657424, 45.71130020200807], [-60.60307944580579, 45.71129332668135], [-60.603121155325475, 45.711264381952915], [-60.603275525993624, 45.71122981813857], [-60.60339484673322, 45.7111832402239], [-60.6034571463561, 45.711158921994254], [-60.60372814595029, 45.71107099923045], [-60.60375018305553, 45.71106492698107], [-60.60379185249996, 45.71105343408158], [-60.60390601496363, 45.71102561345392], [-60.60393466932398, 45.71101862691227], [-60.60394386764199, 45.711015642582105], [-60.603960726879606, 45.71101017271718], [-60.60402520224424, 45.71097462159467], [-60.6041284797104, 45.710902980554636], [-60.60414066986903, 45.710891922091456], [-60.604167243397605, 45.71086778995313], [-60.60419712369237, 45.71083452818076], [-60.60420771357452, 45.71082273405648], [-60.60423044107687, 45.710787585006024], [-60.60425999061375, 45.7107419219162], [-60.60428134888591, 45.7107168612379], [-60.60431274384973, 45.71068002181778], [-60.6043517997371, 45.71060793323071], [-60.604404206772585, 45.710554126715216], [-60.604495761296775, 45.71045613652396], [-60.60462706069722, 45.71024857390831], [-60.604654219193776, 45.71020563285845], [-60.60466473925588, 45.710185547315355], [-60.6047199822904, 45.71008009846393], [-60.604771991284856, 45.71003528441548], [-60.604837669940814, 45.70999047805167], [-60.604850069977125, 45.70998201619887], [-60.6049673337596, 45.70988366480218], [-60.60496948571815, 45.70988171172013], [-60.605006096200235, 45.709848473885415], [-60.60503253735205, 45.70983102650119], [-60.60503913700645, 45.70981669133493], [-60.605045281318375, 45.709803390732446], [-60.605045564051345, 45.709783846513616], [-60.605045919174486, 45.709758399163995], [-60.6050544973799, 45.7097206129131], [-60.605060161860266, 45.709695690969], [-60.60507012394346, 45.709672722368374], [-60.60508724073912, 45.70963325199977], [-60.605164803492166, 45.70956197076472], [-60.605203604007485, 45.70952588047913], [-60.60521682447745, 45.70951715676236], [-60.60521785897687, 45.70951609834009], [-60.605269229635454, 45.709463349803336], [-60.605277238712354, 45.70942805387339], [-60.60528345914782, 45.70940064130181], [-60.60527114261195, 45.70932837507476], [-60.60525990524579, 45.70929940823872], [-60.60524683805635, 45.70926575851429], [-60.605249805252456, 45.709041165029525], [-60.60525027940508, 45.70900481097262], [-60.60525515007695, 45.708998162380674], [-60.605263922801996, 45.70898618602932], [-60.60526418903245, 45.70895018765103], [-60.605264362170395, 45.70892358435426], [-60.60526442958949, 45.708914188734106], [-60.60526474856803, 45.70890311520455], [-60.6052670013094, 45.70882423276374], [-60.60525648295592, 45.70877693698562], [-60.60525513589883, 45.70877087807053], [-60.605250463448066, 45.708762364150544], [-60.60523011433389, 45.7087253483461], [-60.60522920214857, 45.70871632822419], [-60.605223269927606, 45.70868347620583], [-60.60521777192376, 45.708653090564326], [-60.60520570443036, 45.708634835490884], [-60.605179863566626, 45.70860818165123], [-60.60516837061711, 45.70859963269104], [-60.605142508380546, 45.70858039521107], [-60.605141993311506, 45.70856238242622], [-60.60514237757609, 45.708553389494625], [-60.60510510671181, 45.708463497971884], [-60.60509393053755, 45.70836425265956], [-60.605031372310975, 45.70826482973742], [-60.60501563669926, 45.70823620957213], [-60.605006338303205, 45.70821929969918], [-60.604981650191455, 45.70816567601789], [-60.60496794147959, 45.70814073476043], [-60.60495661588125, 45.708120154962636], [-60.60495700055392, 45.70811115303864], [-60.60493269682469, 45.70804853641662], [-60.60493316262363, 45.70801598959987], [-60.60493333469379, 45.70800354483753], [-60.604933411622206, 45.70799813685508], [-60.604933985396244, 45.70795855352732], [-60.604960704803936, 45.7079042079257], [-60.60499618043068, 45.70785510453621], [-60.6050125936012, 45.70783238825849], [-60.60507727963529, 45.70776173707888], [-60.605168866667576, 45.70766284689583], [-60.60522242278067, 45.707582061108134], [-60.6052347852063, 45.70754830563397], [-60.60524858818617, 45.707510601932036], [-60.60524945090164, 45.707465453045685], [-60.60524962284641, 45.70745661767727], [-60.605237678077316, 45.707375358230166], [-60.60521299008108, 45.70732173459464], [-60.605175120625056, 45.70727593538801], [-60.60503691724414, 45.7071128190431], [-60.6049741069056, 45.70704939475423], [-60.604915450818055, 45.706943473869686], [-60.60489896822178, 45.706913703888745], [-60.604886360599025, 45.70687833555965], [-60.60488036401404, 45.70684519413243], [-60.604874918601666, 45.70681508859987], [-60.60486881604368, 45.706687920571376], [-60.604865403057836, 45.70661686714524], [-60.604878492162676, 45.70658113772825], [-60.60494500626223, 45.70643760790702], [-60.60501164963536, 45.70632111074073], [-60.605077141145124, 45.70623156535359], [-60.60511590128273, 45.7061963653341], [-60.60515469902586, 45.70616028399262], [-60.6052674778451, 45.70610445788304], [-60.60529775576245, 45.706089476159924], [-60.60534351275917, 45.70607182172453], [-60.60559426715631, 45.705975089980974], [-60.60587888059579, 45.70586853645707], [-60.60604287649842, 45.70581275733459], [-60.60616307050374, 45.705771874437076], [-60.606213896112905, 45.7057549469828], [-60.606291582918615, 45.70571067953339], [-60.606369692802254, 45.705656501803794], [-60.60643492843122, 45.705602963247], [-60.60653061121148, 45.70549766808443], [-60.60654007432379, 45.705487254272306], [-60.60664449021235, 45.70538863178827], [-60.60673488018785, 45.705317618313735], [-60.606799731114, 45.70527307247816], [-60.606878053357406, 45.705183803968936], [-60.606890681922486, 45.70516845191705], [-60.60699593936425, 45.705040458495795], [-60.607040152423195, 45.705005372097425], [-60.60707439314217, 45.7049781865912], [-60.60715116390788, 45.70493065899742], [-60.60720370890709, 45.704898105400595], [-60.60739796928097, 45.70480134693031], [-60.60740244113996, 45.70479830828674], [-60.607437664251734, 45.70477428460334], [-60.607619207598056, 45.70461427031924], [-60.6077240037349, 45.70450665380891], [-60.60772428499944, 45.704506083637966], [-60.60775069313713, 45.70445320700166], [-60.607782124521265, 45.70438978742048], [-60.60780411016155, 45.70434541406841], [-60.607825861821894, 45.70432307924946], [-60.60785650784487, 45.704291605730745], [-60.60800005941976, 45.704148796893975], [-60.60804512692549, 45.70410720227992], [-60.60811640541137, 45.70404142197074], [-60.60823386370347, 45.70390796733639], [-60.60831308150604, 45.70382771758374], [-60.60840363764955, 45.70378280914626], [-60.608533465694215, 45.70372072116001], [-60.608597891322965, 45.70368606648401], [-60.6087792019526, 45.70356115835031], [-60.60888375617126, 45.70348953068308], [-60.6089742729602, 45.7034455210669], [-60.60902513437357, 45.70342768400607], [-60.60903507302838, 45.70342628093942], [-60.60914145344622, 45.70341121753709], [-60.60915884160094, 45.703403219694124], [-60.60918076342349, 45.70339313853466], [-60.60927127982998, 45.70334912867449], [-60.60927407864377, 45.70334796313907], [-60.609335359413045, 45.70332256723305], [-60.6093738212957, 45.70331141917729], [-60.60942510857242, 45.70329654318123], [-60.609481542348405, 45.70329684257704], [-60.609540698641794, 45.703297162937304], [-60.6095918709121, 45.70329733412591], [-60.609643466732706, 45.70329751415827], [-60.60969630669894, 45.70330466898183], [-60.609785230207194, 45.703316683578734], [-60.60998967223566, 45.7033722776685], [-60.610001520068664, 45.703374604887856], [-60.61004064140905, 45.703382336500354], [-60.61021981083025, 45.703428391200596], [-60.610348356637296, 45.70345628428107], [-60.61044993668404, 45.70348451300178], [-60.610692686490395, 45.70357600238242], [-60.61085860058537, 45.70363167980378], [-60.610935437104246, 45.70366749126131], [-60.61107566902419, 45.70372263101655], [-60.61119060191254, 45.703769140431675], [-60.61127937351115, 45.70379620034955], [-60.61134855967003, 45.703817710917285], [-60.61145940694428, 45.703852181269326], [-60.61174014819182, 45.70392645213057], [-60.61200805482084, 45.704000462883975], [-60.61223459761421, 45.70407776649321], [-60.61230308798319, 45.70410115213942], [-60.61248940607417, 45.70416857709825], [-60.61260925323512, 45.70421195647522], [-60.61272066822179, 45.704248516697795], [-60.61289051509898, 45.70430424637468], [-60.612988811294265, 45.704341477179796], [-60.613131976251374, 45.70439570360516], [-60.613306444158496, 45.70445485962512], [-60.61334980463319, 45.70446956446824]]}, "properties": {"OBJECTID": 268774, "FEAT_CODE": "WARV50", "FEAT_DESC": "River - Single Line", "RIVNAME_1": "Barren Hill Lake Outlet", "RIVNAME_2": " ", "ZVALUE": 9999, "FID": null, "SHAPE_Length": 2722.821319605182}}]}