{"type": "FeatureCollection", "features": [{"type": "Feature", "id": 59407, "geometry": {"type": "LineString", "coordinates": [[-60.96567147933933, 45.7260330967089], [-60.96578807989977, 45.72600727081718], [-60.96587507794202, 45.72600708321256], [-60.965878046986575, 45.72600707308834], [-60.965893165065005, 45.72600764838903], [-60.96614755638015, 45.726017273594934], [-60.96627393117376, 45.72603407858735], [-60.96628824286651, 45.726035980612046], [-60.966493482512256, 45.72608193954416], [-60.96661308807044, 45.72610856963921], [-60.96666048691133, 45.7261191165381], [-60.966839714425724, 45.72617361262966], [-60.966861789048345, 45.72618293452299], [-60.96690426782833, 45.726200864489414], [-60.96717211227157, 45.72629204116121], [-60.96721456587644, 45.72630996156264], [-60.967236678820086, 45.72631929306617], [-60.967249958098485, 45.726331941686865], [-60.96727518716577, 45.7263559821349], [-60.96736348896082, 45.726436761818015], [-60.96743987765161, 45.72656323406827], [-60.96743922492398, 45.72658122427842], [-60.96742638167059, 45.72658099570024], [-60.96737528122355, 45.726607989056056], [-60.967370072690436, 45.72661163173339], [-60.96734892215343, 45.72662642183171]]}, "properties": {"OBJECTID": 59407, "FEAT_CODE": "WALK20", "FEAT_DESC": "Lake - Water to the right line", "RIVNAME_1": " ", "RIVNAME_2": " ", "ZVALUE": 169.6, "FID": null, "SHAPE_Length": 171.72196832492912}}, {"type": "Feature", "id": 59408, "geometry": {"type": "LineString", "coordinates": [[-60.96734892215343, 45.72662642183171], [-60.96730139353998, 45.72666512590866], [-60.96728401898566, 45.72667927213014], [-60.9672200751005, 45.72670603681728], [-60.9671683429307, 45.72671501700912], [-60.96709092417816, 45.7267235399458], [-60.96704116542816, 45.72671674060311], [-60.96688631309158, 45.72669559511185], [-60.96665567818338, 45.726641083927596], [-60.96653942488238, 45.72662191231949], [-60.96632212395565, 45.72658280441497], [-60.96628406192955, 45.72657596100228], [-60.96615460643869, 45.72656645490675], [-60.96596283968033, 45.72653873715586], [-60.96593991119736, 45.72653169511436], [-60.965872599593766, 45.72651103625795], [-60.96582217422768, 45.726484026459296], [-60.96580256086825, 45.72646673739149], [-60.96577111752323, 45.72643901256583], [-60.96574577995777, 45.72639355667809], [-60.96574580158396, 45.726361108768266], [-60.96574580217218, 45.7263575534177], [-60.96572046466203, 45.726312097524705], [-60.965697478525726, 45.72627904176533], [-60.965670387798866, 45.726240107296555], [-60.965645344709664, 45.726186546806716], [-60.965645510322304, 45.7261508431297], [-60.965645715577274, 45.7261055541848], [-60.965655520167296, 45.726077979016324], [-60.96567147933933, 45.7260330967089]]}, "properties": {"OBJECTID": 59408, "FEAT_CODE": "WALK20", "FEAT_DESC": "Lake - Water to the right line", "RIVNAME_1": " ", "RIVNAME_2": " ", "ZVALUE": 169.6, "FID": null, "SHAPE_Length": 180.4676157650383}}, {"type": "Feature", "id": 140527, "geometry": {"type": "LineString", "coordinates": [[-60.94703439657391, 45.73206323836132], [-60.94702156507181, 45.73206300769901], [-60.946957922532306, 45.73208076553174], [-60.94689399753691, 45.73207151552496], [-60.946816273521726, 45.73205301649415], [-60.946700972837284, 45.73200773918549], [-60.94663892192539, 45.73196350019345], [-60.946586991761855, 45.731926472849885], [-60.94652244181434, 45.73189921858069], [-60.94645884689788, 45.73188097335563], [-60.94639262933378, 45.73188483217233], [-60.946317163828354, 45.731889226720945], [-60.94622753772848, 45.73187951416765], [-60.94621999040064, 45.73187608410905], [-60.9461883602675, 45.73186169889385], [-60.94604481195994, 45.731810413366716], [-60.94598409397185, 45.73178872726497], [-60.9458613022655, 45.73175043409498], [-60.9455736579114, 45.7316607324821], [-60.94532988377118, 45.731614042692776], [-60.945164130115266, 45.73157774810838], [-60.945023143042675, 45.73153201593233], [-60.94499813109232, 45.731514167110234], [-60.944984316071476, 45.73150431455047], [-60.94498464609601, 45.731495319579196], [-60.94502387438421, 45.731442019993935], [-60.94509065442257, 45.731388136034255], [-60.945178824440625, 45.73131699511211], [-60.945320805717444, 45.731212285772436], [-60.94537303764813, 45.731173774487814], [-60.94540006587409, 45.731137357011384], [-60.94538692962238, 45.73107501440151], [-60.94538565982633, 45.73107319137499], [-60.94534907981394, 45.73102032799034], [-60.94526050921394, 45.730912514739046], [-60.94517096848475, 45.7308308046047], [-60.94513922196286, 45.73078493181578], [-60.94513313189047, 45.730776118357284], [-60.94513336642315, 45.73075746368915], [-60.94513382743934, 45.730722125407375], [-60.94515988102136, 45.73067758962891], [-60.94520808429591, 45.730627664782915], [-60.94521198554466, 45.730623621558685], [-60.945224708482826, 45.730612788351934], [-60.94526372700059, 45.73057954793422], [-60.945425592976584, 45.73048453915847], [-60.945431858456274, 45.730480862492705], [-60.94550899059422, 45.73044534635878], [-60.94556076464344, 45.73040037309399], [-60.945625417791874, 45.73031962783761], [-60.94565180069174, 45.73026609695714], [-60.94565282561956, 45.73020310901377], [-60.945629222931125, 45.73004066802935], [-60.9455914239042, 45.72991487539941], [-60.94555637834517, 45.72979741312615], [-60.94552962228404, 45.72970764275486], [-60.94546946906973, 45.72960930576022], [-60.94544110847881, 45.729562935902436], [-60.945427547540156, 45.72953180080614], [-60.94539013649449, 45.729445907123555], [-60.94536649923772, 45.729375535779454], [-60.94536580417071, 45.7293734620656], [-60.94536580956922, 45.72937156297016], [-60.94536587526653, 45.729301447041976], [-60.945375024774975, 45.729255229945544], [-60.94538007375103, 45.72922970418252], [-60.945398462165286, 45.729207361702755], [-60.945431189236096, 45.72916761738637], [-60.945554890598146, 45.72908283091781], [-60.94556170660483, 45.72907815604556], [-60.945569774314976, 45.7290743947803], [-60.94567677602435, 45.72902442032818], [-60.94590912009986, 45.72892688921274], [-60.94601326034, 45.72888378468001], [-60.94603831685038, 45.72887340722499], [-60.946297382029286, 45.72874845306179], [-60.94642627008857, 45.72866796234246], [-60.94654261066957, 45.72857915404546], [-60.9467760339735, 45.72841772507764], [-60.9468403063885, 45.72838196783525], [-60.94691677504329, 45.72836444964211], [-60.947046230652745, 45.728373977561155], [-60.94705716072334, 45.72837627125423], [-60.94713550884117, 45.72839268414127], [-60.947494269111544, 45.72845763836678], [-60.947534708313846, 45.72846236154792], [-60.947649115505484, 45.72847572274989], [-60.9477028988038, 45.728469119501696], [-60.947789834969505, 45.72845844950482], [-60.9478282629663, 45.728452119323], [-60.947893275182786, 45.728441406322766], [-60.94806099951758, 45.728388614328956], [-60.948109706512824, 45.72836551101602], [-60.94826766279359, 45.72829061699082], [-60.94836450379391, 45.728238990324556], [-60.9484865505815, 45.72817393695455], [-60.948582439721015, 45.72809459719166], [-60.948616435280115, 45.72806645891929], [-60.94865057748878, 45.728022382652014], [-60.94872030351129, 45.72793241079204], [-60.948750389188184, 45.72791136697954], [-60.94877174326388, 45.72789643096702], [-60.94894427526707, 45.72781721633062], [-60.94912075464235, 45.727736182127735], [-60.9491982099915, 45.72769166838014], [-60.94981923056891, 45.72726267382258], [-60.94983146107878, 45.727244882551645], [-60.94987128162228, 45.72720960273477], [-60.94998737587527, 45.72709287465319], [-60.950026958312804, 45.727029678669076], [-60.95003429351193, 45.72701466179569], [-60.950079744984684, 45.7269217241062], [-60.95010579312887, 45.72687717807889], [-60.95013118261177, 45.72685063105489], [-60.95016848303915, 45.72684557597751], [-60.95019574770214, 45.726841888918074], [-60.95025493744387, 45.72685044903738], [-60.95038751961068, 45.72686963326289], [-60.9506190924406, 45.72689810051549], [-60.950670169383734, 45.726907108896235], [-60.95068755931842, 45.72691619683974], [-60.950721872561715, 45.726934130321844], [-60.95075027936247, 45.726955081127755], [-60.95075941469948, 45.72696181571749], [-60.95076660109427, 45.726977210219616], [-60.95078444408966, 45.727015370232955], [-60.95084795857311, 45.72710561894203], [-60.95088610854504, 45.72718731169027], [-60.950933945974604, 45.727306325013764], [-60.95093677403043, 45.727313333462114], [-60.95098711675914, 45.72741234667429], [-60.951046536068624, 45.72746735521956], [-60.95107536333583, 45.72749403806773], [-60.9511656110632, 45.727556863372314], [-60.95116429511365, 45.7275928434215], [-60.951126029503406, 45.72762005976126], [-60.95112504252026, 45.72764704479721], [-60.95112757548444, 45.727652283767156], [-60.951138183246506, 45.727674283289396], [-60.951156330546475, 45.727691134534616], [-60.95117671465694, 45.727710078113695], [-60.951214586841765, 45.727728759361625], [-60.95122397514707, 45.72773209610583], [-60.95129197749353, 45.727756250346665], [-60.95133266928499, 45.7277561702256], [-60.951381946714314, 45.727756073083626], [-60.95147944590353, 45.72772746191602], [-60.951561225238336, 45.72770347420359], [-60.95162050170003, 45.727703718323305], [-60.951626759388375, 45.727703749553314], [-60.95163510730652, 45.72770496138937], [-60.95169068029738, 45.7277129968453], [-60.95185705407363, 45.72776728592542], [-60.95190780282363, 45.727785297779185], [-60.95198877403365, 45.727802042405564], [-60.95199836617767, 45.72780402360336], [-60.95204881754038, 45.72779501831863], [-60.95205664012391, 45.727788101878964], [-60.95208866280407, 45.727759738175095], [-60.95210374384091, 45.72772758731472], [-60.952113753948126, 45.72770618262216], [-60.952114005490195, 45.72768664614832], [-60.95211444262731, 45.72765218948689], [-60.95206477541375, 45.727534286971085], [-60.952029282864, 45.72746808784629], [-60.952026274600954, 45.72746248933729], [-60.952026634506076, 45.72741749121917], [-60.952039837720974, 45.72737272341302], [-60.95204199959878, 45.727371241026134], [-60.95207938705522, 45.72734552978615], [-60.95213113483547, 45.7273365567131], [-60.95216742739932, 45.72734360714181], [-60.95218216638848, 45.72734647269434], [-60.95223291487146, 45.727364484400155], [-60.952283788649964, 45.72740789891045], [-60.95229647582054, 45.72741872947139], [-60.95232213582969, 45.7274427719524], [-60.9524120390712, 45.727527012269896], [-60.95247560037621, 45.727581257246115], [-60.95264095543731, 45.7276634297535], [-60.95267522916193, 45.72767966076404], [-60.95271801799425, 45.727699914803324], [-60.95278161037088, 45.72771815650858], [-60.952802562201626, 45.72771806403969], [-60.95282145744528, 45.727717979706085], [-60.95289825282282, 45.727691444446066], [-60.952936813476086, 45.72765613197892], [-60.952962892273696, 45.72761069476503], [-60.95297675185908, 45.72754794579003], [-60.95296429843907, 45.72746670534303], [-60.95290142468461, 45.72735846747636], [-60.95290178355444, 45.72731347833773], [-60.95292750096855, 45.727277926656974], [-60.952994630690434, 45.72724753670303], [-60.953005908376326, 45.72724242830466], [-60.953011630493656, 45.727241639776935], [-60.953069202042826, 45.727233661753594], [-60.953121564051386, 45.72724269206872], [-60.95315914047071, 45.72726947719533], [-60.953209484555, 45.72733338588259], [-60.95322322618433, 45.727346314449875], [-60.953286529645965, 45.72740587389467], [-60.95332410658148, 45.727432649974446], [-60.95334101146471, 45.72743849749144], [-60.95337613986052, 45.727450684196214], [-60.953403134255865, 45.727455452386685], [-60.95342721746225, 45.72745970035401], [-60.95352966846329, 45.727469637078684], [-60.95370539129192, 45.72751887046346], [-60.9538248085168, 45.727552333277536], [-60.95388905820956, 45.72755258431485], [-60.95397936887337, 45.72754340120659], [-60.95404327719118, 45.727552646955196], [-60.95404427243435, 45.72755319583876], [-60.95409366511694, 45.727580552378235], [-60.95420771830191, 45.727670111402375], [-60.95420860488861, 45.727670820354525], [-60.954219663638064, 45.72767381773799], [-60.95431168381045, 45.72769876945205], [-60.954375605209385, 45.72770801524841], [-60.95442701168621, 45.727708035935066], [-60.95450413445097, 45.727672513546075], [-60.95454368283515, 45.72764531905019], [-60.95458224243754, 45.72761000600885], [-60.954659726239434, 45.72756458897531], [-60.95469762887284, 45.727547265956545], [-60.95473144868824, 45.72754707955419], [-60.954736191833945, 45.72754705648727], [-60.95476217768882, 45.72757452460093], [-60.95477503391204, 45.72757475483655], [-60.954813554779875, 45.72761054824261], [-60.95483921230327, 45.72764701137237], [-60.95483888390471, 45.72765600640519], [-60.95476038910554, 45.727799515412684], [-60.95475904614234, 45.727871498670154], [-60.954778995823716, 45.72795200907255], [-60.954783689215255, 45.72797095003698], [-60.95478696411015, 45.7279984704714], [-60.95479647765619, 45.72807828992375], [-60.95479585592019, 45.728127351767924], [-60.95479510542576, 45.728186276306566], [-60.9548093618518, 45.72821046504101], [-60.954832621497985, 45.72824995453845], [-60.95484510736392, 45.72829518269812], [-60.95488096873218, 45.72834610399011], [-60.9548829976453, 45.72834896660948], [-60.95494622106299, 45.72841220506181], [-60.9549468486403, 45.72843021812512], [-60.954933676342336, 45.728438992162665], [-60.95492083276314, 45.72843876217154], [-60.95485151573172, 45.72842872698858], [-60.95479300129867, 45.72842026235947], [-60.954523142055564, 45.72841902969413], [-60.95449709360461, 45.72842846415093], [-60.954457577479026, 45.72845475911442], [-60.95443218925973, 45.728481307116], [-60.954438124481925, 45.72849017131215], [-60.954444375901836, 45.7284995272208], [-60.95447036203696, 45.72852699540165], [-60.95447660095106, 45.728536342083565], [-60.95448254870105, 45.72854521550262], [-60.95446934711987, 45.72858998361118], [-60.95449536615435, 45.72861655228394], [-60.95450788130808, 45.728625777353024], [-60.95471344839761, 45.72866276240685], [-60.95473374887908, 45.728672774943604], [-60.95475132243612, 45.72868144250989], [-60.954770854307206, 45.72869490662647], [-60.954790185287315, 45.7287082411293], [-60.95482737326963, 45.728780914394164], [-60.95482796214289, 45.728781329980734], [-60.95490380200793, 45.7288344883417], [-60.954904229371984, 45.72884636819769], [-60.954904442415256, 45.72885250163384], [-60.954849699029026, 45.72886746193071], [-60.95483953438246, 45.72887024120426], [-60.95476500438701, 45.72888751139311], [-60.954724174681076, 45.728896978220206], [-60.95470065368509, 45.72890723206521], [-60.95462100166463, 45.72894193520486], [-60.95456832558553, 45.72897700442534], [-60.954555768691336, 45.72900376426182], [-60.954562020185435, 45.729013120164524], [-60.95456795515342, 45.729021993349505], [-60.95460711375194, 45.72904069650596], [-60.95470891448321, 45.72910372590014], [-60.95479882412394, 45.729140439611406], [-60.95484624773584, 45.72914046078933], [-60.95485023192235, 45.72914046012994], [-60.95495205870535, 45.72913238257047], [-60.95498911872917, 45.72913218210558], [-60.95499062276015, 45.729132173033896], [-60.954999392005945, 45.72913804563918], [-60.95500442215532, 45.72914143004483], [-60.95506801726979, 45.72915966151793], [-60.95511909671925, 45.72916867694757], [-60.95514674973232, 45.72916387954634], [-60.95517083291136, 45.72915970229007], [-60.95522285176256, 45.7291426318495], [-60.95526178603422, 45.72909742429154], [-60.95526177160977, 45.72909500278802], [-60.95526151571749, 45.72903441306961], [-60.95527567281273, 45.72899866289229], [-60.955314265757345, 45.72896245011628], [-60.9554045617853, 45.728918161161836], [-60.9554481788752, 45.72891225434825], [-60.95546914139462, 45.72890941630263], [-60.95549241313903, 45.72890950888593], [-60.95553339268355, 45.7289096664413], [-60.9555710305167, 45.7289151107022], [-60.95559731565022, 45.7289189124784], [-60.95572547411659, 45.72896441097474], [-60.955827258986425, 45.72899233553133], [-60.955910604361634, 45.72900925487853], [-60.95600714092043, 45.72902885850423], [-60.95602943560033, 45.729034244028746], [-60.95608357965378, 45.72904732828184], [-60.95613265109168, 45.72906805351027], [-60.956148130875064, 45.72907458617696], [-60.95619888224137, 45.72909259616336], [-60.95623734785234, 45.72912925217741], [-60.95626337270918, 45.72915674764198], [-60.95627185097822, 45.72919384810489], [-60.95627556421735, 45.72921008019122], [-60.95633877468859, 45.72930932127487], [-60.956350605632096, 45.72937253936392], [-60.95634629331337, 45.72938716968546], [-60.956337405318685, 45.7294173077045], [-60.95632098042214, 45.72944055116698], [-60.956311656522765, 45.72945375066969], [-60.95625992465858, 45.72949782947455], [-60.95620786010953, 45.72951579966027], [-60.956120059865825, 45.72951598354433], [-60.95611788761654, 45.729515989672954], [-60.95598974468004, 45.72950559545356], [-60.95597565927568, 45.72950804362883], [-60.95593799544098, 45.72951457024854], [-60.95586398166292, 45.729557124951334], [-60.95586055556222, 45.72955908883295], [-60.95579564698668, 45.729576828936025], [-60.95575568194218, 45.729576680633734], [-60.95573267931076, 45.72957660192241], [-60.95570756791031, 45.729573029109204], [-60.955667471154996, 45.72956733385719], [-60.95548955763674, 45.729476840125436], [-60.95546221755401, 45.72947165220047], [-60.95543722629295, 45.72946690235908], [-60.95542434967444, 45.729467571024394], [-60.955398961430134, 45.72949411923649], [-60.955386417320604, 45.72952088839181], [-60.95539773403644, 45.729571406087715], [-60.95539857522453, 45.729575120521886], [-60.95543615458059, 45.729601896838574], [-60.95545349373577, 45.72961065910876], [-60.955563625012594, 45.72966628510595], [-60.95559805244775, 45.729680825812245], [-60.95562816382967, 45.729693543070155], [-60.955659160350244, 45.729702432775724], [-60.95569175912341, 45.729711792198415], [-60.95578268836614, 45.729720611556715], [-60.95583538944225, 45.729727117433995], [-60.95585945621512, 45.72973008646204], [-60.95593854253592, 45.729733788223875], [-60.95607757248513, 45.72974029093173], [-60.956192576702044, 45.729758550741764], [-60.95637177216606, 45.72981396276039], [-60.956512764388314, 45.729859690015715], [-60.95662809714303, 45.72986895435431], [-60.95667950563945, 45.72986897406063], [-60.956705808781265, 45.729887446486565], [-60.956718009305526, 45.72990566659208], [-60.956692293331436, 45.72994121013659], [-60.956640528483646, 45.72998618861174], [-60.956626700120964, 45.73001294392396], [-60.95664017219693, 45.73003118678826], [-60.95664697489196, 45.73004623201132], [-60.9566520645638, 45.730057502205995], [-60.95665269269015, 45.73007551526472], [-60.95664030977966, 45.73009259345904], [-60.95663915963355, 45.73009417504259], [-60.95660029957357, 45.73010248065967], [-60.956472094113295, 45.730128989596906], [-60.95644574981764, 45.73014652002185], [-60.9564200007396, 45.73018296300256], [-60.95640745662033, 45.73020974126773], [-60.956406784805985, 45.730263734705986], [-60.95642780373745, 45.73028613604526], [-60.9564574962053, 45.73031774749738], [-60.956572440721736, 45.73037290958365], [-60.956661430190685, 45.73039970435243], [-60.95669642781698, 45.73040955645201], [-60.95672631136789, 45.730417966907105], [-60.9570311839626, 45.73047998277896], [-60.957046531699326, 45.730483101615086], [-60.95712297276792, 45.7305015707321], [-60.95716569002627, 45.73050133574137], [-60.95720010279841, 45.730501150211495], [-60.957381551141054, 45.73047831102243], [-60.957406690401946, 45.73047514228342], [-60.95741596858352, 45.73047412010628], [-60.95748411560618, 45.7304666260316], [-60.957541532079304, 45.7304668518095], [-60.9576126221833, 45.73046711507107], [-60.9577658323623, 45.73049506645277], [-60.95784463356967, 45.7305126141932], [-60.957932843582995, 45.73053225631027], [-60.95811269234805, 45.73058713721179], [-60.95820231830823, 45.73061448221158], [-60.958252009683015, 45.7306143805005], [-60.958292292616136, 45.73061429058636], [-60.95840696580018, 45.730606439605445], [-60.95847187480473, 45.73058869802717], [-60.95853431313981, 45.73058902207697], [-60.95861321263874, 45.73058942431114], [-60.95870287194832, 45.73059822764085], [-60.958831679593985, 45.73062573241671], [-60.95889363332249, 45.7306439414158], [-60.95895884241007, 45.73066310865096], [-60.95901088055807, 45.73068114037732], [-60.95906194923858, 45.73069015384573], [-60.95911402686595, 45.73067218259462], [-60.9591234595714, 45.73065845375657], [-60.95912624206794, 45.730654399066005], [-60.95911292267152, 45.730625943194454], [-60.95910120313178, 45.73060084624778], [-60.95907288949164, 45.73055004318597], [-60.95905054828327, 45.73050993191893], [-60.95902550947987, 45.73045637908518], [-60.959013006956674, 45.73041115110353], [-60.95902587764618, 45.73037537748057], [-60.95905258179343, 45.730347951891666], [-60.95909081277902, 45.730321632379116], [-60.95911099827379, 45.73031226312047], [-60.959130033166474, 45.73030343135308], [-60.959219646498426, 45.730313133546794], [-60.95938635044634, 45.730358416605284], [-60.95951385357683, 45.73038679739419], [-60.959520330316366, 45.73039070249583], [-60.959527687136, 45.730395145374004]]}, "properties": {"OBJECTID": 140527, "FEAT_CODE": "WALK20", "FEAT_DESC": "Lake - Water to the right line", "RIVNAME_1": " ", "RIVNAME_2": " ", "ZVALUE": 163.6, "FID": null, "SHAPE_Length": 2526.767264421926}}, {"type": "Feature", "id": 194597, "geometry": {"type": "LineString", "coordinates": [[-60.96567147933933, 45.7260330967089], [-60.96567097628985, 45.726032439682264], [-60.965667665764, 45.726028051272], [-60.96564522642607, 45.72599834457996], [-60.96562656694082, 45.72598876825394], [-60.96560567441125, 45.72597804503392], [-60.96555270055099, 45.72596248388367], [-60.965547195022474, 45.72596085565248], [-60.9655352885599, 45.7259564221204], [-60.965480638144406, 45.72593606958632], [-60.96540877992602, 45.72588917279903], [-60.96537112135132, 45.725856728665654], [-60.96532355641107, 45.725815737177214], [-60.965286544125206, 45.72578814702199], [-60.965275983917536, 45.725780263094876], [-60.96524184644897, 45.72575808868927], [-60.9651555159809, 45.725725047326286], [-60.965057400658324, 45.72570333508463], [-60.96495743116732, 45.72569233681126], [-60.964873860134, 45.725679920497555], [-60.96484936922546, 45.7256762797419], [-60.96477106001766, 45.72565840355481], [-60.96469973762426, 45.72563180392994], [-60.96467393444348, 45.725622190144946], [-60.96465566897327, 45.72561451087359], [-60.96460739065885, 45.72559423547867], [-60.96454320764196, 45.72556355956809], [-60.96452110203138, 45.72555298554529], [-60.96449451552012, 45.72554583300991], [-60.96447609969928, 45.72554087830727], [-60.9644749030133, 45.725540919984596], [-60.96443104010491, 45.72554201937825], [-60.96441439076475, 45.725545746030804], [-60.96440037175563, 45.725548880499296], [-60.96435872237655, 45.72558349372346], [-60.964337110465124, 45.7255911643194], [-60.96431991181338, 45.725597275410294], [-60.9642017699977, 45.72561211821523], [-60.96417695203879, 45.72561288193367], [-60.964163919192764, 45.725613279672444], [-60.96414195631981, 45.725618936770985], [-60.964093529252935, 45.72563140383666]]}, "properties": {"OBJECTID": 194597, "FEAT_CODE": "WARV50", "FEAT_DESC": "River - Single Line", "RIVNAME_1": " ", "RIVNAME_2": " ", "ZVALUE": 9999, "FID": null, "SHAPE_Length": 143.790313333296}}, {"type": "Feature", "id": 194598, "geometry": {"type": "LineString", "coordinates": [[-60.964093529252935, 45.72563140383666], [-60.96405550807717, 45.72566412843056], [-60.9640499966713, 45.72567716251312], [-60.964042726569375, 45.72569438667192], [-60.96403885589651, 45.725743606679806], [-60.96402875594694, 45.72577893523474], [-60.96402804649828, 45.72577971466765], [-60.9639943165374, 45.725816710168004], [-60.96395190654158, 45.72582733124504], [-60.96390502005488, 45.7258309957984], [-60.9638788828999, 45.725830925850474], [-60.96385314509481, 45.7258304759772], [-60.963836356282506, 45.72583025765792], [-60.96378778291717, 45.72584709642998], [-60.96373755071291, 45.725852294424016], [-60.96372827568612, 45.72585325416497], [-60.96369498229573, 45.72584924019102], [-60.963648113108945, 45.725843589000235], [-60.96362077394148, 45.72583451464725], [-60.96360403807726, 45.725828950694336], [-60.96355633261116, 45.72581873009101], [-60.96349682291914, 45.725824248596474], [-60.96345893473297, 45.72583173679668], [-60.963414781816105, 45.72583161550479], [-60.96335896504898, 45.72582074612054], [-60.96328247165873, 45.725797824777814], [-60.96320144071096, 45.725786244619506], [-60.9631132263772, 45.72576581439847], [-60.96310650272901, 45.72576375928255], [-60.96300527029848, 45.72573271873812], [-60.96293593176731, 45.725707422524444], [-60.96289374805749, 45.725692025598505], [-60.96280752753367, 45.725633736850895], [-60.962782709969794, 45.72561469825917], [-60.96276624387674, 45.72560207327667], [-60.962697821516485, 45.725587990399546], [-60.96268714384514, 45.725588294969974], [-60.962656372060366, 45.7255891591675], [-60.96263456640236, 45.725616285964165], [-60.962612828209195, 45.72564332395097], [-60.96256215773961, 45.72568106992027], [-60.962500874038916, 45.725683423939124], [-60.96245229031006, 45.72566626550088], [-60.96244067610481, 45.725646031252104], [-60.96243909153275, 45.7256365970246], [-60.962437180148285, 45.72562519476669], [-60.962416673436614, 45.72558727707829], [-60.962397840363245, 45.72556765210424], [-60.96238345627223, 45.72556068078407], [-60.962318615898106, 45.72555482541885], [-60.96231213248476, 45.72555464673283], [-60.962246531374774, 45.725552747157046], [-60.96216277667317, 45.72554116266487], [-60.962080970710765, 45.72550497737909], [-60.9620324589433, 45.72547454369474], [-60.9619678301041, 45.72542578453909], [-60.96189789067407, 45.72536121497418], [-60.96184591533219, 45.72530553483546], [-60.96183472638309, 45.72528457003786], [-60.9618307443783, 45.72527710021948], [-60.961826585617814, 45.72524834908079], [-60.96182380288802, 45.72522910946509], [-60.961815034679205, 45.72518364236907], [-60.96180076620629, 45.72515583591722], [-60.961778308497344, 45.7251418887353], [-60.961763735861474, 45.725137632248135], [-60.96173691793433, 45.72512979086957], [-60.961715987390605, 45.7251310914808], [-60.96167832551447, 45.72513342560445], [-60.96165294155075, 45.72514092035809], [-60.96163589827406, 45.72514593570641], [-60.96159069199777, 45.72517301367834], [-60.96157714726037, 45.72518112477113], [-60.961517324034396, 45.72524471956043], [-60.9614818722659, 45.72530144960082], [-60.96145436480954, 45.725335513114345], [-60.96144829574715, 45.725343019556725], [-60.96142899251343, 45.72535610435915], [-60.9614121264207, 45.725367549490734], [-60.96139021722085, 45.72537243293932], [-60.96138414086137, 45.72537378262146], [-60.96131923657251, 45.72537675544563], [-60.961245347146985, 45.72537342920786], [-60.961218908209, 45.72536859177855], [-60.96118233255422, 45.7253619082101], [-60.96111030152619, 45.7253453027067], [-60.96105618489113, 45.725340358146866], [-60.961011201694625, 45.72533622469454], [-60.96094453564872, 45.72533605153448], [-60.960899419288225, 45.72533593006908], [-60.96077120001621, 45.72536247060096], [-60.960747342373786, 45.72537886731023], [-60.9607316828994, 45.72538964081634], [-60.960705342183566, 45.72540717229831], [-60.96067963087322, 45.72544271684532], [-60.96069176805768, 45.725532942734496], [-60.96067955452032, 45.72555072647303], [-60.96066270218959, 45.7255660241314], [-60.960639683112035, 45.725586918247984], [-60.960588252970574, 45.72562290359902], [-60.96052277209497, 45.725645235644635], [-60.96048545081623, 45.72565797151483], [-60.96046816993621, 45.725669859144936], [-60.96044590668237, 45.72568516815058], [-60.9604035184395, 45.72572447421625], [-60.96036876467082, 45.725756697879454], [-60.96033214196384, 45.725777069951], [-60.96030449085651, 45.725792462721195], [-60.96027258066998, 45.725805529187475], [-60.96023926082421, 45.72581919153065], [-60.96019313598963, 45.72584181508979], [-60.96014897360061, 45.72586348358154], [-60.960121658813144, 45.725873166733116], [-60.960098197960185, 45.725881478570024], [-60.95999708755796, 45.72590077065535], [-60.95991701972612, 45.72591604609829], [-60.959852444191675, 45.725924793547996], [-60.95984964277056, 45.72592478850804], [-60.959736791297196, 45.72592452765238], [-60.95967350003262, 45.725933297944295], [-60.959616388556746, 45.725947408141515], [-60.95953085054019, 45.72596855318978], [-60.95949962141893, 45.72597102852987], [-60.95942903004373, 45.72597663494594], [-60.95931304939777, 45.72598536368022], [-60.95918422566667, 45.72599386279365], [-60.95902999045425, 45.72606491403926], [-60.95900296069856, 45.72610133473541], [-60.95898732196494, 45.72612810299855], [-60.95897692027013, 45.72614587392963], [-60.95895507422902, 45.72620544760016], [-60.95892412446282, 45.72628984510392], [-60.95891122813121, 45.72636162193882], [-60.95891100424274, 45.72638998882137], [-60.958910873792775, 45.72640662018071], [-60.95891853565245, 45.72642419188702], [-60.95892273375133, 45.726433834888496], [-60.958948098188785, 45.72647840168533], [-60.95903699723066, 45.72657809141397], [-60.95907583425109, 45.72664089177868], [-60.95911400966801, 45.726686578568845], [-60.95912619748027, 45.7267047981986], [-60.95913874576789, 45.72671312326286], [-60.959176947729226, 45.72672280684809], [-60.959241196599, 45.72672305485801], [-60.95927229057697, 45.72673382651971], [-60.95929323122552, 45.72674108640664], [-60.95931826233742, 45.72675953551005], [-60.95933140688778, 45.72678677312755], [-60.9593297685477, 45.726831748424296], [-60.959316898943975, 45.726867522119555], [-60.95927914822214, 45.72690965590682], [-60.95925259710625, 45.72693928051932], [-60.95923972742645, 45.72697505420398], [-60.95923874437226, 45.72700203937965], [-60.95928997338505, 45.72703795935093], [-60.95936721642793, 45.727038538490234], [-60.95939224769428, 45.72705698757919], [-60.95941694494322, 45.7271195351725], [-60.95944294578289, 45.72714700248799], [-60.959452194980706, 45.7271598140319], [-60.959468638919425, 45.727182565121964], [-60.959467983618865, 45.727200555241], [-60.959464397961995, 45.727205495682895], [-60.959454452216626, 45.727219215389155], [-60.95941655122522, 45.7272365400167], [-60.959313712609436, 45.72727250631121], [-60.95928704287464, 45.72729903249635], [-60.95927540607919, 45.72732389210339], [-60.95927450048138, 45.72732582011859], [-60.95926870484865, 45.727338506854416], [-60.959208861153016, 45.72746955289619], [-60.95918180434273, 45.72754197679718], [-60.95915603809348, 45.72764952731481], [-60.959155356201364, 45.72770352060809], [-60.959192555258674, 45.727811305216676], [-60.95917968564877, 45.727847069890316], [-60.95916775078997, 45.72786352630639], [-60.9591661411445, 45.727865729768496], [-60.95906266450159, 45.72795479881926], [-60.959050122827314, 45.727981559424464], [-60.95904946037821, 45.72798422085694], [-60.959036596970535, 45.72803533218052], [-60.95903528605246, 45.72807131240344], [-60.95904028169146, 45.728081644719374], [-60.959048430749796, 45.72809855005053], [-60.95914786926527, 45.72821592578953], [-60.959163025516034, 45.72823381141782], [-60.9592133905431, 45.72829770881353], [-60.95925094420166, 45.728360495168715], [-60.95925723001481, 45.72837351479903], [-60.95926410191134, 45.728387733022124], [-60.959280890462374, 45.72841161540663], [-60.959289749861846, 45.72842419497301], [-60.95934080301099, 45.72846921169204], [-60.95938787295591, 45.72847751450347], [-60.959442962183594, 45.72848723870989], [-60.95952625407522, 45.72849752078956], [-60.95959649595172, 45.728506183514945], [-60.95963000243778, 45.72851779025782], [-60.95964853233502, 45.7285242149265], [-60.95965169888314, 45.7285265487298], [-60.95966104800942, 45.72853344844004], [-60.95972733315111, 45.72861193247536], [-60.95973743543594, 45.72862391314773], [-60.959738036860955, 45.728624337934086], [-60.959787532377156, 45.72865991167078], [-60.959890917629856, 45.72871486392754], [-60.95989591646102, 45.728718409574526], [-60.95999239630721, 45.72878688376527], [-60.960032917349366, 45.72883421429246], [-60.96013169950912, 45.72894958823257], [-60.96022025075373, 45.729094284340384], [-60.960258461474965, 45.72913907126771], [-60.960284450793424, 45.72916653817602], [-60.960296589520006, 45.7291751888281], [-60.96032203230662, 45.729193312022026], [-60.96035324698608, 45.72919869399386], [-60.96037439709364, 45.729202348054315], [-60.96046117993772, 45.7292117376989], [-60.960464008919764, 45.72921204924686], [-60.960472361320406, 45.729212090397425], [-60.96060535623521, 45.7292127732358], [-60.96072134342629, 45.72920404330373], [-60.960888038051465, 45.729214220459596]]}, "properties": {"OBJECTID": 194598, "FEAT_CODE": "WARV50", "FEAT_DESC": "River - Single Line", "RIVNAME_1": " ", "RIVNAME_2": " ", "ZVALUE": 9999, "FID": null, "SHAPE_Length": 982.7321737874546}}, {"type": "Feature", "id": 194725, "geometry": {"type": "LineString", "coordinates": [[-60.97006918415567, 45.722913322707285], [-60.9700690415853, 45.72291335617684], [-60.97006812195089, 45.72291355585284], [-60.97001253956644, 45.72292570022993], [-60.969995441216064, 45.72292943771797], [-60.96993952933485, 45.722942872334855], [-60.96989730556174, 45.72294880045435], [-60.96989534242918, 45.722949071588914], [-60.96983498113701, 45.722950176812034], [-60.96978721801731, 45.722952577070394], [-60.969747897396715, 45.72295888977778], [-60.969655593981734, 45.722973693512046], [-60.96956987507367, 45.72299935233228], [-60.96955515226201, 45.723004203097986], [-60.969533783176374, 45.723011248932636], [-60.96951605930243, 45.723022671012586], [-60.96949671700585, 45.723035135424276], [-60.96946588230673, 45.723076072426], [-60.96946210962668, 45.723086914461234], [-60.96946040239896, 45.72309182561108], [-60.969453415176716, 45.72310449168384], [-60.96943674625042, 45.72313467241949], [-60.969428494489655, 45.72314180744532], [-60.9693996526528, 45.72316675822788], [-60.96937302812226, 45.723180524283414], [-60.96936442401228, 45.723184970766034], [-60.96932859750647, 45.72320088642954], [-60.96928676301483, 45.72321946753458], [-60.96927880393581, 45.7232256176528], [-60.969262343580354, 45.72323834029054], [-60.9692453672843, 45.723266715348664], [-60.969231441019666, 45.72329000511523], [-60.96920705523111, 45.72334836548376], [-60.96920590074433, 45.72335114424003], [-60.969205596201, 45.723354937211916], [-60.96920204514208, 45.723399725639666], [-60.96920626927066, 45.72345336521421], [-60.96920663623448, 45.723459195333255], [-60.969207099599075, 45.7234666203289], [-60.969193384449156, 45.72350571045451], [-60.96918421241018, 45.72351518733819], [-60.96915987442424, 45.7235403171575], [-60.969135109778954, 45.72355665448897], [-60.96912460349228, 45.72356358738442], [-60.96912369478295, 45.72356490336083], [-60.96909193367377, 45.723610819293675], [-60.969070887491796, 45.72365042710154], [-60.96905008842365, 45.723689598254886], [-60.96904365818929, 45.72371419142116], [-60.96904261479927, 45.72373942943983], [-60.96903069967916, 45.72376643632063], [-60.969026205469675, 45.72377661744301], [-60.96899721693531, 45.723808082177044], [-60.96897273663687, 45.723836422752015], [-60.96896809358218, 45.72386418001598], [-60.968960778226865, 45.72388624618], [-60.96893628821696, 45.72391520763743], [-60.96887822625076, 45.72399394115136], [-60.96886806729004, 45.72400653277578], [-60.968852835424656, 45.72402541582718], [-60.96881210669044, 45.72406380943861], [-60.96875509393922, 45.724112885526736], [-60.968746910014836, 45.72411601630097], [-60.96872891269227, 45.724122914933375], [-60.96868744758, 45.72412596680441], [-60.96864798722283, 45.72412618302639], [-60.968609966226715, 45.724126397834254], [-60.96854522637695, 45.72411921565732], [-60.96852262249428, 45.724116707366676], [-60.96847132673143, 45.72410521882774], [-60.968445294080034, 45.7240881130485], [-60.96840847519071, 45.724064037696735], [-60.968380517710315, 45.72405323430722], [-60.968350937906415, 45.724041807989934], [-60.96821858346799, 45.72402380079561], [-60.9681753465822, 45.72402432770548], [-60.968167833154624, 45.724026687287335], [-60.96812751041135, 45.724039345255484], [-60.96810408795105, 45.72404842450006], [-60.96808870751264, 45.72405438849044], [-60.968039017372234, 45.724080129113474], [-60.968024404894265, 45.72408334347743], [-60.96799932515408, 45.724088864854075], [-60.967971393975645, 45.72409328238274], [-60.9679443159568, 45.72409756206933], [-60.9678991757436, 45.724104148629245], [-60.967855056292045, 45.72411058231719], [-60.96780424974816, 45.724110056299224], [-60.96777398421365, 45.72410974276358], [-60.96771058626459, 45.72410808355178], [-60.967640666519145, 45.72410624523827], [-60.967613259473886, 45.724096567569816], [-60.96760109148319, 45.72409226461143], [-60.96759673785947, 45.72408935184499], [-60.96753107091023, 45.72404538384787], [-60.96746460191333, 45.72400546095188], [-60.96744549147714, 45.72399344664673], [-60.967390071181875, 45.72395857183961], [-60.967352361935546, 45.72394205007097], [-60.96731187008245, 45.723924299643066], [-60.96725159615348, 45.72390773625487], [-60.967204748947424, 45.723908243540784], [-60.96719022249996, 45.723914753665014], [-60.96714875922142, 45.72393334059273], [-60.967132241733665, 45.72395682700241], [-60.96711155034122, 45.72398626072613], [-60.96707969524563, 45.72404675591017], [-60.96704354165777, 45.72406811058768], [-60.96699856710828, 45.724053484578924], [-60.96696007744973, 45.724006057640885], [-60.96696001842478, 45.72400272625079], [-60.9669593795057, 45.723967566295414], [-60.966948810837806, 45.72392273360499], [-60.966924657221156, 45.72389175451091], [-60.96688501449266, 45.72388850152337], [-60.96682002140139, 45.72391168295368], [-60.96676785221159, 45.7239395031062], [-60.96675406623285, 45.72394685444219], [-60.96668530126942, 45.72400031073487], [-60.96663378974459, 45.72402983470741], [-60.966601121180084, 45.72403199833251], [-60.9665878399125, 45.72403287797431], [-60.966569187343175, 45.72402808140925], [-60.9665482436664, 45.72402267698947], [-60.96651594321878, 45.723997349342596], [-60.9664710460056, 45.72396820602314], [-60.96642195464044, 45.72394875399825], [-60.96639730111441, 45.72393899005386], [-60.96631898137247, 45.72392995363587], [-60.96627030766458, 45.72393298427355], [-60.966176537540754, 45.72394599489495], [-60.96605470672536, 45.72398291617932], [-60.96599698850295, 45.723997909856], [-60.96586340367414, 45.7240385909991], [-60.96582012798539, 45.72404478690334], [-60.96577290801348, 45.72404564699861], [-60.965759752663196, 45.724045889721765], [-60.965747126999716, 45.72404782504991], [-60.96566237963688, 45.724060788943945], [-60.9655586283276, 45.72408323424103], [-60.96546121884462, 45.72410444228509], [-60.965337672917784, 45.72412558064418], [-60.96521556373554, 45.72414254103969], [-60.965168148741554, 45.724149121993385], [-60.96515602555736, 45.7241499590962], [-60.96509784375887, 45.724153998942995], [-60.96500326879612, 45.72415058558769], [-60.96487101811224, 45.72414672580092], [-60.96486094086008, 45.724146429211686], [-60.9647456065922, 45.72414739819209], [-60.96473258147549, 45.724148300184716], [-60.96461400235246, 45.724156519949545], [-60.96460084975469, 45.72415491740015], [-60.96452936799913, 45.72414619964341], [-60.9644623247101, 45.724134518641385], [-60.96444113899108, 45.72413082869596], [-60.96436913504871, 45.72411738505075], [-60.964291667908185, 45.72411530214589], [-60.96422674434239, 45.72412521598667], [-60.96416803692026, 45.72415220732994], [-60.9641039153038, 45.724181073326484], [-60.96409864883441, 45.72418348169737], [-60.96401629004179, 45.72422123047116], [-60.96397662165765, 45.72422681491681], [-60.96390093639396, 45.72422661770285], [-60.963883451006936, 45.72422789912523], [-60.96383422947102, 45.72423149501566], [-60.963799738194716, 45.724244201419296], [-60.96378999520961, 45.72424779009061], [-60.96376751016001, 45.72427560706678], [-60.96374010038365, 45.72430951086017], [-60.963733396473785, 45.724330606491414], [-60.96372728613138, 45.724349867517525], [-60.96373344457166, 45.72437701607752], [-60.96373425632457, 45.72439216109262], [-60.963721368637565, 45.72444514472601], [-60.9637157669804, 45.72448046345597], [-60.96374251875935, 45.72453608905853], [-60.9637899944373, 45.72458796173284], [-60.96386101281307, 45.7246196960352], [-60.96393752012951, 45.72463441740861], [-60.96399146732961, 45.724640122660155], [-60.963992465797595, 45.72464023046973], [-60.96402212979775, 45.72465356761154], [-60.9640427492816, 45.72467319716414], [-60.96404434733897, 45.72471232563476], [-60.96403876508393, 45.724743225274864], [-60.964033704637515, 45.72476259504209], [-60.96402589995433, 45.72479241095501], [-60.964026376685176, 45.72487194255018], [-60.964031002010195, 45.724891421982335], [-60.964033419845904, 45.724901627120474], [-60.96404589763311, 45.72492816824485], [-60.964065606229084, 45.72495094087538], [-60.96408437522898, 45.72496349871425], [-60.96409971953033, 45.72497375427066], [-60.96415181617711, 45.72500669923234], [-60.96420113338089, 45.725053537043024], [-60.96421811808462, 45.725076297094546], [-60.964218637407214, 45.72508605434388], [-60.96421975685473, 45.72510723545234], [-60.964215731908425, 45.72513807285016], [-60.96421318084647, 45.72515770337776], [-60.96420609018055, 45.725170700316355], [-60.96419499092412, 45.72519109655787], [-60.96417306096061, 45.72520823041698], [-60.96413529900561, 45.72523135568304], [-60.964092819279216, 45.72525522491802], [-60.964071538131925, 45.72527289237695], [-60.96406023464918, 45.725282285845296], [-60.9640606887389, 45.72528711843125], [-60.964061934158806, 45.725300588001616], [-60.96406764830026, 45.72530814262622], [-60.96407626794504, 45.72531955643423], [-60.96408687989731, 45.72535430012797], [-60.964087874198356, 45.72536336377346], [-60.964091189159475, 45.7253934409224], [-60.96409100482232, 45.72542680403031], [-60.96409094253139, 45.7254302862742], [-60.964081714728295, 45.725480517897275], [-60.96408212400836, 45.72551345954315], [-60.96408234985504, 45.72553164541846], [-60.96409363824552, 45.72560930853261], [-60.964093529252935, 45.72563140383666]]}, "properties": {"OBJECTID": 194725, "FEAT_CODE": "WARV50", "FEAT_DESC": "River - Single Line", "RIVNAME_1": " ", "RIVNAME_2": " ", "ZVALUE": 9999, "FID": null, "SHAPE_Length": 805.981780467609}}, {"type": "Feature", "id": 59405, "geometry": {"type": "LineString", "coordinates": [[-60.97006918415567, 45.722913322707285], [-60.97007706294382, 45.72289980835549], [-60.97009521425989, 45.722868780784886], [-60.97014696173852, 45.72282379586308], [-60.97014867550026, 45.72282154008988], [-60.970160468764, 45.7228060340969], [-60.97019308882018, 45.72279099727769], [-60.97023756254423, 45.7227704915457], [-60.97032786925571, 45.72272530075786], [-60.97033228094761, 45.72271632423939], [-60.970354212073126, 45.72267176341442], [-60.97040597200274, 45.722626778595405], [-60.97044547662575, 45.72260047789094], [-60.97049657191812, 45.72257348305636], [-60.970548625577855, 45.722555506147934], [-60.970618471076634, 45.72254195879234], [-60.97063792202644, 45.72253819100806], [-60.970818790361896, 45.72251169277444], [-60.9708681286588, 45.72249062516332], [-60.97092190595842, 45.72246762919392], [-60.97096046555013, 45.722467414184784], [-60.970990275708644, 45.72247495552434], [-60.97099866682141, 45.72247709380715], [-60.97108765116559, 45.72250387727196], [-60.97112617821095, 45.72250456172048], [-60.97120393492204, 45.722451037456274], [-60.97122205173936, 45.72246352853411], [-60.97124280161826, 45.72247783056337], [-60.97125565680416, 45.72247805892491], [-60.9712985916722, 45.722466319340114], [-60.9713205393145, 45.7224603185576], [-60.97133243045562, 45.72246907165747], [-60.97133304344578, 45.72246953259221], [-60.97134213369044, 45.72247259236152], [-60.971358447853596, 45.7224780846854], [-60.97136843809712, 45.722501007465056], [-60.97137031313859, 45.72250529820611], [-60.971370339066766, 45.722509196064436], [-60.97137092781362, 45.722559305635194], [-60.97140813336253, 45.7226319828634], [-60.971459191319454, 45.72267699428243], [-60.971509954960396, 45.72269499769569], [-60.97152603376541, 45.72270131389944]]}, "properties": {"OBJECTID": 59405, "FEAT_CODE": "WALK20", "FEAT_DESC": "Lake - Water to the right line", "RIVNAME_1": " ", "RIVNAME_2": " ", "ZVALUE": 170.9, "FID": null, "SHAPE_Length": 156.74789745346678}}, {"type": "Feature", "id": 59406, "geometry": {"type": "LineString", "coordinates": [[-60.97152603376541, 45.72270131389944], [-60.97162524481122, 45.72274024980832], [-60.97170263914979, 45.72276772703469], [-60.97174051513043, 45.722786401548944], [-60.97174114778566, 45.72280442362206], [-60.971740496849705, 45.722822404896895], [-60.97171448668772, 45.72283093487467], [-60.9716765594743, 45.72284917220724], [-60.971650874610575, 45.72284871603076], [-60.97153426901982, 45.7228394442479], [-60.97145718188298, 45.722838975118755], [-60.97129112373153, 45.722846826520374], [-60.97121721723336, 45.722847241813724], [-60.971214004020666, 45.72284725674014], [-60.97120958692365, 45.72284644919835], [-60.97111059925096, 45.722828318018955], [-60.97103476895847, 45.72282011214121], [-60.971020995793104, 45.72281861631828], [-60.97082856836431, 45.722844909492416], [-60.970686904629076, 45.72288919712104], [-60.970678844390164, 45.722892114209934], [-60.97066084853483, 45.7228986351353], [-60.97063891474279, 45.72290105367142], [-60.97050602249678, 45.72291568589909], [-60.970385656147585, 45.7229321877474], [-60.9703781654972, 45.72293321574389], [-60.97031864350314, 45.72293669437922], [-60.97023650760783, 45.7229414992446], [-60.97011037646522, 45.72292025650481], [-60.97006918415567, 45.722913322707285]]}, "properties": {"OBJECTID": 59406, "FEAT_CODE": "WALK20", "FEAT_DESC": "Lake - Water to the right line", "RIVNAME_1": " ", "RIVNAME_2": " ", "ZVALUE": 170.9, "FID": null, "SHAPE_Length": 156.9273092123095}}, {"type": "Feature", "id": 59409, "geometry": {"type": "LineString", "coordinates": [[-60.961160604534484, 45.718228965505126], [-60.96117239699858, 45.718230121128414], [-60.96117881150308, 45.71823075769715], [-60.961247018083114, 45.71823744789668], [-60.96125024459818, 45.718237766522876], [-60.96127592718346, 45.71823822500189], [-60.96132667090829, 45.718256223607234], [-60.96135953910181, 45.718271796880344], [-60.961403726270156, 45.71829271172265], [-60.96141591310412, 45.71831093111479], [-60.96144189815982, 45.71833839773285], [-60.96144341930502, 45.71834108915957], [-60.96149259249625, 45.718428402787545], [-60.961508700112276, 45.718469185467136], [-60.96151730147746, 45.718490950219824], [-60.96151727515027, 45.71853017578312], [-60.961517251641915, 45.71856296573482], [-60.96150301911739, 45.71867162288675], [-60.96148978810133, 45.71875239504396], [-60.961487911018416, 45.71890254197276], [-60.961487763220674, 45.71891437555088], [-60.96148426053146, 45.71892623925416], [-60.961461389418794, 45.71900390502933], [-60.961387218433316, 45.7191215732784], [-60.96138228150361, 45.71912941496552]]}, "properties": {"OBJECTID": 59409, "FEAT_CODE": "WALK20", "FEAT_DESC": "Lake - Water to the right line", "RIVNAME_1": " ", "RIVNAME_2": " ", "ZVALUE": 172.1, "FID": null, "SHAPE_Length": 117.15399768520783}}, {"type": "Feature", "id": 59410, "geometry": {"type": "LineString", "coordinates": [[-60.96138228150361, 45.71912941496552], [-60.96134405154243, 45.71912063169591], [-60.9612846132706, 45.7190710466615], [-60.96126797658009, 45.71905716727426], [-60.961245336305886, 45.719035592929814], [-60.96122947709057, 45.7190204762877], [-60.96121011964033, 45.71900932960654], [-60.96116654614345, 45.71898424921847], [-60.96110397129673, 45.718931880812434], [-60.961101701575316, 45.71892998610024], [-60.96110015114853, 45.718927393156626], [-60.96106415144931, 45.71886720932358], [-60.96101413745705, 45.71872320167901], [-60.9610026805463, 45.71857898232209], [-60.96101652922877, 45.71851621409659], [-60.96106108101323, 45.71843211278099], [-60.961068959013886, 45.71841724888764], [-60.96107224580077, 45.7184070825165], [-60.96109501868428, 45.71833671480904], [-60.96110458526485, 45.7183209989689], [-60.961160604534484, 45.718228965505126]]}, "properties": {"OBJECTID": 59410, "FEAT_CODE": "WALK20", "FEAT_DESC": "Lake - Water to the right line", "RIVNAME_1": " ", "RIVNAME_2": " ", "ZVALUE": 172.1, "FID": null, "SHAPE_Length": 112.6816285302449}}, {"type": "Feature", "id": 136149, "geometry": {"type": "LineString", "coordinates": [[-60.96129122732969, 45.719371705602235], [-60.96134149030695, 45.71943226098571], [-60.96136632063477, 45.719462164255056], [-60.961368996146014, 45.719465974401416], [-60.96139197892651, 45.71949862597032], [-60.961404861862675, 45.719521736286765], [-60.96141731032812, 45.719544073767615], [-60.96146771719094, 45.71956536063068], [-60.96148185313166, 45.71957133754302], [-60.961583669708176, 45.719598357490874], [-60.96169963682244, 45.719589626210144], [-60.961723092886665, 45.719585958429676], [-60.96175134328537, 45.719581548126094], [-60.961843146969, 45.71954505863632], [-60.96193126009229, 45.71951005137033], [-60.961979825810374, 45.71949328524722], [-60.961983313484794, 45.71949207835598], [-60.96204953271562, 45.719492332951084], [-60.962111794776824, 45.719492570900506], [-60.962123381004886, 45.71949481185672], [-60.96216283399525, 45.71950248257155], [-60.96229096393041, 45.7195479732646], [-60.962354877547114, 45.719557214470726], [-60.96253506075358, 45.71958474068057], [-60.9626249633661, 45.7196082978127], [-60.9626750760282, 45.7196214330573], [-60.96279100850027, 45.719645814448064], [-60.96298368509765, 45.719686344120895], [-60.963149416275925, 45.71972261250652], [-60.963249870244944, 45.71972316195039], [-60.96336782271943, 45.719723798339764], [-60.96341954894393, 45.719714819760114], [-60.963432377750514, 45.71971504853322], [-60.963548318873656, 45.71970632391138], [-60.96362229488245, 45.719689740167986], [-60.96366366175585, 45.71968046874811], [-60.96378906866775, 45.71962731308638], [-60.96389596914546, 45.71958200018208], [-60.96394798932189, 45.719564925772346], [-60.963994207272734, 45.71955228436372], [-60.96401288376523, 45.71954718076484], [-60.96402916953443, 45.71954492383886], [-60.96407616718405, 45.719538407924304], [-60.96425604781945, 45.719538914250215], [-60.964577228791754, 45.71957614224041], [-60.964705981721906, 45.7196045395682], [-60.964872018261396, 45.719667804663096], [-60.964948751239405, 45.71971328555165], [-60.96503797747509, 45.719803975616045], [-60.965091247283894, 45.7198533317638], [-60.965164781486415, 45.71992144683604], [-60.96518367382321, 45.719945077837906], [-60.96521519148567, 45.71998445137482], [-60.96522862885033, 45.72003869632602], [-60.965264493951004, 45.720218444688925], [-60.96526415744028, 45.72026345230723], [-60.96525566773485, 45.72028704548246], [-60.96525129325748, 45.72029922679998], [-60.96524135410661, 45.720319562818425], [-60.96519854193783, 45.72040719809163], [-60.96513327522825, 45.720505945439164], [-60.965120410901335, 45.72054171991338], [-60.96512006174874, 45.72058671830295], [-60.96513255446619, 45.72063194550672], [-60.96515821574786, 45.720668406419335], [-60.96523598769071, 45.72073698398198], [-60.96526031803618, 45.72075843462294], [-60.96530391730618, 45.72078961652244], [-60.96538682030548, 45.72084889743564], [-60.96551456269604, 45.72101138957074], [-60.965603791531215, 45.72110208821936], [-60.96566895756415, 45.721151223956504], [-60.965820152036734, 45.72126525849083], [-60.96587025022603, 45.721337258092674], [-60.965857699874064, 45.72136403731657], [-60.9658194584347, 45.72139125903048], [-60.96580157626218, 45.72139712414878], [-60.965793447763225, 45.72139979665258], [-60.96570286756948, 45.7214170851372], [-60.96551076940664, 45.72143437429187], [-60.96545795523078, 45.7214343515173], [-60.965407967941736, 45.72143433407576], [-60.965343071706066, 45.72145207984102], [-60.96527101791155, 45.721501669317334], [-60.965265310952795, 45.72150560005132], [-60.96525529856087, 45.721519454099514], [-60.96521389776779, 45.7215766913971], [-60.9652082818592, 45.72159934566554], [-60.96520034689561, 45.72163136457671], [-60.96518715598515, 45.72167612515333], [-60.965212197092164, 45.721729676746705], [-60.965311082025075, 45.72181776637223], [-60.96531426867911, 45.72182060443068], [-60.96531423018199, 45.72182520321513], [-60.96531391963869, 45.72186560281388], [-60.965287582015684, 45.72188313541557], [-60.96521014726692, 45.72192766047327], [-60.96515776589121, 45.72195463003027], [-60.96511983754837, 45.72197285616629], [-60.96511384029531, 45.72197062509062], [-60.9650944927206, 45.72196340365213], [-60.965081637701836, 45.72196317459936], [-60.9650805185965, 45.721962497591726], [-60.96506780533055, 45.721954827302156], [-60.96506230843377, 45.72193032786166], [-60.96504347289299, 45.72184638269227], [-60.965018464570015, 45.72179193155486], [-60.964980885928455, 45.721765150273065]]}, "properties": {"OBJECTID": 136149, "FEAT_CODE": "WALK20", "FEAT_DESC": "Lake - Water to the right line", "RIVNAME_1": " ", "RIVNAME_2": " ", "ZVALUE": 172.8, "FID": null, "SHAPE_Length": 667.5076130552604}}, {"type": "Feature", "id": 136150, "geometry": {"type": "LineString", "coordinates": [[-60.964980885928455, 45.721765150273065], [-60.964814244720316, 45.72168298165436], [-60.96452006573386, 45.72157422825083], [-60.96448646629068, 45.72155606860158], [-60.96446840638827, 45.721546304744585], [-60.96438979058535, 45.72151545248784], [-60.96435308646656, 45.721501044849994], [-60.96426382580849, 45.72148235202888], [-60.964209686438785, 45.7214745912652], [-60.964134709317314, 45.72146384874595], [-60.964037191140214, 45.72142591759055], [-60.963994058300244, 45.72140913599826], [-60.96395241611902, 45.72140084183112], [-60.96390475238782, 45.72139134218111], [-60.96382600824789, 45.721390910360356], [-60.963686339724276, 45.721390148269506], [-60.96365031793573, 45.72141496058408], [-60.963648117086024, 45.72141646949965], [-60.96360888095904, 45.72147067550074], [-60.96360424748919, 45.72148643450175], [-60.96359568849869, 45.72151544486882], [-60.9635954621827, 45.72154394675018], [-60.963595338088375, 45.72156044322559], [-60.9636121701154, 45.72160221960411], [-60.9636318793326, 45.72165110400482], [-60.96360680202646, 45.72170466237532], [-60.9635625135197, 45.72172639295567], [-60.96351652411785, 45.72174895727692], [-60.96347698424453, 45.721776155051785], [-60.96343744059098, 45.72183845633593], [-60.963373162789885, 45.72191021753236], [-60.96332504752157, 45.72194388700458], [-60.9633217378193, 45.72194620422361], [-60.96330895708642, 45.721949234629115], [-60.9632828516682, 45.7219554117479], [-60.96325716734776, 45.721954953691345], [-60.963218313879565, 45.72196326168447], [-60.963217503842415, 45.72196327424059], [-60.96319259685727, 45.72196370312222], [-60.96313356550076, 45.72200460358645], [-60.963128002550185, 45.72200845577354], [-60.9631263898467, 45.722008985067504], [-60.96310199119993, 45.722016992769824], [-60.96307660116506, 45.72200843909302], [-60.96307267107839, 45.722005551708676], [-60.96306408633531, 45.72199920595914], [-60.9630518978714, 45.72198099572633], [-60.96302560722869, 45.721926521280245], [-60.963009243367964, 45.72192100887548], [-60.963000217246595, 45.721917967587245], [-60.962962345184295, 45.721899281235444], [-60.96291064047255, 45.72187226530877], [-60.96288526297417, 45.72185417983776], [-60.96287306248311, 45.72184549234491], [-60.96284879555394, 45.72181099999525], [-60.96284740186682, 45.721809039937], [-60.96282206898758, 45.72176357444662], [-60.96281019899422, 45.721701265355904], [-60.9628109101227, 45.72164636342255], [-60.962797756282, 45.721584022427024], [-60.96279177888305, 45.72157099947887], [-60.962772750267234, 45.72152957083449], [-60.96267097776177, 45.721430545375455], [-60.96266745254934, 45.72142147256569], [-60.96264629900838, 45.72136709867053], [-60.96264153728054, 45.72131746365091], [-60.962634183437096, 45.72124086963288], [-60.96262587095261, 45.7212107842754], [-60.96262169262739, 45.721195642192285], [-60.96258348486057, 45.72115086505228], [-60.962481689822376, 45.72108782470115], [-60.9623664548397, 45.72100566953014], [-60.962304971939865, 45.720946858622376], [-60.96229070333568, 45.720933210660995], [-60.96228226090048, 45.720923312026336], [-60.96225250917802, 45.72088842464989], [-60.96218893274407, 45.72083418479546], [-60.96216255443611, 45.72081537022936], [-60.96215010431279, 45.72080648918378], [-60.96212451563553, 45.72079740969491], [-60.96209935835629, 45.720788481913075], [-60.9620611271512, 45.72077969886476], [-60.96205475529108, 45.72078106131186], [-60.96202227434088, 45.72078800646336], [-60.96189450503163, 45.720823323194594], [-60.961893765191384, 45.720823526013405], [-60.96189203791589, 45.720824026242546], [-60.96180285796336, 45.72084979748896], [-60.96178391272286, 45.7208530867439], [-60.961751130450885, 45.72085877531228], [-60.961700057362336, 45.72084976294784], [-60.96167725925963, 45.720844513551825], [-60.96166182618301, 45.72084097976629], [-60.96165322753017, 45.72082124928954], [-60.961649965973734, 45.720813765315455], [-60.961649949146555, 45.72080928255581], [-60.961649688187144, 45.72075075390124], [-60.96162402918045, 45.720714292238796], [-60.961613188876505, 45.720709202252884], [-60.96158612534197, 45.72069651395172], [-60.96155551406878, 45.72069056701745], [-60.961535085154, 45.72068660200806], [-60.96140692841634, 45.72067711368752], [-60.961322402927266, 45.720684092708716], [-60.96120070601051, 45.720694134461674], [-60.9611043546937, 45.720711100248316], [-60.96109853527064, 45.720712112467844], [-60.96096906922391, 45.72073860397026], [-60.960962016749725, 45.72073854105965], [-60.96077636297938, 45.72073696336096], [-60.96073815771568, 45.720728180332344], [-60.96071311590967, 45.720709731330466], [-60.960706081173726, 45.72069541125947], [-60.96068679537561, 45.720656155890985], [-60.96061137393106, 45.720574700871964], [-60.96059342501493, 45.72054920476831], [-60.960585715357496, 45.72053824798307], [-60.960583726354905, 45.72053111073606], [-60.96056070494174, 45.72044868321603], [-60.960561057751384, 45.720403684901676], [-60.9606013289444, 45.72025048826718], [-60.9606155056118, 45.72017873404038], [-60.96061583302054, 45.72013690359546], [-60.9606158583682, 45.720133735723095], [-60.96060336941146, 45.72008850808536], [-60.96056516433307, 45.72004372130704], [-60.960514143056805, 45.71996270194675], [-60.96051415564615, 45.71992669847707], [-60.960523712957325, 45.7199070131162], [-60.96054056477789, 45.71987226446121], [-60.96064012414935, 45.719698623349494], [-60.96065856543595, 45.71966645032095], [-60.960711524273776, 45.71962396653727], [-60.96074857276319, 45.71959424997098], [-60.960865514449274, 45.71952343056362], [-60.96098087709657, 45.71946068367524], [-60.961042812409616, 45.719439530178136], [-60.961213784952754, 45.71938113322501], [-60.96129122732969, 45.719371705602235]]}, "properties": {"OBJECTID": 136150, "FEAT_CODE": "WALK20", "FEAT_DESC": "Lake - Water to the right line", "RIVNAME_1": " ", "RIVNAME_2": " ", "ZVALUE": 172.8, "FID": null, "SHAPE_Length": 677.0644900393808}}, {"type": "Feature", "id": 142776, "geometry": {"type": "LineString", "coordinates": [[-60.9768039105844, 45.71302830316709], [-60.97682894099622, 45.71305530834158], [-60.97687935899778, 45.713109748044864], [-60.9768803054856, 45.713118765742756], [-60.976969570304966, 45.71313744880033], [-60.977034114030836, 45.7131646948213], [-60.977109889396715, 45.71320114068248], [-60.97713301280297, 45.71321655481561], [-60.97713623710717, 45.713218709143746], [-60.97714860590198, 45.7132408995], [-60.97716157841129, 45.71326416265795], [-60.977160604452266, 45.713291148198564], [-60.97714033144736, 45.713305334614745], [-60.97710919622487, 45.713327141433474], [-60.97697975430771, 45.713353651537886], [-60.976735986240506, 45.713415039939136], [-60.97671527758012, 45.71341886749142], [-60.97659370364072, 45.71344132211636], [-60.976555771905176, 45.71345955200931], [-60.976513706958684, 45.713480516946994], [-60.97650344918503, 45.71348562774457], [-60.97645139082363, 45.71353961102403], [-60.97643884514963, 45.713602395242205], [-60.976438434546615, 45.713635475386376], [-60.97643818054797, 45.71365638904764], [-60.976446071145105, 45.713674494716216], [-60.97645004659782, 45.713683602090164], [-60.97646549141426, 45.71370208463339], [-60.976488227918466, 45.713729283259035], [-60.97654182576589, 45.71376683069606], [-60.97656467067359, 45.713782843070845], [-60.97656433094007, 45.71382784170141], [-60.97651479220258, 45.71391736931649], [-60.97649973945171, 45.713944609449904], [-60.97649938682014, 45.71398960785067], [-60.97650031924772, 45.713992963716606], [-60.97651188715374, 45.714034842983985], [-60.976507503233634, 45.71404060691212], [-60.976498397491355, 45.71405259682921], [-60.976472359331524, 45.71406203649683], [-60.976370237342664, 45.714079137952595], [-60.97627931475231, 45.71410632979498], [-60.97626242083368, 45.71410840667515], [-60.976138639065205, 45.714123638948905], [-60.97610089273084, 45.71412035075217], [-60.976022083491756, 45.71411346351742], [-60.975799374980895, 45.71404522271285], [-60.97575394374095, 45.714031303106324], [-60.975702874369965, 45.714022297062264], [-60.97558692050087, 45.714031042804784], [-60.975566379810054, 45.71402807742396], [-60.975523010718945, 45.71402180906663], [-60.97542353189574, 45.71399596808955], [-60.97538171663638, 45.71398510074639], [-60.97533035491362, 45.713984190189535], [-60.97530624080749, 45.7139883801561], [-60.975278635734014, 45.7139931742951], [-60.9752021947394, 45.71401072100029], [-60.97507208446696, 45.71409122266921], [-60.97503383964333, 45.71411844743364], [-60.97499944188642, 45.71412383213631], [-60.974982152797374, 45.714126531885114], [-60.974943598915594, 45.71412674834995], [-60.97487968914347, 45.71411751425179], [-60.974832329315454, 45.714117502519905], [-60.97477690048073, 45.71411749169271], [-60.97473150234344, 45.7141275507431], [-60.97466032868067, 45.714143327302395], [-60.97460989330264, 45.714152333872306], [-60.97458356222368, 45.71416986875097], [-60.97457007159911, 45.71418763135227], [-60.974582570731684, 45.71423285767458], [-60.97457757253028, 45.71424352514185], [-60.97457003905977, 45.714259638212454], [-60.9745314687939, 45.714295857965894], [-60.97449462757743, 45.71432120824668], [-60.97449193952062, 45.714323059767786], [-60.97446625851827, 45.714322604289656], [-60.97433876384485, 45.714295140356356], [-60.97412373612472, 45.714293837417934], [-60.974107537436545, 45.71429373908602], [-60.97409982037217, 45.71430390825521], [-60.97409404663185, 45.714311501627655], [-60.97408561431844, 45.71433008297789], [-60.974081482193505, 45.71433918162345], [-60.97407713782387, 45.71434491015607], [-60.97406799136921, 45.71435694416156], [-60.97405515086357, 45.714356716375434], [-60.97404402951494, 45.71434092047447], [-60.97402948647231, 45.714320257375405], [-60.974022652562, 45.714304573534775], [-60.9740176214825, 45.71429304410178], [-60.97401466038777, 45.7142910743738], [-60.973991274281076, 45.714275474931995], [-60.973927689698385, 45.71425724514014], [-60.973889168253756, 45.71425656173129], [-60.97384662141862, 45.714266644012234], [-60.97381140992528, 45.714274984226705], [-60.97377288847124, 45.71427430077844], [-60.97373784017339, 45.71424934042573], [-60.973735310138615, 45.714247531354346], [-60.973607832908584, 45.714184063193855], [-60.973543797857026, 45.714165150124956], [-60.97354299703928, 45.71416491089183], [-60.973376641097374, 45.71411065361655], [-60.97335161075711, 45.71409220757391], [-60.97335099950195, 45.71407535598657], [-60.97335097693476, 45.71407420346707], [-60.9734027138096, 45.71402920782783], [-60.97340333181183, 45.71401211702736], [-60.973392215094236, 45.7139890933971], [-60.973390183146925, 45.71398488090752], [-60.9733529629896, 45.713948216688806], [-60.973301262994134, 45.71391757814403], [-60.973276230403364, 45.71390275041825], [-60.973186625028106, 45.71385795573179], [-60.97313589875371, 45.71380394997526], [-60.97313650139105, 45.71375531064156], [-60.97313656654336, 45.71374995624422], [-60.97314088800907, 45.71373917781833], [-60.973161988818624, 45.713686500823215], [-60.97316292424603, 45.713594905952576], [-60.973162998710805, 45.71358751751001], [-60.97313931569168, 45.71341280316717], [-60.973138655759364, 45.71340795795492], [-60.97311362580514, 45.713389511864605], [-60.973049391567415, 45.713389280912715], [-60.97295913926282, 45.71339757105349], [-60.972946311825964, 45.71339734337434], [-60.97293343901572, 45.713398014981486], [-60.97288337927062, 45.713361122707994], [-60.97283102698576, 45.713352092605135], [-60.972792473653655, 45.71335230835255], [-60.972761640941904, 45.71336641455911], [-60.972754586162665, 45.713369637675434], [-60.97270286718093, 45.7133786206178], [-60.972648826838466, 45.71337860640142], [-60.97260007994202, 45.713378596122034], [-60.972519884803056, 45.71335536317525], [-60.972408079298, 45.71332298207244], [-60.97240696219576, 45.713322962239225], [-60.972395251882595, 45.7133227543317]]}, "properties": {"OBJECTID": 142776, "FEAT_CODE": "WALK20", "FEAT_DESC": "Lake - Water to the right line", "RIVNAME_1": " ", "RIVNAME_2": " ", "ZVALUE": 171.8, "FID": null, "SHAPE_Length": 603.883732621186}}, {"type": "Feature", "id": 194596, "geometry": {"type": "LineString", "coordinates": [[-60.969794827119145, 45.713886819178434], [-60.96983334821213, 45.71388750396348], [-60.969897895604106, 45.713878750362085], [-60.969975634831975, 45.713861230285254], [-60.97005271557025, 45.713825705590274], [-60.97008952962815, 45.713774190551504], [-60.970104148143726, 45.713753703241274], [-60.97011770518515, 45.71372633835288], [-60.97014436259249, 45.71367250954802], [-60.97020928609625, 45.71358276307674], [-60.970210907151625, 45.71358163976924], [-60.97024751342305, 45.71355643070659], [-60.97042770705927, 45.71351192822733], [-60.97062107296149, 45.71349467132761], [-60.970634925356606, 45.713492496230835], [-60.97067274726793, 45.713486579626895], [-60.97076303874437, 45.71344137917125], [-60.97080906581584, 45.71340969463473], [-60.97084078291772, 45.71338785486731], [-60.97100878541392, 45.71329002936339], [-60.97111128375734, 45.713227043640074], [-60.97116328304144, 45.71320996556], [-60.97126475924645, 45.7132099950636], [-60.97131747620938, 45.71321000442929], [-60.97132533003072, 45.7132074256608], [-60.97134348191204, 45.71320147445384], [-60.97136650330212, 45.71318452059494], [-60.97136857521597, 45.71318300923873], [-60.97142091855123, 45.7131209234939], [-60.9714492991114, 45.713116000047314], [-60.9714726371536, 45.7131119501264], [-60.97150092002198, 45.71310404562338], [-60.97153623779766, 45.713094177850074], [-60.97158893331809, 45.713058209985824], [-60.97160965731876, 45.7130536095558], [-60.97162649507857, 45.71304988519631], [-60.971666007005716, 45.713058678799044], [-60.97175557731635, 45.71310437415754], [-60.97181818333001, 45.71314959058049], [-60.97189554671767, 45.71321307090364], [-60.97190303858559, 45.71321658829911], [-60.97193344896502, 45.713230845759966], [-60.972010522900945, 45.71323131434469], [-60.97201697558202, 45.713233724166436], [-60.97203587756424, 45.713240774513345], [-60.97216398428453, 45.71332224848133], [-60.972184244755546, 45.71332229319798], [-60.972395251882595, 45.7133227543317]]}, "properties": {"OBJECTID": 194596, "FEAT_CODE": "WARV50", "FEAT_DESC": "River - Single Line", "RIVNAME_1": " ", "RIVNAME_2": " ", "ZVALUE": 9999, "FID": null, "SHAPE_Length": 253.6671994318328}}, {"type": "Feature", "id": 194727, "geometry": {"type": "LineString", "coordinates": [[-60.96129122732969, 45.719371705602235], [-60.96136471486264, 45.719303566307524], [-60.961368345941175, 45.7193001837712], [-60.961381225505605, 45.719264400982446], [-60.96138585630602, 45.719255437716285], [-60.961395048131415, 45.71923766295352], [-60.961395667647096, 45.71918849296066], [-60.961395727806526, 45.71918366053805], [-60.96138228150361, 45.71912941496552]]}, "properties": {"OBJECTID": 194727, "FEAT_CODE": "WARV50", "FEAT_DESC": "River - Single Line", "RIVNAME_1": " ", "RIVNAME_2": " ", "ZVALUE": 9999, "FID": null, "SHAPE_Length": 29.343267442624754}}, {"type": "Feature", "id": 223488, "geometry": {"type": "LineString", "coordinates": [[-60.961160604534484, 45.718228965505126], [-60.96112708778317, 45.717913019690414], [-60.96112521400669, 45.71789529941766], [-60.961125388105955, 45.717859082798014], [-60.96112557809742, 45.71781430658079], [-60.96116927291761, 45.7176760403405], [-60.961179321782176, 45.71764423944565], [-60.96119218788084, 45.71760846542987], [-60.9612777179578, 45.71747343925201], [-60.961283525012135, 45.71746428096344], [-60.961284868539295, 45.717460551560976], [-60.96129639099934, 45.71742850693304], [-60.96129669431637, 45.717389088287305], [-60.96129673027395, 45.71738350835442], [-60.96127108580698, 45.717347046851835], [-60.96124677853798, 45.71732115830141], [-60.961220368158756, 45.71729303597445], [-60.9611060921024, 45.71718478490329], [-60.96106844994293, 45.71714469780523], [-60.96105537475724, 45.717130773956406], [-60.96104844781506, 45.71711703188219], [-60.96100504257558, 45.71703086513261], [-60.96099284879547, 45.71697753294991], [-60.960992854824504, 45.71697348264009], [-60.960992898578404, 45.71690553541796], [-60.96098293213062, 45.71672212558608], [-60.96098212156543, 45.71670732258931], [-60.960995339885244, 45.716626550238715], [-60.960995408404536, 45.71662219501284], [-60.96099702639336, 45.71650956828283], [-60.960985872345475, 45.716392348066655], [-60.96096024040873, 45.71631989199852], [-60.960898067275146, 45.716121670577294], [-60.960862280023335, 45.71602568475072], [-60.96084772894473, 45.7159866489337], [-60.96083589521292, 45.71592343113305], [-60.960835932308875, 45.71585143336281], [-60.960837130001345, 45.715797683196726], [-60.96083793408324, 45.71576145981249], [-60.96086370700827, 45.71556906608309], [-60.960864395988516, 45.71556390285049], [-60.960866460155565, 45.71536591925177], [-60.96088169215636, 45.715159169831125], [-60.960871029063775, 45.714963137197444], [-60.960870915986085, 45.7149609479523], [-60.96087335747969, 45.71468196269522], [-60.960876100779245, 45.714429994609546], [-60.96086471994655, 45.714177765323264], [-60.96086689127984, 45.71395740727935], [-60.960867103507034, 45.713935682819184], [-60.96088201533694, 45.71377303220414], [-60.96088225442729, 45.71375374747559], [-60.96088269493022, 45.7137190387455], [-60.960876629323636, 45.713697526226184], [-60.96087018744768, 45.71367470185291], [-60.96082843041879, 45.71355496393673], [-60.96080734984685, 45.713494470299786], [-60.96073296932681, 45.71331403259139], [-60.96064479309243, 45.71312432954146], [-60.96061884881084, 45.713060859713224], [-60.960564132807434, 45.71297631794614], [-60.960543416989, 45.71294430072049], [-60.96047923447294, 45.71287204714806], [-60.96039845376032, 45.712797273875054], [-60.960390983381934, 45.712790362755236], [-60.960339615876634, 45.71275434170552], [-60.96023720287747, 45.712708407995045], [-60.96017268100596, 45.71268115285457], [-60.96013478299038, 45.712663374162545], [-60.960083422964125, 45.71266245677189], [-60.959929559247485, 45.712653407672555], [-60.95987857570012, 45.712653090076465], [-60.95985249936305, 45.7126529302781], [-60.95982481402405, 45.71264755719198], [-60.95980145394617, 45.71264301744695], [-60.959762914044546, 45.712643229031784], [-60.959699008752445, 45.712633986505864], [-60.95968665864998, 45.71262877034549], [-60.95963446152495, 45.71260673150755], [-60.95962196216162, 45.71259749825691], [-60.95961621356737, 45.71258952873483], [-60.95959627496607, 45.71256194467931], [-60.959596929891156, 45.712543954512554], [-60.9595970057934, 45.712534810919735], [-60.95959798982622, 45.71240895943869], [-60.959599377203766, 45.71226496927791], [-60.95959231728417, 45.7122450230846], [-60.959586563144406, 45.71222873659808], [-60.95954937917565, 45.71215606476715], [-60.9595108526692, 45.712120272767685], [-60.95939623671916, 45.712057018487236], [-60.95936992799544, 45.71203854652483], [-60.95931888900808, 45.71199353894661], [-60.95926817826558, 45.71193951827398], [-60.95920179188549, 45.711838592613724], [-60.95915495805368, 45.7117673773758], [-60.959066048956544, 45.7116685784056], [-60.95902771017609, 45.711599774163844], [-60.95901539737589, 45.71157766384069], [-60.95898748870743, 45.711508226901174], [-60.958964739433824, 45.711451645489554], [-60.958958977825, 45.71143098438099], [-60.95893974768519, 45.7113620895712], [-60.958928257549125, 45.71125388198786], [-60.95891436600932, 45.711209151087644], [-60.95890295862201, 45.71117241241005], [-60.95886576973304, 45.71106463660452], [-60.9588536378212, 45.71097441040974], [-60.958803963126506, 45.71082141573996], [-60.95875400803696, 45.710640495127315], [-60.95875568510166, 45.7105595166719], [-60.9587652637439, 45.710532865086954], [-60.95878141711773, 45.71048796010336], [-60.95879428260863, 45.710452195308804], [-60.95880881254048, 45.71033544282714], [-60.958809192717666, 45.710254441187416], [-60.958772351714934, 45.71013677952328], [-60.95872206228211, 45.70996576293345], [-60.958689072246216, 45.70985067233035], [-60.958673044888506, 45.70979475105202], [-60.958597077106084, 45.70962328440552], [-60.95858676963546, 45.70959304602373], [-60.95857268972615, 45.70955174106024], [-60.95855686778253, 45.70947819059651], [-60.95854741780184, 45.709434286112234], [-60.95851056442197, 45.70932263675357], [-60.958484932766915, 45.709245049515374], [-60.95843648429494, 45.7091300605252], [-60.95839742535644, 45.70903735467671], [-60.95836808558612, 45.70894376945627], [-60.95833526884937, 45.70883912291939], [-60.95828592522408, 45.70867712394944], [-60.958247127151225, 45.70857832907021], [-60.95820993435311, 45.70850565660075], [-60.95812139944598, 45.708361849828776], [-60.95803258367685, 45.70819014404903], [-60.957931584865904, 45.708000218468385], [-60.95786863610023, 45.70787282766187], [-60.957856204515664, 45.70784766375696], [-60.95778151338466, 45.70767620133888], [-60.95774761965094, 45.707589528233], [-60.95771804925821, 45.7075139585832], [-60.95764368667853, 45.70733350099944], [-60.957605881506424, 45.707206802715916], [-60.95757584371007, 45.70710916335723], [-60.95753123828728, 45.70696425153337], [-60.95753156601722, 45.70695525645273], [-60.957518453724894, 45.70689201534905], [-60.95751976464864, 45.70685603502621], [-60.95751278587735, 45.70681662109991], [-60.957506967282285, 45.70678379861037], [-60.95750738701479, 45.706751474732684], [-60.95750767548511, 45.70672980562291], [-60.95749520556212, 45.70664858311915], [-60.95749553362195, 45.70663957904311], [-60.95745834983256, 45.70653181179128], [-60.9574539472472, 45.70651583738503], [-60.95743339552487, 45.70644134704597], [-60.957406466244386, 45.70640262039299], [-60.9573833337945, 45.706369344207225], [-60.95731840314526, 45.70625341181899], [-60.95728199934295, 45.706188421934755], [-60.957249769183335, 45.70610937521198], [-60.95721950745035, 45.70603518819471], [-60.95711845497867, 45.70588216473473], [-60.95701677513245, 45.70571111906951], [-60.95699178099798, 45.705656675280245], [-60.95697962593097, 45.70560244316845], [-60.956979361285455, 45.7055427261718], [-60.95697935287758, 45.70553943167588], [-60.956993857590504, 45.70545868266059], [-60.95700806181348, 45.705350925434196], [-60.956978236158264, 45.70525879826171], [-60.95696995681555, 45.70523323148084], [-60.956966908533865, 45.70522240281777], [-60.956957440937686, 45.7051889029482], [-60.95692059224, 45.705107244229616], [-60.95688209955736, 45.70503544812479], [-60.956874026054344, 45.705018687942534], [-60.956868961269734, 45.70500820123999], [-60.95685955246037, 45.70498401839072], [-60.95684430855291, 45.70494475357451], [-60.95682013891795, 45.70485818211727], [-60.95681929707227, 45.70485519674402], [-60.95676928310688, 45.70478229437657], [-60.956736234873105, 45.70475886769599], [-60.956705414816575, 45.704737047036595], [-60.9566151818348, 45.70471022991247], [-60.956516924670375, 45.70469385424738], [-60.95650026137236, 45.704691071819234], [-60.95645729052523, 45.70468188701877], [-60.95637151413118, 45.704663565332], [-60.95632412000118, 45.704646740533136], [-60.956270055016596, 45.70462754609849], [-60.956245580988806, 45.70461595594361], [-60.9561930212683, 45.704591063809175], [-60.95615453476904, 45.7045543712503], [-60.95612885363696, 45.70451880795091], [-60.95612350505994, 45.70450201547339], [-60.95611732724184, 45.70448259788037], [-60.9560971891807, 45.7044394649724], [-60.95605417092739, 45.70434737146005], [-60.95604637532405, 45.70431912198314], [-60.95604167656237, 45.70430212510874], [-60.95603515113237, 45.70419886647872], [-60.95603027458521, 45.70412191111989], [-60.95603166566282, 45.70394280818641], [-60.95602212231541, 45.70378666898051], [-60.95602120709879, 45.70377160301735], [-60.956035412647104, 45.703663845906654], [-60.95603451837806, 45.703659833480835], [-60.95602325854612, 45.7036096226935], [-60.95597223006621, 45.70356460473865], [-60.95587243249606, 45.70350139601903], [-60.95585671236026, 45.70349142962038], [-60.95576746571073, 45.70343762663235], [-60.955704738074694, 45.70341506352379], [-60.955664757880335, 45.703400693405726], [-60.95563152785793, 45.7033770021175], [-60.95562719584175, 45.70337390925112], [-60.9555883825273, 45.70334621159022], [-60.95552487307556, 45.70325596526456], [-60.95543664399149, 45.70317427729489], [-60.95534677021729, 45.70310246985277], [-60.95528293370429, 45.70302120947963], [-60.955220708874165, 45.702930985979876], [-60.95507987034156, 45.70277724825721], [-60.9550512903317, 45.70273068764348], [-60.95503015569907, 45.70269624960721], [-60.95500450890801, 45.702659786563444], [-60.95499235599196, 45.702605563252355], [-60.95498176984836, 45.702438298080956], [-60.95498094503774, 45.702425339946956], [-60.95497884108756, 45.702420684784705], [-60.95496905887404, 45.70239902434891], [-60.95495001218801, 45.70235242739966], [-60.954943112440915, 45.702335562078666], [-60.95489488674366, 45.70227292495964], [-60.9548805611138, 45.70225432448401], [-60.954727215742736, 45.70209136138616], [-60.95466370871731, 45.70200112360589], [-60.95462650502498, 45.701929340786464], [-60.954576878248346, 45.701740332106915], [-60.95456507005981, 45.701641110168005], [-60.95457897525194, 45.701542348771774], [-60.954617893210255, 45.70146113716569], [-60.9547088296482, 45.70136285528123], [-60.9547737629476, 45.701273108588225], [-60.95478075486325, 45.70124940829042], [-60.954786970258695, 45.701228331363986], [-60.95477552325591, 45.70117730699594], [-60.954774804650576, 45.701174116791044], [-60.95472512051445, 45.701057114731086], [-60.95470013086912, 45.701002661476856], [-60.95460999524508, 45.70090293678909], [-60.95458592855601, 45.7008584010848], [-60.954548487671566, 45.70072271622764], [-60.95450695022532, 45.70065672435294], [-60.95449749180265, 45.70064169436996], [-60.95447280182796, 45.700614249283156], [-60.954369768283385, 45.700551197276376], [-60.95430591918736, 45.70050595790317], [-60.95414035778924, 45.70036076804305], [-60.95404269824624, 45.70028212335141], [-60.95394943094161, 45.70020703163451], [-60.95388773938115, 45.70016675419972], [-60.95379636370523, 45.70010706987374], [-60.953732830999584, 45.70005283489289], [-60.95372027685795, 45.700044500088545], [-60.95369537503038, 45.70002182153908], [-60.95368300559538, 45.70001053772796], [-60.953605136372865, 45.699941905289386], [-60.95351622888822, 45.69986353398268], [-60.95348683913316, 45.699826211422426], [-60.953465895196196, 45.699799625327195], [-60.95344078857179, 45.69973223532014], [-60.95341558784526, 45.69966460959568], [-60.953404518916756, 45.699645149191966], [-60.95339023891447, 45.69962005065063], [-60.953365436719864, 45.699596410711], [-60.9533517575821, 45.69958335720671], [-60.95331036857377, 45.699553830403026], [-60.953275389274026, 45.69952888293221], [-60.95322643457274, 45.69950779841264], [-60.9532121567285, 45.69950164689287], [-60.953191926638915, 45.69948964608254], [-60.95313546031883, 45.69945616759633], [-60.953106323471864, 45.69943726541806], [-60.95296855835359, 45.69934786488892], [-60.952854316857554, 45.6992756096445], [-60.952714090970105, 45.69917587660433], [-60.952667855639596, 45.69913943096144], [-60.952586734603905, 45.699075492023525], [-60.952524130252534, 45.69901454028954], [-60.95248503263729, 45.69897645835406], [-60.95237015744419, 45.698850185535115], [-60.952294491103935, 45.69874171745878], [-60.95222040181768, 45.698630874354166], [-60.952155641822614, 45.69853400595566], [-60.95202864433958, 45.69835351868012], [-60.95197828113827, 45.698290499916446], [-60.95191474975676, 45.698233869674844], [-60.95187627312147, 45.69819956106124], [-60.95183161721325, 45.698165627662405], [-60.951710047269714, 45.69807326670273], [-60.95163433974752, 45.6980008012558]]}, "properties": {"OBJECTID": 223488, "FEAT_CODE": "WARV50", "FEAT_DESC": "River - Single Line", "RIVNAME_1": " ", "RIVNAME_2": " ", "ZVALUE": 9999, "FID": null, "SHAPE_Length": 2509.117214098114}}]}