{
"type": "FeatureCollection",
"name": "regions",
"crs": { "type": "name", "properties": { "name": "urn:ogc:def:crs:EPSG::3857" } },
"features": [
{ "type": "Feature", "properties": { }, "geometry": { "type": "Polygon", "coordinates": [ [ [ -6841227.725308877415955, 5739452.234005709178746 ], [ -6841227.72742712777108, 5739449.857165894471109 ], [ -6841227.769132304936647, 5739433.513897180557251 ], [ -6841227.77435184456408, 5739366.918442776426673 ], [ -6841228.132097234018147, 5739344.348961537703872 ], [ -6841228.930276239290833, 5739319.11505092959851 ], [ -6841227.648240966722369, 5739310.859032142907381 ], [ -6841217.360580497421324, 5739261.211170783266425 ], [ -6841209.177155468612909, 5739222.627405880950391 ], [ -6841208.466149106621742, 5739219.234641232527792 ], [ -6841178.473314516246319, 5739074.368661105632782 ], [ -6841176.174461791291833, 5739061.460022772662342 ], [ -6841160.689385958947241, 5738984.809833926148713 ], [ -6841159.402890743687749, 5738978.285746957175434 ], [ -6841144.315331035293639, 5738899.855600698851049 ], [ -6841113.634701898321509, 5738748.331193933263421 ], [ -6841111.935181980021298, 5738739.662967638112605 ], [ -6841081.374186343513429, 5738578.529027944430709 ], [ -6841079.302371516823769, 5738568.244660411030054 ], [ -6841078.334711371921003, 5738563.353295800276101 ], [ -6841042.652696831151843, 5738379.626895592547953 ], [ -6841035.941336863674223, 5738338.795357293449342 ], [ -6841027.529565976001322, 5738276.395241082645953 ], [ -6841018.976616139523685, 5738213.992564434185624 ], [ -6841014.896107407286763, 5738177.15232471935451 ], [ -6841013.576916408725083, 5738154.633200949057937 ], [ -6841013.560694445855916, 5738154.634124794974923 ], [ -6841012.992247398011386, 5738144.652664513327181 ], [ -6841012.728490452282131, 5738140.150226798839867 ], [ -6841012.727508970536292, 5738140.004076556302607 ], [ -6841012.648241144604981, 5738138.612199062481523 ], [ -6841009.048731571994722, 5738093.953734092414379 ], [ -6841007.453195326030254, 5738068.503199217841029 ], [ -6841003.144847244024277, 5737972.3828842965886 ], [ -6841002.950642542913556, 5737967.708636234514415 ], [ -6841002.519673100672662, 5737956.448534849099815 ], [ -6841002.163735937327147, 5737953.234198800288141 ], [ -6841000.933488311246037, 5737932.22726340405643 ], [ -6841000.916456726379693, 5737932.228269146755338 ], [ -6840996.596774230711162, 5737859.077345971018076 ], [ -6840996.344916738569736, 5737854.57086062990129 ], [ -6840995.962745009921491, 5737847.322469442151487 ], [ -6840992.513873105868697, 5737814.52290116250515 ], [ -6840987.628065472468734, 5737789.122676402330399 ], [ -6840966.259764334186912, 5737710.476558618247509 ], [ -6840940.921217477880418, 5737617.342294599860907 ], [ -6840917.134226441383362, 5737531.441531592048705 ], [ -6840916.017515651881695, 5737527.361974540166557 ], [ -6840907.467552037909627, 5737495.760912019759417 ], [ -6840905.274317603558302, 5737487.457296213135123 ], [ -6840893.823191589675844, 5737443.025050117634237 ], [ -6840892.131857593543828, 5737436.328861183486879 ], [ -6840872.216511229984462, 5737355.848054663278162 ], [ -6840871.543819262646139, 5737352.788196044042706 ], [ -6840870.738379460759461, 5737349.760570596903563 ], [ -6840840.684694607742131, 5737223.582675229758024 ], [ -6840839.521056151948869, 5737218.618856459856033 ], [ -6840816.950783969834447, 5737120.771987865678966 ], [ -6840810.724474017508328, 5737095.197945373132825 ], [ -6840799.324132454581559, 5737040.720840175636113 ], [ -6840797.943532255478203, 5737033.961217525415123 ], [ -6840795.673517430201173, 5737022.567036299966276 ], [ -6840768.195683069527149, 5736902.934888027608395 ], [ -6840762.674747220240533, 5736879.114145763218403 ], [ -6840756.294943108223379, 5736848.576016963459551 ], [ -6840752.419072498567402, 5736827.767386320047081 ], [ -6840751.907482662238181, 5736825.791759133338928 ], [ -6840745.3812635242939, 5736795.103616628795862 ], [ -6840743.177717297337949, 5736783.496955747716129 ], [ -6840730.275134416297078, 5736730.826535373926163 ], [ -6840727.637018142268062, 5736721.343436949886382 ], [ -6840723.510284289717674, 5736704.848572814837098 ], [ -6840719.303809408098459, 5736688.373863608576357 ], [ -6840718.963864085264504, 5736686.676190919242799 ], [ -6840718.543655035085976, 5736684.996583887375891 ], [ -6840715.285851220600307, 5736668.308348855935037 ], [ -6840711.947360821068287, 5736651.636067752726376 ], [ -6840687.610536487773061, 5736511.081141316331923 ], [ -6840684.49533284176141, 5736491.475816586986184 ], [ -6840674.518928105942905, 5736422.533301705494523 ], [ -6840673.809904480352998, 5736416.528331804089248 ], [ -6840672.888411610387266, 5736410.552277171984315 ], [ -6840661.540670244954526, 5736321.54815190564841 ], [ -6840660.297957644797862, 5736313.798137181438506 ], [ -6840659.575920050032437, 5736310.348522739484906 ], [ -6840650.755784460343421, 5736258.926484261639416 ], [ -6840623.89139264728874, 5736058.758246674202383 ], [ -6840611.485261358320713, 5735970.386165119707584 ], [ -6840609.150594234466553, 5735952.036098641343415 ], [ -6840607.60213759355247, 5735938.467038334347308 ], [ -6840606.620713783428073, 5735931.878654600121081 ], [ -6840604.465380458161235, 5735916.225859716534615 ], [ -6840597.940466592088342, 5735864.630919787101448 ], [ -6840594.623327507637441, 5735840.765386753715575 ], [ -6840593.116806122474372, 5735832.289560653269291 ], [ -6840584.581804096698761, 5735777.731563394889235 ], [ -6840579.629520430229604, 5735739.281407039612532 ], [ -6840579.363197312690318, 5735736.653603302314878 ], [ -6840576.66264908015728, 5735716.561484646052122 ], [ -6840575.60057786013931, 5735708.295371531508863 ], [ -6840568.271109594032168, 5735648.497363824397326 ], [ -6840545.509550154209137, 5735525.94592596963048 ], [ -6840523.120031147263944, 5735449.257380057126284 ], [ -6840517.957670371979475, 5735431.717487070709467 ], [ -6840514.488871222361922, 5735423.154698010534048 ], [ -6840507.080611321143806, 5735408.247579110786319 ], [ -6840501.577502851374447, 5735398.971845303662121 ], [ -6840481.081688764505088, 5735370.668415148742497 ], [ -6840438.608176830224693, 5735321.242342881858349 ], [ -6840343.261033109389246, 5735211.321893138810992 ], [ -6840171.115156540647149, 5735014.013273887336254 ], [ -6840155.293130652047694, 5734995.237855602055788 ], [ -6840124.295072429813445, 5734957.146241136826575 ], [ -6840083.741717959754169, 5734910.587585180997849 ], [ -6839929.809947838075459, 5734734.271693473681808 ], [ -6839922.70043710898608, 5734726.002000631764531 ], [ -6839898.369635418057442, 5734697.260592939332128 ], [ -6839872.66685757599771, 5734665.063146742060781 ], [ -6839824.141562935896218, 5734600.551933136768639 ], [ -6839794.12582051474601, 5734557.440663900226355 ], [ -6839749.833240685984492, 5734488.563785458914936 ], [ -6839748.931059484370053, 5734487.076674692332745 ], [ -6839747.959284270182252, 5734485.634079034440219 ], [ -6839739.214887611567974, 5734471.061018660664558 ], [ -6839730.399775267578661, 5734456.53062448464334 ], [ -6839729.576659847050905, 5734454.998335252515972 ], [ -6839728.681716030463576, 5734453.506857820786536 ], [ -6839720.711998305283487, 5734438.496122940443456 ], [ -6839712.669428848661482, 5734423.524294848553836 ], [ -6839711.927635294385254, 5734421.951027018949389 ], [ -6839711.111975872889161, 5734420.414755878970027 ], [ -6839683.990176393650472, 5734365.934421021491289 ], [ -6839667.465601184405386, 5734330.325037310831249 ], [ -6839654.008858934976161, 5734296.596097089350224 ], [ -6839645.290143104270101, 5734276.163842536509037 ], [ -6839603.384013210423291, 5734181.379844359122217 ], [ -6839603.039004591293633, 5734180.599501493386924 ], [ -6839598.036900786682963, 5734171.164176842197776 ], [ -6839583.560370368883014, 5734142.302395702339709 ], [ -6839570.400435862131417, 5734112.817001567222178 ], [ -6839551.107148229144514, 5734066.82918755710125 ], [ -6839543.158998367376626, 5734050.048141377046704 ], [ -6839409.165665650740266, 5733751.405100332573056 ], [ -6839395.379256844520569, 5733722.343733062967658 ], [ -6839383.050972860306501, 5733694.87868174072355 ], [ -6839368.168433244340122, 5733659.764379101805389 ], [ -6839360.882957492955029, 5733642.575206513516605 ], [ -6839288.87743918877095, 5733479.785437267273664 ], [ -6839288.770904302597046, 5733479.526462356559932 ], [ -6839288.65115971583873, 5733479.273324199952185 ], [ -6839277.280774349346757, 5733453.512747326865792 ], [ -6839276.480243662372231, 5733451.692233621142805 ], [ -6839255.116371081210673, 5733402.924150048755109 ], [ -6839251.089850218966603, 5733393.265530510805547 ], [ -6839205.876548671163619, 5733293.503020951524377 ], [ -6839200.102935774251819, 5733279.634311822243035 ], [ -6839188.167539136484265, 5733253.800254136323929 ], [ -6839184.846515683457255, 5733246.504895946010947 ], [ -6839159.076160466298461, 5733189.043403269723058 ], [ -6839156.023157152347267, 5733182.138651435263455 ], [ -6839150.409800231456757, 5733169.260094485245645 ], [ -6839146.625710688531399, 5733160.416580695658922 ], [ -6839141.667917516082525, 5733148.611354215070605 ], [ -6839133.251364953815937, 5733130.948399531655014 ], [ -6839122.432774067856371, 5733107.133273960091174 ], [ -6839120.370461551472545, 5733102.363877298310399 ], [ -6839115.644840179011226, 5733091.906926589086652 ], [ -6839111.726673971861601, 5733083.078450246714056 ], [ -6839071.750255549326539, 5732991.338166151195765 ], [ -6839059.915586159564555, 5732962.477536016143858 ], [ -6839042.242621624842286, 5732916.552779035642743 ], [ -6839041.875174509361386, 5732915.771366308443248 ], [ -6839029.033306087367237, 5732884.764264584518969 ], [ -6839017.659270322881639, 5732853.189191308803856 ], [ -6839007.778081467375159, 5732821.115587696433067 ], [ -6839004.242822609841824, 5732808.605035648681223 ], [ -6839004.242822606116533, 5732808.60503563284874 ], [ -6838996.501510081812739, 5732781.210178941488266 ], [ -6838985.222501649521291, 5732741.447910242713988 ], [ -6838979.237502751871943, 5732718.962683754041791 ], [ -6838973.533479167148471, 5732696.040141956880689 ], [ -6838971.633883917704225, 5732688.218880007974803 ], [ -6838957.359532182104886, 5732627.971451486460865 ], [ -6838949.677571513690054, 5732591.292503339238465 ], [ -6838943.926163526251912, 5732554.26171799749136 ], [ -6838941.350162822753191, 5732534.230579962953925 ], [ -6838931.701754130423069, 5732485.319449249655008 ], [ -6838930.245970037765801, 5732477.723638460971415 ], [ -6838922.088444409891963, 5732433.880092640407383 ], [ -6838895.974752265959978, 5732298.018319885246456 ], [ -6838889.325154497288167, 5732264.75156654138118 ], [ -6838882.550502460449934, 5732230.85905974637717 ], [ -6838820.371351069770753, 5731928.622619925066829 ], [ -6838813.064541409723461, 5731886.879599271342158 ], [ -6838796.637160785496235, 5731773.330270745791495 ], [ -6838783.270817215554416, 5731711.159616623073816 ], [ -6838780.277758833020926, 5731696.493291870690882 ], [ -6838753.125044604763389, 5731555.955604112707078 ], [ -6838752.65178154502064, 5731553.482730387710035 ], [ -6838732.809809331782162, 5731448.808303968049586 ], [ -6838725.864894974976778, 5731404.687558855861425 ], [ -6838721.531250192783773, 5731370.175649113953114 ], [ -6838720.64073402620852, 5731362.772007714025676 ], [ -6838710.561984387226403, 5731275.129753253422678 ], [ -6838685.185349677689373, 5731102.791501364670694 ], [ -6838682.150758470408618, 5731079.547621134668589 ], [ -6838660.355287063866854, 5730888.243626098148525 ], [ -6838637.295586757361889, 5730719.985704039223492 ], [ -6838635.542585927061737, 5730706.201186148449779 ], [ -6838626.309886222705245, 5730627.503176662139595 ], [ -6838615.821622433140874, 5730549.471407601609826 ], [ -6838594.633709135465324, 5730393.70752187166363 ], [ -6838592.42631206754595, 5730375.790450385771692 ], [ -6838578.643035292625427, 5730250.959462571889162 ], [ -6838575.655128244310617, 5730232.239574110135436 ], [ -6838551.872486993670464, 5730184.367493038065732 ], [ -6838514.975723942741752, 5730110.277904763817787 ], [ -6838488.331479175016284, 5730062.215089191682637 ], [ -6838488.119122058153152, 5730061.807196035049856 ], [ -6838487.886217728257179, 5730061.410676256753504 ], [ -6838487.73155849520117, 5730061.130843537859619 ], [ -6838483.974397921934724, 5730053.846056627109647 ], [ -6838471.029730945825577, 5730028.982086191885173 ], [ -6838470.11050873156637, 5730026.965257541276515 ], [ -6838468.884672550484538, 5730024.588474543765187 ], [ -6838462.98274954315275, 5730011.326526524499059 ], [ -6838455.490975151769817, 5729994.8891243301332 ], [ -6838454.127948302775621, 5729991.429297502152622 ], [ -6838452.167495753616095, 5729987.024051995947957 ], [ -6838447.544959299266338, 5729974.789623495191336 ], [ -6838431.69538117852062, 5729940.572736514732242 ], [ -6838430.381662175990641, 5729938.818191791884601 ], [ -6838386.073778940364718, 5729875.84396758954972 ], [ -6838339.370331386104226, 5729814.138864103704691 ], [ -6838331.746669878251851, 5729803.877209834754467 ], [ -6838191.33005627989769, 5729611.303254259750247 ], [ -6838139.453549210913479, 5729540.787679576314986 ], [ -6838138.059308636933565, 5729538.784687854349613 ], [ -6838136.575326218269765, 5729536.847246542572975 ], [ -6838063.77569508459419, 5729436.464135748334229 ], [ -6838063.183100342750549, 5729435.645794429816306 ], [ -6837997.510718756355345, 5729344.820886637084186 ], [ -6837903.289375014603138, 5729218.118263491429389 ], [ -6837899.299656608141959, 5729212.449049384333193 ], [ -6837895.125123518519104, 5729206.914510972797871 ], [ -6837790.034408543258905, 5729059.724818003363907 ], [ -6837645.102682324126363, 5728863.653888308443129 ], [ -6837639.579034620895982, 5728856.077896589413285 ], [ -6837625.621715835295618, 5728836.668839085847139 ], [ -6837620.243837846443057, 5728830.281323877163231 ], [ -6837590.751511830836535, 5728801.848495880141854 ], [ -6837470.968987858854234, 5728697.04229125007987 ], [ -6837295.401391353458166, 5728543.388547416776419 ], [ -6837292.560738461092114, 5728540.889164834283292 ], [ -6837196.890011038631201, 5728456.262379722669721 ], [ -6837167.102625145576894, 5728428.359695320017636 ], [ -6837147.244434148073196, 5728407.508750661276281 ], [ -6837125.979931847192347, 5728386.878920893184841 ], [ -6837101.821210295893252, 5728361.002095489762723 ], [ -6837078.971713283099234, 5728333.962228511460125 ], [ -6837057.487353933975101, 5728305.825486992485821 ], [ -6837011.705317733809352, 5728242.689121762290597 ], [ -6836989.007805321365595, 5728209.460558040067554 ], [ -6836968.213863673619926, 5728175.00875826831907 ], [ -6836949.389238297007978, 5728139.44265086017549 ], [ -6836935.231192773208022, 5728110.771523777395487 ], [ -6836924.136146122589707, 5728087.234808720648289 ], [ -6836911.263970116153359, 5728058.589159309864044 ], [ -6836897.264099265448749, 5728025.199485402554274 ], [ -6836884.970840818248689, 5727991.144493049010634 ], [ -6836874.984164532274008, 5727961.122040035203099 ], [ -6836868.983710454776883, 5727942.21193600166589 ], [ -6836833.421351519413292, 5727824.503875055350363 ], [ -6836830.551992389373481, 5727814.757185390219092 ], [ -6836819.182723318226635, 5727775.100897394120693 ], [ -6836816.422519147396088, 5727764.425939318723977 ], [ -6836814.318638067692518, 5727756.881501563824713 ], [ -6836787.021636822260916, 5727667.524561912752688 ], [ -6836786.730400662869215, 5727666.568810841068625 ], [ -6836749.680385374464095, 5727544.676502987742424 ], [ -6836748.431602897122502, 5727540.522890331223607 ], [ -6836709.159504269249737, 5727408.448577579110861 ], [ -6836697.096242550760508, 5727372.281440202146769 ], [ -6836687.282493026927114, 5727340.401806496083736 ], [ -6836678.964887247420847, 5727308.099513093940914 ], [ -6836667.63140198867768, 5727259.412911934778094 ], [ -6836658.909433361142874, 5727215.867060319520533 ], [ -6836653.004016286693513, 5727180.758580949157476 ], [ -6836645.731238516047597, 5727146.536393403075635 ], [ -6836597.136817070655525, 5726918.130986733362079 ], [ -6836595.66301054880023, 5726914.870580052025616 ], [ -6836591.606879389844835, 5726906.89930999930948 ], [ -6836580.929409008473158, 5726885.001127786003053 ], [ -6836541.295625532977283, 5726800.077376713044941 ], [ -6836531.63651464600116, 5726783.68939627148211 ], [ -6836522.896301315166056, 5726767.93148715980351 ], [ -6836514.124650250189006, 5726752.19105613604188 ], [ -6836513.809983207844198, 5726751.54957867693156 ], [ -6836513.463421626016498, 5726750.924755724146962 ], [ -6836505.559891755692661, 5726734.731014980003238 ], [ -6836497.624052382074296, 5726718.55308279953897 ], [ -6836497.343388917855918, 5726717.896016066893935 ], [ -6836497.03000299166888, 5726717.253911776468158 ], [ -6836489.984819511882961, 5726700.668725128285587 ], [ -6836482.906543510966003, 5726684.097634568810463 ], [ -6836479.249563900753856, 5726674.875062609091401 ], [ -6836477.616958098486066, 5726671.729337869212031 ], [ -6836463.241415608674288, 5726649.566560177132487 ], [ -6836406.11105740442872, 5726567.815788319334388 ], [ -6836377.541408590041101, 5726523.54835247527808 ], [ -6836356.241387373767793, 5726487.715156370773911 ], [ -6836340.334090508520603, 5726459.521295717917383 ], [ -6836325.718066757544875, 5726430.636910286732018 ], [ -6836308.563317506574094, 5726394.742623950354755 ], [ -6836291.210246852599084, 5726355.443066260777414 ], [ -6836275.53763151820749, 5726316.854381800629199 ], [ -6836270.077541272155941, 5726302.998905300162733 ], [ -6836243.362895400263369, 5726233.083993966691196 ], [ -6836233.83302288595587, 5726212.551166823133826 ], [ -6836219.478940590284765, 5726179.465640406124294 ], [ -6836133.788726074621081, 5725967.477665985934436 ], [ -6836116.636621180921793, 5725926.144714473746717 ], [ -6836113.881999735720456, 5725918.982576980255544 ], [ -6836110.907298730686307, 5725911.909013048745692 ], [ -6836065.569863161072135, 5725795.676019701175392 ], [ -6836059.427911843173206, 5725782.648573071695864 ], [ -6836057.015542599372566, 5725777.532288665883243 ], [ -6836055.768126237206161, 5725775.606563711538911 ], [ -6836050.218387047760189, 5725766.526657614856958 ], [ -6836044.464689214713871, 5725757.57460418343544 ], [ -6835961.853254392743111, 5725621.326996801421046 ], [ -6835952.135080525651574, 5725604.804060123860836 ], [ -6835849.193154107779264, 5725424.291658872738481 ], [ -6835756.295886506326497, 5725266.734481670893729 ], [ -6835755.696110922843218, 5725265.653526910580695 ], [ -6835755.044208225794137, 5725264.603185653686523 ], [ -6835677.926316997036338, 5725132.769827118143439 ], [ -6835676.455599561333656, 5725130.24380736798048 ], [ -6835577.336377026513219, 5724959.199963873252273 ], [ -6835562.570672456175089, 5724933.924747840501368 ], [ -6835560.520213743671775, 5724930.915778393857181 ], [ -6835542.461792671121657, 5724908.438775442540646 ], [ -6835534.113021548837423, 5724897.47111405711621 ], [ -6835525.61328911781311, 5724886.620025431737304 ], [ -6835522.767682309262455, 5724882.566903933882713 ], [ -6835519.768089532852173, 5724878.626381743699312 ], [ -6835516.011261277832091, 5724873.114741246215999 ], [ -6835513.820852032862604, 5724870.241610014811158 ], [ -6835510.481296360492706, 5724865.731632794253528 ], [ -6835508.241818733513355, 5724862.690534420311451 ], [ -6835462.879698922857642, 5724800.74940802436322 ], [ -6835437.823481192812324, 5724792.140242546796799 ], [ -6835411.284717968665063, 5724781.824057822115719 ], [ -6835379.826412938535213, 5724768.869410797022283 ], [ -6835343.380410402081907, 5724752.658595833927393 ], [ -6835313.37867040373385, 5724738.299627739004791 ], [ -6835282.439786850474775, 5724722.558800942264497 ], [ -6835252.30059053376317, 5724705.336228860542178 ], [ -6835223.031992269679904, 5724686.672432371415198 ], [ -6835194.702854552306235, 5724666.611323231831193 ], [ -6835167.379829534329474, 5724645.20010076276958 ], [ -6835126.711075919680297, 5724611.707383686676621 ], [ -6835100.476716832257807, 5724591.10635884758085 ], [ -6835071.30212339758873, 5724566.920720257796347 ], [ -6835043.448689641430974, 5724541.224645771086216 ], [ -6835016.994517549872398, 5724514.090188064612448 ], [ -6834992.013785532675683, 5724485.593433092348278 ], [ -6834968.57654042262584, 5724455.814286735840142 ], [ -6834938.658806799910963, 5724415.657305104658008 ], [ -6834934.803070090711117, 5724410.188781401142478 ], [ -6834915.141430267132819, 5724389.227414720691741 ], [ -6834903.936748718842864, 5724375.953178008086979 ], [ -6834795.666261235252023, 5724320.151221536099911 ], [ -6834754.737659165635705, 5724299.138200539164245 ], [ -6834743.904401327483356, 5724294.522033651359379 ], [ -6834733.292498446069658, 5724291.233703386038542 ], [ -6834725.736710696481168, 5724289.422878973186016 ], [ -6834707.764737363904715, 5724286.460060497745872 ], [ -6834687.289382961578667, 5724284.149891763925552 ], [ -6834635.78214046638459, 5724276.431289919652045 ], [ -6834597.213032023049891, 5724269.207724626176059 ], [ -6834556.79586033616215, 5724260.422023962251842 ], [ -6834516.953748568892479, 5724249.316060102544725 ], [ -6834479.898374740965664, 5724237.823024964891374 ], [ -6834456.79156675003469, 5724230.223442696966231 ], [ -6834419.62207281216979, 5724217.294746584258974 ], [ -6834381.272673050872982, 5724202.710408229380846 ], [ -6834343.822089758701622, 5724185.952329628169537 ], [ -6834308.166404255665839, 5724168.754216484725475 ], [ -6834273.084473516792059, 5724150.623174774460495 ], [ -6834239.056059299968183, 5724130.584622837603092 ], [ -6834219.444830875843763, 5724118.294981984421611 ], [ -6834198.167193348519504, 5724104.172136317007244 ], [ -6834197.432446206919849, 5724103.783014523796737 ], [ -6834165.285155916586518, 5724084.538932130672038 ], [ -6834125.646201048977673, 5724059.377777223475277 ], [ -6834116.303156856447458, 5724053.344846064224839 ], [ -6834017.458239660598338, 5723988.425530035048723 ], [ -6833946.221543901599944, 5723942.924902099184692 ], [ -6833934.151514039374888, 5723936.837569361552596 ], [ -6833845.495958748273551, 5723895.45265225507319 ], [ -6833817.026721589267254, 5723881.385549866594374 ], [ -6833789.209546055644751, 5723866.069363026879728 ], [ -6833762.099201254546642, 5723849.534247703850269 ], [ -6833717.438027097843587, 5723820.916096854954958 ], [ -6833628.624491808004677, 5723765.017706292681396 ], [ -6833622.887954599224031, 5723761.369028044864535 ], [ -6833523.764426714740694, 5723697.6589918108657 ], [ -6833496.108082379214466, 5723680.894520094618201 ], [ -6833480.14805611781776, 5723670.930798684246838 ], [ -6833457.390239503234625, 5723656.304040885530412 ], [ -6833447.131519297137856, 5723650.115100196562707 ], [ -6833421.117031549103558, 5723635.506532145664096 ], [ -6833388.207896712236106, 5723615.848796884529293 ], [ -6833365.238487130962312, 5723601.27984924428165 ], [ -6833362.322830440476537, 5723599.675623773597181 ], [ -6833338.49544944241643, 5723585.96285364869982 ], [ -6833317.041988590732217, 5723573.06150824110955 ], [ -6833309.408842067234218, 5723568.406035319902003 ], [ -6833222.44846701901406, 5723514.620571547187865 ], [ -6833203.971461505629122, 5723503.668527264147997 ], [ -6833189.175197604112327, 5723494.654399766586721 ], [ -6833138.290631846524775, 5723462.803784376941621 ], [ -6833114.49441190995276, 5723448.112811271101236 ], [ -6833105.927115865983069, 5723442.508715426549315 ], [ -6833097.229146615602076, 5723437.109661613591015 ], [ -6833027.303415318951011, 5723391.126463637687266 ], [ -6833024.597824221476912, 5723389.338471128605306 ], [ -6833020.369013810530305, 5723386.530070922337472 ], [ -6832983.221411067992449, 5723360.117471602745354 ], [ -6832913.297575180418789, 5723306.968465662561357 ], [ -6832883.016087007708848, 5723282.626854648813605 ], [ -6832854.100221859291196, 5723256.677764194086194 ], [ -6832835.37388411629945, 5723238.931804595515132 ], [ -6832802.483976863324642, 5723209.387445202097297 ], [ -6832767.507102980278432, 5723175.757288335822523 ], [ -6832707.772239020094275, 5723114.291549787856638 ], [ -6832707.769262949004769, 5723114.288322594948113 ], [ -6832707.766122099012136, 5723114.28525554575026 ], [ -6832637.671606958843768, 5723042.157915180549026 ], [ -6832522.102016746997833, 5722924.46716860961169 ], [ -6832511.689775289036334, 5722913.638791650533676 ], [ -6832437.254716647788882, 5722834.584660574793816 ], [ -6832374.42089219391346, 5722768.513536276295781 ], [ -6832361.007080054841936, 5722754.013029754161835 ], [ -6832332.507376631721854, 5722722.338517685420811 ], [ -6832312.597684241831303, 5722699.239541412331164 ], [ -6832285.409111698158085, 5722666.301923268474638 ], [ -6832263.735875663347542, 5722638.693803199566901 ], [ -6832243.442334740422666, 5722610.056246550753713 ], [ -6832219.312793008051813, 5722574.171386200003326 ], [ -6832198.911253830417991, 5722542.014855423010886 ], [ -6832177.494565728120506, 5722506.185103966854513 ], [ -6832159.683123813010752, 5722474.596009382046759 ], [ -6832143.494768205098808, 5722442.145192713476717 ], [ -6832135.87650762591511, 5722425.852973052300513 ], [ -6832132.681911056861281, 5722419.439196534454823 ], [ -6832122.316213829442859, 5722397.720462766475976 ], [ -6832071.074842208065093, 5722285.542792209424078 ], [ -6832004.302404010668397, 5722155.95064383931458 ], [ -6831983.120600678957999, 5722117.093014508485794 ], [ -6831900.306833252310753, 5721980.023554895073175 ], [ -6831870.352754789404571, 5721932.969964714720845 ], [ -6831868.827577801421285, 5721930.429698565974832 ], [ -6831867.191940169781446, 5721927.959110273048282 ], [ -6831861.641255202703178, 5721919.078331721015275 ], [ -6831855.070858019404113, 5721907.926816393621266 ], [ -6831848.32081719301641, 5721896.883114003576338 ], [ -6831831.377691975794733, 5721867.458255992271006 ], [ -6831746.337870891205966, 5721725.21370236389339 ], [ -6831694.331942522898316, 5721638.471436383202672 ], [ -6831682.456052928231657, 5721620.097817404195666 ], [ -6831682.450817612931132, 5721620.089232775382698 ], [ -6831682.445140424184501, 5721620.080933753401041 ], [ -6831662.701778013259172, 5721589.533380376175046 ], [ -6831560.516687914729118, 5721434.447847620584071 ], [ -6831554.327693856321275, 5721424.890221376903355 ], [ -6831514.715651491656899, 5721362.637625314295292 ], [ -6831475.713488182984293, 5721305.326014971360564 ], [ -6831468.77874505892396, 5721295.908819109201431 ], [ -6831466.028003277257085, 5721292.637162581086159 ], [ -6831455.327808171510696, 5721281.356739514507353 ], [ -6831450.935658004134893, 5721276.942009822465479 ], [ -6831422.778026334941387, 5721251.88641270622611 ], [ -6831397.032616927288473, 5721231.739291614852846 ], [ -6831386.996395896188915, 5721225.003449224866927 ], [ -6831364.856088616885245, 5721213.82592664565891 ], [ -6831358.534611729905009, 5721211.59359204210341 ], [ -6831230.786176389083266, 5721179.614752238616347 ], [ -6831223.003238501027226, 5721177.953924681060016 ], [ -6831171.483826137147844, 5721164.942900555208325 ], [ -6831151.467413096688688, 5721159.089293915778399 ], [ -6831113.851340649649501, 5721146.95160099118948 ], [ -6831101.37421057280153, 5721142.541564242914319 ], [ -6831091.316780449822545, 5721138.901997802779078 ], [ -6831083.946449048817158, 5721136.172374589368701 ], [ -6831056.996670800261199, 5721125.566526236943901 ], [ -6831030.498080222867429, 5721113.878957442007959 ], [ -6831012.99186682049185, 5721105.73056248575449 ], [ -6830995.627471755258739, 5721097.72406723536551 ], [ -6830960.889830451458693, 5721080.551734411157668 ], [ -6830927.13260389585048, 5721061.524322782643139 ], [ -6830894.454765141010284, 5721040.69761895481497 ], [ -6830877.40973777603358, 5721029.173684572800994 ], [ -6830846.933881936594844, 5721007.385680199600756 ], [ -6830829.775256083346903, 5720994.426670483313501 ], [ -6830804.257001675665379, 5720974.226686150766909 ], [ -6830788.668600039556623, 5720961.299781922250986 ], [ -6830763.447978614829481, 5720939.371449623256922 ], [ -6830757.979950503446162, 5720934.388309902511537 ], [ -6830756.50664893258363, 5720933.041890872642398 ], [ -6830746.272683162242174, 5720923.663064254447818 ], [ -6830722.720012558624148, 5720901.068938603624701 ], [ -6830708.445495530031621, 5720886.736172114498913 ], [ -6830684.940272745676339, 5720861.981293154880404 ], [ -6830662.642260789871216, 5720836.133697653189301 ], [ -6830641.60219397302717, 5720809.252196229994297 ], [ -6830628.813365840353072, 5720792.08437817543745 ], [ -6830608.49569982662797, 5720763.362193973734975 ], [ -6830596.991599138826132, 5720746.220677837729454 ], [ -6830570.988405488431454, 5720704.438527461141348 ], [ -6830561.057419542223215, 5720687.185947363264859 ], [ -6830548.948216391727328, 5720665.271330274641514 ], [ -6830539.046382556669414, 5720646.586652618832886 ], [ -6830518.963821581564844, 5720605.580338994972408 ], [ -6830497.648295820690691, 5720558.294431742280722 ], [ -6830497.616590746678412, 5720558.218878762796521 ], [ -6830497.580991878174245, 5720558.145080490037799 ], [ -6830490.367656910791993, 5720540.944717680104077 ], [ -6830483.150385553017259, 5720523.746008073911071 ], [ -6830483.122678069397807, 5720523.668899328447878 ], [ -6830483.090990288183093, 5720523.593339085578918 ], [ -6830476.787738544866443, 5720506.039032448083162 ], [ -6830470.480468956753612, 5720488.486169820651412 ], [ -6830470.4568350026384, 5720488.407716641202569 ], [ -6830470.429145169444382, 5720488.330601552501321 ], [ -6830466.917870498262346, 5720477.683430998586118 ], [ -6830440.860691025853157, 5720466.764470925554633 ], [ -6830402.896617891266942, 5720448.148604332469404 ], [ -6830375.772002265788615, 5720433.838891354389489 ], [ -6830363.403248962946236, 5720427.157589632086456 ], [ -6830334.880582489073277, 5720411.386499443091452 ], [ -6830307.600908852182329, 5720395.50727370288223 ], [ -6830281.047973403707147, 5720378.440580323338509 ], [ -6830255.412171616218984, 5720361.152774151414633 ], [ -6830226.674492533318698, 5720340.725619304925203 ], [ -6830198.977769116871059, 5720318.90786584187299 ], [ -6830174.68505106959492, 5720298.782330348156393 ], [ -6830138.74350000359118, 5720266.912681726738811 ], [ -6830116.050142173655331, 5720245.38732996955514 ], [ -6830090.726636497303843, 5720220.135632070712745 ], [ -6830066.69621954485774, 5720193.650405100546777 ], [ -6830044.018898813985288, 5720165.997786580584943 ], [ -6829951.34640241228044, 5720047.052056601271033 ], [ -6829950.298927067779005, 5720045.63247446063906 ], [ -6829949.185322931967676, 5720044.264152916148305 ], [ -6829939.176759180612862, 5720030.559250076301396 ], [ -6829929.100766099989414, 5720016.90384529158473 ], [ -6829928.129021467640996, 5720015.431388007476926 ], [ -6829927.088555908761919, 5720014.006660168990493 ], [ -6829864.009713279083371, 5719922.706163287162781 ], [ -6829814.276724244467914, 5719852.496674849651754 ], [ -6829793.427477871999145, 5719821.366433830931783 ], [ -6829774.236035598441958, 5719789.187690480612218 ], [ -6829756.754999834112823, 5719756.048644496127963 ], [ -6829741.032284881919622, 5719722.040127699263394 ], [ -6829727.110985611565411, 5719687.255355072207749 ], [ -6829715.029259335249662, 5719651.789669256657362 ], [ -6829704.820221226662397, 5719615.740279233083129 ], [ -6829696.511853548698127, 5719579.205993873998523 ], [ -6829690.126928959973156, 5719542.286951116286218 ], [ -6829685.682948094792664, 5719505.084343490190804 ], [ -6829683.192091595381498, 5719467.700140755623579 ], [ -6829682.782981372438371, 5719438.831256105564535 ], [ -6831491.333176228217781, 5719438.831256105564535 ], [ -6831507.943716235458851, 5719455.527157058939338 ], [ -6831535.151004619896412, 5719484.435376500710845 ], [ -6831559.442198928445578, 5719511.723664318211377 ], [ -6831578.283503863029182, 5719533.773558068089187 ], [ -6831596.215898535214365, 5719556.568772638216615 ], [ -6831598.301584974862635, 5719559.333549005910754 ], [ -6831609.66675103828311, 5719575.249232511036098 ], [ -6831620.078110547736287, 5719588.666967845521867 ], [ -6831622.857099181972444, 5719592.448812616989017 ], [ -6831643.352604788728058, 5719621.856568965129554 ], [ -6831663.300802768208086, 5719652.064594280906022 ], [ -6831672.702257892116904, 5719667.145648089237511 ], [ -6831682.144240314140916, 5719682.201361371204257 ], [ -6831682.61233268212527, 5719683.042588423937559 ], [ -6831683.121614587493241, 5719683.85953725874424 ], [ -6831691.720903962850571, 5719699.411957134492695 ], [ -6831700.361991333775222, 5719714.941192280501127 ], [ -6831717.542965775355697, 5719747.814710464328527 ], [ -6831731.992051487788558, 5719777.066712906584144 ], [ -6831745.092890322208405, 5719806.946869309060276 ], [ -6831757.210042361170053, 5719836.390910812653601 ], [ -6831771.304162194952369, 5719840.273837855085731 ], [ -6831803.333010630682111, 5719850.743033341132104 ], [ -6831884.719901679083705, 5719879.483591352589428 ], [ -6831892.518406748771667, 5719882.469336995854974 ], [ -6831900.400275970809162, 5719885.227505935356021 ], [ -6831910.010578600689769, 5719889.166412324644625 ], [ -6831919.710170771926641, 5719892.880010611377656 ], [ -6831927.341726414859295, 5719896.269806616939604 ], [ -6831935.068442393094301, 5719899.436700741760433 ], [ -6831944.459427997469902, 5719903.873173370957375 ], [ -6831953.951372505165637, 5719908.089319735765457 ], [ -6831961.395061157643795, 5719911.8738749101758 ], [ -6831968.945445500314236, 5719915.440813981927931 ], [ -6832071.57171909045428, 5719967.251634662039578 ], [ -6832110.406647448427975, 5719988.387413869611919 ], [ -6832147.8622838370502, 5720011.880990141071379 ], [ -6832216.334826732985675, 5720057.836560023017228 ], [ -6832258.561034884303808, 5720088.46656856033951 ], [ -6832322.664834233932197, 5720138.631123627535999 ], [ -6832357.357631880789995, 5720167.59191092569381 ], [ -6832418.660041957162321, 5720222.14083418622613 ], [ -6832450.262820361182094, 5720252.031659597530961 ], [ -6832476.015538147650659, 5720277.916769063100219 ], [ -6832487.897024227306247, 5720290.147361796349287 ], [ -6832519.217862856574357, 5720323.166601820848882 ], [ -6832547.766028979793191, 5720355.127220099791884 ], [ -6832579.142908845096827, 5720392.44601698871702 ], [ -6832607.63877765648067, 5720428.642172001302242 ], [ -6832636.131916844286025, 5720467.335093667730689 ], [ -6832643.74078678432852, 5720478.255301202647388 ], [ -6832651.514358283020556, 5720489.058884899131954 ], [ -6832704.215897399932146, 5720566.501001389697194 ], [ -6832716.351890690624714, 5720584.939285587519407 ], [ -6832758.833254638127983, 5720651.701185054145753 ], [ -6832859.622697356157005, 5720804.668554412201047 ], [ -6832861.290345700457692, 5720807.349757340736687 ], [ -6832863.073110452853143, 5720809.955836795270443 ], [ -6832884.524558367207646, 5720843.146193966269493 ], [ -6832902.9461131663993, 5720871.646848690696061 ], [ -6832915.702883237041533, 5720892.132916040718555 ], [ -6832974.145138104446232, 5720989.610526291653514 ], [ -6832974.606004670262337, 5720990.380313348956406 ], [ -6833062.88525824341923, 5721138.043406463228166 ], [ -6833068.820845757611096, 5721148.159048674628139 ], [ -6833081.725642492063344, 5721170.57060538046062 ], [ -6833112.212643731385469, 5721218.461341324262321 ], [ -6833121.043609674088657, 5721232.698711668141186 ], [ -6833216.406450347043574, 5721390.538808121345937 ], [ -6833232.228554086759686, 5721418.090637871995568 ], [ -6833265.007851000875235, 5721478.223656257614493 ], [ -6833272.820687613449991, 5721492.96236495859921 ], [ -6833351.165512795560062, 5721645.014236708171666 ], [ -6833365.949375231750309, 5721675.453537209890783 ], [ -6833416.731188800185919, 5721786.625142739154398 ], [ -6833429.019020551815629, 5721800.482196262106299 ], [ -6833475.654683232307434, 5721849.520603401586413 ], [ -6833478.102372235618532, 5721852.107258699834347 ], [ -6833548.6087646773085, 5721926.988929937593639 ], [ -6833660.218873078934848, 5722040.647522639483213 ], [ -6833662.818887917324901, 5722043.309062669984996 ], [ -6833734.206885325722396, 5722116.767397844232619 ], [ -6833777.020628814585507, 5722160.821710336022079 ], [ -6833798.949045957997441, 5722180.519577892497182 ], [ -6833808.965538779273629, 5722189.761396664194763 ], [ -6833833.091140480712056, 5722207.967167601920664 ], [ -6833875.096284504048526, 5722235.589772582985461 ], [ -6833892.063827846199274, 5722246.064954086206853 ], [ -6833895.821922527626157, 5722248.401151068508625 ], [ -6833941.238353985361755, 5722276.829049964435399 ], [ -6833958.065720397047698, 5722286.803288592025638 ], [ -6833969.605957509949803, 5722293.791464673355222 ], [ -6834058.501482599414885, 5722348.773829245008528 ], [ -6834064.34185635112226, 5722352.286021502688527 ], [ -6834067.979052036069334, 5722354.287245438434184 ], [ -6834080.966090455651283, 5722361.610113155096769 ], [ -6834090.991861809045076, 5722367.401700737886131 ], [ -6834116.334857005625963, 5722382.749879093840718 ], [ -6834138.650346674025059, 5722396.904060958884656 ], [ -6834157.669781000353396, 5722407.584521144628525 ], [ -6834176.94064621347934, 5722418.804619654081762 ], [ -6834205.450551236979663, 5722436.004241800867021 ], [ -6834222.704258102923632, 5722446.750287399627268 ], [ -6834246.098096249625087, 5722461.785824874415994 ], [ -6834273.758807721547782, 5722478.55294382199645 ], [ -6834289.727424531243742, 5722488.522186581045389 ], [ -6834393.910092370584607, 5722555.483902781270444 ], [ -6834482.305336521007121, 5722611.119024896994233 ], [ -6834487.209978573955595, 5722614.233827547170222 ], [ -6834494.149286198429763, 5722618.680422517471015 ], [ -6834549.423131578601897, 5722644.482567704282701 ], [ -6834568.9733841214329, 5722653.972881670109928 ], [ -6834623.13837156444788, 5722681.29015470482409 ], [ -6834655.075448974967003, 5722698.424988554790616 ], [ -6834686.104073528200388, 5722717.154748375527561 ], [ -6834791.750040616840124, 5722784.6334233796224 ], [ -6834799.389486284926534, 5722789.581605819985271 ], [ -6834897.390309985727072, 5722853.94653853867203 ], [ -6834925.383815192617476, 5722871.715647821314633 ], [ -6834983.928429384715855, 5722881.36717920191586 ], [ -6834990.773418132215738, 5722882.680540467612445 ], [ -6834997.657886888831854, 5722883.768142721615732 ], [ -6835009.16842008009553, 5722886.210025166161358 ], [ -6835020.724325473420322, 5722888.427279145456851 ], [ -6835027.491197395138443, 5722890.097079529426992 ], [ -6835034.309310510754585, 5722891.543496515601873 ], [ -6835088.477788168005645, 5722904.525544843636453 ], [ -6835090.81804765202105, 5722905.151623724959791 ], [ -6835093.184409290552139, 5722905.670393307693303 ], [ -6835108.913783106952906, 5722909.992692796513438 ], [ -6835124.672051711939275, 5722914.208430088125169 ], [ -6835126.976337514817715, 5722914.956130667589605 ], [ -6835129.312305835075676, 5722915.598035094328225 ], [ -6835140.955978759564459, 5722919.127918563783169 ], [ -6835145.154684708453715, 5722920.414873366244137 ], [ -6835203.50743069127202, 5722938.496748298406601 ], [ -6835203.974741483107209, 5722938.655076453462243 ], [ -6835204.449513398110867, 5722938.789385040290654 ], [ -6835221.717281392775476, 5722944.666372703388333 ], [ -6835238.993134392425418, 5722950.519552174024284 ], [ -6835239.45151849091053, 5722950.702120501548052 ], [ -6835239.91861058305949, 5722950.861092666164041 ], [ -6835256.855136114172637, 5722957.633751344867051 ], [ -6835273.800981231965125, 5722964.38305745087564 ], [ -6835274.249182237312198, 5722964.589365541934967 ], [ -6835274.707314241677523, 5722964.772565554827452 ], [ -6835293.853303429670632, 5722972.987331105396152 ], [ -6835298.089865731075406, 5722974.821406715549529 ], [ -6835299.963357474654913, 5722975.639656621031463 ], [ -6835339.364397102966905, 5722992.428860496729612 ], [ -6835385.68387536983937, 5723014.153922688215971 ], [ -6835449.883906539529562, 5723047.114652709104121 ], [ -6835450.377386351116002, 5723047.384559437632561 ], [ -6835450.883932093158364, 5723047.629065818153322 ], [ -6835570.145507593639195, 5723109.095762788318098 ], [ -6835590.80960760358721, 5723119.232537389732897 ], [ -6835608.201656591147184, 5723125.913470157422125 ], [ -6835658.30009161029011, 5723143.021829190663993 ], [ -6835696.959524330683053, 5723157.481589306145906 ], [ -6835734.721039016731083, 5723174.146054775454104 ], [ -6835771.459025626070797, 5723192.959792860783637 ], [ -6835807.051278782077134, 5723213.860221470706165 ], [ -6835848.393873710185289, 5723239.768989008851349 ], [ -6835879.61014889087528, 5723260.489200010895729 ], [ -6835909.699231196194887, 5723282.814748296514153 ], [ -6835938.578648540191352, 5723306.684441087767482 ], [ -6835966.169244450516999, 5723332.032853217795491 ], [ -6835992.395395019091666, 5723358.790506450459361 ], [ -6836017.185216191224754, 5723386.884059918113053 ], [ -6836040.470760789699852, 5723416.236511141993105 ], [ -6836062.188204756006598, 5723446.767407095991075 ], [ -6836082.278022085316479, 5723478.393064714968204 ], [ -6836088.719020949676633, 5723489.812221339903772 ], [ -6836108.07516551297158, 5723497.031122923828661 ], [ -6836142.364322806708515, 5723510.838186825625598 ], [ -6836175.894818985834718, 5723526.397336786612868 ], [ -6836208.577197953127325, 5723543.667062509804964 ], [ -6836240.324266305193305, 5723562.601290049962699 ], [ -6836263.040693523362279, 5723576.957633288577199 ], [ -6836305.114268657751381, 5723605.692813829518855 ], [ -6836326.517129850573838, 5723621.456263619475067 ], [ -6836369.362102026119828, 5723655.617528714239597 ], [ -6836389.448562175035477, 5723672.931379069574177 ], [ -6836429.362245547585189, 5723710.077866895124316 ], [ -6836447.852368118241429, 5723728.649887150153518 ], [ -6836469.228229182772338, 5723751.070693434216082 ], [ -6836486.287517538294196, 5723769.757526287809014 ], [ -6836517.832227625884116, 5723806.761907970532775 ], [ -6836534.977653941139579, 5723828.317155154421926 ], [ -6836553.467270085588098, 5723852.608256826177239 ], [ -6836570.904117204248905, 5723877.665788392536342 ], [ -6836585.193464232608676, 5723899.1641326835379 ], [ -6836603.178780594840646, 5723927.65593478269875 ], [ -6836619.803113027475774, 5723956.96269104629755 ], [ -6836621.958973741158843, 5723960.980779216624796 ], [ -6836658.195927005261183, 5724010.461661321111023 ], [ -6836662.301884644664824, 5724015.809256541542709 ], [ -6836665.775431069545448, 5724020.587104223668575 ], [ -6836669.418013893067837, 5724025.237366965971887 ], [ -6836672.995797959156334, 5724030.333360366523266 ], [ -6836693.952487011440098, 5724056.417787115089595 ], [ -6836711.144065100699663, 5724078.699351154267788 ], [ -6836727.446301345713437, 5724101.639611541293561 ], [ -6836752.062154580838978, 5724137.762431195005774 ], [ -6836755.569250708445907, 5724142.821139544248581 ], [ -6836771.634558704681695, 5724168.025951945222914 ], [ -6836773.962148618884385, 5724171.641484343446791 ], [ -6836774.16430302709341, 5724171.994860047474504 ], [ -6836785.36587075330317, 5724189.568965267390013 ], [ -6836813.83308086451143, 5724238.297753114253283 ], [ -6836815.097077211365104, 5724240.470150133594871 ], [ -6836914.113611148670316, 5724411.336790337227285 ], [ -6836989.869565315544605, 5724540.841911753639579 ], [ -6837084.768548806197941, 5724701.794072609394789 ], [ -6837089.962546767666936, 5724710.750747376121581 ], [ -6837190.720642398111522, 5724887.433722143061459 ], [ -6837262.84469111636281, 5725006.384919319301844 ], [ -6837278.412479089573026, 5725030.418015795759857 ], [ -6837296.646685031242669, 5725060.129143990576267 ], [ -6837313.412420087493956, 5725090.692971188575029 ], [ -6837331.993091927841306, 5725126.613443649373949 ], [ -6837337.730691649951041, 5725138.455178866162896 ], [ -6837343.652144300751388, 5725150.206057228147984 ], [ -6837354.042367871850729, 5725172.242210681550205 ], [ -6837370.681450022384524, 5725207.534699377603829 ], [ -6837390.09196247998625, 5725252.658823613077402 ], [ -6837441.571530022658408, 5725384.638591692782938 ], [ -6837457.045432298444211, 5725421.927429209463298 ], [ -6837459.542911939322948, 5725428.024971047416329 ], [ -6837539.707757016643882, 5725626.343801544047892 ], [ -6837552.126260916702449, 5725653.100402282550931 ], [ -6837571.496441363357008, 5725698.945624601095915 ], [ -6837603.360047379508615, 5725782.335881768725812 ], [ -6837643.52844375371933, 5725839.814908876083791 ], [ -6837657.330965314991772, 5725860.310357872396708 ], [ -6837697.273060603067279, 5725921.889096833765507 ], [ -6837715.391780059784651, 5725951.359250056557357 ], [ -6837732.065161797218025, 5725981.670572482049465 ], [ -6837752.917666113004088, 5726021.849431714974344 ], [ -6837752.91890521068126, 5726021.85198025777936 ], [ -6837752.920275971293449, 5726021.854460470378399 ], [ -6837766.349341847002506, 5726047.730249152518809 ], [ -6837782.211491160094738, 5726080.283095127902925 ], [ -6837792.025902260094881, 5726103.31572178658098 ], [ -6837808.513213070109487, 5726132.887768886983395 ], [ -6837823.77155221067369, 5726163.635479137301445 ], [ -6837872.782091647386551, 5726268.650910068303347 ], [ -6837878.80438825674355, 5726280.486166554503143 ], [ -6837893.099732322618365, 5726310.260513751767576 ], [ -6837903.466239559464157, 5726333.193666079081595 ], [ -6837913.273584756068885, 5726354.814241996966302 ], [ -6837914.20558319427073, 5726356.877528613433242 ], [ -6837924.638686276972294, 5726380.072378109209239 ], [ -6837937.957340312190354, 5726411.686760815791786 ], [ -6837949.745664549060166, 5726443.903078900650144 ], [ -6837959.609712218865752, 5726473.003727295435965 ], [ -6837968.486368851736188, 5726501.078262940980494 ], [ -6837976.200669498182833, 5726529.494176619686186 ], [ -6837984.191002999432385, 5726561.518497813493013 ], [ -6837989.967931888997555, 5726586.580831390805542 ], [ -6837996.47874060831964, 5726617.342485561035573 ], [ -6838045.715310650877655, 5726848.766144264489412 ], [ -6838045.730221590027213, 5726848.846511280164123 ], [ -6838045.749300030991435, 5726848.925992146134377 ], [ -6838056.218101820908487, 5726898.187128611840308 ], [ -6838061.934028290212154, 5726928.226098020561039 ], [ -6838064.298738717101514, 5726942.282424931414425 ], [ -6838064.300014288164675, 5726942.291444531641901 ], [ -6838064.30175993591547, 5726942.300385073758662 ], [ -6838066.137122062034905, 5726953.211853732354939 ], [ -6838070.652814500033855, 5726966.75045320764184 ], [ -6838077.737089327536523, 5726989.215157451108098 ], [ -6838119.748349057510495, 5727130.501425578258932 ], [ -6838156.022395153529942, 5727249.84084175247699 ], [ -6838184.344424718059599, 5727342.553219344466925 ], [ -6838194.015355832874775, 5727377.344175367616117 ], [ -6838195.055816552601755, 5727380.644628409296274 ], [ -6838205.025001001544297, 5727415.417387074790895 ], [ -6838213.970359623432159, 5727445.025682173669338 ], [ -6838239.454858237877488, 5727467.568326575681567 ], [ -6838413.501783735118806, 5727619.891212073154747 ], [ -6838546.260342931374907, 5727736.051067952997983 ], [ -6838571.712449606508017, 5727759.429711396805942 ], [ -6838641.713045974262059, 5727826.915569080971181 ], [ -6838669.802869345061481, 5727855.558200256898999 ], [ -6838696.243544196709991, 5727885.72986264154315 ], [ -6838708.606045605614781, 5727900.661205990239978 ], [ -6838738.136576000601053, 5727935.735767439939082 ], [ -6838771.700845575891435, 5727978.838819766417146 ], [ -6838798.880109835416079, 5728016.63432411942631 ], [ -6838944.533150210045278, 5728213.681083888746798 ], [ -6838951.470312669873238, 5728223.229758153669536 ], [ -6839055.962371810339391, 5728369.580975824967027 ], [ -6839148.90436028316617, 5728494.563206732273102 ], [ -6839154.56676044408232, 5728502.284978571347892 ], [ -6839222.74850357696414, 5728596.580333537422121 ], [ -6839293.819154096767306, 5728694.579360102303326 ], [ -6839345.149334837682545, 5728764.35231510642916 ], [ -6839346.016771581023932, 5728765.598490728996694 ], [ -6839346.943144432269037, 5728766.801500919274986 ], [ -6839484.488062442280352, 5728955.437077946960926 ], [ -6839534.841234947554767, 5729021.964237783104181 ], [ -6839549.506747305393219, 5729042.056831038556993 ], [ -6839588.791151626966894, 5729097.891249312087893 ], [ -6839592.770225779153407, 5729102.890321442857385 ], [ -6839613.4045260977, 5729130.123740633949637 ], [ -6839632.715458239428699, 5729158.310996091924608 ], [ -6839650.659003887325525, 5729187.387836360372603 ], [ -6839664.907984359189868, 5729211.76112781278789 ], [ -6839679.15684858430177, 5729236.134133514948189 ], [ -6839695.327215261757374, 5729265.336401019245386 ], [ -6839710.118266723118722, 5729295.260939152911305 ], [ -6839721.506893619894981, 5729319.722002271562815 ], [ -6839722.09518772829324, 5729320.988799079321325 ], [ -6839760.644386322237551, 5729404.210797884501517 ], [ -6839762.62751255184412, 5729408.807108834385872 ], [ -6839775.761118130758405, 5729432.498456374742091 ], [ -6839793.389183526858687, 5729466.401323485188186 ], [ -6839797.574914585798979, 5729475.005168836563826 ], [ -6839833.24358282238245, 5729546.62871316447854 ], [ -6839881.9758236175403, 5729644.721093591302633 ], [ -6839889.594446050003171, 5729661.120528518222272 ], [ -6839897.242893959395587, 5729677.50607486627996 ], [ -6839897.487092113122344, 5729678.109811902046204 ], [ -6839897.761478587053716, 5729678.700441397726536 ], [ -6839904.511379909701645, 5729695.476129498332739 ], [ -6839911.291792593896389, 5729712.239508720114827 ], [ -6839932.763296931050718, 5729769.599792320281267 ], [ -6839944.099399968981743, 5729802.266550215892494 ], [ -6839953.84438485186547, 5729835.442740068770945 ], [ -6839963.839970131404698, 5729872.785824490711093 ], [ -6839972.468430891633034, 5729908.709637485444546 ], [ -6839979.231442032381892, 5729945.030875838361681 ], [ -6839994.778337741270661, 5730042.435563754290342 ], [ -6839999.400691222399473, 5730076.692155440337956 ], [ -6840014.090663857758045, 5730209.734814669936895 ], [ -6840034.138401726260781, 5730357.116650091484189 ], [ -6840034.290555502288043, 5730358.241898693144321 ], [ -6840045.656469071283937, 5730442.803305668756366 ], [ -6840047.160003715194762, 5730454.749860592186451 ], [ -6840056.284633895382285, 5730532.526703276671469 ], [ -6840079.506740931421518, 5730701.969645892269909 ], [ -6840081.534476268105209, 5730718.130261277779937 ], [ -6840102.924928675405681, 5730905.879308994859457 ], [ -6840128.246614329516888, 5731077.844389881007373 ], [ -6840131.195436875335872, 5731100.338969031348825 ], [ -6840142.144327118992805, 5731195.547745835967362 ], [ -6840143.229703160002828, 5731204.19137073494494 ], [ -6840158.676028552465141, 5731285.676982818171382 ], [ -6840184.170101867057383, 5731417.629836041480303 ], [ -6840201.086818509735167, 5731496.314282075501978 ], [ -6840209.700577782467008, 5731544.270281644538045 ], [ -6840226.582946706563234, 5731660.964579971507192 ], [ -6840284.895180474966764, 5731944.404954083263874 ], [ -6840285.693568546324968, 5731948.341650186106563 ], [ -6840292.861787755973637, 5731984.203110962174833 ], [ -6840300.029959127306938, 5732020.064195684157312 ], [ -6840301.048108667135239, 5732025.257651516236365 ], [ -6840328.062165884301066, 5732165.80375593341887 ], [ -6840328.851562867872417, 5732169.977541832253337 ], [ -6840336.690223843790591, 5732212.107313453219831 ], [ -6840347.289790858514607, 5732265.840195660479367 ], [ -6840347.68701655138284, 5732267.780163848772645 ], [ -6840348.468037185259163, 5732271.648757359944284 ], [ -6840349.901217426173389, 5732278.84996950533241 ], [ -6840357.821326095610857, 5732327.257834482938051 ], [ -6840358.751783801242709, 5732334.493130153045058 ], [ -6840363.449766693636775, 5732354.321798645891249 ], [ -6840365.372293286025524, 5732362.047782856971025 ], [ -6840373.483392082154751, 5732390.642112910747528 ], [ -6840390.117753956466913, 5732433.867969281971455 ], [ -6840421.932984050363302, 5732506.879468622617424 ], [ -6840427.074143246747553, 5732518.255929847247899 ], [ -6840430.730867547914386, 5732526.52675124257803 ], [ -6840441.021448632702231, 5732548.122537167742848 ], [ -6840454.793681625276804, 5732578.868301729671657 ], [ -6840464.413322475738823, 5732601.774065433070064 ], [ -6840466.596626074053347, 5732606.783153600990772 ], [ -6840489.182185964658856, 5732657.143343566916883 ], [ -6840506.029218606650829, 5732693.608592802658677 ], [ -6840509.506839972920716, 5732701.25337578356266 ], [ -6840560.908818342722952, 5732816.031460080295801 ], [ -6840568.063487032428384, 5732832.998359692282975 ], [ -6840587.10320165194571, 5732876.461003938689828 ], [ -6840597.959017494693398, 5732901.055779711343348 ], [ -6840672.103908030316234, 5733068.682232591323555 ], [ -6840674.222731622867286, 5733073.83286605309695 ], [ -6840676.529609650373459, 5733078.902062472887337 ], [ -6840685.989316668361425, 5733101.221062922850251 ], [ -6840685.99039460439235, 5733101.223803739063442 ], [ -6840685.991614481434226, 5733101.226484389044344 ], [ -6840695.000073143281043, 5733122.481307283975184 ], [ -6840705.584855617024004, 5733144.793735070154071 ], [ -6840711.941677705384791, 5733158.56892819609493 ], [ -6840843.008642327040434, 5733450.689708398655057 ], [ -6840843.587914375588298, 5733451.850353604182601 ], [ -6840849.837781301699579, 5733464.691866406239569 ], [ -6840851.211900135502219, 5733467.58834670856595 ], [ -6840865.166853432543576, 5733498.921477406285703 ], [ -6840877.903267817571759, 5733529.468024484813213 ], [ -6840883.167178988456726, 5733540.103202859871089 ], [ -6840891.700693121179938, 5733557.344229682348669 ], [ -6840904.846118740737438, 5733585.416477005928755 ], [ -6840912.448160683736205, 5733602.610827712342143 ], [ -6840912.448386744596064, 5733602.611377500928938 ], [ -6840912.448641257360578, 5733602.611914681270719 ], [ -6840956.230802057310939, 5733701.639151508919895 ], [ -6840957.995031124912202, 5733705.929840746335685 ], [ -6840959.926888674497604, 5733710.147712823934853 ], [ -6840977.029363138601184, 5733750.227251887321472 ], [ -6840977.498095801100135, 5733751.408505271188915 ], [ -6840982.462497856467962, 5733759.128365305252373 ], [ -6841004.820888997986913, 5733789.042943171225488 ], [ -6841011.603745737113059, 5733797.05537339579314 ], [ -6841162.22047602199018, 5733969.574165879748762 ], [ -6841162.762560158036649, 5733970.195800337940454 ], [ -6841211.457028415985405, 5734026.101138482801616 ], [ -6841226.890619997866452, 5734044.430973267182708 ], [ -6841257.702069649472833, 5734082.293275892734528 ], [ -6841422.452166862785816, 5734271.125066991895437 ], [ -6841423.802530885674059, 5734272.677313625812531 ], [ -6841520.909874438308179, 5734384.627000424079597 ], [ -6841523.076329016126692, 5734387.136304325424135 ], [ -6841586.030594638548791, 5734460.395659168250859 ], [ -6841604.945360227487981, 5734483.355224676430225 ], [ -6841622.889631322585046, 5734507.081015295349061 ], [ -6841680.015178269706666, 5734585.967802674509585 ], [ -6841698.56269740127027, 5734612.851481155492365 ], [ -6841715.864296508021653, 5734640.553417964838445 ], [ -6841751.607973210513592, 5734700.800972996279597 ], [ -6841776.999938449822366, 5734747.464742179960012 ], [ -6841808.396593644283712, 5734810.642017042264342 ], [ -6841830.813802250660956, 5734860.431271768175066 ], [ -6841844.525926550850272, 5734894.279881299473345 ], [ -6841853.953798399306834, 5734916.596422495320439 ], [ -6841865.959449610672891, 5734946.924915093928576 ], [ -6841876.570661567151546, 5734977.768963225185871 ], [ -6841885.765390518121421, 5735009.064491401426494 ], [ -6841887.87292617186904, 5735016.893225830048323 ], [ -6841896.405408702790737, 5735045.883611625060439 ], [ -6841896.606045365333557, 5735046.637645379640162 ], [ -6841896.844250989146531, 5735047.380666268058121 ], [ -6841928.775373931974173, 5735156.751099242828786 ], [ -6841937.200743477791548, 5735188.261990591883659 ], [ -6841944.181535094976425, 5735220.12406324967742 ], [ -6841949.780917656607926, 5735248.791253245435655 ], [ -6841951.020779930986464, 5735255.298932058736682 ], [ -6841979.537275456823409, 5735408.835755342617631 ], [ -6841986.254364771768451, 5735452.453069030307233 ], [ -6841995.762658932246268, 5735530.027188578620553 ], [ -6841999.462362198159099, 5735557.553035411052406 ], [ -6842001.342514271847904, 5735573.507282047532499 ], [ -6842007.218602850101888, 5735611.068799147382379 ], [ -6842007.180754827335477, 5735611.074720056727529 ], [ -6842010.438941354863346, 5735630.359622525982559 ], [ -6842016.219437763094902, 5735671.948058965615928 ], [ -6842017.378666019067168, 5735680.682223324663937 ], [ -6842023.465046910569072, 5735728.809518626891077 ], [ -6842025.088278831914067, 5735739.706416261382401 ], [ -6842028.283840575255454, 5735764.007173890247941 ], [ -6842030.173234909772873, 5735780.563856840133667 ], [ -6842041.594995964318514, 5735861.924014643765986 ], [ -6842042.185070437379181, 5735866.221846750937402 ], [ -6842066.226284865289927, 5736045.35441580042243 ], [ -6842070.863350297324359, 5736070.457270213402808 ], [ -6842076.611707137897611, 5736106.306146422401071 ], [ -6842078.136752184480429, 5736117.720914923585951 ], [ -6842079.891778758727014, 5736129.10259245056659 ], [ -6842091.931472902186215, 5736223.533934438601136 ], [ -6842099.62037867307663, 5736276.668557040393353 ], [ -6842116.626894739456475, 5736374.888011720962822 ], [ -6842117.823881441727281, 5736379.465183515101671 ], [ -6842137.854809880256653, 5736461.234657972119749 ], [ -6842145.848341933451593, 5736498.028393684886396 ], [ -6842147.08780999481678, 5736504.556999841704965 ], [ -6842148.134798737242818, 5736508.614686285145581 ], [ -6842154.836014470085502, 5736540.533366892486811 ], [ -6842160.538224912248552, 5736571.147183219902217 ], [ -6842162.696230926550925, 5736580.458159922622144 ], [ -6842163.014594339765608, 5736581.837982243858278 ], [ -6842192.98359957896173, 5736712.316113497130573 ], [ -6842197.35227168072015, 5736732.691598069854081 ], [ -6842198.787597606889904, 5736739.896124820224941 ], [ -6842200.984216770157218, 5736750.921901635825634 ], [ -6842207.766726029105484, 5736783.332463051192462 ], [ -6842210.045596966519952, 5736792.155978141352534 ], [ -6842233.633465627208352, 5736894.458216837607324 ], [ -6842262.362958122044802, 5737015.076600763946772 ], [ -6842280.696405765600502, 5737089.164724852889776 ], [ -6842290.214004737325013, 5737126.094569062814116 ], [ -6842297.090110530145466, 5737151.508975353091955 ], [ -6842313.285657601431012, 5737209.995139012113214 ], [ -6842324.48685662727803, 5737248.053435061126947 ], [ -6842348.117034586146474, 5737337.517053007148206 ], [ -6842375.91913597472012, 5737439.842798338271677 ], [ -6842388.073493702337146, 5737492.30432756524533 ], [ -6842403.815540703013539, 5737574.143720760941505 ], [ -6842408.938380232080817, 5737604.218907379545271 ], [ -6842412.774743123911321, 5737634.485103948041797 ], [ -6842421.365701538510621, 5737716.187102449126542 ], [ -6842424.296830517239869, 5737753.344742640852928 ], [ -6842425.541761009022593, 5737776.956492348574102 ], [ -6842429.223467150703073, 5737839.303714250214398 ], [ -6842431.774843339808285, 5737875.615890929475427 ], [ -6842433.114959839731455, 5737910.629620874300599 ], [ -6842436.74755166657269, 5737991.673646035604179 ], [ -6842439.999240253120661, 5738032.016758872196078 ], [ -6842441.028978222049773, 5738046.991282608360052 ], [ -6842446.107273817062378, 5738085.973486426286399 ], [ -6842451.646878810599446, 5738127.067329797893763 ], [ -6842482.907429238781333, 5738288.027647555805743 ], [ -6842485.289401588030159, 5738299.851618876680732 ], [ -6842486.84912683442235, 5738307.827676692977548 ], [ -6842517.344328626058996, 5738468.614715993404388 ], [ -6842547.839468829333782, 5738619.223036567680538 ], [ -6842549.188265647739172, 5738626.055164221674204 ], [ -6842564.305510489270091, 5738704.639623661525548 ], [ -6842580.577849287539721, 5738785.186716575175524 ], [ -6842609.849717861972749, 5738928.102169908583164 ], [ -6842617.862709145061672, 5738965.882362277247012 ], [ -6842617.988631132990122, 5738966.563455004245043 ], [ -6842565.502455400303006, 5739019.492622559890151 ], [ -6842477.143364500254393, 5739108.512269290164113 ], [ -6842388.81220864970237, 5739197.523884809575975 ], [ -6842300.507325770333409, 5739286.659614539705217 ], [ -6842212.227471769787371, 5739376.095076690427959 ], [ -6842123.972124489955604, 5739466.128770779818296 ], [ -6842123.972124446183443, 5739466.128770783543587 ], [ -6841227.735999683849514, 5739466.128770783543587 ], [ -6841227.725308877415955, 5739452.234005709178746 ] ] ] } }
]
}
