{"type": "FeatureCollection", "features": [{"type": "Feature", "id": 7100, "geometry": {"type": "LineString", "coordinates": [[-61.022008366742746, 45.509999133876825], [-61.02174839937722, 45.510027124648566], [-61.02142229910745, 45.510075481805586], [-61.02104823893967, 45.51015239579469], [-61.02093215738716, 45.51017626240558], [-61.02001248106994, 45.51037616786979], [-61.019707197102925, 45.510411289253646], [-61.019674269521325, 45.510410934224744], [-61.01954095990164, 45.510409486275734], [-61.019537922336035, 45.51040703026916], [-61.01949228779844, 45.510370026906706], [-61.019490523707695, 45.51034404582664], [-61.01948899255911, 45.510321642266334], [-61.01947158227785, 45.51029754109631], [-61.0194498008865, 45.51026739630592], [-61.01943361654655, 45.510264181194245], [-61.01939119128488, 45.51025575828426], [-61.01935140448271, 45.510256787387256], [-61.01932877522233, 45.510257375993646], [-61.019235754424, 45.51027088444497], [-61.0190630754251, 45.510286305352395], [-61.018861012939105, 45.51030434861576], [-61.01876415482918, 45.51031337951278], [-61.01868363423, 45.51032636630477], [-61.018612499431484, 45.51033784168079], [-61.01851224705071, 45.510344365136916], [-61.018493423378125, 45.5103455866927], [-61.018427520664225, 45.51033565786246], [-61.01840224192863, 45.51033185272278], [-61.01834307497124, 45.51032515515478], [-61.018313523056904, 45.510332941401536]]}, "properties": {"OBJECTID": 7100, "FEAT_CODE": "WACO20", "FEAT_DESC": "Coast - Water to the right line", "RIVNAME_1": " ", "RIVNAME_2": " ", "ZVALUE": 0.7, "FID": null, "SHAPE_Length": 306.96391549615555}}, {"type": "Feature", "id": 7101, "geometry": {"type": "LineString", "coordinates": [[-61.017667290402954, 45.510462485150796], [-61.01758347520043, 45.51047485589518], [-61.01757634239316, 45.51047782847561], [-61.01752805877923, 45.51049806202338], [-61.017502595532264, 45.51054799069244], [-61.01749434607731, 45.51056416665484], [-61.01749287691246, 45.5106154750354], [-61.01749208387769, 45.51064315798303], [-61.01746475104922, 45.51067049715613], [-61.01736081078355, 45.5106810331173], [-61.01724220157823, 45.510689676049054]]}, "properties": {"OBJECTID": 7101, "FEAT_CODE": "WACO20", "FEAT_DESC": "Coast - Water to the right line", "RIVNAME_1": " ", "RIVNAME_2": " ", "ZVALUE": 0.7, "FID": null, "SHAPE_Length": 49.55199775294196}}, {"type": "Feature", "id": 7104, "geometry": {"type": "LineString", "coordinates": [[-61.01724220157823, 45.510689676049054], [-61.017196702984215, 45.51068309821216], [-61.01711483868232, 45.510671262236436], [-61.01706301348162, 45.510652359842865], [-61.016978928613234, 45.51063558855035], [-61.0169740209314, 45.5106346212021], [-61.01690937009453, 45.51061638711909], [-61.01688378123224, 45.51061594270885], [-61.01666776147554, 45.510569885116354], [-61.01633460257538, 45.5105055900286], [-61.01614289306207, 45.51045995376232], [-61.015982416410736, 45.510423924076136], [-61.01597776749895, 45.51042288017031], [-61.015974393914995, 45.51042197543936], [-61.01577358041904, 45.510368025271035], [-61.015683363614976, 45.51034689789632], [-61.0156199383645, 45.51033205983277], [-61.01549986052432, 45.510308568120394], [-61.015427946045726, 45.51029450053375], [-61.01527495127496, 45.51027654829719], [-61.01487780657589, 45.510248041715776], [-61.014835115693714, 45.51024391507112], [-61.014775736658365, 45.5102381660939], [-61.01459959006433, 45.51023748880688], [-61.01444292594087, 45.51023687999093], [-61.01428901429837, 45.51024500499238], [-61.014175732701624, 45.51025324231823], [-61.014059267954494, 45.51026171220836], [-61.013918435393705, 45.51026196309547], [-61.013674931680946, 45.51026942904021], [-61.01347012748429, 45.510268566532844], [-61.01338659597366, 45.510259399238095], [-61.013304339491725, 45.51025038008307], [-61.013188829392845, 45.51022226677982], [-61.01315225842315, 45.51021085599832], [-61.01310018745525, 45.510194620885], [-61.01293310727553, 45.51017642041176]]}, "properties": {"OBJECTID": 7104, "FEAT_CODE": "WACO20", "FEAT_DESC": "Coast - Water to the right line", "RIVNAME_1": " ", "RIVNAME_2": " ", "ZVALUE": 0.7, "FID": null, "SHAPE_Length": 345.66062091524384}}, {"type": "Feature", "id": 16019, "geometry": {"type": "LineString", "coordinates": [[-61.017667290402954, 45.510462485150796], [-61.017865972404216, 45.510441936991555], [-61.018194234674944, 45.51040799345033], [-61.01823640372394, 45.51039162303157], [-61.01826838762635, 45.51034483177208], [-61.018313523056904, 45.510332941401536]]}, "properties": {"OBJECTID": 16019, "FEAT_CODE": "WACO25", "FEAT_DESC": "Coastline Indefinite - Water to the right line", "RIVNAME_1": " ", "RIVNAME_2": " ", "ZVALUE": 0.7, "FID": null, "SHAPE_Length": 54.91509410714631}}, {"type": "Feature", "id": 29842, "geometry": {"type": "LineString", "coordinates": [[-61.02579033542219, 45.51076127792832], [-61.025691210021, 45.51037431240351], [-61.02568032602319, 45.51033045035746], [-61.02566652294602, 45.51027488127411], [-61.02560287391736, 45.509996615545965], [-61.02557991060477, 45.50989622406456], [-61.025401345607875, 45.50991383909435], [-61.025394565862875, 45.509883675820774], [-61.02538915989934, 45.50985962112005], [-61.025376344856085, 45.5098233946773], [-61.02537225798592, 45.509798228634395], [-61.02536475739406, 45.509752075748146], [-61.02535503240579, 45.50966118439325], [-61.025352228136846, 45.50963485236974]]}, "properties": {"OBJECTID": 29842, "FEAT_CODE": "WADI50", "FEAT_DESC": "Ditch - Single Line", "RIVNAME_1": " ", "RIVNAME_2": " ", "ZVALUE": 9999, "FID": null, "SHAPE_Length": 142.9114307765509}}, {"type": "Feature", "id": 119657, "geometry": {"type": "LineString", "coordinates": [[-61.02199543667469, 45.51153722520399], [-61.022007418286634, 45.51151388560117], [-61.02200917736974, 45.51151045060852], [-61.022047592913076, 45.51151021593503], [-61.02217465899211, 45.51152587372796], [-61.0222005616414, 45.51152906775419], [-61.02230361248637, 45.51154795492551], [-61.02232505378517, 45.511563016253525], [-61.022328590212744, 45.5115654898267], [-61.02234089459043, 45.51158299425105], [-61.022354198342384, 45.511601938173236], [-61.02235293762398, 45.511637921162105]]}, "properties": {"OBJECTID": 119657, "FEAT_CODE": "WALK20", "FEAT_DESC": "Lake - Water to the right line", "RIVNAME_1": " ", "RIVNAME_2": " ", "ZVALUE": 19.7, "FID": null, "SHAPE_Length": 37.8956126461139}}, {"type": "Feature", "id": 119658, "geometry": {"type": "LineString", "coordinates": [[-61.02235293762398, 45.511637921162105], [-61.02230340040127, 45.5116555876735], [-61.0223023763814, 45.51165594798821], [-61.022267127462065, 45.51165568852071], [-61.02221276911026, 45.51165529608129], [-61.02217416045574, 45.51164971268651], [-61.02214909205957, 45.51164609204563], [-61.02214084794334, 45.51164314987162], [-61.022122538395784, 45.5116366308931], [-61.02199514027827, 45.51158221709883], [-61.02198554260761, 45.51156017791077], [-61.02198329130319, 45.51155500822458], [-61.02199543667469, 45.51153722520399]]}, "properties": {"OBJECTID": 119658, "FEAT_CODE": "WALK20", "FEAT_DESC": "Lake - Water to the right line", "RIVNAME_1": " ", "RIVNAME_2": " ", "ZVALUE": 19.7, "FID": null, "SHAPE_Length": 35.8378984467834}}, {"type": "Feature", "id": 134173, "geometry": {"type": "LineString", "coordinates": [[-61.018928402651234, 45.52312349547817], [-61.01906828843504, 45.52315112565383], [-61.01909973032967, 45.52317321995698], [-61.01911952561597, 45.52318711915342], [-61.019124174112484, 45.523200242518456], [-61.01913233936266, 45.523223346201966], [-61.019156670707865, 45.52325977304934], [-61.019194795224585, 45.523304531232384], [-61.01923323497516, 45.523340311683086], [-61.0192454007008, 45.523358525097244], [-61.0192454365974, 45.52342352331174], [-61.01924543341945, 45.523430544184656], [-61.01921922500811, 45.52355700633014], [-61.01921890951355, 45.52356599304573], [-61.019192383779995, 45.52362854123272], [-61.019166489625725, 45.52367309799027], [-61.019152949568465, 45.523694393951615], [-61.019114985437724, 45.52375411534532], [-61.019096403755064, 45.52379208405341], [-61.01908877532813, 45.52380766779262], [-61.0190619182952, 45.52391611626441], [-61.019041792469515, 45.523984932253065], [-61.01903572442589, 45.524005673736085], [-61.01901545544797, 45.524047564679634], [-61.018944596409426, 45.524194017859024], [-61.01895677853074, 45.524248236340725], [-61.01893116816897, 45.524284696894675], [-61.01890218762187, 45.52431137768777], [-61.01889279212351, 45.524320026843114], [-61.01886693750797, 45.52433791369257], [-61.01885340713395, 45.52434725620599], [-61.01881462627249, 45.524360562197195], [-61.018751024059846, 45.52438238468652], [-61.018697596112915, 45.52439708371437], [-61.0186863728342, 45.5244001654072], [-61.01861902805821, 45.524415883086405], [-61.01857146352098, 45.52442697530757], [-61.01842967918522, 45.52445331871386], [-61.01838741069831, 45.52445763485752], [-61.018263895285656, 45.524470244241606], [-61.01819892783101, 45.5244970203862], [-61.018052799161104, 45.52456828486539], [-61.01794226463603, 45.5246221826309], [-61.017890742170664, 45.524667194353086], [-61.01787083981452, 45.52469679583063], [-61.01781237574008, 45.52478374957189], [-61.01773464110258, 45.524882313326984], [-61.017644740650255, 45.52496266344715], [-61.01759353403325, 45.524998670327435], [-61.01755631951903, 45.52501949207165], [-61.017529529014546, 45.52503447298701], [-61.0174644332401, 45.52505977028898], [-61.017438649036905, 45.525069799998924], [-61.01737526360138, 45.525087601952634], [-61.01728502851381, 45.525104937663954], [-61.01720790962441, 45.52514950462253], [-61.01717611733248, 45.525160690112216], [-61.01710547968834, 45.52518553092861], [-61.01702802930804, 45.52520308844625], [-61.01699232759041, 45.52520891329529], [-61.0167588490162, 45.525247019959345], [-61.01640004474861, 45.5253130940969], [-61.01637474373278, 45.525317749249794], [-61.01634396697546, 45.52532335341046], [-61.01604096620563, 45.52537856826215], [-61.01586233677103, 45.525396167231534], [-61.01578456999555, 45.525422701592156], [-61.01548917311482, 45.52552019066862], [-61.01528861404982, 45.52558199949361], [-61.01514351561251, 45.52562670664107], [-61.01492520708191, 45.52568051028031], [-61.01475782203969, 45.52570641306658], [-61.01450173937784, 45.52574156577977], [-61.01437404041641, 45.52576814906138], [-61.01402709991763, 45.52587463033818], [-61.01391221719005, 45.525900535886805], [-61.01370705244939, 45.52594467350302], [-61.01342409256414, 45.52597935626247], [-61.01310369525302, 45.52602329720778], [-61.01295038676479, 45.52604942427625], [-61.01280015189306, 45.52607844900398], [-61.01271959328343, 45.52609401424832], [-61.01266984502864, 45.52609904420912], [-61.01255252332283, 45.52611090909474], [-61.012130355807784, 45.52617196942113], [-61.01169468648423, 45.52621569082851], [-61.01166055326233, 45.52621549252336], [-61.011541047962375, 45.52621481569778], [-61.01148129800414, 45.52620386488587], [-61.011437987224035, 45.52619591868999], [-61.01137460009526, 45.52617771253271], [-61.01134748841532, 45.52617340585979], [-61.01126000245297, 45.526159514560824], [-61.01122694175857, 45.52615940681513], [-61.0111959683924, 45.52615929941034], [-61.0111504453625, 45.52616289010039], [-61.01109323626962, 45.52616741137465], [-61.0108999149406, 45.52623875379111], [-61.01079749022949, 45.526310779269096], [-61.010655709114964, 45.52637310881327], [-61.010645463612285, 45.52637785396647], [-61.01057890027397, 45.526408684503004], [-61.01040394241917, 45.52650431617264], [-61.01033472436626, 45.526542148239294], [-61.01019295252211, 45.52664049111432], [-61.01005181479672, 45.52672084249073], [-61.009909714196546, 45.52679217572451], [-61.009704236291554, 45.526881306612296], [-61.009534150393826, 45.52693350112853], [-61.00935728054225, 45.52698777341451], [-61.00928076886667, 45.52701524334018], [-61.009213537225584, 45.527049364862066], [-61.009035612170315, 45.52713968600262], [-61.008964842478356, 45.527172449517224], [-61.00895880160176, 45.52717525156742], [-61.00889073936343, 45.52719552359352], [-61.00877890736614, 45.527228822134965], [-61.00870304910005, 45.5272374005774], [-61.00848442464861, 45.527266064069195], [-61.00836983076023, 45.52728109564048], [-61.00826219905421, 45.52730132520538], [-61.00799726456598, 45.52735110686568], [-61.0078567481588, 45.52737745924794], [-61.00777961007418, 45.527386005747076], [-61.00765156460863, 45.5273855809018], [-61.00755890161642, 45.52736922012551], [-61.007549751211634, 45.527367602268136], [-61.00752730454406, 45.52735955958565], [-61.00737017805341, 45.5273032606875], [-61.00730710883247, 45.52727605663573], [-61.00721713183174, 45.527249283077424], [-61.007077242253665, 45.52722163832585], [-61.00688488056215, 45.52719307752104], [-61.00678348655878, 45.52719260382824], [-61.00674403778361, 45.527192419279764], [-61.00661567526353, 45.52720097992168], [-61.00637239224822, 45.52723633783363], [-61.00633278987126, 45.5272361504612], [-61.006231549389234, 45.52723567895838], [-61.00606542825872, 45.527225577316024], [-61.00591173122015, 45.527212514980626], [-61.005732192590465, 45.527197254888485], [-61.00557980001057, 45.527196924562524], [-61.00543767724078, 45.52719661140055], [-61.00533803291085, 45.52720894866958], [-61.00529747820235, 45.52721396498984], [-61.00510512463183, 45.52722141507038], [-61.00493897960919, 45.52724820723112], [-61.00483560818464, 45.52727431376441], [-61.00477222962573, 45.52729209983339], [-61.00448928503907, 45.527398770187524], [-61.00440517591023, 45.52742335870981], [-61.00433530060402, 45.52744378535743], [-61.004236264778136, 45.52745591627068], [-61.004193820840605, 45.52746111520697], [-61.004127342556814, 45.52746732522149], [-61.004015226033125, 45.52747780511694], [-61.00391146460763, 45.52747726948718], [-61.003797562276915, 45.527476691498826], [-61.00370071617582, 45.52747181198231], [-61.00360581286598, 45.52746703836004], [-61.003374675827466, 45.52744859512127], [-61.003279411917816, 45.52743592088227], [-61.00323446972033, 45.527429932308074], [-61.00310746877408, 45.52741121221675], [-61.00297840512897, 45.527392158870086], [-61.00265482386796, 45.52733386933232], [-61.00251903656037, 45.52730941415935], [-61.00251422279676, 45.52730684562414], [-61.00236570284374, 45.52722752133297], [-61.00230923912281, 45.527200817127245], [-61.00225108791014, 45.52717330926797], [-61.00223860839659, 45.52716408974606]]}, "properties": {"OBJECTID": 134173, "FEAT_CODE": "WALK20", "FEAT_DESC": "Lake - Water to the right line", "RIVNAME_1": " ", "RIVNAME_2": " ", "ZVALUE": 33.4, "FID": null, "SHAPE_Length": 1563.6831824851668}}, {"type": "Feature", "id": 134174, "geometry": {"type": "LineString", "coordinates": [[-61.00223860839659, 45.52716408974606], [-61.00221475685068, 45.52713607480984], [-61.00220049502407, 45.52711932611254], [-61.002182770583566, 45.52709765619071], [-61.00214894163627, 45.52705630694014], [-61.00211149773216, 45.52699264349664], [-61.002124916366576, 45.526866861666335], [-61.00212584036835, 45.526810395386974], [-61.00212713532704, 45.526731882689916], [-61.00208837999768, 45.52666909640875], [-61.002080896029376, 45.52665189021063], [-61.00207653777363, 45.52664188564506], [-61.00208539624914, 45.526623534201235], [-61.00210280996489, 45.52658743808644], [-61.00214774126754, 45.526550680279854], [-61.002179286972286, 45.52652486773458], [-61.00223079162508, 45.526480762918766], [-61.0022886299006, 45.52642053074563], [-61.00233450177834, 45.526372753864614], [-61.002355236759314, 45.52634773326801], [-61.00238667475037, 45.526309767177395], [-61.00239360466494, 45.526294883431824], [-61.002399148402766, 45.52628298183239], [-61.00242795080112, 45.52624820104874], [-61.00245132153567, 45.52621998611642], [-61.00254220077686, 45.526112661528295], [-61.00257352865854, 45.52607996815478], [-61.00259390152676, 45.52605865867], [-61.00261932640998, 45.52603209984851], [-61.002658388655675, 45.526013880634736], [-61.00266636249531, 45.52601110372741], [-61.00268302296898, 45.526005310345845], [-61.00269613924865, 45.52599653858345], [-61.00283792817835, 45.52593421005738], [-61.00291887689312, 45.52589431039777], [-61.00292785696799, 45.525889876849895], [-61.00304405015502, 45.52582709140453], [-61.00318487657871, 45.525755753426445], [-61.003301521623555, 45.52567475721487], [-61.003390990586496, 45.52561263825363], [-61.003687985927364, 45.525398201985425], [-61.003741199641006, 45.52535712375656], [-61.00381568821686, 45.52529962120932], [-61.00393187888992, 45.52523684381262], [-61.00397690724028, 45.52520596475211], [-61.0040355580984, 45.525165746529225], [-61.00412549629277, 45.525084525666166], [-61.00419430507788, 45.52502973196309], [-61.004215098257646, 45.52501316415776], [-61.00435689586196, 45.524950833888674], [-61.004408754385025, 45.52493283771385], [-61.0044295123103, 45.52492957301063], [-61.00446027567787, 45.524924736929954], [-61.00451857861448, 45.524924387644866], [-61.00453711198198, 45.52492427946863], [-61.00454686593255, 45.52492909453666], [-61.00457486839824, 45.52494294165168], [-61.00459555442206, 45.52496596813498], [-61.00459950909668, 45.52497037581578], [-61.00460887845769, 45.524973392921204], [-61.00462609769751, 45.52497894151657], [-61.00464986466193, 45.524978942779754], [-61.00467731987802, 45.524978936477936], [-61.004689799328034, 45.524988155735166], [-61.00471540172425, 45.52502460786777], [-61.00470518210397, 45.525065546721535], [-61.00470197504, 45.525078380383725], [-61.00470032511362, 45.52508158297965], [-61.004688222996435, 45.52510514364588], [-61.00468859430335, 45.525115645520295], [-61.004688866471945, 45.52512315726768], [-61.00471444909845, 45.52514206573736], [-61.00472630493331, 45.525150815032724], [-61.00477785264574, 45.52517781920333], [-61.00481597204518, 45.525186586340695], [-61.004874779952, 45.525202744875656], [-61.00491741785815, 45.52521446230781], [-61.004923471952175, 45.525218528608605], [-61.00493117716401, 45.525223703900046], [-61.004930859058035, 45.52523269953073], [-61.00490553953364, 45.52527623695225], [-61.00490495296961, 45.52527725283916], [-61.00494144145485, 45.525303534755146], [-61.00495491581165, 45.52531323042639], [-61.00512102572999, 45.52535933825003], [-61.00517224826346, 45.52535933299516], [-61.005210991178444, 45.52535010851609], [-61.00521779761221, 45.525345573806874], [-61.005224120034796, 45.52534132768104], [-61.00522443777719, 45.52533234104457], [-61.00521096117099, 45.525313653178635], [-61.00519879031118, 45.525296788359704], [-61.00521016890091, 45.52528101002969], [-61.00521225590895, 45.52527812110252], [-61.00524281975755, 45.52526408211083], [-61.00525000524543, 45.525260778183075], [-61.005351677900244, 45.525244578906054], [-61.005468932975525, 45.525225897358595], [-61.00550639598782, 45.52521665042268], [-61.00553262731196, 45.525199106224264], [-61.00554509921855, 45.52517232050128], [-61.00554078845969, 45.52516240690754], [-61.00553325560429, 45.52514511006659], [-61.00550383789716, 45.52510825843259], [-61.005482979614705, 45.525082123695725], [-61.00547618565292, 45.52507290482232], [-61.00546953826833, 45.52506388653495], [-61.00548265390168, 45.52505511444004], [-61.005500013471924, 45.525049089825764], [-61.005534512180056, 45.52503711774972], [-61.00566221330296, 45.52501054439471], [-61.005713629333954, 45.52500578064762], [-61.00575215911952, 45.52500221400996], [-61.00586582658721, 45.52496690720975], [-61.005867380422366, 45.52496642127788], [-61.00613688924549, 45.524877524247], [-61.00620584721368, 45.52485105867726], [-61.00636796060186, 45.5247888376057], [-61.00648352008764, 45.52478005372257], [-61.006584170306056, 45.52478985793434], [-61.00667494321434, 45.52479869752747], [-61.0068429742735, 45.524808183543094], [-61.00702128066471, 45.52481824470654], [-61.007085300309676, 45.52481846194933], [-61.00723859540092, 45.524792333522015], [-61.00738039814386, 45.52476600434145], [-61.007571812534074, 45.524748641733034], [-61.007725764474685, 45.52474052649051], [-61.007890604711584, 45.52474572473252], [-61.00804554475242, 45.52475060601158], [-61.00817390152143, 45.524742043660886], [-61.00858327730882, 45.52468077487683], [-61.008775608829374, 45.5246733275517], [-61.008869261807256, 45.52467785004604], [-61.008980147498384, 45.52468319501253], [-61.00906059159955, 45.52468318446366], [-61.00913382623272, 45.524683174176566], [-61.009248119180256, 45.52469720142771], [-61.00936460511778, 45.524711500825994], [-61.0096206937839, 45.52474836925387], [-61.009760578622306, 45.524776010817874], [-61.009862210666796, 45.524794299369155], [-61.00996544575807, 45.524812885803215], [-61.010183110778584, 45.524849983436816], [-61.01029740094145, 45.5248771783266], [-61.010347050630216, 45.52488254405515], [-61.01038669903913, 45.52488682637816], [-61.01056594771282, 45.524887258147054], [-61.01061469672776, 45.524881851646676], [-61.01064309512416, 45.52487870092442], [-61.01076622106076, 45.524847793587995], [-61.010783921250805, 45.52484334931185], [-61.01078878591237, 45.52484229990789], [-61.01082263123941, 45.52483502247258], [-61.01097630888149, 45.524871003890006], [-61.01102049840409, 45.52487687729417], [-61.01111649906164, 45.52488964792079], [-61.011346658557535, 45.52493596214769], [-61.01148782453989, 45.5249636239046], [-61.0115165021541, 45.52496817384352], [-61.011602432644665, 45.524981821834636], [-61.01164082558385, 45.52498249038536], [-61.01193564697604, 45.52497412200837], [-61.01243529406567, 45.524967518062205], [-61.012617741477456, 45.52497712048921], [-61.012818761143485, 45.524987693922256], [-61.01292087614223, 45.52499667192264], [-61.01335589540223, 45.525079851273745], [-61.01344194141658, 45.52509350888997], [-61.013470504408325, 45.525098047342176], [-61.013551989116365, 45.5250983217656], [-61.013662564744436, 45.52509868813057], [-61.01372487519476, 45.52508672031162], [-61.01375281363553, 45.52508135552356], [-61.01382630698973, 45.52506782694021], [-61.013944860835956, 45.52504599085627], [-61.01402136192241, 45.525055422484286], [-61.01408538199696, 45.52505563580663], [-61.014149705910285, 45.52504685318917], [-61.01421309225666, 45.525029053042516], [-61.01430301094323, 45.524984710693616], [-61.01436765077184, 45.5249309275064], [-61.01436945367211, 45.52492845652726], [-61.01442013880932, 45.524858930600686], [-61.01443291055399, 45.52482313893167], [-61.014432909936325, 45.52478713416765], [-61.01436980008077, 45.52468793279676], [-61.014363450603796, 45.524673321468995], [-61.014357952272206, 45.52466072320559], [-61.01436769921037, 45.52465047832344], [-61.0143832302795, 45.52463415920649], [-61.01440916090768, 45.52462470880842], [-61.01453030548984, 45.52457143100772], [-61.01455093388936, 45.52456236544567], [-61.01457619896401, 45.52453580117863], [-61.01465425509663, 45.524428243968075], [-61.01471794433108, 45.524401447617166], [-61.01481425935319, 45.52437726171763], [-61.014858766556685, 45.52436609990813], [-61.01488937841114, 45.5243502499277], [-61.014910938169635, 45.524339094213566], [-61.01497526017483, 45.52429430634129], [-61.0150221095957, 45.52425660467392], [-61.015053012548535, 45.52423174951948], [-61.01510485329814, 45.52417774341816], [-61.01510841450033, 45.524174429876055], [-61.01522002057203, 45.52407083090719], [-61.01531023938684, 45.52398148702932], [-61.01538770617138, 45.52392702608355], [-61.01545169811441, 45.52389123339322], [-61.01552979273486, 45.52385568576008], [-61.01560627833011, 45.52382911130057], [-61.0156719291431, 45.523814230074805], [-61.01568372721917, 45.523811554719224], [-61.01569570157903, 45.52380969253289], [-61.01579832018449, 45.52379374341703], [-61.01593258157668, 45.523784680863386], [-61.01604219852326, 45.523777278241866], [-61.01616123680492, 45.523762685226075], [-61.01618365306968, 45.52375993326003], [-61.01619581179884, 45.52375756115653], [-61.016272632155264, 45.52374257659714], [-61.01638816080625, 45.52369777738887], [-61.01640431148537, 45.52369112703508], [-61.01645314094942, 45.523671002492485], [-61.01661984194821, 45.5235550824367], [-61.01668384550031, 45.52351928925561], [-61.01676227387385, 45.52347384526565], [-61.01682592943485, 45.52344794726947], [-61.016890580109624, 45.523430167591094], [-61.01695363484173, 45.52342136134985], [-61.017033027318945, 45.5234213449203], [-61.01705606395081, 45.523421339917846], [-61.01710089119729, 45.523417797797336], [-61.01715880318106, 45.523413222708086], [-61.01725670651441, 45.52338821621361], [-61.01740301193845, 45.523350854292985], [-61.01767389467688, 45.52328698616831], [-61.0178510610054, 45.523245217771546], [-61.018031581699475, 45.523209655134984], [-61.018363805883496, 45.523156904401795], [-61.01854397880881, 45.52313122722724], [-61.01873603279641, 45.523131859369414], [-61.018928402651234, 45.52312349547817]]}, "properties": {"OBJECTID": 134174, "FEAT_CODE": "WALK20", "FEAT_DESC": "Lake - Water to the right line", "RIVNAME_1": " ", "RIVNAME_2": " ", "ZVALUE": 33.4, "FID": null, "SHAPE_Length": 1642.0903212780845}}, {"type": "Feature", "id": 134687, "geometry": {"type": "LineString", "coordinates": [[-61.0221118876599, 45.517566438170995], [-61.02211982771107, 45.51756054490211], [-61.0221237321794, 45.517557642137895], [-61.022136528224095, 45.517557863782926], [-61.02215023645364, 45.517562745844664], [-61.02216308467472, 45.51756732407006], [-61.02220150434364, 45.51756708941405], [-61.02220618458281, 45.51756360600489], [-61.022213336368864, 45.517558284154035], [-61.02220424841896, 45.51754468795638], [-61.02220117054636, 45.51754008003931], [-61.02220116615763, 45.517525957084054], [-61.02220115201756, 45.5175040749274], [-61.02217582515189, 45.51745953127518], [-61.02212525313965, 45.51740464812029], [-61.02211694742297, 45.51738115514577], [-61.022112438654695, 45.51736842136277], [-61.02211266417232, 45.51733349161965], [-61.02211273577486, 45.51732341151815], [-61.022111238872746, 45.517320091151014], [-61.022100853787336, 45.51729711123021], [-61.022024027927316, 45.51726067578254], [-61.02201798141496, 45.517251632853096], [-61.02201186254278, 45.5172424626531], [-61.02199874566282, 45.51721523184183], [-61.02202558597219, 45.5171796919878], [-61.02206335635401, 45.51716144373481], [-61.02211452169104, 45.51712632521419], [-61.022153237508746, 45.517081098713874], [-61.02217946023257, 45.51706354152129], [-61.0221969430766, 45.51705716545011], [-61.022205398888275, 45.517054089482116], [-61.022238722215604, 45.51704691662938], [-61.022244101939, 45.51704575864177], [-61.02229501473048, 45.5170547415378], [-61.02233340845941, 45.51705450638829], [-61.022550435031384, 45.51710957182484], [-61.02265408109943, 45.517124553444], [-61.02267782716339, 45.517127980048414], [-61.02284393521192, 45.51713805730876], [-61.02299785205266, 45.517129920855666], [-61.02306270547045, 45.51711595768627], [-61.02320297811679, 45.517085756825225], [-61.02334474179306, 45.51705940711175], [-61.023467486519195, 45.51704600477974], [-61.02366479089066, 45.517024450555915], [-61.02397266804601, 45.51700727586018], [-61.024052604982884, 45.51699364516041], [-61.02412594721821, 45.51698113345503], [-61.024317646151964, 45.51695473747479], [-61.02440337769711, 45.51694893881799], [-61.02456149299067, 45.51693825354632], [-61.02493307854491, 45.51693027947967], [-61.02508572781545, 45.51692211828539], [-61.02511163446098, 45.51691356515186], [-61.025112189634996, 45.516853428746224], [-61.02511253805336, 45.516814567597336], [-61.02513845570561, 45.51676910973412], [-61.02517682292972, 45.51673376849518], [-61.02521160216475, 45.51671753774422], [-61.02521587161205, 45.51671554130589], [-61.025239168873405, 45.516711668644845], [-61.025318925231936, 45.51669842098628], [-61.025370015579334, 45.516691356444014], [-61.02544625844316, 45.51668082030673], [-61.02550614549403, 45.51668654550141], [-61.02554963423515, 45.5166907179469], [-61.025626158028814, 45.51669923308331], [-61.025651749783286, 45.516699675580846], [-61.025744263389264, 45.51667091410853], [-61.02576695480199, 45.5166638624429], [-61.025882770350734, 45.516610957466185], [-61.02589379000159, 45.516609248725885], [-61.02599733294478, 45.51659313538616], [-61.026074139547006, 45.516593563033744], [-61.026240601205544, 45.51662974493933], [-61.026349636799615, 45.516652440377484], [-61.026419827501876, 45.516667047343546], [-61.0264610312196, 45.516674321366054], [-61.02652162828614, 45.51668500895837], [-61.026570896350734, 45.51667952359865], [-61.02659874958812, 45.51667644049313], [-61.026736597165986, 45.51663604902615], [-61.02677856241223, 45.5166237404847], [-61.02691902225487, 45.51656135900446], [-61.02699076252347, 45.51652578370896], [-61.02701022860654, 45.516516128726956], [-61.027011745219006, 45.51651559685758], [-61.02708669898749, 45.51648954628738], [-61.02718946183501, 45.51648987257868], [-61.027278730951025, 45.51649016368341], [-61.027365905521, 45.51650275917739], [-61.02740613620807, 45.51650856685619], [-61.0275216318974, 45.516500660683704], [-61.02758959371589, 45.516514202291745], [-61.02761063691572, 45.516518400290884], [-61.02771372085888, 45.51657328792109], [-61.02792390216267, 45.51670599525845], [-61.02792917607009, 45.5167093267733], [-61.02801509047988, 45.516749938739636], [-61.02804379594609, 45.51676350421365], [-61.0281462038924, 45.5168003863812], [-61.02818137900427, 45.51680834778149], [-61.02822371885331, 45.516817927090536], [-61.028243938773024, 45.51683286718798], [-61.02826115094359, 45.51684557705517], [-61.02828267826481, 45.51686560739596], [-61.028299592599254, 45.516881345518144], [-61.028299295232024, 45.51689901873641], [-61.02829835787019, 45.51695333378193]]}, "properties": {"OBJECTID": 134687, "FEAT_CODE": "WALK20", "FEAT_DESC": "Lake - Water to the right line", "RIVNAME_1": " ", "RIVNAME_2": " ", "ZVALUE": 16.8, "FID": null, "SHAPE_Length": 607.6207393283921}}, {"type": "Feature", "id": 134688, "geometry": {"type": "LineString", "coordinates": [[-61.02829835787019, 45.51695333378193], [-61.0282212459936, 45.51699790835021], [-61.02817006584892, 45.51703392947179], [-61.02810574023322, 45.51704271996827], [-61.02801678759414, 45.517060095326826], [-61.02778509919645, 45.5171316949437], [-61.027554698998735, 45.51716642043235], [-61.02748415825526, 45.51717425710651], [-61.027477577147884, 45.5171749895339], [-61.0273233551851, 45.517228132747036], [-61.02723342750775, 45.5172733853616], [-61.027027739820916, 45.517443554695106], [-61.02700724886285, 45.51745761155839], [-61.02692410340305, 45.517514673670405], [-61.02680797518574, 45.51761348040004], [-61.026724369050754, 45.51771373114959], [-61.026718435305526, 45.517720847567816], [-61.026707214673394, 45.517728664727166], [-61.02665413007019, 45.51776564238584], [-61.02660195728608, 45.51779265345045], [-61.026409649064846, 45.5178730319144], [-61.02631976389149, 45.51791738442027], [-61.02622955146483, 45.51797072339397], [-61.02615276370948, 45.51800630996609], [-61.02599785651405, 45.518042337264134], [-61.025896105822184, 45.518059480720176], [-61.02586120660052, 45.51806850864504], [-61.02569066373225, 45.51811263631779], [-61.025382832922915, 45.51816492111764], [-61.025203264000844, 45.51817351727262], [-61.02489662732168, 45.5181547119596], [-61.02483585427199, 45.51815413780834], [-61.024781430029115, 45.51815361944017], [-61.02469211896219, 45.51816469416881], [-61.02464125870451, 45.518170997285445], [-61.024597580370106, 45.51817696556399], [-61.024576931303976, 45.51817978576111], [-61.024487012750704, 45.51822503636438], [-61.024434575354476, 45.51829613872048], [-61.02435810130685, 45.518322719313815], [-61.02428275788491, 45.51833565560232], [-61.0241532868287, 45.51835788060855], [-61.024011520213016, 45.518384231272094], [-61.02389597599038, 45.51839303317142], [-61.023804407142386, 45.518392879645106], [-61.02378074676227, 45.51839283920895], [-61.02375677102153, 45.518389372855275], [-61.02365335138687, 45.51837443216613], [-61.023462270679524, 45.51830991664321], [-61.02332232263609, 45.51826935603085], [-61.02324425535607, 45.51824673476065], [-61.02312608188618, 45.51821363479942], [-61.02301475547319, 45.51818245350236], [-61.02298475576363, 45.518177703532686], [-61.02290015703737, 45.518164267178044], [-61.0227938028167, 45.51816366781134], [-61.02274653975306, 45.51816340749], [-61.02254139099651, 45.51817155651365], [-61.02245210140351, 45.51816190910597], [-61.022400248809646, 45.5181439088089], [-61.02235339041839, 45.518110179881965], [-61.02235028077775, 45.518107938733934], [-61.02233748460673, 45.51810771711077], [-61.02227376892783, 45.51806250770123], [-61.022248473326755, 45.51801706359084], [-61.02223830250417, 45.517988695679186], [-61.022222812466396, 45.517945508776194], [-61.022241225792555, 45.51793597229295], [-61.022274974280045, 45.51791850942466], [-61.02232170691836, 45.51791417014413], [-61.02236489394839, 45.51791016548968], [-61.022415776082454, 45.517883143010394], [-61.022427569626, 45.51787470611121], [-61.02245386205329, 45.517855898898326], [-61.02247403681981, 45.517852728825694], [-61.02250536173745, 45.51784778958825], [-61.0225355878615, 45.517847898987554], [-61.022569373827295, 45.51784799801695], [-61.02257760440042, 45.517842217761945], [-61.02259562799508, 45.51782955015666], [-61.02260809011564, 45.51780276237422], [-61.02261342641882, 45.517799191296504], [-61.02262120142448, 45.51779398822702], [-61.0226289764287, 45.517788785156974], [-61.02263431272927, 45.51778521407823], [-61.02265210101168, 45.51778510806055], [-61.022672732549985, 45.51778497926612], [-61.02268149087489, 45.51778825434576], [-61.02269800955856, 45.51779441817279], [-61.02278259298165, 45.51783166258025], [-61.02280014514866, 45.517839392493805], [-61.022838546286536, 45.51784005742205], [-61.02284868522008, 45.51783827971904], [-61.02289006462686, 45.51783104814165], [-61.022925338099284, 45.517806230503766], [-61.02294126159858, 45.517795029681906], [-61.02295100060694, 45.517785296988166], [-61.02296779925685, 45.51776848556677], [-61.02298057633452, 45.51773270199928], [-61.02298011342978, 45.51771996629149], [-61.0229799267041, 45.517714697358045], [-61.02294072395744, 45.51768246039986], [-61.02289156457552, 45.517642048967744], [-61.022842333670184, 45.51762122288163], [-61.02282723141179, 45.517614831567556], [-61.02276352196465, 45.51760562732629], [-61.02264797918867, 45.51761442798709], [-61.02262198098094, 45.5176186313967], [-61.02259775965846, 45.517622550529275], [-61.0225334135527, 45.517595341740304], [-61.02250809234284, 45.51758680215111], [-61.02243194055445, 45.51756838104907], [-61.022392414895265, 45.51757460042678], [-61.02238042832119, 45.51757649010887], [-61.02235852121003, 45.51758671410445], [-61.02230232798637, 45.51761294157857], [-61.022251792835846, 45.517630068700804], [-61.022224353850916, 45.51763007951063], [-61.02220057706197, 45.51763008173631], [-61.02214871223918, 45.51761208111131], [-61.02214754169855, 45.517610773664856], [-61.02212406593944, 45.51758465151215], [-61.02211794638501, 45.517575499308926], [-61.0221118876599, 45.517566438170995]]}, "properties": {"OBJECTID": 134688, "FEAT_CODE": "WALK20", "FEAT_DESC": "Lake - Water to the right line", "RIVNAME_1": " ", "RIVNAME_2": " ", "ZVALUE": 16.8, "FID": null, "SHAPE_Length": 703.5313612038962}}, {"type": "Feature", "id": 138877, "geometry": {"type": "LineString", "coordinates": [[-61.033971981292204, 45.515033092212484], [-61.03396520742361, 45.515035324895656], [-61.033946076795, 45.51504164739601], [-61.033894623418966, 45.51499011171494], [-61.033882981735594, 45.51497845273655], [-61.03384485143167, 45.51493368130504], [-61.03376833397209, 45.51488826686542], [-61.03371774732521, 45.51487029350169], [-61.033653085638775, 45.514852077738325], [-61.03362812143606, 45.51483364544085], [-61.03354673837116, 45.51475811905784], [-61.03350161919346, 45.51471625155525], [-61.03343787265147, 45.51463503402362], [-61.033436252371956, 45.51463046051228], [-61.033425051116424, 45.51459881740467], [-61.033413196005945, 45.51457160962798], [-61.033413159289495, 45.514525630861584], [-61.033413144513126, 45.514499599134055], [-61.033413771411176, 45.51448160752892], [-61.03343433389062, 45.51443308514328], [-61.033440276848296, 45.51441905560911], [-61.03347798465313, 45.514365697810895], [-61.0335477738596, 45.5143172040645], [-61.03358163843579, 45.514293673034935], [-61.03376110343853, 45.51417704749193], [-61.03380011631134, 45.5141597168637], [-61.03387658041604, 45.51413312975935], [-61.033959681735965, 45.514120356710244], [-61.033992428029435, 45.514115321775265], [-61.03417193901503, 45.51410761091338], [-61.034325250753035, 45.51408053724014], [-61.03446698868131, 45.51405419126189], [-61.03467115578337, 45.51403698470085], [-61.03476075419999, 45.514037635669894], [-61.03505582591084, 45.51405710660445], [-61.03529843625987, 45.51407569213993], [-61.035477665205846, 45.51407607545234], [-61.03550731521368, 45.51406803441871], [-61.03560562295117, 45.514041371895246], [-61.03562362793083, 45.51404125858261], [-61.03564404031518, 45.51404113267446], [-61.03572648917086, 45.51405408154906], [-61.03575991449548, 45.51405932815847], [-61.03588661983952, 45.51406060754791], [-61.03628437517241, 45.513999039453104], [-61.036694925017954, 45.51393768995814], [-61.03682387550968, 45.51392594616621], [-61.03688628270981, 45.51392026819224], [-61.037103909745916, 45.51392131808843], [-61.03723550269247, 45.51393372447291], [-61.0375007812681, 45.51395874377556], [-61.037664695096964, 45.51397650278993], [-61.03784644065441, 45.51399618820087], [-61.03792943392662, 45.51400527432201], [-61.03801224871784, 45.51401433931364], [-61.03814521042907, 45.51401537264626], [-61.03820424172787, 45.51401583777754], [-61.038298342676136, 45.5140210279202], [-61.03837036263563, 45.51402499254343], [-61.03858829033492, 45.514017034570955], [-61.03884462093201, 45.51400998778914], [-61.03887022577693, 45.51400928439493], [-61.03901041256632, 45.51402788513535], [-61.03931800018962, 45.51405566106863], [-61.03947129450266, 45.51406550310946], [-61.039568832848396, 45.51406609760138], [-61.03971450060667, 45.51406697819994], [-61.039905857663555, 45.51404956036081], [-61.040252083600876, 45.51399700421346], [-61.0403420391592, 45.513987737605675], [-61.04048316308069, 45.513979358017494], [-61.040571794703645, 45.51397097763039], [-61.040662018128174, 45.51395362328716], [-61.04073975840809, 45.513927053482455], [-61.040913501883644, 45.51385160702997], [-61.0409451284967, 45.51383786473056], [-61.04103407266617, 45.513783583220395], [-61.04110268704383, 45.51373147321838], [-61.04115111724974, 45.513694679013255], [-61.04129217876577, 45.51361428774276], [-61.041394823178614, 45.51349723254491], [-61.0414137313088, 45.51348141771199], [-61.041447565060274, 45.51345313118376], [-61.04146632144135, 45.513443164520325], [-61.041498434562584, 45.513426090965595], [-61.041533981128296, 45.513413747913795], [-61.04155027077654, 45.51340808650911], [-61.04167601885941, 45.51339522016676], [-61.041716029006196, 45.51339112670023], [-61.042061612780934, 45.5133565474493], [-61.042328311634, 45.51331993065311], [-61.04244624987803, 45.513303734140045], [-61.042565519827015, 45.51329897385744], [-61.0426513792381, 45.51329554900086], [-61.04276628681526, 45.513304719600384], [-61.04290744059557, 45.51333234233276], [-61.04298644418794, 45.51335679345698], [-61.043086044595164, 45.51338761031411], [-61.04320001712258, 45.5134237590554], [-61.043328719481856, 45.513478189495004], [-61.04334673137978, 45.513486365188854], [-61.04342955403497, 45.51352401419967], [-61.0434331767601, 45.513527721760624], [-61.04345553261628, 45.51355056281703]]}, "properties": {"OBJECTID": 138877, "FEAT_CODE": "WALK20", "FEAT_DESC": "Lake - Water to the right line", "RIVNAME_1": " ", "RIVNAME_2": " ", "ZVALUE": 12.5, "FID": null, "SHAPE_Length": 923.0825458194981}}, {"type": "Feature", "id": 138878, "geometry": {"type": "LineString", "coordinates": [[-61.03850212066349, 45.51509658955343], [-61.038501521168385, 45.51509615619898], [-61.03848962458931, 45.515087382697864], [-61.03841311619093, 45.51504196253093], [-61.03837532345471, 45.51502421101543], [-61.03829883129342, 45.51501479584945], [-61.03823482206291, 45.51501459629255], [-61.038173215204814, 45.51502484336135], [-61.03813180065368, 45.51503172883159], [-61.03808058700255, 45.51503174903029], [-61.038016890479156, 45.51502255352417], [-61.03786996920427, 45.514987318643975], [-61.037863252256514, 45.514985709024266], [-61.03785117247758, 45.51498294510985], [-61.037582534326354, 45.51492147703979], [-61.03744134783102, 45.51489475628645], [-61.0373475720916, 45.51488054282455], [-61.037313986942245, 45.51487545595576], [-61.03728845161225, 45.514872307682104], [-61.03723749518276, 45.51486604008474], [-61.03714817661657, 45.514857303793136], [-61.036994226564616, 45.514829453961404], [-61.03696996587397, 45.514829414940564], [-61.03687900412386, 45.514829273339366], [-61.036674209446495, 45.51486445745759], [-61.036545878446894, 45.514873052310875], [-61.036392581961216, 45.514863224306936], [-61.03629408734604, 45.51485364546006], [-61.03620118124929, 45.514844621701265], [-61.03605371940031, 45.51482864675336], [-61.03585551794412, 45.51480717223159], [-61.035818533993115, 45.514802629539666], [-61.035702535189195, 45.51478833849527], [-61.03567148054856, 45.51479258391248], [-61.03563821317586, 45.51479713330121], [-61.035586699463764, 45.5148061484188], [-61.035547720836874, 45.51482213006522], [-61.03545810090769, 45.51485884332718], [-61.035343218893665, 45.51488566161068], [-61.03509843894602, 45.51496607004549], [-61.035076970497194, 45.51497335164001], [-61.035047922995304, 45.51498319416784], [-61.035030845764496, 45.51499930948619], [-61.03500951864045, 45.51501944721367], [-61.034944909769514, 45.515073242692395], [-61.03489340958709, 45.515118262529484], [-61.03487090597857, 45.515129531804455], [-61.03484127474704, 45.515144368900806], [-61.03477793132453, 45.51516218126302], [-61.034674564118575, 45.51518920604936], [-61.03465483387515, 45.515189217508244], [-61.03462335037548, 45.515189224694794], [-61.03458649424377, 45.515184683803895], [-61.034546858702086, 45.51517980702191], [-61.03449630286576, 45.51516093441479], [-61.03440695827628, 45.51511618172878], [-61.03430484895942, 45.515070327114614], [-61.03421519102739, 45.51503457908488], [-61.03418739424228, 45.51503056307474], [-61.03415149520334, 45.515025381432565], [-61.034049412719604, 45.51501552285044], [-61.033971981292204, 45.515033092212484]]}, "properties": {"OBJECTID": 138878, "FEAT_CODE": "WALK20", "FEAT_DESC": "Lake - Water to the right line", "RIVNAME_1": " ", "RIVNAME_2": " ", "ZVALUE": 12.5, "FID": null, "SHAPE_Length": 380.39665151992256}}, {"type": "Feature", "id": 197780, "geometry": {"type": "LineString", "coordinates": [[-61.02235293762398, 45.511637921162105], [-61.022364928281156, 45.51163770577693], [-61.022378558551566, 45.511637464780144], [-61.02239135325659, 45.511637686374385], [-61.022442828750094, 45.51159356284394], [-61.0224597966404, 45.511575890297415], [-61.022494650204365, 45.5115395619572], [-61.02252937273626, 45.51151574301345], [-61.022547108251494, 45.51150356548196]]}, "properties": {"OBJECTID": 197780, "FEAT_CODE": "WARV50", "FEAT_DESC": "River - Single Line", "RIVNAME_1": " ", "RIVNAME_2": " ", "ZVALUE": 9999, "FID": null, "SHAPE_Length": 22.311049151056583}}, {"type": "Feature", "id": 197781, "geometry": {"type": "LineString", "coordinates": [[-61.022547108251494, 45.51150356548196], [-61.02254615672618, 45.51149454779752], [-61.02255308142804, 45.51148106689547], [-61.02255989683598, 45.511467782126786], [-61.022573302893846, 45.511414007050675], [-61.0225739142808, 45.51136001040079], [-61.022573451786585, 45.51134726568456], [-61.022573265099844, 45.51134199674591], [-61.022568254339895, 45.5113107117904], [-61.02256171214203, 45.51126978702512], [-61.02256144510331, 45.5112485395534], [-61.022561378107454, 45.51124277762105], [-61.02256198918329, 45.51118878996561], [-61.02254949115098, 45.511143558494034], [-61.02253791937436, 45.51103534361572], [-61.02253328333849, 45.511022598631385], [-61.02252507441618, 45.511000016461054], [-61.0224869681815, 45.51091834566926], [-61.02242481728743, 45.51079215252502], [-61.022348277559786, 45.51067471134442], [-61.022307540048445, 45.51063125004711], [-61.022297692510584, 45.51062072809981], [-61.02225953565767, 45.51057596130079], [-61.02224097112081, 45.51053544036292], [-61.02223458431036, 45.51052151288654], [-61.022235844739946, 45.51048553888893], [-61.02222456051968, 45.51045792576135], [-61.022209903295, 45.51042208111302], [-61.02221012761307, 45.51040069812898], [-61.02221051498669, 45.51036808446187], [-61.022202664219115, 45.51033382490175], [-61.02219830075274, 45.5103147657756], [-61.0221921217448, 45.51030550452131], [-61.02218613673272, 45.51029655266795], [-61.022186358117416, 45.5102620998789], [-61.02218643325059, 45.51025155176463], [-61.022172989808865, 45.51023331649456], [-61.02216051061883, 45.51022409913279], [-61.022154331626574, 45.51021483787658], [-61.022148346629685, 45.510205886021375], [-61.022131705345856, 45.51018282471522], [-61.02212270771742, 45.5101703372079], [-61.02211021575499, 45.51016111961929], [-61.02209710035732, 45.51013388881419], [-61.022085420395015, 45.51009163285193], [-61.0220846025891, 45.51008866628974], [-61.02208188759605, 45.51008175133917], [-61.02205990939551, 45.51002613021848], [-61.022019152943145, 45.51000478445406], [-61.022008366742746, 45.509999133876825]]}, "properties": {"OBJECTID": 197781, "FEAT_CODE": "WARV50", "FEAT_DESC": "River - Single Line", "RIVNAME_1": " ", "RIVNAME_2": " ", "ZVALUE": 9999, "FID": null, "SHAPE_Length": 177.5394172458174}}, {"type": "Feature", "id": 197785, "geometry": {"type": "LineString", "coordinates": [[-61.01944589225923, 45.51487387514582], [-61.01944032156172, 45.51486989900438], [-61.01940842149799, 45.51484712172687], [-61.01939839277613, 45.514831177670175], [-61.01935749075629, 45.51476611861131], [-61.019332198597844, 45.51472068288987], [-61.01929436602518, 45.51463091474277], [-61.01928642041101, 45.51460596060169], [-61.019282833788814, 45.51459470089148], [-61.01926839041262, 45.51455935466341], [-61.019256906118976, 45.5145312607251], [-61.01923574834743, 45.51443770426092], [-61.01922033303997, 45.51436949577844], [-61.019197858803835, 45.51431746601906], [-61.01916943036653, 45.514251597130134], [-61.019164815360554, 45.51423753820422], [-61.01915785328161, 45.51421630060867], [-61.019144891562895, 45.5141978393184], [-61.01913224642739, 45.514179842579914], [-61.01906101548431, 45.51409725399485], [-61.01903136676322, 45.51406287711056], [-61.01900575974221, 45.514026428050784], [-61.018993579447304, 45.51397220951888], [-61.0189429820136, 45.51391822459953], [-61.018904228573284, 45.51385545294553], [-61.01882863079019, 45.51374701800234], [-61.01870214228694, 45.513557598279455], [-61.01855005168581, 45.51336773414501], [-61.01839922539977, 45.513141886926036], [-61.018394457840024, 45.51313509829193], [-61.01823461010317, 45.512907699099614], [-61.018158724242774, 45.51280826890133], [-61.01808283864555, 45.51270883865544], [-61.01804410606552, 45.51264515793689], [-61.01799445835514, 45.51256418545408], [-61.0179691369582, 45.51251964002558], [-61.017931352310086, 45.512428972105184], [-61.0179197733166, 45.512284751828155], [-61.01793285531255, 45.51223997288179], [-61.01800995248258, 45.51215940015538], [-61.01803615782196, 45.51210584777905], [-61.01804988421452, 45.512043077591585], [-61.0180501840867, 45.51199807676752], [-61.01802457859855, 45.51196162750158], [-61.01800107026491, 45.51193545800367], [-61.01799993673994, 45.51193419616193], [-61.017948407174586, 45.51190719822123], [-61.017885020606464, 45.511889004643365], [-61.01784692105187, 45.51188023319354], [-61.01780164603992, 45.51187163420947], [-61.01779477858966, 45.51187032683538], [-61.017769789695166, 45.51185278174667], [-61.017763732259326, 45.51184372039144], [-61.01775762648979, 45.51183457718596], [-61.01773780115547, 45.51181035282122], [-61.01770606823987, 45.51177158281391], [-61.01769358978027, 45.51176235597701], [-61.01765613772554, 45.51169869734713], [-61.017655866536664, 45.51167616261972], [-61.017655806043656, 45.51167168797], [-61.017618022291394, 45.51165392972071], [-61.01750207167655, 45.51159411089632], [-61.017477186437354, 45.51158127517332], [-61.01746414413791, 45.51157352372055], [-61.01740068697642, 45.5115358500358], [-61.01733846513058, 45.511522420011715], [-61.017273625631596, 45.511508431431956], [-61.01715872671627, 45.511499235302395], [-61.017094074519164, 45.511481010304685], [-61.017069819060126, 45.51146701527215], [-61.01703133387866, 45.51144481605325], [-61.01698077245485, 45.51138992174368], [-61.01696864740174, 45.51135606466127], [-61.01695512069492, 45.511318375724635], [-61.016917669759046, 45.51125471686675], [-61.016902651593774, 45.51123360924784], [-61.01686642901637, 45.5111827264159], [-61.016858773860875, 45.51115501376553], [-61.01685393557127, 45.51113749439746], [-61.01685430620174, 45.51111236946407], [-61.01685486846709, 45.511074502149405], [-61.01686255189919, 45.51104820804815], [-61.01686796378524, 45.51102972354779], [-61.016885757450225, 45.511011184051156], [-61.016919790267906, 45.51097571627174], [-61.016949601763685, 45.51095509017163], [-61.01695785524619, 45.510949373722404], [-61.01695995466578, 45.51094828503164], [-61.01701000015395, 45.51092237555716], [-61.01703096420219, 45.510907608594174], [-61.017034941745244, 45.51090480628352], [-61.01704868429322, 45.51087804131496], [-61.01711298893568, 45.51083325185258], [-61.01714826175075, 45.51081678008284], [-61.017152035981404, 45.510815027378825], [-61.01718112945115, 45.51078823192323], [-61.01719039114701, 45.510779688582915], [-61.01724220157823, 45.510689676049054]]}, "properties": {"OBJECTID": 197785, "FEAT_CODE": "WARV50", "FEAT_DESC": "River - Single Line", "RIVNAME_1": " ", "RIVNAME_2": " ", "ZVALUE": 9999, "FID": null, "SHAPE_Length": 554.0272035266362}}, {"type": "Feature", "id": 198937, "geometry": {"type": "LineString", "coordinates": [[-61.01334929707078, 45.51842965532923], [-61.01336210604136, 45.518429878183085], [-61.013373939283724, 45.51842108286238], [-61.01337725086814, 45.51841648685862], [-61.01338740049065, 45.518402414546685], [-61.01341330950654, 45.518393864111125], [-61.01347730906535, 45.51835807263292], [-61.01352819573248, 45.51833105419512], [-61.013553788039516, 45.518331499415304], [-61.01358761077651, 45.51832219549255], [-61.01361865414899, 45.518313644316656], [-61.01367028330355, 45.51829572093988], [-61.013705568813656, 45.51828087068657], [-61.013733965648115, 45.518268933997916], [-61.01382452045069, 45.518242596444885], [-61.01388020474367, 45.51822695780322], [-61.0138878863797, 45.51822479610944], [-61.01390068251184, 45.518225018679566], [-61.01392840799646, 45.51821360133599], [-61.013965631803586, 45.518198244643536], [-61.01404275628743, 45.51815367992984], [-61.01408052982396, 45.5181354343752], [-61.01408509303731, 45.51813238132136], [-61.014093642504676, 45.51812666123143], [-61.01413201747264, 45.51809132384405], [-61.014176529284725, 45.51807297941703], [-61.01419697929912, 45.51806454989394], [-61.01435183487465, 45.517957428252906], [-61.014454569712775, 45.517912408489174], [-61.014517129609466, 45.51789639402746], [-61.01455663975845, 45.51788627958919], [-61.014603920949725, 45.51787801048278], [-61.014608159336575, 45.51787727406913], [-61.01467218407619, 45.517877487148326], [-61.014677468109674, 45.51787396053872], [-61.014685296605904, 45.517868713933666], [-61.01477461584765, 45.51787746781661], [-61.01482581288581, 45.51787835790839], [-61.014854890777585, 45.517878350366786], [-61.01492823186743, 45.517878338216406], [-61.01496790152371, 45.51787060272493], [-61.0150171891725, 45.51786098214334], [-61.01512020467308, 45.51785091831064], [-61.01519704890176, 45.51784340587555], [-61.01542747143183, 45.51780870572676], [-61.01545950043519, 45.51780888433968], [-61.015581087304355, 45.51780957524513], [-61.015721590831845, 45.517819217895095], [-61.01588836520627, 45.51784641913522], [-61.015952060875975, 45.517855626976186], [-61.01598354218118, 45.51786118764294], [-61.01600294770465, 45.51786461222777], [-61.01606757333634, 45.517847732688594], [-61.016092880842585, 45.51785627346921], [-61.016123127902134, 45.51786161462696], [-61.01614378049247, 45.51786525888074], [-61.01627272145365, 45.51783959529358], [-61.01637482219973, 45.51781256518089], [-61.0164033643264, 45.51782597772469], [-61.01641260960493, 45.51783032388622], [-61.01642540566723, 45.51783054617205], [-61.016553745704925, 45.51782197410436], [-61.01659202895113, 45.51783109121196], [-61.01663120097919, 45.517840421770835], [-61.01680882817304, 45.51788672168983], [-61.016885636572354, 45.517887146551715], [-61.01692704207751, 45.51786571369976], [-61.016937800833844, 45.51786014878088], [-61.01694846120265, 45.51785264689478], [-61.0169890015417, 45.51782413305481], [-61.01701522586928, 45.51780658607904], [-61.017051504764574, 45.51780679304344], [-61.017092033849686, 45.51780701979598], [-61.01711592465656, 45.517812520346645], [-61.01713012476903, 45.51781578233645], [-61.01714654372143, 45.51782586075671], [-61.017219124837574, 45.51787043487169], [-61.0172697086381, 45.51788841549397], [-61.017310981854436, 45.51788860108257], [-61.0174105415529, 45.51788906058549], [-61.01755136443797, 45.51792571011963], [-61.01756416053073, 45.51792593227824], [-61.017629753014255, 45.517951500285996], [-61.01770435163294, 45.517980573049684], [-61.01776882208138, 45.51797174592522], [-61.0178205405013, 45.51795378621525], [-61.017845485028644, 45.51793621683289], [-61.01787175890299, 45.51792709564171], [-61.017897332933124, 45.51791821432978], [-61.018025673003216, 45.51790964060712], [-61.018076888968245, 45.51790962944878], [-61.018103305294545, 45.51790228391273], [-61.01820489711793, 45.51787404617062], [-61.018235174709304, 45.51787414860122], [-61.01826890913983, 45.51787425701084], [-61.01834050526029, 45.51786997281865], [-61.01839721716369, 45.517866591435066], [-61.01855023356781, 45.51788453982676], [-61.01866260230702, 45.51789396967245], [-61.01878003913697, 45.51790382938813], [-61.01881708936006, 45.517903950161035], [-61.018844038409654, 45.51790403968444], [-61.01895958224295, 45.51789524289381], [-61.018971313821496, 45.517891503901645], [-61.01915251756086, 45.51783378137307], [-61.019318837633996, 45.51778021997323], [-61.019319576166374, 45.5177799717491], [-61.019365924677935, 45.51777563601716], [-61.01949813582928, 45.5177632752719], [-61.01951787810847, 45.51775783892002], [-61.01956277945413, 45.51774548494455], [-61.01957435995566, 45.51773692762934], [-61.01958776772238, 45.51772701581995], [-61.019614294102745, 45.517700472288006], [-61.01963659840801, 45.51768478297957], [-61.01966549299448, 45.517664455329566], [-61.01971474905635, 45.51765899072455], [-61.01974261652432, 45.517655891537096], [-61.019771988318325, 45.51764568048106], [-61.01981909204264, 45.517629305058094], [-61.019836641415075, 45.51762943836862], [-61.01990869559546, 45.51762996777557], [-61.020062343131656, 45.517629922688926], [-61.02011125205944, 45.5176244968996], [-61.020139466247365, 45.51762136762222], [-61.0201653739293, 45.517612815630045], [-61.02020578162466, 45.517590221135414], [-61.02022936843049, 45.51757702027545], [-61.020280584126674, 45.51757700812346], [-61.02033148425634, 45.5175859916753], [-61.02038331689176, 45.517604892688546], [-61.020498246281576, 45.517650090873985], [-61.020529037083705, 45.5176545401701], [-61.0205619422547, 45.51765930514789], [-61.02057114830218, 45.51765601727668], [-61.020612509787135, 45.51764127021423], [-61.02065704846054, 45.51763632650824], [-61.020689633163116, 45.51763270577903], [-61.02079501154932, 45.51762021145322], [-61.02090820711446, 45.517606790377], [-61.02095052539781, 45.5176019970976], [-61.02098405111598, 45.51759819456738], [-61.02106084458325, 45.51758771590956], [-61.021177032420226, 45.517571844091904], [-61.02119624268165, 45.51756550711129], [-61.02120293992987, 45.51756329186119], [-61.02125350686454, 45.51754526563419], [-61.02127355277801, 45.51753590971792], [-61.02129254454323, 45.517527039598164], [-61.02139558761261, 45.517509931641115], [-61.02141052255986, 45.51750648193655], [-61.02147174680485, 45.517492339771], [-61.02151014832883, 45.5174561002419], [-61.02152332240443, 45.517451746896064], [-61.0215360557368, 45.51744754793369], [-61.021573208064645, 45.517447669580925], [-61.021600067350626, 45.517447756898235], [-61.021677523881245, 45.51746620116119], [-61.02180430410908, 45.5175386069441], [-61.021855853741116, 45.51756559446221], [-61.021880494026654, 45.517557029125776], [-61.021945123596176, 45.5175392462064], [-61.021996654585266, 45.517530237548186], [-61.02207346234138, 45.51753066790807], [-61.02207901745914, 45.51753583180728], [-61.0221118876599, 45.517566438170995]]}, "properties": {"OBJECTID": 198937, "FEAT_CODE": "WARV50", "FEAT_DESC": "River - Single Line", "RIVNAME_1": " ", "RIVNAME_2": " ", "ZVALUE": 9999, "FID": null, "SHAPE_Length": 745.818656340988}}, {"type": "Feature", "id": 199061, "geometry": {"type": "LineString", "coordinates": [[-61.018928402651234, 45.52312349547817], [-61.01892461752505, 45.52311423059215], [-61.018902459622836, 45.52306003704826], [-61.01889450059927, 45.5230547682837], [-61.018889946627425, 45.52305171888095], [-61.01888517506474, 45.52303444382209], [-61.01887744861548, 45.52300650509283], [-61.01887776478996, 45.522997500386786], [-61.01886495093825, 45.522961282307634], [-61.01885880766548, 45.5229520755186], [-61.018852785734, 45.522943059859514], [-61.01880186481333, 45.522898070535255], [-61.018732335820744, 45.522848410744174], [-61.018725665417044, 45.522843641389684], [-61.018700702754174, 45.522825205874945], [-61.0186567438172, 45.5227883573456], [-61.01863600792015, 45.52277098528919], [-61.0185857161323, 45.52267199063737], [-61.01857170947536, 45.522644951042444], [-61.01854854055273, 45.52260023613836], [-61.01853541140275, 45.52257300473837], [-61.018536343044225, 45.522510012567345], [-61.01851199634184, 45.5224375805517], [-61.01850904568319, 45.5224304454113], [-61.018486009685795, 45.52237502138195], [-61.01847447267393, 45.52230282064693], [-61.01845887038884, 45.52223991060249], [-61.018449794494906, 45.522203370287514], [-61.01843666547885, 45.52217613887673], [-61.018419809028586, 45.52217045464022], [-61.018411355684506, 45.52216759858332], [-61.01830957948786, 45.522148730059406], [-61.01823103318695, 45.52213673646991], [-61.018129994129744, 45.522121310033114], [-61.01802821811871, 45.522102441261204], [-61.017990111381, 45.52209367875358], [-61.01797731434019, 45.52209345662696], [-61.01795133714667, 45.522088973185525], [-61.017925130874794, 45.52208444975701], [-61.01791007762818, 45.52207737455705], [-61.01788734017255, 45.522066691509], [-61.017746076848006, 45.52201603791991], [-61.017734329048515, 45.522011828450196], [-61.01754321166154, 45.521948202536635], [-61.01737604537635, 45.5218920671041], [-61.0173255371321, 45.52187511399005], [-61.0170956984684, 45.52178381140762], [-61.016891454442124, 45.521692952871355], [-61.01677915805362, 45.521645555517864], [-61.016675681056896, 45.5216018937135], [-61.01661143902095, 45.52157932802555], [-61.016573240412356, 45.52156590983131], [-61.01645767397459, 45.52153869904167], [-61.0162665766531, 45.521438166441264], [-61.01624190005351, 45.52141163427985], [-61.01620350943601, 45.52141096731593], [-61.0161706395023, 45.52141461781257], [-61.01612638029756, 45.52141952861704], [-61.01595714741393, 45.52141897356548], [-61.015934344797635, 45.52141890140102], [-61.01584500727641, 45.52141013911532], [-61.0157177411025, 45.52137483022894], [-61.01567888678473, 45.52136404669079], [-61.01547433159953, 45.521318186167896], [-61.015448750705495, 45.52131774157786], [-61.015367056211666, 45.521317761898864], [-61.015346312667404, 45.521317761409506], [-61.01530792213458, 45.52131709414566], [-61.015257335951794, 45.52129911262321], [-61.015180509306006, 45.52126267257711], [-61.01515550406995, 45.521245135660436], [-61.0150977077614, 45.521210808586815], [-61.015079006805635, 45.521199700077766], [-61.01503067964853, 45.5211822977949], [-61.01497657400221, 45.52116281477573], [-61.0149004072597, 45.52114438839858], [-61.01483542840686, 45.521135157668816], [-61.01475924895391, 45.521116730976324], [-61.01473425671187, 45.52109919419274], [-61.01472144624237, 45.52106296669339], [-61.014691481506176, 45.521041913992356], [-61.014670213817766, 45.521026971286865], [-61.01464995830766, 45.52101273926791], [-61.01461898145854, 45.52099097585822], [-61.01454063428572, 45.52095919856328], [-61.01450536159383, 45.52094489442612], [-61.014434632934396, 45.52092477105769], [-61.0143773172931, 45.52090846336394], [-61.01427455006329, 45.52088147292716], [-61.01419805456517, 45.5208720415567], [-61.01405753083264, 45.52082638291132], [-61.01402779593984, 45.52082209425553], [-61.01399383185396, 45.52081718296238], [-61.01387828141772, 45.52082597460944], [-61.01358381722935, 45.520788448123305], [-61.013366177836296, 45.52078737116931], [-61.013329607719044, 45.5207939268654], [-61.01331592259682, 45.520796389122694], [-61.01331144539858, 45.52079735536422], [-61.01327721573899, 45.5208047168657], [-61.01325081244884, 45.520804725535974], [-61.013225997218086, 45.52080472582659], [-61.01320040379489, 45.52080428051428], [-61.01316631942669, 45.52078642316488], [-61.013148855846296, 45.520777280126566], [-61.01313378379801, 45.520768583752385], [-61.01308610830915, 45.52074106563992], [-61.013072664827384, 45.52072284732867], [-61.01307584354583, 45.5207147565599], [-61.013086728861275, 45.52068707827423], [-61.01307360214939, 45.520659864280695], [-61.013023017611395, 45.52064187279246], [-61.01300384380954, 45.52064820902957], [-61.01299710749541, 45.52065042311792], [-61.01298804674203, 45.52065464902956], [-61.01295805224126, 45.520668646003884], [-61.012912109844166, 45.5206951831447], [-61.012880936216625, 45.52071321011674], [-61.01285502604706, 45.52072176040894], [-61.01280349080636, 45.52073076486254], [-61.012771058728774, 45.52073071350815], [-61.012689536892175, 45.52073058189605], [-61.01263767243435, 45.52071257696252], [-61.01261785064294, 45.520702771716785], [-61.012599928840366, 45.520693917658434], [-61.01258231986658, 45.52067836315234], [-61.01254900217353, 45.52064892542377], [-61.01249113258172, 45.520614559745034], [-61.01247249506327, 45.52060348791629], [-61.01236972935371, 45.520576495788156], [-61.012353193642994, 45.520564281369275], [-61.012332290018946, 45.52054884049681], [-61.012306652887716, 45.52051328956464], [-61.01229446572209, 45.52042306547112], [-61.01228630246355, 45.5204163524965], [-61.012206100397535, 45.520350417776], [-61.01216828856933, 45.52026064770101], [-61.01215216912805, 45.52023771107468], [-61.01210489621788, 45.52017044127965], [-61.01218236098131, 45.52011597344289], [-61.01218257124138, 45.520080926449545], [-61.01218263410527, 45.52007187234163], [-61.012184009385464, 45.5200699070191], [-61.01220824677201, 45.52003541331737], [-61.01219822407912, 45.520021512016235], [-61.012182609942194, 45.5199998623596], [-61.01215733347966, 45.519990430136815], [-61.01204304018214, 45.51992723224843], [-61.012039658607435, 45.51992399595405], [-61.012004639018095, 45.51989054990463], [-61.011991830559836, 45.519854322125866], [-61.01200588274847, 45.51978255721246], [-61.012031463699, 45.51974699779365], [-61.01207275499074, 45.51972562772752], [-61.01208390416922, 45.51971990804299], [-61.01213420362483, 45.51970198021728], [-61.01216106410174, 45.51966644304425], [-61.0121485724822, 45.51962121960186], [-61.01214356184854, 45.51961770291689], [-61.01209734301639, 45.51958522308179], [-61.01208934286046, 45.519562616819776], [-61.01208453456088, 45.51954899531176], [-61.0120976238027, 45.51946821242348], [-61.01209915754721, 45.51939487037606], [-61.0120995131585, 45.519378233355425]]}, "properties": {"OBJECTID": 199061, "FEAT_CODE": "WARV50", "FEAT_DESC": "River - Single Line", "RIVNAME_1": " ", "RIVNAME_2": " ", "ZVALUE": 9999, "FID": null, "SHAPE_Length": 808.0669151078507}}, {"type": "Feature", "id": 199316, "geometry": {"type": "LineString", "coordinates": [[-61.03185509456209, 45.51570861974411], [-61.03185435925414, 45.51570180216349], [-61.03185412870278, 45.515699601897], [-61.03188006517722, 45.515690147620155], [-61.03214097146116, 45.51567071909925], [-61.03221381975834, 45.51566529562843], [-61.032242174765685, 45.51566542421926], [-61.03235463512159, 45.51566592197514], [-61.03243176053736, 45.51562044472043], [-61.03247183616451, 45.51559984742406], [-61.03248260453875, 45.51559431720911], [-61.032509527642716, 45.51558887632194], [-61.032572851411814, 45.51557606954785], [-61.03259973523275, 45.51557028591698], [-61.0326115648248, 45.51556773536888], [-61.03266277919526, 45.51556770863586], [-61.03277704919088, 45.5155948897056], [-61.032815449032725, 45.515595551254734], [-61.03284878441773, 45.51558760140746], [-61.03285418098547, 45.51558631719291], [-61.03290336385639, 45.51556963914019], [-61.03290471122453, 45.51556918528767], [-61.033033332265816, 45.51551559352804]]}, "properties": {"OBJECTID": 199316, "FEAT_CODE": "WARV50", "FEAT_DESC": "River - Single Line", "RIVNAME_1": " ", "RIVNAME_2": " ", "ZVALUE": 9999, "FID": null, "SHAPE_Length": 99.48193080125218}}, {"type": "Feature", "id": 199317, "geometry": {"type": "LineString", "coordinates": [[-61.033033332265816, 45.51551559352804], [-61.03309859598911, 45.515479812813325], [-61.03316047564358, 45.51542210085636], [-61.03317536293545, 45.51540822540139], [-61.033218193320394, 45.51538131144377], [-61.0333036314268, 45.51532762366421], [-61.03331674052575, 45.51531884824783], [-61.03335578599132, 45.515300609214236], [-61.03338072428146, 45.51528304532553], [-61.03349686206652, 45.51522023684447], [-61.03357398014507, 45.51521167261004], [-61.033640484360426, 45.51522221511919], [-61.03368857673087, 45.515229839190525], [-61.03379099889668, 45.515266707543574], [-61.033814646814406, 45.515266700684116], [-61.0338422126978, 45.51526668927271], [-61.03389405294804, 45.51524868836676], [-61.033957709926206, 45.51518586689329], [-61.03396435894737, 45.5151728846283], [-61.03397143283185, 45.51515909957003], [-61.03398404982674, 45.51511593101996], [-61.03398451537769, 45.51511432782079], [-61.033971981292204, 45.515033092212484]]}, "properties": {"OBJECTID": 199317, "FEAT_CODE": "WARV50", "FEAT_DESC": "River - Single Line", "RIVNAME_1": " ", "RIVNAME_2": " ", "ZVALUE": 9999, "FID": null, "SHAPE_Length": 107.832470929279}}, {"type": "Feature", "id": 199461, "geometry": {"type": "LineString", "coordinates": [[-61.0399690117244, 45.52369632415126], [-61.0398266004842, 45.52374068575638], [-61.039763561337836, 45.52374950490313], [-61.03969888750359, 45.523731292389584], [-61.03965840499313, 45.52373107446952], [-61.039622070774314, 45.52373087374585], [-61.03952297978772, 45.52374757993877], [-61.039520313496595, 45.523748029226894], [-61.0394938608772, 45.52374794411081], [-61.03945629433102, 45.52374783019064], [-61.03936662129943, 45.52367518113865], [-61.03926542904749, 45.523639230086175], [-61.03925340956316, 45.523640571901936], [-61.03918829951529, 45.52364781596799], [-61.039172494934846, 45.52365158610727], [-61.039149562948126, 45.523657052091764], [-61.038841445518656, 45.52379037893281], [-61.03883947527069, 45.52379106518913], [-61.03873775148517, 45.52382640294614], [-61.03863568107275, 45.523852553447334], [-61.038520781690856, 45.52387938360528], [-61.03813609989489, 45.52393129175294], [-61.03803271829961, 45.5239583103047], [-61.037943786233974, 45.52401168948959], [-61.03791756561772, 45.524029232319144], [-61.03780144217174, 45.524128059217595], [-61.037762733381165, 45.52417330009567], [-61.03766342633798, 45.52422452951375], [-61.0376597232777, 45.52422643713602], [-61.03759541893338, 45.52427123808977], [-61.03754522435647, 45.52429105117414], [-61.03750583200077, 45.524306603303216], [-61.0374374629986, 45.524330568572125], [-61.03735156801394, 45.52436065941437], [-61.03724949602554, 45.52438680864721], [-61.03704338688931, 45.52442197080183], [-61.03700590756116, 45.52441602480547], [-61.036928770850146, 45.52440379829248], [-61.03686024949412, 45.524379136185196], [-61.03682633015122, 45.52436693250049], [-61.036770160470006, 45.52433359852271], [-61.03674979799808, 45.524321510881784], [-61.036648578426444, 45.524249561295356], [-61.036605646085235, 45.52422920952046], [-61.036571733524696, 45.52421313536588], [-61.036525563173306, 45.5242074538261], [-61.03649522929741, 45.52420371880375], [-61.03641809894487, 45.524212293797596], [-61.03630288443664, 45.524248126490996], [-61.03608403240446, 45.52435506826688], [-61.036034797074585, 45.52436643606925], [-61.03600786841705, 45.524372660790796], [-61.03594353546752, 45.52438145557395], [-61.03589930235015, 45.52436610382226], [-61.035891659915116, 45.52436346103637], [-61.035854206338826, 45.52433581324278], [-61.03581669440658, 45.52427305980351], [-61.03579077162338, 45.524245610333026], [-61.03577698809521, 45.52423839731405], [-61.03573919663257, 45.524218619708634], [-61.03570603121157, 45.524213827635215], [-61.03567549021242, 45.52420942274408], [-61.035595545583014, 45.52420945164847], [-61.03557304631989, 45.52420946063765], [-61.03539350326135, 45.52421717315841], [-61.0353643155987, 45.524223916935526], [-61.03531735205938, 45.52423476544177], [-61.03526549077661, 45.52425277561307], [-61.03522878005557, 45.524273305747585], [-61.0352014978166, 45.52428857938926], [-61.03514964924624, 45.524306589726535], [-61.035111243424616, 45.52430592886443], [-61.035035789585194, 45.524287681231435], [-61.03503506544409, 45.52428751575011], [-61.0350097517632, 45.52427898807776], [-61.0349456793687, 45.524206767096416], [-61.03492071069747, 45.524188335034246], [-61.03486948878111, 45.52418835365421], [-61.03483067514069, 45.52419903617631], [-61.03480482975585, 45.524206143371174], [-61.03475362062269, 45.52420616215912], [-61.034703056726784, 45.52418728953606], [-61.034652148172135, 45.52417831226445], [-61.034639350530234, 45.52417809199666], [-61.03460029953732, 45.52419632235135], [-61.03457757057674, 45.52421211527317], [-61.034497939508135, 45.52426747010229], [-61.034453140551875, 45.52429336949176], [-61.034420834994194, 45.52431204893956], [-61.03433024839125, 45.524339293384365], [-61.034292194881495, 45.524365641872656], [-61.034176038784466, 45.524428450769236], [-61.034157587570284, 45.52443502802631], [-61.03412546954219, 45.524446482665525], [-61.03407362588369, 45.52442758773164], [-61.033997691510024, 45.52436507230243], [-61.033972409619544, 45.524355635827405], [-61.03395961194265, 45.5243554154828], [-61.033958288030306, 45.5243562928069], [-61.033946487996346, 45.524364190706265], [-61.03393428300128, 45.52436864317835], [-61.033920560613204, 45.52437364559875], [-61.0338698618209, 45.52440200851409], [-61.03385656668524, 45.524409448603876], [-61.033850961740924, 45.524425140177044], [-61.033843794810196, 45.52444523343866], [-61.033840099557096, 45.524452424768164], [-61.03383005663957, 45.52447200044649], [-61.03380488020714, 45.52446688632013], [-61.03365076907708, 45.52443560880829], [-61.03357489216644, 45.52440819871673], [-61.033535656561114, 45.52441811743182], [-61.033471525887485, 45.52443432228179], [-61.033362053241234, 45.52444790094388], [-61.03333135400681, 45.524451710783914], [-61.033297695072925, 45.52445152711972], [-61.033254536488236, 45.524451287840336], [-61.03322874272026, 45.52445580322525], [-61.03320300076631, 45.52446030149443], [-61.033176778185585, 45.524477852201635], [-61.03311249541659, 45.524558655748784], [-61.033098967386806, 45.52456358940862], [-61.033086555011835, 45.52456811022732], [-61.033048161857494, 45.524567448889094], [-61.0330109918349, 45.52453170397847], [-61.03299818132776, 45.52453148330503], [-61.03297601007509, 45.52453677212808], [-61.03295945600386, 45.52454071752065], [-61.032935973751236, 45.52453475927199], [-61.03292137650833, 45.524531060356], [-61.03287012912044, 45.52449507289179], [-61.03281825449221, 45.52447707697261], [-61.03279416525882, 45.524463187193234], [-61.03275548930126, 45.524440891031794]]}, "properties": {"OBJECTID": 199461, "FEAT_CODE": "WARV50", "FEAT_DESC": "River - Single Line", "RIVNAME_1": " ", "RIVNAME_2": " ", "ZVALUE": 9999, "FID": null, "SHAPE_Length": 663.0908857451636}}, {"type": "Feature", "id": 199462, "geometry": {"type": "LineString", "coordinates": [[-61.02829835787019, 45.51695333378193], [-61.02834990090311, 45.51701723216567], [-61.02836874686232, 45.51703045629127], [-61.02837488291664, 45.51703476579992], [-61.02845203978308, 45.51706220148778], [-61.028502931111035, 45.51703517645124], [-61.02853687804275, 45.51700389831729], [-61.02854128365657, 45.51699983383009], [-61.028822920664645, 45.517001095519014], [-61.028899413711954, 45.51701051704942], [-61.029004505826485, 45.5170270300622], [-61.02901529155176, 45.51702871943551], [-61.029130216827205, 45.517037904064765], [-61.02928413277381, 45.51702975911671], [-61.02941117712628, 45.51702115022598], [-61.0294222291159, 45.517018514579746], [-61.02944992337955, 45.51701191756774], [-61.02947650915083, 45.517007731743185], [-61.029501421704396, 45.51700379607522], [-61.029509716352045, 45.51700092381251], [-61.029553264887554, 45.51698579719525], [-61.02957820540987, 45.51696822517845], [-61.029603828755484, 45.5169677672148], [-61.02964221666192, 45.51696842962525], [-61.02966568891769, 45.51698410968195], [-61.02966849145878, 45.51698598528385], [-61.02975748992435, 45.51704062801185], [-61.02977357884673, 45.5170466483816], [-61.029782767213675, 45.51705008335684], [-61.02980839122447, 45.51704960735631], [-61.02983880424642, 45.517045451478204], [-61.02987271661516, 45.517040815896216], [-61.029910453048736, 45.517023464580745], [-61.029986980616755, 45.516984954599444], [-61.030000378559166, 45.51697820081742], [-61.03009029547313, 45.516969859748116], [-61.03012868339221, 45.51697052199513], [-61.030205208044535, 45.5169790430755], [-61.03023823098544, 45.51697384296861], [-61.030256705928004, 45.51697093023569], [-61.0302894586882, 45.516936786602415], [-61.03030852545044, 45.516916916811994], [-61.03034757266298, 45.516898687842506], [-61.03038627481124, 45.51689034522405], [-61.030436524075476, 45.51688131964698], [-61.030470721819384, 45.51688758025899], [-61.03053957484619, 45.51690019935563], [-61.03054704320391, 45.516899356037825], [-61.030615416328864, 45.51689160610201], [-61.03068408443748, 45.51687576913575], [-61.03073158414108, 45.516864814758335], [-61.03088519868841, 45.51686565464941], [-61.03100008704677, 45.51683883196743], [-61.031033743689875, 45.51682573950586], [-61.0310909454643, 45.51680349374961], [-61.03113111213423, 45.51678216039876], [-61.03114182253452, 45.516776467289965], [-61.03119334000708, 45.516731449453346], [-61.031201742570026, 45.51672181002733], [-61.03123200450573, 45.51668711010777], [-61.0312379525466, 45.51667516005717], [-61.03124577357399, 45.51665943479252], [-61.0312579172127, 45.516641650771234], [-61.03125820670105, 45.51659664977153], [-61.03123352498292, 45.51657012074713], [-61.031233266713116, 45.51656284332596], [-61.0312328730321, 45.51655210710994], [-61.03125716685849, 45.51651304671614], [-61.03127220917397, 45.51648887681329], [-61.031272172038605, 45.516452871379514], [-61.031196258355926, 45.516353449443315], [-61.031196886000934, 45.516335457868], [-61.031198983546474, 45.51633405384192], [-61.031210008454636, 45.51632668292498], [-61.03123049125412, 45.516321626363236], [-61.03124746157423, 45.5163174273598], [-61.03131144074528, 45.51631853043732], [-61.031316703986064, 45.51631483167569], [-61.03133769139409, 45.516300080502496], [-61.03137728523571, 45.51619274873647], [-61.03139281539735, 45.51617587819825], [-61.03140257032492, 45.516165271939855], [-61.03142928741659, 45.51615033149144], [-61.031466555923124, 45.51612947912737], [-61.0315445925966, 45.51605791470767], [-61.03163512387966, 45.51599556681676], [-61.031725303793046, 45.51590620919953], [-61.03176305748399, 45.51588795744661], [-61.03181427181896, 45.515887940094856], [-61.03183800828986, 45.51588283149136], [-61.031852972755104, 45.51587960595843], [-61.03189201875738, 45.5158613764373], [-61.03189772292099, 45.51584539861143], [-61.03190480253219, 45.51582559197882], [-61.03189252151908, 45.51579886277305], [-61.031879800956155, 45.51577115386027], [-61.03185509456209, 45.51570861974411]]}, "properties": {"OBJECTID": 199462, "FEAT_CODE": "WARV50", "FEAT_DESC": "River - Single Line", "RIVNAME_1": " ", "RIVNAME_2": " ", "ZVALUE": 9999, "FID": null, "SHAPE_Length": 399.32765722578904}}, {"type": "Feature", "id": 199473, "geometry": {"type": "LineString", "coordinates": [[-61.016646678183086, 45.515906332901345], [-61.01687775814892, 45.51588874351865], [-61.016993253680035, 45.515880847999924], [-61.01731331515939, 45.51588190527134], [-61.01740260014253, 45.51589155662648], [-61.01751750802528, 45.515900752654716], [-61.01755114759021, 45.51590097664582], [-61.017683901671404, 45.51590184118987], [-61.017859186562916, 45.51589474871271], [-61.017901895389514, 45.51589302375088], [-61.01796879064045, 45.51588690295809], [-61.01818316826304, 45.51586730178427], [-61.018337739413234, 45.51584118057298], [-61.018482758526616, 45.51582492073002], [-61.01849070222804, 45.51582403244281], [-61.01850925445699, 45.51582403034033], [-61.01859313038666, 45.51582400962245], [-61.018631517260516, 45.51582467572015], [-61.018738324681216, 45.515834486059816], [-61.018836964412074, 45.515843542506616], [-61.01898741287862, 45.515844037444815], [-61.01915703900113, 45.51584458583246], [-61.01937433068899, 45.51585466492392], [-61.0199339923202, 45.51585726924107], [-61.02029603998366, 45.51585894719194], [-61.02056359521146, 45.51585998512833], [-61.02074314442274, 45.51585139593446], [-61.02107908927141, 45.51581244658668], [-61.02111467383422, 45.51580831965062], [-61.021243323815135, 45.5157907554807], [-61.02144781518791, 45.51576459500164], [-61.02155033178024, 45.515754741748204], [-61.02171759562376, 45.51573866518841], [-61.02205233476223, 45.51569206806952], [-61.022281133641634, 45.51566021533585], [-61.02278101347242, 45.51560766403326], [-61.02278850596032, 45.51560539945132], [-61.0228961992755, 45.515572752675276], [-61.022914946454094, 45.51556827963535], [-61.022973666155686, 45.5155542913225], [-61.02301289082755, 45.515527381772536], [-61.023024842244354, 45.51551917257224], [-61.02305562807384, 45.51549010963306], [-61.02306322860716, 45.51548293224821], [-61.023082662302684, 45.51545995559704], [-61.02315405117441, 45.51537559101625], [-61.02316572576242, 45.51536724199044], [-61.023192135063574, 45.51534834661229], [-61.02324331727334, 45.5153492326719], [-61.02325956188414, 45.515348946816], [-61.023268939886584, 45.51534877611848], [-61.0232817354395, 45.51534899762693], [-61.02328318089949, 45.51534940070017], [-61.023346381347444, 45.515367218994975], [-61.023448475066935, 45.51537708734763], [-61.02353843482909, 45.515367843060915], [-61.02372915902273, 45.51534280837768], [-61.02387155945132, 45.515324102043905], [-61.02388435500328, 45.51532432348476], [-61.024089132651476, 45.515289171026396], [-61.0243835624512, 45.515254642242176], [-61.02446671852845, 45.51524187705453], [-61.02449942752955, 45.515236853200065], [-61.024597946672166, 45.515194847770445], [-61.02466577939567, 45.5151659212255], [-61.024678563796236, 45.51516170479242], [-61.024691685286314, 45.51515736817237], [-61.024737504697185, 45.51513807911188], [-61.024755359328985, 45.51513056592618], [-61.02478192633569, 45.51510312176694], [-61.0248331009077, 45.51506800217782], [-61.024887053162274, 45.514962289186265], [-61.024911437195954, 45.51491453653188], [-61.02491896687793, 45.514899130699554], [-61.02493763740737, 45.514860982507635], [-61.02499447961767, 45.51480145960701], [-61.02503997133824, 45.514753837975796], [-61.02509275874612, 45.51470883584129], [-61.025123069749, 45.5147013490102], [-61.02513021171844, 45.5146995822793], [-61.02513706455492, 45.51469619933231], [-61.025220105064456, 45.51465523983337], [-61.02523717912383, 45.51465136756017], [-61.02529753817879, 45.514637685438736], [-61.02538745255083, 45.51462933002793], [-61.025406121471654, 45.51462927481498], [-61.02547708334043, 45.51462907972511], [-61.02561726669166, 45.51464769686132], [-61.02565833606022, 45.514653276627996], [-61.02582242294783, 45.51467555624692], [-61.02593729855553, 45.51468564336007], [-61.02599556954227, 45.51468553458738], [-61.02607814229039, 45.51468538682603], [-61.026307878986536, 45.51466863724283], [-61.026445179786165, 45.51465180181229], [-61.02644934594847, 45.51465128874036], [-61.0265147136473, 45.514651437376756], [-61.02662856339736, 45.514651685753385], [-61.02674399020264, 45.51464930591506], [-61.02696169745333, 45.51464484080183], [-61.02698489690922, 45.514644836610245], [-61.02701291058871, 45.51464482558515], [-61.02710636378533, 45.514628257861816], [-61.027114686227875, 45.51462678143872], [-61.027141315819904, 45.514623145987684], [-61.02717900921227, 45.514617991453726], [-61.027281718426124, 45.514609864609305], [-61.027315089271504, 45.514605301441776], [-61.027346041368325, 45.51460107452942], [-61.027354571712465, 45.51459694632606], [-61.02738380833477, 45.514582824450855], [-61.0274106567824, 45.51454728345881], [-61.02743626787269, 45.51452956146632], [-61.02744870665187, 45.514520937164534], [-61.02746772404669, 45.51451640503577], [-61.02748743867777, 45.514511704924175], [-61.027519865449264, 45.51451180601313], [-61.02755144709628, 45.51451191049667], [-61.02756050171019, 45.514515127313246], [-61.02760203136937, 45.51452988655561], [-61.02762220799869, 45.514539443302894], [-61.027678857299605, 45.51456631826413], [-61.02772039384643, 45.51460103324553], [-61.02775474058866, 45.514629728241914], [-61.02780597557403, 45.51466572685283], [-61.027869355191484, 45.51468393279004], [-61.027946810466034, 45.514702363783044], [-61.027992812088044, 45.51470639867384], [-61.028061686894404, 45.514712439770015], [-61.0280876155871, 45.5147123744721], [-61.02815131756079, 45.51471219636542], [-61.02818147840387, 45.51471229414156], [-61.028215339017116, 45.51471240179048], [-61.02826619436686, 45.514722263151754], [-61.02828026406687, 45.51472888795282], [-61.02830398298233, 45.51474003594969], [-61.02834306150696, 45.514793817809526], [-61.028419259474816, 45.51484824957757], [-61.028482338689784, 45.51487543318515], [-61.02852391111005, 45.51488055254303], [-61.028558828802936, 45.51488485489802], [-61.028594862871984, 45.514885053966275], [-61.02863563315796, 45.51488528078394], [-61.02876459347781, 45.514858703289306], [-61.02880297993089, 45.514859365958074], [-61.028841133686335, 45.51487292331778], [-61.02885356492913, 45.5148773414733], [-61.028904464132, 45.51488632118902], [-61.02893005511523, 45.51488676293851], [-61.028955677515434, 45.51488630510449], [-61.02896847300738, 45.51488652597421], [-61.02900794098758, 45.5148866491683], [-61.029032481884435, 45.51488673072351], [-61.029119026364164, 45.514893112179124], [-61.02916017271705, 45.51489613567256], [-61.02920225641396, 45.51490128161016], [-61.02931444562908, 45.51491500044768], [-61.029519581962475, 45.51490683903496], [-61.029588510627754, 45.514918316863714], [-61.02963414477022, 45.514925918227895], [-61.029787494455775, 45.51497086991412], [-61.02988894795382, 45.514998723858874], [-61.0299341531251, 45.51500467948322], [-61.030030425892136, 45.51501736690778], [-61.03009782273529, 45.515037891211364], [-61.030209040478695, 45.51507175509826], [-61.030237506040095, 45.51507897904049], [-61.0302471131501, 45.51508141306856], [-61.03028524096877, 45.51512617665888], [-61.03033522257318, 45.51519814830924], [-61.03038614612217, 45.515243132584], [-61.03047577046134, 45.5152797831632], [-61.03053820655619, 45.515309294850844], [-61.030590389697245, 45.51533396704777], [-61.03065410918897, 45.515379171895894], [-61.03067829805771, 45.51540989611144], [-61.03070437398455, 45.51544304718555], [-61.03077819315205, 45.5154949250108], [-61.030781855017246, 45.515497490495356], [-61.030908329070755, 45.51557888209975], [-61.03098778108019, 45.51561867830026], [-61.03099767182722, 45.5156236284905], [-61.031113202371714, 45.515651724082], [-61.03117378304275, 45.51566911481633], [-61.0311765845287, 45.51566991922063], [-61.031227484846845, 45.515678897917574], [-61.03145823965265, 45.51570717951888], [-61.03158594562877, 45.515716582011756], [-61.03165974375022, 45.51571439769763], [-61.03185509456209, 45.51570861974411]]}, "properties": {"OBJECTID": 199473, "FEAT_CODE": "WARV50", "FEAT_DESC": "River - Single Line", "RIVNAME_1": " ", "RIVNAME_2": " ", "ZVALUE": 9999, "FID": null, "SHAPE_Length": 1294.2572473687258}}, {"type": "Feature", "id": 199474, "geometry": {"type": "LineString", "coordinates": [[-61.022963166504525, 45.51216245722064], [-61.02293790536544, 45.51215300063539], [-61.022903568219284, 45.51212889495653], [-61.02288666204638, 45.51211702668069], [-61.02278579704978, 45.51203606957125], [-61.022721469977704, 45.511971947247346], [-61.02269267773374, 45.51192076288167], [-61.02267085170226, 45.51188195878234], [-61.02258276327955, 45.51176521791466], [-61.022569949657125, 45.51172899119122], [-61.02257025870993, 45.511683990514136], [-61.022560937873784, 45.51165477320678], [-61.02255871178841, 45.51164778572519], [-61.02254682477546, 45.51154856660318], [-61.022547108251494, 45.51150356548196]]}, "properties": {"OBJECTID": 199474, "FEAT_CODE": "WARV50", "FEAT_DESC": "River - Single Line", "RIVNAME_1": " ", "RIVNAME_2": " ", "ZVALUE": 9999, "FID": null, "SHAPE_Length": 83.35370003813748}}, {"type": "Feature", "id": 292632, "geometry": {"type": "LineString", "coordinates": [[-61.03255645428211, 45.5190583501761], [-61.032572885825545, 45.51906448406643], [-61.03258173358122, 45.5190677869295], [-61.03261457439751, 45.51906783969567], [-61.03269695172078, 45.51906797181193], [-61.03271912463049, 45.51907359251628], [-61.03273504031598, 45.51907762921862], [-61.03283781368043, 45.519104603138196], [-61.03292679323227, 45.519123238268634], [-61.033144427208946, 45.51912429582416], [-61.033209381896974, 45.51909750193402], [-61.03327458619296, 45.51906685079352], [-61.0333239350155, 45.51904365856023], [-61.033388562871444, 45.518989864355994], [-61.03341539666498, 45.518954330725066], [-61.03344033690371, 45.518936757864736], [-61.03347207236686, 45.518909004659285], [-61.03349182870151, 45.518891747564325], [-61.033517779509395, 45.51888228416484], [-61.03358176167439, 45.518883386018736], [-61.03365894223835, 45.51890991846338], [-61.033722642336826, 45.51891911645625], [-61.03378597178314, 45.518902204566466], [-61.033825959601444, 45.518856987024144], [-61.03383839074687, 45.518794192709464], [-61.03381351257749, 45.51873906407443], [-61.03380154276651, 45.51871254747317], [-61.033801139892496, 45.518680379266215], [-61.033800864086906, 45.51865852861663], [-61.03384050694553, 45.51862320644239], [-61.03390418078092, 45.518596399101696], [-61.0340069278312, 45.51858736673677], [-61.03408706727954, 45.51856791772495], [-61.03422516069283, 45.51853441637101], [-61.03432787625349, 45.518526283294484], [-61.03441720009764, 45.51853502187664], [-61.03453239868253, 45.518536104689154], [-61.03456985277264, 45.51852684805275], [-61.0346636711652, 45.51848704834811], [-61.03467382144866, 45.51848273145293], [-61.034703651671244, 45.518482821813336], [-61.03473783453336, 45.518482933071525], [-61.03476345856437, 45.51848247396068], [-61.034808489293475, 45.518487650543676], [-61.03492924729517, 45.518501529320794], [-61.034959077530345, 45.51850161961461], [-61.03499326040694, 45.51850173079653], [-61.03510911672197, 45.51848392183553], [-61.03513374301441, 45.51847534439716], [-61.035162012778166, 45.5184621490257], [-61.03517280261538, 45.51845711399421], [-61.035185899377964, 45.518448338154805], [-61.035224601310304, 45.51844001189569], [-61.035237113232505, 45.51843074892395], [-61.035249572399245, 45.518421530049054], [-61.03527610466782, 45.518394982984205], [-61.035301044087575, 45.518377409702005], [-61.035317010901075, 45.51836636992211], [-61.03534040395543, 45.51835018321249], [-61.03545087272075, 45.51828630310201], [-61.035494594838084, 45.518261023858386], [-61.03553267490162, 45.51823377528408], [-61.035569205010724, 45.51819845296341], [-61.03559760008506, 45.5181709837432], [-61.035630862700586, 45.51811917800859], [-61.035649044173304, 45.518090857980155], [-61.03568901559452, 45.51800963471515], [-61.035688953009846, 45.517947795422934], [-61.03568892141803, 45.51790161874429], [-61.03566450013167, 45.51775717949651], [-61.03563978872, 45.51769464613573], [-61.035630057411, 45.517669644427414], [-61.03561512147035, 45.51763121340907], [-61.035551355585206, 45.51755000576704], [-61.035535061083934, 45.517533685307356], [-61.03548825598774, 45.51748681194445], [-61.035424843056646, 45.51743262289325], [-61.03528428285876, 45.51735098495705], [-61.035208527594584, 45.517315179893096], [-61.035169654924694, 45.51729680566001], [-61.03496543617995, 45.517241984644585], [-61.03485007697301, 45.51719705467263], [-61.03482520386741, 45.517187364374735], [-61.0346590527702, 45.51710529424045], [-61.03446756573363, 45.51697868188497], [-61.03430297737748, 45.51688853705094], [-61.03427673248086, 45.51687008285509], [-61.03405999468326, 45.51677003871052], [-61.033970622041146, 45.516725294213494], [-61.03388164546385, 45.516670655148054], [-61.03380575279845, 45.516607240108016], [-61.03375300149342, 45.51653816569583], [-61.03372983439631, 45.51650781978129], [-61.03369200324728, 45.51641805647141], [-61.033679142821434, 45.51634582542723], [-61.03367976967506, 45.516327833825066], [-61.033664141116816, 45.516275888817724], [-61.033641899751046, 45.51620207403538], [-61.033604714665174, 45.516093410299206], [-61.0335928591777, 45.51606620254123], [-61.03358130984359, 45.51604747918341], [-61.03355407539597, 45.51600342637047], [-61.03350314860814, 45.51595844346098], [-61.03346486513145, 45.51594194203744], [-61.033440066001305, 45.515931253576156], [-61.03336481162635, 45.51591569960136], [-61.03334982448453, 45.515912597099074], [-61.03333702872637, 45.515912376716294], [-61.033287068285084, 45.51587641155212], [-61.03326623656476, 45.51585144347468], [-61.03324896891338, 45.51583074934185], [-61.033224836751145, 45.51567821342184], [-61.03316108894565, 45.51559701372876], [-61.033152077542574, 45.51559364508134], [-61.03313581139423, 45.5155875681267], [-61.03311536842414, 45.515578268803736], [-61.03309674044954, 45.515569792846485], [-61.033033332265816, 45.51551559352804]]}, "properties": {"OBJECTID": 292632, "FEAT_CODE": "WARV55", "FEAT_DESC": "River - Single Line Indefinite", "RIVNAME_1": " ", "RIVNAME_2": " ", "ZVALUE": 9999, "FID": null, "SHAPE_Length": 688.3296297255122}}]}