{"type": "FeatureCollection", "features": [{"type": "Feature", "id": 126904, "geometry": {"type": "LineString", "coordinates": [[-60.68118342331949, 45.66227893345611], [-60.681161159408, 45.6624074032244], [-60.68114129100705, 45.662522006026386], [-60.681154656825726, 45.66254027954149], [-60.681179974826065, 45.662548894634526], [-60.68119547155922, 45.66255287276209], [-60.68121808185546, 45.662558669540005], [-60.68127258114222, 45.66255882216169], [-60.681372107320406, 45.66255909699804], [-60.68142266912914, 45.66257812578329], [-60.68152494631985, 45.6626504196624], [-60.68155039387662, 45.662674861131805], [-60.68156322222898, 45.66268719200015], [-60.68161400258564, 45.66273232815317], [-60.681690467073444, 45.662782504282404], [-60.6817527211402, 45.662823354805305], [-60.681930677330634, 45.66295928296092], [-60.68193899115376, 45.66296716563254], [-60.682007266538456, 45.663031946004], [-60.682070286592484, 45.66312234462086], [-60.682077220281855, 45.663154016015206], [-60.68208216787324, 45.663176583044915], [-60.68208521295097, 45.66318118138347], [-60.68209425151793, 45.66319483041971], [-60.68210691226688, 45.66323019148255], [-60.68207953439076, 45.6633025441329], [-60.682079234019135, 45.66332598574196], [-60.682078960323054, 45.66334753767432], [-60.682090970896716, 45.663364757447184], [-60.68211653115128, 45.66340140648369], [-60.68212915482243, 45.66343766689416], [-60.682136101114196, 45.663452245566546], [-60.68214214984139, 45.66346493380237], [-60.68212726408178, 45.66354564097824], [-60.68212678952168, 45.66360252691026], [-60.682126284631, 45.663662634597884], [-60.682112512806675, 45.66371636126655], [-60.68210808252066, 45.66372852174656], [-60.68209948364009, 45.66375210093209], [-60.682021002392936, 45.66378741201193], [-60.68201797237845, 45.663787422509536], [-60.68194396938565, 45.66378764838888], [-60.68180098746611, 45.663775240508826], [-60.681713724603746, 45.66376767216298], [-60.68166904474156, 45.66377248967299], [-60.68163635698352, 45.663776011474134], [-60.6815595170443, 45.66380234552194]]}, "properties": {"OBJECTID": 126904, "FEAT_CODE": "WALK20", "FEAT_DESC": "Lake - Water to the right line", "RIVNAME_1": " ", "RIVNAME_2": " ", "ZVALUE": 20.7, "FID": null, "SHAPE_Length": 246.68480169023047}}, {"type": "Feature", "id": 126905, "geometry": {"type": "LineString", "coordinates": [[-60.6815595170443, 45.66380234552194], [-60.68154109194793, 45.66381673311118], [-60.681456079040586, 45.663883054771794], [-60.681444870739654, 45.663897696897536], [-60.68142894028715, 45.6639185078586], [-60.68142285189961, 45.66393133672395], [-60.681416269264666, 45.66394525367955], [-60.68137902762098, 45.66395397554731], [-60.68137738119829, 45.66395436516371], [-60.6813128401398, 45.66396295571102], [-60.68126827424965, 45.66396283380847], [-60.68126149703406, 45.66396281319654], [-60.68113356650005, 45.663952114291476], [-60.680989792339, 45.663928113970734], [-60.680967825322526, 45.66392444545803], [-60.6809463202045, 45.66391922914255], [-60.680814036846094, 45.663887118013506], [-60.68065950543193, 45.6638677773474], [-60.68046774062081, 45.66384857121895], [-60.68030316464676, 45.66383900817522], [-60.68030125647842, 45.66383889740149], [-60.68029313662154, 45.66384061365908], [-60.6802624183107, 45.66384710941561], [-60.68024205730085, 45.663868262250595], [-60.68023693312161, 45.6638735947747], [-60.6802104869177, 45.66389195966907], [-60.68020067672753, 45.663930230800155], [-60.680196713203536, 45.66394568606788], [-60.68018539367894, 45.66395369204503], [-60.68015836429033, 45.663972810167124], [-60.68011951318368, 45.663981021869645], [-60.68008924703326, 45.66398620361344], [-60.68006779841449, 45.66398987230514], [-60.68005744553785, 45.663985980534655], [-60.68004251712083, 45.663980357609454], [-60.67999154570827, 45.6639712210369], [-60.67987760745182, 45.663938482445154], [-60.67986341074607, 45.66393441354184], [-60.67967110648281, 45.6638972020368], [-60.679351987956665, 45.663822308872746], [-60.67912191161764, 45.6637672267865], [-60.67904090509983, 45.663737821026125], [-60.67901945491361, 45.66373004016746], [-60.67895550322068, 45.66369363616657], [-60.6789206331974, 45.663674799254345], [-60.67890527596957, 45.66366651215665], [-60.67877788620192, 45.66361171650924], [-60.678735788387534, 45.663605622095], [-60.678712806327695, 45.66360229255406], [-60.67868956165915, 45.663610280976954], [-60.6786880643116, 45.6636107905987], [-60.6786363368594, 45.663619640127735], [-60.678585179349675, 45.66364047260252], [-60.67857106484343, 45.66364621634179], [-60.6785206328078, 45.66365509215505], [-60.67834065529977, 45.663599226837874], [-60.67831380642095, 45.6635944144314], [-60.67828968453803, 45.66359008951697], [-60.67823563100425, 45.66360862169105], [-60.67821285582998, 45.663616430541545], [-60.67816039718854, 45.66364326706516], [-60.67814923684171, 45.66364710859646], [-60.67813565507522, 45.663651764988046], [-60.67812168657191, 45.66365180498184], [-60.678097138708175, 45.66365188187374], [-60.67807820224118, 45.66363826527433], [-60.67805849286693, 45.663624092892164]]}, "properties": {"OBJECTID": 126905, "FEAT_CODE": "WALK20", "FEAT_DESC": "Lake - Water to the right line", "RIVNAME_1": " ", "RIVNAME_2": " ", "ZVALUE": 20.7, "FID": null, "SHAPE_Length": 307.4458531486353}}, {"type": "Feature", "id": 126906, "geometry": {"type": "LineString", "coordinates": [[-60.67805849286693, 45.663624092892164], [-60.67805846603478, 45.663618844740704], [-60.67805833901953, 45.663597086646085], [-60.67805950159156, 45.66359629119263], [-60.67813627086779, 45.663543765039556], [-60.6781462957423, 45.66352454464731], [-60.678150213150346, 45.6635170454304], [-60.67815004643071, 45.663490038922305], [-60.67809945994905, 45.66345981989498], [-60.67807362840146, 45.66344437988944], [-60.67804237446264, 45.66342192581473], [-60.67803622888957, 45.663417498345396], [-60.67798439699267, 45.66339846023475], [-60.67785716251749, 45.6633706698322], [-60.677822344047726, 45.66337077181848], [-60.677780143002224, 45.66337090367099], [-60.677772086848286, 45.66336797650841], [-60.67767768794801, 45.66333371587664], [-60.67765315147005, 45.663306213719025], [-60.67763649689728, 45.663271887058755], [-60.67762712870872, 45.66325257831136], [-60.677642226390134, 45.66313587186446], [-60.67763999177707, 45.66310083037183], [-60.677631338560914, 45.662964630658145], [-60.67762041168073, 45.662856395934206], [-60.67758342321907, 45.662757532278555], [-60.67755834852474, 45.662712017070085], [-60.67745817933666, 45.66255786203967], [-60.677407993150595, 45.662467730914365], [-60.67735642821676, 45.662404412824], [-60.6773200358176, 45.66235972946509], [-60.67730784493798, 45.662337599950725], [-60.67726988723005, 45.66226869893675], [-60.67726972091402, 45.66224169243024], [-60.677283663256965, 45.66221497292304], [-60.67730014630436, 45.66218703594993], [-60.67730989320835, 45.662170501284194], [-60.67740086826394, 45.662081441326315], [-60.677418972445786, 45.66206054912225], [-60.677439974104374, 45.66203633146029], [-60.6774795798839, 45.662009233832336], [-60.67749095348129, 45.66200674685966], [-60.677517160190206, 45.66200099717946], [-60.67754346946321, 45.66199649172309], [-60.677568873470904, 45.661992147868816], [-60.677623158727855, 45.66199249590435], [-60.67763304033328, 45.6619925618707], [-60.67767377523012, 45.66200426362662], [-60.67776116972277, 45.662029362772664], [-60.67786360966236, 45.662066550193835], [-60.67799046923083, 45.66210333401433], [-60.67809367776044, 45.6621216346717], [-60.67813178392441, 45.66213141059204], [-60.67832354230897, 45.66215061152683], [-60.67844430920716, 45.662154696192346], [-60.67865683370022, 45.662161888340215], [-60.678862162145194, 45.66216336216537], [-60.67901708564227, 45.66217371220494], [-60.679183166747706, 45.66219238975379], [-60.679217158407525, 45.66220481799878], [-60.67931088835501, 45.66223909077018], [-60.67955521124071, 45.66233104224296], [-60.67957886131058, 45.66233993883252], [-60.679667602867816, 45.66236695410882], [-60.679745148736934, 45.66238563187767], [-60.679911578085054, 45.66239621450454], [-60.680136186267525, 45.66240954510379], [-60.68025732593969, 45.66241674078155], [-60.68045074036663, 45.66242697074146], [-60.680487032731946, 45.66242722193142], [-60.68078440560596, 45.662429247889825], [-60.68083520774191, 45.66241137755204], [-60.68100333965444, 45.66234998484304], [-60.68118342331949, 45.66227893345611]]}, "properties": {"OBJECTID": 126906, "FEAT_CODE": "WALK20", "FEAT_DESC": "Lake - Water to the right line", "RIVNAME_1": " ", "RIVNAME_2": " ", "ZVALUE": 20.7, "FID": null, "SHAPE_Length": 520.3770536606786}}, {"type": "Feature", "id": 135874, "geometry": {"type": "LineString", "coordinates": [[-60.66904292088141, 45.65629717350908], [-60.669064624001116, 45.65630834581442], [-60.669221372194976, 45.65638902663228], [-60.66935466522511, 45.65639004624123], [-60.669362518018275, 45.65639010751781], [-60.66947710534998, 45.65638164510791], [-60.669486856937354, 45.65638172712928], [-60.669554090585514, 45.65638231628933], [-60.66958027585192, 45.65640085282469], [-60.66959164483327, 45.656436188955816], [-60.66960479494014, 45.656490463642044], [-60.66959552470574, 45.656502596878504], [-60.669591224133896, 45.656508179767144], [-60.66958869586369, 45.65651002738773], [-60.66957798850077, 45.656517819788675], [-60.66955233913486, 45.656517296290424], [-60.66947647352372, 45.65648964481076], [-60.66945082417252, 45.656489121289965], [-60.669424764216416, 45.65649849053733], [-60.669418874300405, 45.65650618322921], [-60.669411192978885, 45.656516215633296], [-60.669385223385206, 45.65655649632094], [-60.66935906226229, 45.656597061126625], [-60.66933875136582, 45.65663150761237], [-60.66933282849048, 45.656641539899816], [-60.669326821883736, 45.65666812340809], [-60.6693186735469, 45.65670424931686], [-60.669235651543964, 45.65679333923106], [-60.66920178453922, 45.6568296782272]]}, "properties": {"OBJECTID": 135874, "FEAT_CODE": "WALK20", "FEAT_DESC": "Lake - Water to the right line", "RIVNAME_1": " ", "RIVNAME_2": " ", "ZVALUE": 6.4, "FID": null, "SHAPE_Length": 114.10848294002068}}, {"type": "Feature", "id": 143317, "geometry": {"type": "LineString", "coordinates": [[-60.68957933440235, 45.66295048495264], [-60.689679908081054, 45.66309563644528], [-60.68971822637443, 45.66313151579385], [-60.689793345680826, 45.663240148009535], [-60.68979619279474, 45.6632483245495], [-60.689818602960784, 45.66331266732371], [-60.68982432008642, 45.66334406159965], [-60.68983012132422, 45.663375907628826], [-60.68983002367164, 45.66339450179723], [-60.689829923566265, 45.663411907778986], [-60.689846262710894, 45.663434740945675], [-60.68985541571592, 45.66344752758036], [-60.68987008011342, 45.6634639541257], [-60.68987995833567, 45.66347502723145], [-60.68993073338789, 45.66352015956281], [-60.689966274509366, 45.663537125466384], [-60.690007531550826, 45.66355681729538], [-60.69002266401168, 45.66356499033744], [-60.69005775143729, 45.66358393626324], [-60.69012701572345, 45.66361525690681], [-60.690159845161524, 45.66363011565747], [-60.6902491374678, 45.663675117903665], [-60.69044010429214, 45.66377619188298], [-60.690504446604024, 45.66380359630122], [-60.69056787594319, 45.66382199018157], [-60.69076018826774, 45.663859174471476], [-60.69089132747397, 45.66388615633598], [-60.69093967392713, 45.6638961080544], [-60.691092729888645, 45.66395140910242], [-60.69119481270079, 45.663997578344755], [-60.69131706370717, 45.664064956672455], [-60.691359253331036, 45.664088213274525], [-60.69144532985777, 45.66411905393796], [-60.69148702684281, 45.66413400157669], [-60.69157186035611, 45.66414044220676], [-60.6916162798649, 45.66414381549938], [-60.69178273015937, 45.66415438121918], [-60.69191089670518, 45.66412817769992], [-60.692246249327134, 45.66405843812446], [-60.69243932520771, 45.66401463468445], [-60.692581057456586, 45.66397069348779], [-60.69276047819708, 45.66389992548829], [-60.692826374241896, 45.66387393883744], [-60.69286434750994, 45.66385580393093], [-60.692868953538415, 45.663854303813906], [-60.692890370266504, 45.66384732869091], [-60.693019079472414, 45.66383912796339], [-60.69305146418705, 45.66383921519505], [-60.69307042270267, 45.663839265188045], [-60.6931057475709, 45.66384277819362], [-60.6931727026386, 45.66384943249557], [-60.693506552413986, 45.66387867925799], [-60.693620957419924, 45.66390618405461], [-60.69362964850991, 45.66391242630207], [-60.69369701926286, 45.66396083549976], [-60.69372210770293, 45.664006347417626]]}, "properties": {"OBJECTID": 143317, "FEAT_CODE": "WALK20", "FEAT_DESC": "Lake - Water to the right line", "RIVNAME_1": " ", "RIVNAME_2": " ", "ZVALUE": 26.3, "FID": null, "SHAPE_Length": 398.8570184741949}}, {"type": "Feature", "id": 143318, "geometry": {"type": "LineString", "coordinates": [[-60.68997179413201, 45.66866778161544], [-60.689950504047346, 45.66865977203326], [-60.68994650899651, 45.6686582690471], [-60.689932980738995, 45.66864227955805], [-60.68990855744472, 45.66861338719565], [-60.6898943555157, 45.66860565602008], [-60.68985707391359, 45.668585360519494], [-60.68975623016523, 45.66854010628907], [-60.68969625476343, 45.668505985049016], [-60.68969225308394, 45.66850370783111], [-60.689683852205654, 45.66849165649396], [-60.68966680871549, 45.668467188885415], [-60.68965473451807, 45.668385935303206], [-60.68965621528824, 45.66834996113934], [-60.68964300635293, 45.668296587791986], [-60.68963715707251, 45.66825249040097], [-60.689632227798256, 45.66821536042071], [-60.6895948446626, 45.66812549380596], [-60.689532954296624, 45.668007228090204], [-60.68950867200621, 45.66795839220578], [-60.689470114261205, 45.667880851194305], [-60.68939495307788, 45.667773109099734], [-60.6893711423511, 45.667732158629676], [-60.68933141052104, 45.66766381086669], [-60.68924342212936, 45.66755581809359], [-60.68914284205535, 45.66741066618813], [-60.6890680021524, 45.66733849345181], [-60.68906752040016, 45.66733803365019], [-60.68896633541688, 45.667238774608705], [-60.688893821135714, 45.66718714417722], [-60.68887653389596, 45.66717484990925], [-60.688862225660856, 45.66716316499797], [-60.68878833613389, 45.667102847669355], [-60.68877589163332, 45.667093603746835], [-60.688711334350664, 45.66701959566957], [-60.68864962205631, 45.66694883150965], [-60.688548303865524, 45.66682166619034], [-60.68852393499554, 45.666759065753645], [-60.68846072855027, 45.666641672890414], [-60.68839768113716, 45.666551286310934], [-60.68836105158368, 45.66650553958912], [-60.68822195762876, 45.6663604982349], [-60.68815818254955, 45.66628810785579], [-60.68812418847098, 45.666261604620196], [-60.68800643364756, 45.66616982211707], [-60.687943201257305, 45.66611543567151], [-60.68785393518807, 45.66600741592637], [-60.68776561873911, 45.66590751627048], [-60.68775277045532, 45.665860090669106], [-60.68774110402685, 45.66581700949557], [-60.687731460478595, 45.665773438223525], [-60.687717293278766, 45.66570941500318], [-60.68766826423236, 45.66552840142811], [-60.6876435177813, 45.6654693935578], [-60.68761917044583, 45.66541129386773], [-60.6875891992202, 45.66537347662573], [-60.68756913661763, 45.66534817345989], [-60.68749679406447, 45.665264105867955], [-60.68746745315768, 45.66523000078416], [-60.68741667863677, 45.66518486737803], [-60.68722678732644, 45.6650577071373], [-60.68711205456114, 45.66497617407501], [-60.6869967505136, 45.66493873440096], [-60.68687335977722, 45.66490221091545], [-60.68684328849252, 45.66489332077749], [-60.68683192940686, 45.664887663038], [-60.68680557509756, 45.664874554695125], [-60.68677678356371, 45.664854547182436], [-60.686766873751665, 45.66484767665386], [-60.68674861803997, 45.66482807159857], [-60.68671647112798, 45.664793540429464], [-60.68670475625604, 45.66476629998495], [-60.68667950244667, 45.664693780064134], [-60.686680443504194, 45.66463979291021], [-60.686720805613646, 45.66453259818261], [-60.686747436996995, 45.664478231386575], [-60.6868769182291, 45.66438904389735], [-60.68697091126561, 45.6643358166057], [-60.68747234046614, 45.664051855088424], [-60.687576709019716, 45.663966739728025], [-60.68761447447719, 45.66393592889877], [-60.68763633796516, 45.66392373420656], [-60.68775769182076, 45.663856019617214], [-60.687963624246784, 45.66374947683286], [-60.687998136774524, 45.663725638820836], [-60.68805479391152, 45.66368651536076], [-60.68818387602163, 45.66358416778355], [-60.68830162538286, 45.6634907896845], [-60.688547580191624, 45.663285135580544], [-60.68861265094901, 45.663232455576946], [-60.68873078070037, 45.663107041035026], [-60.68876378391331, 45.663083676296864], [-60.68876912534613, 45.66307990496699], [-60.688802718845956, 45.66306278088424], [-60.688872712083814, 45.663027095316], [-60.68888555125484, 45.66302735518513], [-60.688950447651216, 45.66300976650721], [-60.68906578679306, 45.66298329755681], [-60.68934831235891, 45.662949410588105], [-60.68957933440235, 45.66295048495264]]}, "properties": {"OBJECTID": 143318, "FEAT_CODE": "WALK20", "FEAT_DESC": "Lake - Water to the right line", "RIVNAME_1": " ", "RIVNAME_2": " ", "ZVALUE": 26.3, "FID": null, "SHAPE_Length": 841.1944977795087}}, {"type": "Feature", "id": 143319, "geometry": {"type": "LineString", "coordinates": [[-60.690435156172185, 45.66860784685288], [-60.69040876075581, 45.66862531502216], [-60.69039589611109, 45.66862595491366], [-60.690126380550204, 45.66862410353436], [-60.69007559969316, 45.66864107832371], [-60.69007488158871, 45.66864136983168], [-60.69001031407521, 45.668667660789374], [-60.689997116660585, 45.66867638583053], [-60.68997179413201, 45.66866778161544]]}, "properties": {"OBJECTID": 143319, "FEAT_CODE": "WALK20", "FEAT_DESC": "Lake - Water to the right line", "RIVNAME_1": " ", "RIVNAME_2": " ", "ZVALUE": 26.3, "FID": null, "SHAPE_Length": 38.709329453851275}}, {"type": "Feature", "id": 149118, "geometry": {"type": "LineString", "coordinates": [[-60.688700601414496, 45.664276556035674], [-60.68855420233993, 45.66428814722603], [-60.68839278588371, 45.66430092838108], [-60.68836672524064, 45.66431030193191], [-60.68833996092214, 45.664336763200716], [-60.68832713428336, 45.6643365035242], [-60.68832026393382, 45.664341549029906], [-60.688315219953466, 45.66434526335293], [-60.68830160273562, 45.66436388984521], [-60.68828073307288, 45.66439652813702], [-60.6882618253734, 45.6644261007886], [-60.68825833139774, 45.664654962412946], [-60.68825729964438, 45.664723034363995], [-60.68829501189689, 45.66480480719665], [-60.68833259006309, 45.664858665088374], [-60.688338354252735, 45.66486084302205], [-60.68835788568074, 45.664868187234816], [-60.688396574626495, 45.66489507348548], [-60.688486187542104, 45.66493199166212], [-60.68861341805926, 45.664959779114966], [-60.68872856325159, 45.66496930172598], [-60.68887010224673, 45.66496136537368], [-60.68893464310057, 45.66495277954835], [-60.688999554929936, 45.664935182156846], [-60.68905523572576, 45.66491854103569], [-60.68911523125433, 45.66490061905251], [-60.68924414144244, 45.66485642250709], [-60.689268036244336, 45.664845402742166], [-60.68928339917459, 45.66483831478754], [-60.68929605387382, 45.664811567768986], [-60.68932190514009, 45.66477609576597], [-60.68933572061346, 45.66472146001979], [-60.68933607608587, 45.66469754245921], [-60.68933721459714, 45.66462247885454], [-60.689319780618035, 45.6645660495981], [-60.68931230342563, 45.664541865519055], [-60.68926336618905, 45.664451764929126], [-60.68925074724298, 45.664439286151996], [-60.68919923479847, 45.66438835993587], [-60.689137186925095, 45.66434357521183], [-60.68911070727604, 45.66432446117266], [-60.689028583116304, 45.664298982348114], [-60.689020711816475, 45.664296536777265], [-60.6889187651996, 45.66427827156074], [-60.688779114720454, 45.66427717315346], [-60.688700601414496, 45.664276556035674]]}, "properties": {"OBJECTID": 149118, "FEAT_CODE": "WALKIS10", "FEAT_DESC": "Lake Island - Island to the left line", "RIVNAME_1": " ", "RIVNAME_2": " ", "ZVALUE": 26.3, "FID": null, "SHAPE_Length": 267.7770011976182}}, {"type": "Feature", "id": 193612, "geometry": {"type": "LineString", "coordinates": [[-60.68997179413201, 45.66866778161544], [-60.68991554530555, 45.6687443045445], [-60.689892914886244, 45.668775098281515], [-60.68989327955886, 45.66877871507264], [-60.68989382749327, 45.66878411777543], [-60.689879888598185, 45.66881085686612], [-60.68988572247923, 45.66882757279429], [-60.68989251913907, 45.6688470985199], [-60.689891778447034, 45.66886509459683], [-60.689918763820074, 45.66888383162679], [-60.68993045837101, 45.66889197112474], [-60.68993148950016, 45.668893432150405], [-60.68995592875053, 45.66892849053523], [-60.6899678183235, 45.66898273725244], [-60.68995843631614, 45.66902914578175], [-60.68995332498403, 45.669054452284016], [-60.689964633759324, 45.66915369240139], [-60.68995234978494, 45.669174533300875], [-60.68993841024002, 45.6691981670287], [-60.68988649411446, 45.66924302195856], [-60.68984855322629, 45.669260256415505], [-60.68984249935467, 45.669261673111244], [-60.68980966269866, 45.669269370719654], [-60.68975831419604, 45.669269240926106], [-60.68961733303675, 45.66923217552086], [-60.68957002519439, 45.66922620472235], [-60.689540699628566, 45.669222523986996], [-60.68930875001879, 45.66927453687515], [-60.68925740189174, 45.66927439786269], [-60.689232486886084, 45.66925589159723], [-60.68916812624888, 45.66922848611765], [-60.689117531574055, 45.66921036022996], [-60.68909844299576, 45.669210306949346], [-60.68906618350958, 45.66921022113263], [-60.68896374868258, 45.66922386374992], [-60.688937091232404, 45.66922741068165], [-60.68887291539527, 45.66922701186618], [-60.688770626626734, 45.66921684054041], [-60.68874456372801, 45.669226214127086], [-60.68869288233454, 45.66923416904188], [-60.688685378328714, 45.66923775257419], [-60.68865490406507, 45.66925230244848], [-60.6886020741101, 45.669288146267306], [-60.68857598700476, 45.669299976606645], [-60.688564120726156, 45.66930536204226], [-60.68853643084324, 45.66930529656981], [-60.68851278504332, 45.66930523194756], [-60.68844897952744, 45.669295839360075], [-60.688358235718134, 45.66928590138007], [-60.68829405983106, 45.669285502237976], [-60.688178694457434, 45.669311969864154], [-60.688127530575514, 45.669338837163934], [-60.68795917247264, 45.669436248864066], [-60.68784159685593, 45.66951666857446], [-60.68779941965946, 45.66955724624836], [-60.68777744260379, 45.669578376686594], [-60.687737439998365, 45.66961447085445], [-60.68772679494308, 45.66962199617488], [-60.68769909064819, 45.66964159745766], [-60.68766498650548, 45.66964919677312], [-60.687621345460144, 45.66965892521038], [-60.6875709092571, 45.669667804936424], [-60.687493904737046, 45.669667154543475], [-60.68735255361663, 45.669639079878046], [-60.68732962975199, 45.66963893962214], [-60.687288364527284, 45.6696386799031], [-60.68722494229224, 45.66962029336464], [-60.68714015394923, 45.66961942206622], [-60.68713511038659, 45.6696193739126], [-60.687116310688516, 45.66961729191907], [-60.68704564911328, 45.66960946086752], [-60.68699647122335, 45.66960930179124], [-60.68699301757176, 45.6696093038398], [-60.68696815137559, 45.66960240039648], [-60.68689147018889, 45.669581134786746], [-60.68685109573197, 45.669569542655466], [-60.68676331773057, 45.66954433473424], [-60.686507554689875, 45.66948874723558], [-60.68641856031793, 45.66945381129299], [-60.686367316385756, 45.66943369980464], [-60.6862527339044, 45.66937917207365], [-60.686178924388656, 45.66934120425436], [-60.68616347347706, 45.669333258283906], [-60.68613289614118, 45.66931790397298], [-60.686036447267945, 45.6692694771432], [-60.686010608540315, 45.669241950423086], [-60.68600616572419, 45.66923573968686], [-60.68598511637758, 45.669206329792736], [-60.68598568718851, 45.66916134520822], [-60.68599908644796, 45.669116602596624], [-60.68597528498676, 45.66907111509233], [-60.68597216230254, 45.669069629646096], [-60.68589848215994, 45.66903445458448], [-60.685849298460134, 45.669019191165546], [-60.68580846810956, 45.66900652730255], [-60.685647636227046, 45.66894064741333], [-60.685630466138925, 45.66893361163308], [-60.6855158854048, 45.668879083191726], [-60.68542608574107, 45.668815146826645], [-60.685325074484155, 45.668742900189955], [-60.68526168471791, 45.66866150599416], [-60.68514881374456, 45.66853410348523], [-60.685110695811964, 45.6684622225659], [-60.68501123784613, 45.66829008668141]]}, "properties": {"OBJECTID": 193612, "FEAT_CODE": "WARV50", "FEAT_DESC": "River - Single Line", "RIVNAME_1": " ", "RIVNAME_2": " ", "ZVALUE": 9999, "FID": null, "SHAPE_Length": 547.2663358176881}}, {"type": "Feature", "id": 194300, "geometry": {"type": "LineString", "coordinates": [[-60.69111301575266, 45.661585446290864], [-60.69106224125926, 45.66160243066088], [-60.690880902282, 45.661673463251695], [-60.69079038459666, 45.66170450449153], [-60.69067516693214, 45.661744020151374], [-60.690571967398675, 45.66178782923621], [-60.690481543968914, 45.66183279674565], [-60.69037343801949, 45.66187728950225], [-60.69035227137149, 45.661885997412405], [-60.69032262271363, 45.661897126046796], [-60.69023623202953, 45.66192955547687], [-60.690177885870156, 45.66194554019176], [-60.69010769942949, 45.66196475975473], [-60.690021930411014, 45.6619880025359], [-60.689977884061015, 45.661999937936415], [-60.689901062735224, 45.66202628698247], [-60.689874646892164, 45.66204463673111], [-60.689809974451165, 45.66208832448089], [-60.68975802543711, 45.662133205731244], [-60.6897044403697, 45.66217011493848], [-60.68969328939996, 45.662177810233764], [-60.68964138016802, 45.66222265623133], [-60.68961591291654, 45.66224914405067], [-60.68957570616206, 45.662321238922885], [-60.689561571683036, 45.66238396019609], [-60.68957361914343, 45.662465213320274], [-60.68956685493047, 45.66247954112101], [-60.68956097797455, 45.66249196065206], [-60.689538093443545, 45.6625183836993], [-60.6895219070334, 45.66253707536852], [-60.689508499517466, 45.662581818266354], [-60.689518459197565, 45.6626127403441], [-60.689519882591505, 45.662617143650984], [-60.68952375412878, 45.66262569196799], [-60.68954459654349, 45.66267165896241], [-60.68959592618478, 45.66273479574727], [-60.689681847636464, 45.6627790011549], [-60.68968516641738, 45.66278070649378], [-60.68969535818643, 45.662804432420096], [-60.68969688237142, 45.66280794666113], [-60.68969711708468, 45.66281565629917], [-60.689697424773335, 45.66282595971282], [-60.68969059453946, 45.6628331573618], [-60.68957933440235, 45.66295048495264]]}, "properties": {"OBJECTID": 194300, "FEAT_CODE": "WARV50", "FEAT_DESC": "River - Single Line", "RIVNAME_1": " ", "RIVNAME_2": " ", "ZVALUE": 9999, "FID": null, "SHAPE_Length": 227.72354783420312}}, {"type": "Feature", "id": 194706, "geometry": {"type": "LineString", "coordinates": [[-60.68517603538626, 45.67101803952283], [-60.68517714821799, 45.67099105899774], [-60.68516813138616, 45.67084952405097], [-60.685166236788106, 45.67081981825201], [-60.6851645739981, 45.67078604868733], [-60.68515643823159, 45.67062159697536], [-60.6851385681612, 45.670548722407915], [-60.685132259840415, 45.67052299559273], [-60.68509454872342, 45.67044122180559], [-60.68503208759992, 45.67030584015496], [-60.68502497414457, 45.670283760428575], [-60.68502070674162, 45.67027049640423], [-60.6850011742828, 45.67020680516208], [-60.68495959667472, 45.67007124379238], [-60.6849094233, 45.66991810913504], [-60.68489902270057, 45.66988265923031], [-60.684885786434926, 45.66983752072869], [-60.68484881806204, 45.669737759850435], [-60.68478635825289, 45.66960237807665], [-60.68471032895836, 45.669484723182165], [-60.684623459917596, 45.66934974647377], [-60.68452975970071, 45.66924219232773], [-60.68443346058224, 45.66913166906504], [-60.68441552378628, 45.669112412155776], [-60.684383056194285, 45.669077540810385], [-60.684305746605204, 45.6689666824535], [-60.68428244918328, 45.66893328419969], [-60.68427480123434, 45.66891016746424], [-60.684258479626024, 45.66886078983154], [-60.68424977930355, 45.66883579753877], [-60.684245853487965, 45.66882452963796], [-60.68424612943028, 45.668802905755804], [-60.684246426048006, 45.66877953609281], [-60.68425318650059, 45.668760996059994], [-60.68425945552161, 45.66874378721384], [-60.68429812660918, 45.66870857636016], [-60.684350229038856, 45.668690730839735], [-60.68442780413735, 45.668646398770335], [-60.684492180513274, 45.66861080002758], [-60.68460975921598, 45.66853037481794], [-60.684802456187185, 45.66841504543152], [-60.68501123784613, 45.66829008668141]]}, "properties": {"OBJECTID": 194706, "FEAT_CODE": "WARV50", "FEAT_DESC": "River - Single Line", "RIVNAME_1": " ", "RIVNAME_2": " ", "ZVALUE": 9999, "FID": null, "SHAPE_Length": 344.4904753169806}}, {"type": "Feature", "id": 194715, "geometry": {"type": "LineString", "coordinates": [[-60.6753383806264, 45.663559745405436], [-60.675377782701496, 45.66356954862684], [-60.67562068062504, 45.6636248992752], [-60.67587603308335, 45.66368950394919], [-60.67596473799233, 45.66371741245761], [-60.67603474162176, 45.663734409056474], [-60.67611852252427, 45.663754746364326], [-60.676131116050335, 45.66375412056774], [-60.67616770966804, 45.663762930249646], [-60.67628515807409, 45.66379144148779], [-60.67642615797262, 45.66380921657359], [-60.676438417722565, 45.66381076220237], [-60.67645229173981, 45.66381238568422], [-60.67660577371634, 45.66383036954315], [-60.67672607815678, 45.663831134231344], [-60.676734125159534, 45.663831180948875], [-60.676774358312926, 45.66383145949542], [-60.677067785337904, 45.66383346885874], [-60.67722170841238, 45.663820632303604], [-60.67736277558778, 45.663808866189726], [-60.67743349903517, 45.6638032029542], [-60.677568854068504, 45.663792355516044], [-60.677647753987365, 45.66377647125357], [-60.67765817486858, 45.66377436993418], [-60.67782630138709, 45.66371298180416], [-60.67802536144461, 45.663636785696625], [-60.678057514520724, 45.66362446904302], [-60.67805836237116, 45.66362414424476], [-60.67805849286693, 45.663624092892164]]}, "properties": {"OBJECTID": 194715, "FEAT_CODE": "WARV50", "FEAT_DESC": "River - Single Line", "RIVNAME_1": " ", "RIVNAME_2": " ", "ZVALUE": 9999, "FID": null, "SHAPE_Length": 221.57444277067262}}, {"type": "Feature", "id": 194718, "geometry": {"type": "LineString", "coordinates": [[-60.68118342331949, 45.66227893345611], [-60.68119595648855, 45.66225769349201], [-60.681209650248135, 45.66223446086221], [-60.68123628574094, 45.662180095414215], [-60.68123740012227, 45.662153114922404], [-60.68125063301716, 45.662081366319946], [-60.681265350946695, 45.66197366171057], [-60.68127949453481, 45.66191094163851], [-60.68127950763429, 45.66186089611647], [-60.68127952948135, 45.661847935061004], [-60.68130687008173, 45.66177649093514], [-60.681326452374215, 45.66169956964222], [-60.68133445128192, 45.66166813841752], [-60.681334365086876, 45.661654374075034], [-60.681334115089655, 45.6616141163416], [-60.68132160322408, 45.661571440360454], [-60.68131048604302, 45.66153353624799], [-60.68126070341806, 45.66143350485712], [-60.68118519452481, 45.661334760210664], [-60.681131895398806, 45.66129066183022], [-60.68110823716287, 45.66127109015967], [-60.68103122427187, 45.661215294839934], [-60.68100726950368, 45.661197931382155], [-60.68100481968828, 45.66119539734029], [-60.68098142535034, 45.661171303478575], [-60.68097421280809, 45.66114826734455], [-60.680970085461716, 45.66113506900115], [-60.68099734351044, 45.66097270373804], [-60.68098970108769, 45.660945158352504], [-60.68098504257749, 45.66092834880461], [-60.680972420150844, 45.660892088278246], [-60.68093326253244, 45.66080646716821], [-60.68092297263008, 45.66078397159814], [-60.680872987518214, 45.66071994908489], [-60.680863611981565, 45.66070328675398], [-60.68084787382236, 45.66067533389959], [-60.68082940105258, 45.660661997200016], [-60.68075937457902, 45.66061142918055], [-60.68065904558596, 45.66054708607848], [-60.680631821774206, 45.660529629134324], [-60.68061537875993, 45.66051780980051], [-60.680555776771946, 45.660474987278], [-60.68039143796167, 45.66032042236114], [-60.680276711983794, 45.66023888248699], [-60.68023877334769, 45.66019400661405], [-60.68006161026627, 45.660039189674634], [-60.679947256977606, 45.65994865599325], [-60.6798587599003, 45.65988475061066], [-60.67973046671514, 45.659820936588936], [-60.67966365481978, 45.659796995291735], [-60.67962926206988, 45.65978467603703], [-60.67938588722286, 45.65971042199706], [-60.6792586731055, 45.65968263354973], [-60.6790916629354, 45.65965493616875], [-60.67877182549881, 45.659598028788835], [-60.67857953677539, 45.659560815721825], [-60.67843949797671, 45.65953276562411], [-60.67817059179457, 45.65948589312013], [-60.67790132695133, 45.65944801373223], [-60.6777480785747, 45.659428695190044], [-60.67761957097851, 45.65940086960437], [-60.67728688648425, 45.6593446058628], [-60.67710816926302, 45.65928966429344], [-60.677048344815084, 45.65928302860354], [-60.67701871401107, 45.65927973447423], [-60.67692360565516, 45.65926806938317], [-60.676710924513706, 45.659241977611806], [-60.67641674279992, 45.65918558563687], [-60.67623696036698, 45.65915672405482], [-60.67614865163643, 45.65915662802529], [-60.67609705243019, 45.659156576981445], [-60.6760145565916, 45.659159317470404], [-60.67587853762879, 45.65916383081411], [-60.675775897648066, 45.6591626416982], [-60.67564740454667, 45.65913481418314], [-60.67547526726898, 45.65909337954914], [-60.675341106366794, 45.659061079797574], [-60.67531735853941, 45.65904963303705], [-60.675302079802535, 45.659042283153774], [-60.675295724628086, 45.659036114064136], [-60.675265081785184, 45.65900642581053], [-60.675232485741425, 45.65898298951222], [-60.67522642766615, 45.65897863567782], [-60.67518865931382, 45.658960764716795], [-60.67516247098377, 45.65894222941625], [-60.67506074575054, 45.658887961111915], [-60.674999425538545, 45.658856396997336], [-60.67497151154301, 45.65884203000282], [-60.67493620628115, 45.65882295796658], [-60.67492129053521, 45.65881490434078], [-60.67485697425468, 45.658787500631355], [-60.674844881432456, 45.65876924328715], [-60.674793585294104, 45.65870609149062], [-60.674744146649175, 45.658660079484804], [-60.6746162347244, 45.65858726640943], [-60.674462800541846, 45.65854183662918], [-60.67445107762176, 45.65853882554774], [-60.674424697477555, 45.658532059538345], [-60.67441300621985, 45.65852394550453], [-60.674386019677414, 45.658505168740554], [-60.67436048239566, 45.65847557522725], [-60.67432355416286, 45.658432788190254], [-60.67427967638909, 45.658400975882586], [-60.67427246110139, 45.658395743326984], [-60.67426981736501, 45.658394492338836], [-60.67423469345012, 45.65837787206222], [-60.674175295018074, 45.65835943416755], [-60.67414471527346, 45.65834993624223], [-60.674016982110764, 45.65830413827295], [-60.67394035419372, 45.6582944673376], [-60.673931449199124, 45.65829315179814], [-60.67387656388323, 45.65828506687967], [-60.673825468464955, 45.65829115478352], [-60.67373466776594, 45.65830197839249], [-60.67370633609624, 45.65830173422084], [-60.67365767973682, 45.65830130997841], [-60.673568947234834, 45.65827429918747], [-60.67352994747481, 45.65825550248026], [-60.67349972585735, 45.658244490501616], [-60.67345406465915, 45.65822785330657], [-60.6733774117707, 45.658219099590696], [-60.673358972173915, 45.65822299035405], [-60.673338564151955, 45.658227300057845], [-60.67322269095923, 45.6582357401447], [-60.673210968174, 45.658232728938295], [-60.673184588333, 45.6582259626477], [-60.673166149610175, 45.658212796413586], [-60.67312100656667, 45.65818056182846], [-60.67307099504546, 45.658117444429294], [-60.673032305737465, 45.658090543934435], [-60.672994588796556, 45.658071773186435], [-60.672959080187695, 45.65804648566828], [-60.67290483266977, 45.65800784572325], [-60.6728294948614, 45.6579360931066], [-60.67277217093214, 45.657894879104596], [-60.67271482218252, 45.65785364656544], [-60.672676891228114, 45.65780876831136], [-60.6726574465014, 45.657775905198946], [-60.67263970551997, 45.65774591214019], [-60.672630160277194, 45.65770647301271], [-60.672615591525386, 45.65764640009987], [-60.672604674964845, 45.65753816501168], [-60.67261966900431, 45.657512727638746], [-60.67263090624841, 45.65749369444407], [-60.67264810358616, 45.6574776540658], [-60.67266961409446, 45.65745757911839], [-60.672730807397265, 45.657421219998966], [-60.672773590393454, 45.6573957909322], [-60.67279562973321, 45.657379678199476], [-60.67279874050169, 45.657377401328894], [-60.672802483173065, 45.65737226600291], [-60.67282459880856, 45.657341924162324], [-60.67282534429749, 45.65732393725981], [-60.67280044000075, 45.65730542758125], [-60.672723289165745, 45.65727775207204], [-60.67261947919768, 45.65726244962486], [-60.672595711326345, 45.65725894981066], [-60.672457406219486, 45.65722582409493], [-60.672365668804396, 45.65720385470264], [-60.6722633929861, 45.657193659796356], [-60.672252742012596, 45.65719359568161], [-60.67213508225731, 45.65719285317655], [-60.67211534345345, 45.65719279279479], [-60.67208374553041, 45.65719270665522], [-60.67204489808353, 45.657200915687106], [-60.67196846714964, 45.65723854794984], [-60.67186407380059, 45.65728994869173], [-60.67178559596263, 45.657325243828666], [-60.67169557524896, 45.65736031254124], [-60.67164386544399, 45.65736915926296], [-60.671631382842214, 45.65737085795015], [-60.671580613215575, 45.65737777058752], [-60.67145191668953, 45.65738594737969], [-60.67136247808636, 45.65737602245864], [-60.67126767158551, 45.65737575412761], [-60.67125980433034, 45.65737572869158], [-60.67124457183127, 45.65737316776288], [-60.671143806526096, 45.657356260874714], [-60.671084945422095, 45.65734255787584], [-60.67106752864325, 45.657338503203086], [-60.6709267533679, 45.657328430939614], [-60.67085928731957, 45.657327846850244], [-60.67084976678213, 45.657327760658404], [-60.670759968146456, 45.65732682896907], [-60.67068846651306, 45.657326369479584], [-60.67063163155227, 45.6573260201306], [-60.67050852798807, 45.65735377022404], [-60.6703608308012, 45.65738709411623], [-60.67030954449155, 45.65740707416966], [-60.67027080914133, 45.65742216168557], [-60.670242857173605, 45.657438144289834], [-60.67019323947984, 45.657466475305796], [-60.67012870408672, 45.65747506864436], [-60.670038468715326, 45.65748403763001], [-60.67001023914558, 45.65747484758113], [-60.669923230781, 45.65744657297955], [-60.669892623355025, 45.65742880138341], [-60.669860561851124, 45.657410190011], [-60.66982209746507, 45.65734729781924], [-60.66980964581776, 45.65733804266261], [-60.669807784686164, 45.65733711357748], [-60.669771917667504, 45.65731927061672], [-60.66972041811019, 45.657292116562616], [-60.66968805577461, 45.65725384971224], [-60.669682489950844, 45.657247237363634], [-60.66967633479556, 45.65723255704851], [-60.66963344055487, 45.65713012278561], [-60.669633813807515, 45.65712112935442], [-60.669629071596184, 45.65708910584892], [-60.66962179576154, 45.65703988363515], [-60.66962369738276, 45.65693190085501], [-60.66961092042408, 45.656868632741], [-60.669585644154346, 45.65685911581575], [-60.6695471325455, 45.65685922990738], [-60.669482598143055, 45.65686781389978], [-60.66939257680767, 45.65690288078502], [-60.669369630295854, 45.65691114343241], [-60.66936643895234, 45.65691226643075], [-60.66931612674033, 45.65692022251771], [-60.66927761509262, 45.65692033651756], [-60.669271729788676, 45.656916165912605], [-60.66925143006671, 45.65690179091811], [-60.66920178453922, 45.6568296782272]]}, "properties": {"OBJECTID": 194718, "FEAT_CODE": "WARV50", "FEAT_DESC": "River - Single Line", "RIVNAME_1": " ", "RIVNAME_2": " ", "ZVALUE": 9999, "FID": null, "SHAPE_Length": 1353.4666017398836}}, {"type": "Feature", "id": 194861, "geometry": {"type": "LineString", "coordinates": [[-60.672704822539664, 45.67945862293447], [-60.672678961502285, 45.679431992881106], [-60.67266967438924, 45.679426808024694], [-60.672628760911834, 45.67940396662155], [-60.67253983219936, 45.67934994808659], [-60.672475854620124, 45.67931354002094], [-60.67243811105609, 45.67929476861742], [-60.672423797616645, 45.67928136236384], [-60.67239979341256, 45.679258883562355], [-60.67238090197555, 45.679224591628305], [-60.67237471612356, 45.67921336727469], [-60.672373221308604, 45.679212256680955], [-60.672362259334086, 45.67920411232635], [-60.672323195209195, 45.67918622306794], [-60.67230733476856, 45.67916894182827], [-60.672248241225724, 45.67910457701837], [-60.672172821965574, 45.678941921256715], [-60.672121768100794, 45.67885896215407], [-60.67207297600665, 45.67877967655008], [-60.6720107019953, 45.678671285789136], [-60.67197225848156, 45.678607503858665], [-60.67195956406255, 45.67856962977707], [-60.67194826435281, 45.67853589759615], [-60.67194861904826, 45.67847907238528], [-60.671948721003666, 45.67846299864154], [-60.67194930382817, 45.67841800542218], [-60.6719636723118, 45.67831928714674], [-60.671964127441974, 45.678293463496914], [-60.67196462827271, 45.67826530051333], [-60.67191448866981, 45.678155995959145], [-60.67189044369175, 45.67810356981828], [-60.67187912013486, 45.67807103427764], [-60.67187782375812, 45.67806730842607], [-60.671802347714184, 45.67796765838264], [-60.67171537171885, 45.67780476664897], [-60.6716918427572, 45.67777580764681], [-60.67166406260372, 45.677741613369506], [-60.671607416503406, 45.67769475109851], [-60.67157592116106, 45.67766870797462], [-60.6714479707555, 45.67759589980117], [-60.67139719897951, 45.67755075039958], [-60.67132188729494, 45.6774781154476], [-60.67127016998085, 45.67739604251539], [-60.67125924284065, 45.67737871772017], [-60.67122113732717, 45.67730683249533], [-60.67119697149396, 45.67727033554516], [-60.67118189481315, 45.67725955986514], [-60.671133370408576, 45.67722493336889], [-60.67104411059483, 45.67717900781305], [-60.67092840817863, 45.677151444975195], [-60.67082722887505, 45.67711427714343], [-60.67076325493773, 45.67707786817618], [-60.670686825046275, 45.67703220405484], [-60.67035594686904, 45.67686793590587], [-60.670304429450255, 45.676840781845335], [-60.67021442410834, 45.67681284247124], [-60.67016389217393, 45.67679473648043], [-60.670112672493325, 45.67675856038196], [-60.6701031918087, 45.676741354998505], [-60.67008759811734, 45.67671304363147], [-60.67007631075696, 45.67661380206043], [-60.67007722615797, 45.67654320771221], [-60.670077479250445, 45.676523815671445], [-60.670083647084525, 45.67649340105346], [-60.670092013033404, 45.6764521040448], [-60.67010222684445, 45.67642845974314], [-60.67011900257461, 45.67638964759396], [-60.67012947899417, 45.67635473036568], [-60.67014582939321, 45.676300184745386], [-60.670146454032945, 45.67623628122224], [-60.670146624329824, 45.67621919175315], [-60.67012229699418, 45.67615568820189], [-60.67011100957141, 45.67612324322267], [-60.67010969105527, 45.67611943588882], [-60.67005911927516, 45.676038294866], [-60.670029073781414, 45.67600798740302], [-60.66999626774666, 45.675974896291116], [-60.669967773667025, 45.67596072330124], [-60.669958527246955, 45.67595612411761], [-60.66989416889907, 45.6759287078348], [-60.66954841741983, 45.675845143013575], [-60.66936980580375, 45.67581719472123], [-60.66929056320001, 45.675800365530726], [-60.66928071193468, 45.675798274232775], [-60.66924004814754, 45.675790846448656], [-60.669075545971786, 45.67576078242645], [-60.66872955952636, 45.675713214420604], [-60.668383536338304, 45.6756665447166], [-60.668134401274976, 45.67563229383875], [-60.66803755114098, 45.67561897463543], [-60.667806728706815, 45.675580956563984], [-60.66767911135884, 45.675562148082776], [-60.66751284566822, 45.675515546904165], [-60.66741146444498, 45.675482125331506], [-60.66734691673378, 45.675460851439645], [-60.66726932398315, 45.67543957203715], [-60.66724408616237, 45.67543264770683], [-60.66719266664114, 45.675420192906635], [-60.66705340880566, 45.675386447231766], [-60.666960035493446, 45.67537475532626], [-60.66689885135971, 45.67536708744772], [-60.66677106096012, 45.67532127133735], [-60.666656499337456, 45.67526672438793], [-60.66660458644516, 45.6752346460056], [-60.66656762035918, 45.67521180206647], [-60.66652719443739, 45.675183234765804], [-60.66651648031807, 45.675175652971845], [-60.66646104217169, 45.67512584246859], [-60.66641499829287, 45.6750844778701], [-60.666326818014355, 45.6750124586884], [-60.66622607256801, 45.67490327841593], [-60.66614986229016, 45.67482162061929], [-60.66597270966998, 45.674604675267986], [-60.66587155376242, 45.67450539641458], [-60.66584761096548, 45.674465500483], [-60.665822322660475, 45.674423380790415], [-60.66576757188537, 45.67431046879507], [-60.665747823898535, 45.674269740489905], [-60.66568444421064, 45.674188335666365], [-60.66555709761278, 45.67407051904058], [-60.665468772012424, 45.67397150213047], [-60.665419167797786, 45.67389847972388], [-60.66538194482658, 45.673809625608], [-60.66537011419811, 45.673781363517904], [-60.66533127025402, 45.673727463235515], [-60.6653248910248, 45.67371969993041], [-60.665256720229955, 45.673636828743106], [-60.66520572758308, 45.673593796277885], [-60.66519223261288, 45.673582395065665], [-60.665142364576504, 45.673546280354884], [-60.66512551395109, 45.67353622367875], [-60.66498952376247, 45.673454944851244], [-60.664877365396386, 45.673374864318454], [-60.66486234042257, 45.67336413385747], [-60.66460763813735, 45.67319060550125], [-60.6645832220701, 45.6731729141538], [-60.66455778365409, 45.673154490809345], [-60.664530156120186, 45.67312480740221], [-60.664507408532735, 45.67310034538715], [-60.66446949902906, 45.6730545648434], [-60.664464587968496, 45.67304083683428], [-60.66445684750195, 45.6730192020545], [-60.66444277750912, 45.67297874267096], [-60.66443161935148, 45.67294667779825], [-60.664445570607846, 45.67291996007678], [-60.66445861292527, 45.67288423173398], [-60.664484521768046, 45.67284784845758], [-60.664485896509234, 45.672846283394456], [-60.66456270641202, 45.672758537229086], [-60.66461383549702, 45.67270662992446], [-60.66464179975597, 45.67267823655948], [-60.66466924266563, 45.67264015641834], [-60.66469357842475, 45.67260639622363], [-60.66472565211098, 45.67256347821402], [-60.66474661519257, 45.67253548169688], [-60.664757830042994, 45.672525458887115], [-60.66483727762219, 45.67245452639503], [-60.66489405725926, 45.6724078201036], [-60.664902419246445, 45.6724009433036], [-60.6649418664397, 45.67234774382968], [-60.66495453447028, 45.67232099980194], [-60.66496087954554, 45.67229594467728], [-60.6649683624996, 45.67226637630266], [-60.664969159834165, 45.67220432150739], [-60.66496950139681, 45.67217728939896], [-60.6649775501242, 45.67215603154263], [-60.66499690595631, 45.67210494147185], [-60.66500978783279, 45.672042197690566], [-60.665019281744044, 45.67203125756132], [-60.66504889789757, 45.67199709221005], [-60.6650534233654, 45.67197472718186], [-60.66506342385199, 45.671925381011626], [-60.665115962793315, 45.67183554496263], [-60.66518143978219, 45.671773876639385], [-60.66525891089979, 45.67170165228947], [-60.66532401344089, 45.67164897725742], [-60.66535381259158, 45.6716341677825], [-60.665414485570764, 45.671604021719155], [-60.66544466780377, 45.67158864398696], [-60.66551809667146, 45.671551233808415], [-60.6655591049345, 45.67153486224435], [-60.665608181204526, 45.67151528022332], [-60.66564759913758, 45.67149577975982], [-60.665660616095415, 45.67148934010816], [-60.66578624788897, 45.6714031582615], [-60.665946081005664, 45.67129354363497], [-60.66616435900717, 45.671231406673336], [-60.66624936407671, 45.67119284647344], [-60.66632007888915, 45.67116078092445], [-60.66639767123854, 45.67111646147037], [-60.66643179442124, 45.67109274805464], [-60.666449233565416, 45.67108061102594], [-60.66648063727658, 45.671042944426205], [-60.66655328139136, 45.67095582284918], [-60.666566917503644, 45.670921825588366], [-60.66656760503827, 45.67092011144068], [-60.66658089615285, 45.67084747470162], [-60.666581015858355, 45.67082761187183], [-60.66658110903998, 45.670811474926936], [-60.66655601546181, 45.67076685706607], [-60.6665121774297, 45.67069784138183], [-60.66648129335584, 45.670649216721664], [-60.666444093901944, 45.670586358369604], [-60.666400280297594, 45.67053158277167], [-60.66639284768968, 45.67052229482198], [-60.66632963198661, 45.67046789675606], [-60.66632182154408, 45.670455036670866], [-60.66628037894694, 45.67038678093322], [-60.66625492356222, 45.67035025653701], [-60.66625554950625, 45.67032069193927], [-60.66625625853918, 45.670287276597904], [-60.666256902227865, 45.67022301338375], [-60.66625705865972, 45.6702062836622], [-60.666232700699624, 45.67014367869625], [-60.66621260181307, 45.67011141324509], [-60.66618215246546, 45.6700625363546], [-60.666156692866316, 45.67002117829399], [-60.66613164177183, 45.66998049465351], [-60.66612052313208, 45.6699082591317], [-60.66612148387497, 45.6698542815744], [-60.66614090039901, 45.669801068290695], [-60.66616060672141, 45.66974705983469], [-60.666166970451414, 45.66972585745754], [-60.66617402148111, 45.66970232885939], [-60.66615778817137, 45.66967559703174], [-60.66612475646947, 45.66962121271472], [-60.66608276669279, 45.669556564127234], [-60.666024607509414, 45.66946704819614], [-60.66594186225697, 45.669342042648495], [-60.66591105937174, 45.66929550772247], [-60.665848432807564, 45.6691961162537], [-60.66583640591293, 45.66911486109508], [-60.66583673257402, 45.66908971888465], [-60.665837580570916, 45.66902487477047], [-60.665848195754414, 45.668997143558144], [-60.6658649449171, 45.66895342588508], [-60.666013803688884, 45.66877781623682], [-60.6660472037533, 45.66873842634874]]}, "properties": {"OBJECTID": 194861, "FEAT_CODE": "WARV50", "FEAT_DESC": "River - Single Line", "RIVNAME_1": " ", "RIVNAME_2": " ", "ZVALUE": 9999, "FID": null, "SHAPE_Length": 1616.138089911991}}, {"type": "Feature", "id": 198707, "geometry": {"type": "LineString", "coordinates": [[-60.67443762263796, 45.66553333309258], [-60.67420573107899, 45.66552293929028], [-60.67418007794731, 45.66552178668775], [-60.674166460162205, 45.665521716327916], [-60.67401320518518, 45.66552108781849], [-60.67384524920159, 45.665496342869076], [-60.673821796955515, 45.665492885751874], [-60.6737840583022, 45.66548535714328], [-60.67348949122674, 45.665426708587574], [-60.67338886151292, 45.665415459130465], [-60.67332209448747, 45.66540799595584], [-60.67325324429219, 45.66540433373578], [-60.67312995426076, 45.66539777988651], [-60.67311711469106, 45.66539751823626], [-60.672989158356295, 45.6653877097783], [-60.67285775379418, 45.66538675992858], [-60.67278381869081, 45.66538622516322], [-60.6724886546196, 45.665383809337385], [-60.67216796365746, 45.66540877555559], [-60.67210614626366, 45.66542002672199], [-60.672025676035624, 45.66543467799725], [-60.671845804892655, 45.66546881499117], [-60.6717515554757, 45.665482951092706], [-60.671729556342115, 45.66548624694989], [-60.67151134361421, 45.66554750481674], [-60.671309314713355, 45.66561380886913], [-60.67118857603996, 45.665653435272205], [-60.67113447813413, 45.665678191892226], [-60.67111138102476, 45.66568876507738], [-60.671054994043054, 45.66570154859691], [-60.67091827129034, 45.665732531733795], [-60.670898907948065, 45.665735107105775], [-60.670853726809675, 45.6657411162941], [-60.670660826831835, 45.66574888264377], [-60.67053249701609, 45.665748064849126], [-60.67045803661469, 45.66574130714408], [-60.67041739174434, 45.66573761557876], [-60.670340766898256, 45.665727951307865], [-60.669750609299264, 45.665688005685325], [-60.66971834933801, 45.665687671357], [-60.66966078451803, 45.66568707261007], [-60.66955954478299, 45.66567568131041], [-60.66949467118228, 45.66566838055414], [-60.669289330832115, 45.665666889635], [-60.66928558317492, 45.66566686714382], [-60.66916098845826, 45.66566607004074], [-60.66912250815469, 45.665665284529474], [-60.66899844421699, 45.665691276171195], [-60.66895415425854, 45.665700552174975], [-60.66891757088953, 45.665706331072805], [-60.66890375673322, 45.665708515336185], [-60.66888594831155, 45.665718160922346], [-60.66883809116813, 45.665744087982894], [-60.66874849681621, 45.665815500233336], [-60.668747806291705, 45.6658160532004], [-60.66868250247741, 45.66590473026337], [-60.66860488188765, 45.665949950824704], [-60.66852637656275, 45.66598525212672], [-60.66832137149892, 45.66603778153767], [-60.66821722537375, 45.66607255002435], [-60.66821390197402, 45.666074984444094], [-60.668192069794706, 45.666090938487045], [-60.668166183080366, 45.66609262408981], [-60.6680762171145, 45.666098473666196], [-60.6678834902714, 45.66613324196772], [-60.66780650455627, 45.66613256966179], [-60.66779366486721, 45.66613230741001], [-60.667735717955885, 45.66613193391465], [-60.66766532151784, 45.66613148611389], [-60.66756225819558, 45.66614018211299], [-60.667543646990836, 45.666144113434065], [-60.667523403903076, 45.666148389460375], [-60.66747004046153, 45.66616283515593], [-60.667458484780006, 45.666165965484076], [-60.667407301447746, 45.66619282311096], [-60.6673942623453, 45.66622856088963], [-60.667380263518815, 45.6663182852837], [-60.667371501037884, 45.666357071766356], [-60.667366103159175, 45.66638100326385], [-60.66737722288868, 45.66645323872308], [-60.66738941309501, 45.66656150019622], [-60.66738898857841, 45.66658530826727], [-60.667388466206816, 45.6666154870732], [-60.667374518024204, 45.666642205239484], [-60.66724477616713, 45.666767369414465], [-60.66714053924623, 45.66686605142131], [-60.66706220589064, 45.666928358335454], [-60.66682998281025, 45.667079331351665], [-60.66657040993314, 45.667239655120554], [-60.66633691473527, 45.6673905921305], [-60.6662075948714, 45.66744375545406], [-60.66604070204552, 45.667505151663114], [-60.66576928513258, 45.66761121628937], [-60.66566637950212, 45.667646916906804], [-60.665526073475974, 45.66766200550301], [-60.665511617515, 45.66766355516233], [-60.665408551112996, 45.66767224915326], [-60.66522905605579, 45.66769738236541], [-60.665172146144855, 45.667707532981936], [-60.664984601752366, 45.667740989192154], [-60.66489784801114, 45.667759971455624], [-60.66486799704728, 45.66776650780677], [-60.66478656740566, 45.66779144053947], [-60.664752263371255, 45.66780194525541], [-60.664545578956826, 45.66786342556389], [-60.664235558412145, 45.668032604300876]]}, "properties": {"OBJECTID": 198707, "FEAT_CODE": "WARV50", "FEAT_DESC": "River - Single Line", "RIVNAME_1": " ", "RIVNAME_2": " ", "ZVALUE": 9999, "FID": null, "SHAPE_Length": 924.9263142576036}}, {"type": "Feature", "id": 199501, "geometry": {"type": "LineString", "coordinates": [[-60.68363869016812, 45.66642694046755], [-60.683624261944246, 45.66641663862201], [-60.68357507860115, 45.66638152693964], [-60.68355123983312, 45.66633826140717], [-60.683550009577, 45.66633603119545], [-60.68354258678962, 45.66632800470369], [-60.68352543180205, 45.666309429582604], [-60.683525768125506, 45.66628417050084], [-60.683526004834356, 45.6662644360335], [-60.68352080441542, 45.66625295322328], [-60.68350129496453, 45.66620992852695], [-60.68349145331124, 45.66618927851323], [-60.68347530281096, 45.666155385999], [-60.68345109630496, 45.66611979086641], [-60.68344207025977, 45.666110174662066], [-60.68342527271377, 45.66609227285357], [-60.68338725204571, 45.6660654074794], [-60.68337412959344, 45.66605613120849], [-60.68329807531531, 45.66600147304363], [-60.683288173162296, 45.6659698495221], [-60.68328673269779, 45.66596524777013], [-60.683286921899274, 45.66592924746751], [-60.68330323790318, 45.66590686889454], [-60.68331279027977, 45.665893777175654], [-60.683364708708964, 45.66584891625947], [-60.68337674082946, 45.66583701797721], [-60.683391476076636, 45.66582245622312], [-60.68339172960235, 45.665821912303564], [-60.683404133798646, 45.66579570992075], [-60.683395082059334, 45.66578205172589], [-60.68339204919594, 45.66577746267314], [-60.6833409063765, 45.6657413210173], [-60.68328425769555, 45.66572100846229], [-60.68326373863031, 45.665713652343705], [-60.68318235573394, 45.665671784467406], [-60.683174486452906, 45.665667736350166], [-60.683156452996315, 45.665648369258], [-60.683124086280756, 45.665613607593244], [-60.68309863938837, 45.66558412592071], [-60.6830616021298, 45.66554122254179], [-60.6830231543132, 45.665477444128655], [-60.68301710002143, 45.66546830223894], [-60.6830110699004, 45.66545919684352], [-60.68298595251426, 45.665414582088594], [-60.682975014996515, 45.66530634771036], [-60.682974190172125, 45.66530331562583], [-60.682962761626726, 45.665261093882265], [-60.682937442129976, 45.66525247915934], [-60.68291178853227, 45.66525195858372], [-60.682886134935266, 45.665251438002336], [-60.682847077222014, 45.665233543434766], [-60.68284744846423, 45.66522454993209], [-60.68283752713049, 45.66520148596386], [-60.68283573540427, 45.66519730912712], [-60.68283607925414, 45.665174984533614], [-60.68283725372136, 45.66509832853755], [-60.68282855455331, 45.66507333614489], [-60.68282462925842, 45.665062068198985], [-60.682820187483706, 45.665055848354356], [-60.682799140940176, 45.665026446909216], [-60.68277422995069, 45.665007939299414], [-60.68259454420015, 45.66500699295806], [-60.682562586062026, 45.66499904450967], [-60.68255515259353, 45.664997192446215], [-60.682536039084546, 45.66498347398633], [-60.682517749129055, 45.6649703303024], [-60.68251812042061, 45.66496133680141], [-60.68250644127676, 45.66487108939184], [-60.68249381707433, 45.66483482902049], [-60.68241796746515, 45.66474417926363], [-60.68241637692615, 45.66474010551489], [-60.682393593469165, 45.66468157738716], [-60.68239371260727, 45.664663766752774], [-60.68239379603336, 45.66464557734993], [-60.68240073456636, 45.664622414496904], [-60.6824071965484, 45.66460084415547], [-60.68240114244719, 45.664591702235576], [-60.682395112515955, 45.66458259681009], [-60.682382117135596, 45.66455532992819], [-60.682331887414115, 45.66452820738264], [-60.68229287996678, 45.66450942254038], [-60.68222906859492, 45.66450001734123], [-60.682159822731016, 45.66449942181864], [-60.682152058912514, 45.66449935422929], [-60.682126752712975, 45.664490739594974], [-60.68210130222417, 45.6644542188098], [-60.682095699722915, 45.66443351970761], [-60.68208904972154, 45.66440896489898], [-60.682111022971434, 45.66435155228071], [-60.68211639104677, 45.664337511619465], [-60.68212132935016, 45.66433139214794], [-60.68218132498625, 45.6642569202912], [-60.68218703987762, 45.664245983023484], [-60.682195278379595, 45.66423020041749], [-60.68218863173001, 45.66422110946494], [-60.68218191183656, 45.664211927014826], [-60.68208403641534, 45.66413491654596], [-60.68205509200088, 45.664112132414274], [-60.68200432253225, 45.664067005690285], [-60.681954501934385, 45.66402999013961], [-60.68190263168557, 45.66401183513604], [-60.681875479746076, 45.664009375688074], [-60.68180030392945, 45.66400255685438], [-60.68171122408646, 45.66398364631419], [-60.68169430511445, 45.663963428511984], [-60.6815595170443, 45.66380234552194]]}, "properties": {"OBJECTID": 199501, "FEAT_CODE": "WARV50", "FEAT_DESC": "River - Single Line", "RIVNAME_1": " ", "RIVNAME_2": " ", "ZVALUE": 9999, "FID": null, "SHAPE_Length": 386.00684131547627}}, {"type": "Feature", "id": 199773, "geometry": {"type": "LineString", "coordinates": [[-60.68501123784613, 45.66829008668141], [-60.68493596446277, 45.66815444517454], [-60.68489976585156, 45.668097049750905], [-60.68487329215467, 45.668055063236444], [-60.68481043462394, 45.66794679348766], [-60.68474743304529, 45.66783828675465], [-60.68462137365952, 45.66765751019675], [-60.68461418157226, 45.66763454673999], [-60.68461003063197, 45.66762126705436], [-60.684610973468914, 45.667567288976066], [-60.684624203244894, 45.66749554897988], [-60.68463760276251, 45.66745081552291], [-60.6846772661237, 45.667360709351954], [-60.68467776086085, 45.66733502143372], [-60.68467952335277, 45.66724374168838], [-60.68465477486113, 45.66719013376115], [-60.6846491340082, 45.66718371865631], [-60.68459100393252, 45.66711773247627], [-60.68451568866561, 45.66704509705335], [-60.68443871986141, 45.66698142908116], [-60.684248099953834, 45.66687226020829], [-60.68419760092452, 45.666841325597034], [-60.684070283034195, 45.666763332688745], [-60.684061456906036, 45.666759445247024], [-60.68400597777848, 45.66673502530141], [-60.683919743322704, 45.66668903609278], [-60.6839042302261, 45.66668075551263], [-60.683871347837346, 45.66665473261167], [-60.6837898574764, 45.66659022539487], [-60.68363869016812, 45.66642694046755]]}, "properties": {"OBJECTID": 199773, "FEAT_CODE": "WARV50", "FEAT_DESC": "River - Single Line", "RIVNAME_1": " ", "RIVNAME_2": " ", "ZVALUE": 22.5, "FID": null, "SHAPE_Length": 246.87484637093988}}, {"type": "Feature", "id": 199774, "geometry": {"type": "LineString", "coordinates": [[-60.68363869016812, 45.66642694046755], [-60.683412209407514, 45.66658890994989], [-60.68332782634965, 45.66664925106986], [-60.68319816481042, 45.666711436749814], [-60.68314662983827, 45.66674729533053], [-60.68304260973068, 45.66680999210733], [-60.68295220900588, 45.66685406298552], [-60.68275869887865, 45.66696984982394], [-60.68267481997153, 45.6669999122103], [-60.68248767312182, 45.667066961114436], [-60.682254983805876, 45.66713694672767], [-60.68222600176006, 45.66714488241581], [-60.68212643449826, 45.66717214166072], [-60.68195828909331, 45.66723353571949], [-60.68181654070606, 45.66727746338255], [-60.68172610114424, 45.66732243260238], [-60.681679103279784, 45.667338544356525], [-60.68164926877878, 45.66734877585601], [-60.68159764848993, 45.66737702612921], [-60.68151921986881, 45.66741994379171], [-60.68146772033438, 45.66745490222787], [-60.68140426990472, 45.66750971727688], [-60.68136387809757, 45.66754460418232], [-60.68131158533521, 45.667598448610406], [-60.68129744009828, 45.66766116860172], [-60.68130969454171, 45.667768529744755]]}, "properties": {"OBJECTID": 199774, "FEAT_CODE": "WARV50", "FEAT_DESC": "River - Single Line", "RIVNAME_1": " ", "RIVNAME_2": " ", "ZVALUE": 9999, "FID": null, "SHAPE_Length": 245.5057328448292}}, {"type": "Feature", "id": 272571, "geometry": {"type": "LineString", "coordinates": [[-60.671939579410484, 45.671255691389504], [-60.67193995247761, 45.6712466979659], [-60.67193771625521, 45.67124025263989], [-60.67192733387845, 45.67121043656848], [-60.67190222300835, 45.671165819537826], [-60.67190003775917, 45.67115381261372], [-60.67189073649782, 45.67110257812763], [-60.67189321748601, 45.67094961119832], [-60.67186872662953, 45.67085910154465], [-60.671856108153975, 45.670822840139685], [-60.67183153414166, 45.67079623609814], [-60.671755111706865, 45.670750572795576], [-60.67162734031931, 45.67070476247668], [-60.67160729404961, 45.67070116733763], [-60.67157636436099, 45.67069562206417], [-60.671512560483784, 45.67068622003685], [-60.67144623653569, 45.67067969191697], [-60.671408990036305, 45.67067600700676], [-60.67134628491202, 45.67067570933373], [-60.67129346401416, 45.67067545119068], [-60.671235460218455, 45.67068654563093], [-60.67120416761636, 45.67069253217641], [-60.671100760435095, 45.6707093252887], [-60.6710233577914, 45.67071854779029], [-60.67100049779645, 45.67071840555574], [-60.670959167948126, 45.67071813861176], [-60.670845172126796, 45.67068070932718], [-60.67078419828907, 45.670671796669744], [-60.670716281914, 45.670661878257086], [-60.67069545137742, 45.67065583668075], [-60.670652851503554, 45.670643482336224], [-60.670610623764304, 45.67062123443336], [-60.67060133953171, 45.670616328491064], [-60.67056360235501, 45.6705975565677], [-60.670386666082, 45.67049715870605], [-60.67013085869547, 45.67035200031944], [-60.670002878923896, 45.67034218805], [-60.66994761479165, 45.67033522766523], [-60.66992624790376, 45.670332523386776], [-60.66979849185691, 45.67028671132723], [-60.66977066048748, 45.670277673384824], [-60.66968320211116, 45.67024925447173], [-60.66958034238631, 45.67022195232417], [-60.669414626520485, 45.67019336715338], [-60.66931761084812, 45.67016261064078], [-60.66929932554372, 45.670156809782895], [-60.669282865265615, 45.670150344094054], [-60.66915907766183, 45.670101740990944], [-60.669070216965316, 45.6700468209459], [-60.668943196530364, 45.66998302087781], [-60.6688739753677, 45.66992726847644], [-60.6688537503674, 45.669910986749414], [-60.668782134037194, 45.669865302552566], [-60.66862486805565, 45.669764997502085], [-60.66854459018557, 45.66972323177474], [-60.66839614923759, 45.669646005226596], [-60.66829976317147, 45.669589004688575], [-60.66824327558877, 45.66955558245967], [-60.668192881210146, 45.66951950331643], [-60.6681410407402, 45.6694823865029], [-60.66804227157988, 45.66939067409985], [-60.66792594936206, 45.669282662279095], [-60.66778667697735, 45.6691736145143], [-60.66767233877817, 45.66908306895525], [-60.6675453221326, 45.669019267395456], [-60.667508675286726, 45.66900952676217], [-60.66744246575551, 45.668991963380435], [-60.667437830926914, 45.66899104060419], [-60.66739152947471, 45.668981921800516], [-60.667306951576656, 45.66898188615411], [-60.66730166215779, 45.66898188610696], [-60.667244439439045, 45.669004173760236], [-60.66712157732032, 45.66905201541463], [-60.66708219922648, 45.669072156279825], [-60.66706910839257, 45.66907884661491], [-60.66704351050007, 45.6690837422324], [-60.666979813400275, 45.66909592432506], [-60.666928466265, 45.6690957662797], [-60.66690640919777, 45.669088060759684], [-60.666876582956114, 45.66907762219153], [-60.666844263883895, 45.66906970697412], [-60.666800328511854, 45.669058953084324], [-60.66663429545756, 45.66897635118127], [-60.66637951753112, 45.66886673245228], [-60.666257256293, 45.66881952553814], [-60.6660472037533, 45.66873842634874]]}, "properties": {"OBJECTID": 272571, "FEAT_CODE": "WARV50", "FEAT_DESC": "River - Single Line", "RIVNAME_1": "Murchison Brook", "RIVNAME_2": " ", "ZVALUE": 9999, "FID": null, "SHAPE_Length": 589.8392538877621}}]}