{"type": "FeatureCollection", "features": [{"type": "Feature", "id": 2430, "geometry": {"type": "LineString", "coordinates": [[-60.238798769609716, 45.720667222659664], [-60.23878721053751, 45.72068012960926], [-60.238748113275435, 45.72074308235328], [-60.23871972452167, 45.72082341406672], [-60.23867696819518, 45.72103930493969], [-60.23866882192655, 45.72107004447138], [-60.23864854629856, 45.72114662994484], [-60.23863202685516, 45.7212992480271], [-60.238618702261164, 45.72133492988626], [-60.23858788100548, 45.72156911147124]]}, "properties": {"OBJECTID": 2430, "FEAT_CODE": "WACO20", "FEAT_DESC": "Coast - Water to the right line", "RIVNAME_1": " ", "RIVNAME_2": " ", "ZVALUE": 0.6, "FID": null, "SHAPE_Length": 102.14583158529736}}, {"type": "Feature", "id": 5250, "geometry": {"type": "LineString", "coordinates": [[-60.230657845318305, 45.716603769679196], [-60.23060243765707, 45.716613145838984], [-60.23055547866106, 45.716621088736105], [-60.2303743798225, 45.71664549870303], [-60.2301041920625, 45.71667855713274], [-60.2298725070542, 45.71671253118653], [-60.229783069263895, 45.7167022510234], [-60.22975599658179, 45.71667962253508], [-60.22970657776763, 45.71663830567876], [-60.22965651857409, 45.71661097888769], [-60.229579025357744, 45.716618999510445], [-60.229511391936235, 45.71664382128149], [-60.2294364038907, 45.71667133585983], [-60.22935883392836, 45.71670636660793], [-60.22928038783634, 45.71675936912939], [-60.22922808050837, 45.71680399595168], [-60.229219176368154, 45.71681489613523], [-60.229162429997785, 45.716884321081736], [-60.22915560944819, 45.71689310257912], [-60.22914870655574, 45.71690199009006], [-60.22909683039721, 45.71693763527231], [-60.229038504950466, 45.71696883939596], [-60.22903083666084, 45.71697293776799], [-60.228979562302555, 45.71699537496831], [-60.228849590097134, 45.71705224810336], [-60.22881039440858, 45.71707260214522], [-60.22862934497313, 45.71716661562174], [-60.22860820024987, 45.71717792969103], [-60.22856335067811, 45.71720191783278], [-60.22853807623043, 45.7172193063517], [-60.22849814397355, 45.71727324330557], [-60.2284963266904, 45.71733620650202], [-60.228507789510275, 45.71736631424479], [-60.22852019615256, 45.71739890218432], [-60.22859392870515, 45.7175708118805], [-60.228669594296775, 45.717625736870176], [-60.228735669041804, 45.71766699943623], [-60.228758092963, 45.717681000329506], [-60.228807134782244, 45.717702668161], [-60.22892408081446, 45.71775433752353], [-60.229230401502676, 45.71784818247356], [-60.22925152799322, 45.71785854236141], [-60.229305673119775, 45.71788511338994], [-60.22940700154067, 45.71796678174227], [-60.22954594404751, 45.718067364900236], [-60.22955666298776, 45.718079011342915], [-60.22959594161962, 45.718121684367794], [-60.2296300340542, 45.71817127034238], [-60.22964628946837, 45.71819490550351], [-60.22966410000316, 45.718238281683995], [-60.22969445750412, 45.71831220583635], [-60.22971285339193, 45.7183741473632], [-60.229718692166784, 45.7183937943084], [-60.22967880459873, 45.71844683264706], [-60.22962603803293, 45.71850045854351], [-60.22958659493317, 45.718544506592], [-60.22961221342165, 45.71857213140813], [-60.229617510528314, 45.71857415017192], [-60.229637437742596, 45.71858174456693], [-60.22983008829246, 45.71858371909834], [-60.229959461439485, 45.71854005285093], [-60.229997561683085, 45.71856083360801], [-60.23000952291192, 45.71856737055392], [-60.230028489942605, 45.71860425798032], [-60.230047024354434, 45.71864027980755], [-60.23008235949976, 45.71875725959958], [-60.23009375990874, 45.718838545590685]]}, "properties": {"OBJECTID": 5250, "FEAT_CODE": "WACO20", "FEAT_DESC": "Coast - Water to the right line", "RIVNAME_1": " ", "RIVNAME_2": " ", "ZVALUE": 0.6, "FID": null, "SHAPE_Length": 457.66898970773667}}, {"type": "Feature", "id": 5251, "geometry": {"type": "LineString", "coordinates": [[-60.24061913624475, 45.72082950979176], [-60.24059574412223, 45.72082646910742], [-60.24057692845206, 45.72082156780725], [-60.2405576817066, 45.720816548072], [-60.24049540791671, 45.720792828277744], [-60.24034072767806, 45.72073388595624], [-60.24026411538855, 45.72072394206173], [-60.24021982289609, 45.72071110699148], [-60.240027195918906, 45.720655297384376], [-60.23994911157773, 45.72062046582228], [-60.23991797629058, 45.72060297115119], [-60.23988701437802, 45.72057908992565], [-60.23988181459889, 45.72057508476377], [-60.2398707900986, 45.72054872421403], [-60.239867494604994, 45.72051129022778], [-60.23986517427824, 45.72049865967795], [-60.23986060087872, 45.72047385925707], [-60.239853149623784, 45.72046156370914], [-60.23983707037757, 45.720435035941264], [-60.23977776023655, 45.72041559989195], [-60.23973333352536, 45.72041227548487], [-60.239657519060415, 45.72039919110683], [-60.239626937281336, 45.72039758757157], [-60.23961945271747, 45.7203971815754], [-60.23959818157777, 45.72039673926351], [-60.239533829534935, 45.72039539027914], [-60.23949814418016, 45.720395913564985], [-60.23945294231703, 45.720396584768665], [-60.23941946469068, 45.720403156106144], [-60.239388510278935, 45.72040911337019], [-60.23936588455116, 45.7204134718174], [-60.239307666525846, 45.72042376536114], [-60.23924974780901, 45.72044675757826], [-60.2392167745145, 45.72045613137427], [-60.23909958832224, 45.720495062258216], [-60.23902248795339, 45.72052110087982], [-60.23892678146338, 45.720569273064314], [-60.238918387951465, 45.72057348957514], [-60.238902590398354, 45.72058426879378], [-60.23882664857512, 45.720636069273105], [-60.238798769609716, 45.720667222659664]]}, "properties": {"OBJECTID": 5251, "FEAT_CODE": "WACO20", "FEAT_DESC": "Coast - Water to the right line", "RIVNAME_1": " ", "RIVNAME_2": " ", "ZVALUE": 0.6, "FID": null, "SHAPE_Length": 171.95406399899758}}, {"type": "Feature", "id": 5253, "geometry": {"type": "LineString", "coordinates": [[-60.23017805495207, 45.71910882185842], [-60.23026744695273, 45.71914609471882], [-60.23036883475403, 45.71917465748936], [-60.23039022888912, 45.719178578910366], [-60.23041977317614, 45.71918399419956], [-60.230534929195876, 45.719193988648115], [-60.230638095138, 45.71918659014567], [-60.23083119232814, 45.719179572774934], [-60.23106402736529, 45.71919037784741], [-60.23107478362206, 45.71919088175989], [-60.23117794951008, 45.719183482767626], [-60.23148758546084, 45.71913248524955], [-60.23154531801282, 45.71912603637109], [-60.231705956818026, 45.719108077222195], [-60.231886174640806, 45.71910164586146], [-60.23205491273258, 45.71910336986039], [-60.232078827236386, 45.719103616639664], [-60.2320940501808, 45.71910292360118], [-60.23224625482855, 45.71909597450128], [-60.232439795818095, 45.719079964123544], [-60.232800373449074, 45.719012195882634], [-60.232930140692716, 45.718986537904335], [-60.232956650767306, 45.7189795025603], [-60.23312284613148, 45.71893540205141], [-60.23325221771171, 45.71889173203308], [-60.2333559199397, 45.71884743979599], [-60.2333914111205, 45.718828974651416], [-60.23347330020516, 45.71878637694666], [-60.23351318032918, 45.71875944012859], [-60.23366920526683, 45.7186444071802], [-60.23378800948448, 45.71852847215179], [-60.23393253053299, 45.71838615696914], [-60.233941659524355, 45.71837381270055], [-60.233958691767874, 45.71835078665888], [-60.23401993349763, 45.71832243200394], [-60.23403627960487, 45.71831486211894], [-60.234114218588736, 45.71829784822309], [-60.234204548094034, 45.718290135498904], [-60.234243095861196, 45.71829016927378], [-60.23450794178771, 45.7183016528095], [-60.2345251877215, 45.718302403613144], [-60.23474261919812, 45.71832297221612], [-60.23490206322458, 45.71832003836928], [-60.23503844621866, 45.71831753589218], [-60.23523318713379, 45.71831983995372], [-60.23525675259893, 45.71832012261899], [-60.23528472461732, 45.71831782068233], [-60.23555221505182, 45.71829577394394], [-60.235899855004796, 45.71828168887082], [-60.23593921622612, 45.71827799733376], [-60.236067679551944, 45.718265940794126], [-60.23702089966043, 45.71811440339922], [-60.237214483029, 45.71807138281689], [-60.23727869957997, 45.71807203675507], [-60.23744696612708, 45.71804730530348], [-60.2376392189613, 45.718031254930445], [-60.23768628379512, 45.718026381032765], [-60.237716712800655, 45.71802323784496], [-60.23772254799211, 45.71802399110343], [-60.23779332088498, 45.718033183358244], [-60.23802491503215, 45.718053188265046], [-60.238093076180895, 45.718054108196654], [-60.23819185150249, 45.71805542666204], [-60.23834639676952, 45.71804836402513], [-60.2384022152943, 45.71804108228345], [-60.23847443286726, 45.71803165890254], [-60.23849605281087, 45.71802448597985], [-60.23855281343568, 45.71800565161275], [-60.23858036062372, 45.71799267235661], [-60.23859097683433, 45.717987672535884], [-60.238786807603034, 45.717872695307285], [-60.238904669192586, 45.71777563433849], [-60.23893109313285, 45.71774555285367], [-60.23898362845473, 45.71768573334689], [-60.23910148930395, 45.71758867215508], [-60.23912222714215, 45.71757097356418], [-60.239153815849846, 45.717544032278916], [-60.23921428671721, 45.717516646307], [-60.23927077568026, 45.71749105423044], [-60.23950334741486, 45.71741295941138], [-60.239593277095814, 45.7173872396664], [-60.23965339716741, 45.7173760918615], [-60.239825403360655, 45.71734424648675], [-60.23987024784508, 45.71733330530889], [-60.239929450965356, 45.71731885880974], [-60.240032702284836, 45.71728355064005], [-60.240239603158734, 45.71720484270839], [-60.24043362400771, 45.71715282619321], [-60.24053722814577, 45.71713642828486], [-60.2405990512642, 45.717137130514224], [-60.240678493626035, 45.717138042542516], [-60.24082031056661, 45.7171550707374], [-60.24092247686827, 45.71716734205378], [-60.24115318391976, 45.7171792182326], [-60.24130688588426, 45.7171631301627], [-60.24142336837012, 45.71714614254219], [-60.241526618487455, 45.717110832990954], [-60.24161787531409, 45.71705813158727], [-60.24169628488956, 45.717005119708396], [-60.241758826056596, 45.71693669264671], [-60.24176148764301, 45.71693378660771], [-60.24178941434869, 45.716862443981654], [-60.2418056699242, 45.71682510434637], [-60.241816941711896, 45.71679921064088], [-60.24182144882077, 45.71678987743823], [-60.24182982042634, 45.71677251866031], [-60.24189453561433, 45.71673717787472], [-60.24190969327415, 45.716732314465894], [-60.24192063378373, 45.716728807341745], [-60.24194721340717, 45.71672605608402], [-60.241998125777876, 45.71672077830146], [-60.24212920842535, 45.71671649210635], [-60.24220404811274, 45.71671405150875], [-60.242919999374514, 45.71672202810759], [-60.24344976133733, 45.71672793498313], [-60.243567616985814, 45.71673314789666], [-60.24371901421385, 45.71673983657411], [-60.24421990226616, 45.71674472771926], [-60.2442905048107, 45.716765208138945], [-60.24430263986303, 45.71676771531389], [-60.244367297759304, 45.716781049381765]]}, "properties": {"OBJECTID": 5253, "FEAT_CODE": "WACO20", "FEAT_DESC": "Coast - Water to the right line", "RIVNAME_1": " ", "RIVNAME_2": " ", "ZVALUE": 0.6, "FID": null, "SHAPE_Length": 1204.4031607202035}}, {"type": "Feature", "id": 5994, "geometry": {"type": "LineString", "coordinates": [[-60.23858788100548, 45.72156911147124], [-60.238574029288294, 45.72216284489554], [-60.23855699998447, 45.72244047501576], [-60.238554783862995, 45.722477082633915], [-60.23855422152093, 45.722486403106814]]}, "properties": {"OBJECTID": 5994, "FEAT_CODE": "WACO20", "FEAT_DESC": "Coast - Water to the right line", "RIVNAME_1": " ", "RIVNAME_2": " ", "ZVALUE": 0.6, "FID": null, "SHAPE_Length": 102.01215893706141}}, {"type": "Feature", "id": 5995, "geometry": {"type": "LineString", "coordinates": [[-60.23855422152093, 45.722486403106814], [-60.23855268546844, 45.72255013829696], [-60.23855053675641, 45.72263933160065], [-60.238544891529855, 45.72270326442884], [-60.238533070802234, 45.72283693192557], [-60.238522379599814, 45.72334073133504], [-60.23850679172021, 45.72344836671074], [-60.23850495573062, 45.72345484805104], [-60.23847875373862, 45.723547608996036], [-60.238382059225344, 45.723867723090336], [-60.23834054815474, 45.72400510984601], [-60.23830017509876, 45.724094134550576], [-60.23826058118087, 45.72416865941904], [-60.238219428906525, 45.724246116915836], [-60.23815333936053, 45.72433541955002], [-60.23815145453165, 45.724337417187215], [-60.23808686512631, 45.72440671977062], [-60.23791705248247, 45.72454032727759], [-60.237825336377846, 45.724602015605704], [-60.23768351549792, 45.724663391637186], [-60.237591845680235, 45.72469807779435], [-60.23750185846369, 45.724724703661956], [-60.23725779514745, 45.724748501059906], [-60.23710190069957, 45.724782532687236], [-60.23703437837096, 45.72480913479439], [-60.237011469589184, 45.724818148459306], [-60.23689210327931, 45.724892191340686], [-60.236855037038566, 45.72491517396483], [-60.236820184436795, 45.724932881542806], [-60.23669949113669, 45.72499421864808], [-60.236517832007834, 45.72505552905381], [-60.23651007822163, 45.725058743754275], [-60.23634989285477, 45.725125272230784], [-60.23623794550272, 45.725166136190204], [-60.236181068996984, 45.72518689281169], [-60.23612829790509, 45.725199197813396], [-60.235922334623794, 45.725247245416284], [-60.235793451463174, 45.72528102012992], [-60.23565067144016, 45.725329201895484], [-60.23561179046439, 45.725342329046384], [-60.23557587269095, 45.725353223671895], [-60.235353464512635, 45.72542067431511], [-60.23523651490601, 45.72547276645752], [-60.2349125350389, 45.725631430141505], [-60.23473042806529, 45.72570172788485], [-60.234613922137804, 45.72574481109908], [-60.23451689450128, 45.72577783482477], [-60.23445837473884, 45.72579774968858], [-60.23441542382388, 45.72580375703368], [-60.2343432003672, 45.72581386178171], [-60.2342355377355, 45.725812927762036], [-60.234227573530525, 45.72581285183231], [-60.234059787179255, 45.72580159503576], [-60.23405685742253, 45.72580158706139], [-60.23396985796769, 45.72580121641998], [-60.233895179611366, 45.72580586078533], [-60.23385511469843, 45.72580833743159], [-60.2338132008221, 45.725822488609126], [-60.23375056015317, 45.725843608410194], [-60.23364688941088, 45.72588700163886], [-60.23362572064872, 45.725897974006465], [-60.23359545153196, 45.72591365841821], [-60.23345499208585, 45.726003244413086], [-60.23337384752855, 45.72605500516819], [-60.23332112574387, 45.72608163070955], [-60.23310045771339, 45.726177994442914], [-60.233080897103015, 45.72618476619799], [-60.23304945067408, 45.72619566038414], [-60.23295912108236, 45.72620337219779], [-60.23290832215615, 45.726187694291774], [-60.23287051111846, 45.726176021590845], [-60.23285277263368, 45.72617374642825], [-60.23279260936485, 45.726166041435015], [-60.23269071477996, 45.72617346371156], [-60.23266210358761, 45.72616833266888], [-60.232638486002216, 45.72616409675431], [-60.23252420379218, 45.7261361235729], [-60.232421518737944, 45.726107531314085], [-60.23234495054685, 45.72607057107888], [-60.23229578281926, 45.72602527403851], [-60.23228145857792, 45.726010345096704], [-60.23227012814492, 45.7259985490849], [-60.23224647647265, 45.72595495974333], [-60.232245380902185, 45.72595294395419], [-60.2322459320532, 45.72593139083938], [-60.232246763221426, 45.72589897126437], [-60.232235812015674, 45.72586676109719], [-60.232234420720324, 45.72586266790063], [-60.23222247319995, 45.72584437617891], [-60.23217152843154, 45.72583504013627], [-60.232145856102186, 45.72583441772404], [-60.232106858831386, 45.725843373381736], [-60.2320935783192, 45.72585205242969], [-60.23209130716053, 45.725924005635726], [-60.23206554091933, 45.725951284133174], [-60.23204688130843, 45.72596348717734], [-60.23203897938136, 45.72596865120631], [-60.231992635290815, 45.72599337852887], [-60.23192282182116, 45.72603063328766], [-60.23184396975098, 45.726065625608285], [-60.23180751977561, 45.726073742825015], [-60.231767315683186, 45.72608266910404], [-60.231729769158356, 45.726075790987956], [-60.23171637078527, 45.726073332855286], [-60.23169599274052, 45.72606336063101], [-60.23160218336874, 45.72601745784245], [-60.23152522112452, 45.72596248543226], [-60.231412817258516, 45.72584454634535], [-60.23133669458376, 45.72579859520056], [-60.23124725980607, 45.72576222229136], [-60.231196791396215, 45.72574299622801], [-60.23108162181109, 45.72573300214383], [-60.23107663783673, 45.72573295327104], [-60.23095317161916, 45.725731686856335], [-60.23082427689201, 45.7257393616756], [-60.23075302727997, 45.72573261983332], [-60.23070915185517, 45.72572846819215], [-60.23065499744277, 45.725719593676224], [-60.2305931433828, 45.72570945223094]]}, "properties": {"OBJECTID": 5995, "FEAT_CODE": "WACO20", "FEAT_DESC": "Coast - Water to the right line", "RIVNAME_1": " ", "RIVNAME_2": " ", "ZVALUE": 0.6, "FID": null, "SHAPE_Length": 912.6045968810879}}, {"type": "Feature", "id": 12378, "geometry": {"type": "LineString", "coordinates": [[-60.23009375990874, 45.718838545590685], [-60.230052932978666, 45.71893656647879], [-60.23005243772363, 45.71897256763382], [-60.23008358296014, 45.71901862555742], [-60.23008955796948, 45.71902746553506], [-60.23008997689197, 45.71902834880043], [-60.23010234233123, 45.719054778846186], [-60.2301254773634, 45.71907130801112], [-60.23017805495207, 45.71910882185842]]}, "properties": {"OBJECTID": 12378, "FEAT_CODE": "WACO20", "FEAT_DESC": "Coast - Water to the right line", "RIVNAME_1": " ", "RIVNAME_2": " ", "ZVALUE": 0.6, "FID": null, "SHAPE_Length": 33.7182041018938}}, {"type": "Feature", "id": 12410, "geometry": {"type": "LineString", "coordinates": [[-60.24948490347089, 45.7133567898246], [-60.249417166524026, 45.713379271635105], [-60.249406534235696, 45.713382804907226], [-60.24940169379386, 45.71338613568465], [-60.24938126782305, 45.71340019824062], [-60.24930193358248, 45.71349820736746], [-60.24928553282626, 45.71351219587123], [-60.24924963211415, 45.71354284351589], [-60.24919657142613, 45.71357886534798], [-60.24914462753337, 45.71361412197331], [-60.24906665826947, 45.71365814855062], [-60.24899163388586, 45.713679617409234], [-60.248976738217046, 45.713683885003285], [-60.24896158133453, 45.713687192190015], [-60.24889880976091, 45.71370090931259], [-60.2486676319832, 45.713725041627264], [-60.24858924903775, 45.71375105581733], [-60.24856395089001, 45.713769348308894], [-60.24852496741153, 45.71380441294926], [-60.24849271845963, 45.71383996392598], [-60.248484214838975, 45.71384933608822], [-60.248470456486984, 45.713894018717724], [-60.24847009070543, 45.7139116699527], [-60.248468608292, 45.71398397562487], [-60.24845480907533, 45.714055651401225], [-60.24843067871741, 45.71410300937998], [-60.24841357343043, 45.71413656705105], [-60.248374504140536, 45.71419953280985], [-60.248269099797376, 45.71427890176229], [-60.2482048044115, 45.71433225837926], [-60.24812639181484, 45.71438527466988], [-60.248064931246404, 45.714406025747266], [-60.24802185447884, 45.71442055917217], [-60.247854015766, 45.71446331863101], [-60.24781256715259, 45.714470339350264], [-60.24775165764892, 45.71448065333057], [-60.247692803780915, 45.714491493891956], [-60.247660894002905, 45.71449736736256], [-60.247647796083285, 45.7144972046051], [-60.24750680084006, 45.71449545247376], [-60.247379258601114, 45.71447617546531], [-60.24713488541142, 45.714454981290906], [-60.24690617936141, 45.71446691021382], [-60.24683988873921, 45.71447037015878], [-60.24679995421766, 45.71446984814391], [-60.24659591595745, 45.71446717757381], [-60.24649359926611, 45.714457518009354], [-60.24643925700462, 45.71444583811194], [-60.2463143230879, 45.714418989936384], [-60.2460712746586, 45.714344719268254], [-60.24599467030096, 45.714334770397876], [-60.245988081761126, 45.71433471047139], [-60.24587906595242, 45.714333781781605], [-60.24576392925666, 45.71432380328511], [-60.24569109299635, 45.714317446524014], [-60.245635990300556, 45.71431261569446], [-60.24552044197321, 45.71428461592881], [-60.24543910357883, 45.714252310880795], [-60.24538055167673, 45.71422904357253], [-60.245214950627144, 45.71417374174418], [-60.2450361184114, 45.714126221324705], [-60.24489578734259, 45.714079629779405], [-60.24474297779102, 45.71405163909755], [-60.24461862097219, 45.71404627048244], [-60.24445962052424, 45.71403939947158], [-60.244395850512795, 45.714029759305475], [-60.244343344851096, 45.71399616918691], [-60.24429494963121, 45.713965216558044], [-60.24421837662322, 45.71392826411106], [-60.24418029958522, 45.71391924402293], [-60.244132453122134, 45.71391005109862], [-60.24407845848081, 45.71389968361691], [-60.24388498132225, 45.713888712144374], [-60.24383593339741, 45.713892973657124], [-60.24379594327472, 45.71389646371359], [-60.24375695608379, 45.713905423602796], [-60.24342032101676, 45.71400980879812], [-60.243343231590124, 45.71403585061648], [-60.24327769276656, 45.71406216229713], [-60.24326925893928, 45.71406487498233], [-60.24325158277083, 45.71407054185761], [-60.24311076719788, 45.714059940597664], [-60.24302124214534, 45.71407758095226], [-60.24280072616962, 45.71411996094086], [-60.24268765767322, 45.714162226352045], [-60.24254284712361, 45.71421634443532], [-60.242400672474766, 45.71425971574829], [-60.2422965874026, 45.714312107916456], [-60.24228032189049, 45.71433975326673], [-60.24226994656061, 45.71435736971639], [-60.24225622783687, 45.714375040417224], [-60.24224844931461, 45.714408291403096], [-60.24224157976068, 45.71443769389591], [-60.2422287018294, 45.7144643859495], [-60.242175508386566, 45.714527008399536], [-60.24213660898763, 45.71455374692065], [-60.242123642513064, 45.71456265975785], [-60.242098706624795, 45.71457093240179], [-60.24204526882438, 45.7145886606727], [-60.24202929130051, 45.71459165907952], [-60.24195578643892, 45.714605410117855], [-60.24185170094709, 45.71463168983501], [-60.241709511457536, 45.71467506892783], [-60.24163153507076, 45.714719090249666], [-60.241565949638066, 45.71477241195716], [-60.241541372776204, 45.71482584239827], [-60.24151271018279, 45.71488813915283], [-60.24148567082795, 45.714915380046065], [-60.241420969943036, 45.71495072995276], [-60.241263076117406, 45.715016321639396], [-60.24125306745349, 45.715020481292086], [-60.24100585944616, 45.7151351212607], [-60.24081091562616, 45.71523212167394], [-60.240552244714, 45.71531858037252], [-60.240512449520786, 45.7153342614045], [-60.24046183123581, 45.71535419933316], [-60.240422001127094, 45.7153802396924], [-60.24016186541932, 45.715548571606135], [-60.23997300961966, 45.71568598843335], [-60.23979670669528, 45.715814275351924], [-60.23970496347961, 45.71587685569396], [-60.23965228539951, 45.71590259413873], [-60.239367864548, 45.71601633077529], [-60.23935462246769, 45.71602534464466], [-60.23930271803951, 45.716060669746014], [-60.23927705092284, 45.716084279871396], [-60.2392636709961, 45.71609661178207], [-60.23926184306377, 45.716100068984545], [-60.23924952023185, 45.7161232817161], [-60.239289490311286, 45.716212278498624], [-60.23929815092368, 45.71623157014423], [-60.239310450493726, 45.71629487488172], [-60.239296241580924, 45.71634853754586], [-60.2392691542517, 45.716402788882945], [-60.239178293679494, 45.71647350008288], [-60.239073714127976, 45.71653577849103], [-60.23904719368574, 45.71654775658009], [-60.23899617619005, 45.71657080756411], [-60.23895935265463, 45.716581177297236], [-60.23890496373029, 45.716596504816046], [-60.23871231897492, 45.716594545753615], [-60.23867470291115, 45.716575633832186], [-60.23863455357461, 45.7165583258169], [-60.238610534083165, 45.716547978700895], [-60.238586300440346, 45.71653050657411], [-60.238547251653216, 45.716502342886145], [-60.23848903806358, 45.71647378761398], [-60.23847197547111, 45.71646541795985], [-60.23840271111516, 45.716440258757274], [-60.238394972791696, 45.71643745226371], [-60.23829265471945, 45.71642777630894], [-60.23827246126479, 45.71642922303397], [-60.23818949500683, 45.71643517288436], [-60.23809822482989, 45.716461777200585], [-60.23808261431764, 45.716465134973994], [-60.23806057558053, 45.716469867405394], [-60.23801485014937, 45.71650050784683], [-60.23800742190858, 45.716505485730984], [-60.23799538795597, 45.71651657190795], [-60.23796838567865, 45.71654144558621], [-60.23796745234363, 45.716586437226546], [-60.23800418006777, 45.71664942400393], [-60.23801692149297, 45.71670373852513], [-60.238014885576355, 45.716711412165196], [-60.2380027116693, 45.71675739200355], [-60.2379733623825, 45.71679364022567], [-60.23792335285511, 45.71685539260082], [-60.237878710399734, 45.71689168484042], [-60.23785776139426, 45.716908712020555], [-60.237675196500696, 45.7170150166097], [-60.23754489972313, 45.71710366547877], [-60.237517411309426, 45.71716600763028], [-60.23753666203286, 45.717214692040606], [-60.23754254282225, 45.71722963205611], [-60.2376044956552, 45.71730223038061], [-60.23766152247764, 45.71733297164194], [-60.23770588202659, 45.71735688962247], [-60.23776911819529, 45.71742952790851], [-60.23779297994695, 45.71749311255289], [-60.23779198754944, 45.7175650968847], [-60.2377498450614, 45.71769009182748], [-60.23772782478425, 45.717743169241174], [-60.23772359521733, 45.71775337309709], [-60.23767083730915, 45.717806993921194], [-60.237604892028855, 45.71784140243969], [-60.237578054343295, 45.71785197734801], [-60.237514459802625, 45.71787701860372], [-60.23742454083771, 45.71790274596936], [-60.2371912521694, 45.71793900035421], [-60.23715390738619, 45.717944802361664], [-60.23710108394665, 45.71795388417743], [-60.23661219584905, 45.71803790349925], [-60.23636698846903, 45.71807219350378], [-60.23631589235174, 45.71807933654107], [-60.236244116382004, 45.71809021841344], [-60.236095799594395, 45.71811271276318], [-60.23583725908727, 45.71813334828721], [-60.23559396681369, 45.7181527682713], [-60.23551596045434, 45.71815762113846], [-60.235479252228004, 45.71815989160106], [-60.23518007828624, 45.718163123765805], [-60.235067840151395, 45.71816432996438], [-60.23500503956254, 45.71816544627622], [-60.23474631351919, 45.7181700439759], [-60.23459058881738, 45.7181603762287], [-60.234579776527674, 45.71815970927163], [-60.234451387818645, 45.718157499289525], [-60.234418803499985, 45.71814989615506], [-60.234373897184284, 45.718139411209414], [-60.23431101183636, 45.718111793756925], [-60.234247331822694, 45.718074246869506], [-60.234233317553795, 45.71806165693479], [-60.234196885795185, 45.718028919625276], [-60.23417345518119, 45.71799441804239], [-60.23414777153337, 45.717956621494245], [-60.23414145346506, 45.717932597658645], [-60.23413587319462, 45.71791132801457], [-60.234149146189246, 45.71789338646646], [-60.234162033623434, 45.717875966637294], [-60.23421136383539, 45.71784239072465], [-60.234227186243665, 45.71783163075625], [-60.23437072034537, 45.71776129944407], [-60.23446207719831, 45.717680702953466], [-60.23451479404545, 45.717627973718734], [-60.23452816462178, 45.71759139332894], [-60.234508094539144, 45.717580699968444], [-60.23447683110664, 45.71756404679395], [-60.234452878722934, 45.71756379959933], [-60.23441261524478, 45.71756339129329], [-60.23434556491585, 45.71758631283134], [-60.23430936009643, 45.71759869428305], [-60.23427517623404, 45.71761256485015], [-60.23417954843442, 45.717651355885934], [-60.23412776729202, 45.7176591024186], [-60.23410205427479, 45.71765937956049], [-60.23404385864692, 45.71759561037451], [-60.234002095472825, 45.71754984533438], [-60.23394014758716, 45.71747723616816], [-60.23390347279073, 45.717387237233766], [-60.233904852913014, 45.717333264410335], [-60.23394478009662, 45.71727932544597], [-60.233963488184905, 45.71726659219366], [-60.23400994455696, 45.717234998974035], [-60.23404981434253, 45.71718195868611], [-60.23403707669891, 45.71712764381226], [-60.23402451126354, 45.717105754869834], [-60.234000398042916, 45.71706374783933], [-60.23392367502344, 45.71700828770904], [-60.23389990379964, 45.71699110482199], [-60.23383484913051, 45.71698142762692], [-60.23382852419687, 45.71698356963997], [-60.233810020301476, 45.71698982706629], [-60.233728775496964, 45.71702620290776], [-60.233653653379974, 45.717059846719614], [-60.23358850169167, 45.71710417329849], [-60.23345913455116, 45.71714784381152], [-60.23337758148394, 45.717163653547374], [-60.23336831841299, 45.71716544529968], [-60.233278434666985, 45.71716416711915], [-60.233188994964436, 45.71715389858523], [-60.233061501144654, 45.71710760360603], [-60.23303899394465, 45.71709136928178], [-60.23299820993638, 45.71706196449688], [-60.23289004576984, 45.716931573009475], [-60.23288543791212, 45.71692600668986], [-60.23274826791262, 45.71678947537753], [-60.23264702943573, 45.71667991792778], [-60.23261623336626, 45.71663873872035], [-60.23257229961189, 45.716579986030226], [-60.23254787654499, 45.7165533809661], [-60.23249792032075, 45.716498973775394], [-60.23248062856782, 45.71647783418619], [-60.23246035509468, 45.71645306689844], [-60.23246013511485, 45.71644321442225], [-60.232459960420684, 45.716435046239276], [-60.23250103794642, 45.71638670730689], [-60.232513166427275, 45.71637242862898], [-60.232514296676015, 45.716370097754144], [-60.23252604986333, 45.71634572880638], [-60.23252827006519, 45.7163007864017], [-60.23253271228341, 45.71628889569404], [-60.23254159715798, 45.71626510528766], [-60.23258068554457, 45.71620214541363], [-60.23260768581524, 45.71617579678777], [-60.2326589991133, 45.71611793078424], [-60.232686608195095, 45.71608679933995], [-60.232689956396584, 45.716082487990334], [-60.23270033032901, 45.71606912987357], [-60.23269192760129, 45.716051167128434], [-60.23268753246557, 45.716041816516224], [-60.23263705339229, 45.71602349090174], [-60.23261138554599, 45.716022868696946], [-60.23255360803503, 45.71602951504732], [-60.23246923531182, 45.71603922508147], [-60.2323789092775, 45.7160469365131], [-60.2322765932088, 45.71603725520439], [-60.23214772097051, 45.71604493204906], [-60.231980297688565, 45.71607867717248], [-60.23187748812209, 45.71610498772305], [-60.231450492743875, 45.7162170477114], [-60.23133396009551, 45.71626102706493], [-60.23116604173551, 45.71633076316854], [-60.230931242250406, 45.71645378318844], [-60.23083950077138, 45.7165163654458], [-60.23076150072363, 45.71656037875993], [-60.230716325665036, 45.71657928326423], [-60.230657845318305, 45.716603769679196]]}, "properties": {"OBJECTID": 12410, "FEAT_CODE": "WACO20", "FEAT_DESC": "Coast - Water to the right line", "RIVNAME_1": " ", "RIVNAME_2": " ", "ZVALUE": 0.6, "FID": null, "SHAPE_Length": 2139.8156626601144}}, {"type": "Feature", "id": 18387, "geometry": {"type": "LineString", "coordinates": [[-60.23004914083774, 45.72081274156794], [-60.230074734472474, 45.72080841197397], [-60.230191233224105, 45.72076533320419], [-60.23022425887501, 45.72074843841779], [-60.230295385837515, 45.720712053642465], [-60.23047610349502, 45.72066963247098], [-60.230634671760406, 45.720647385109885], [-60.23083713254705, 45.72061898336804], [-60.230992574247146, 45.72059395035746], [-60.23109539786946, 45.72054153793441], [-60.23112244545298, 45.72051429071599], [-60.23111676202637, 45.72050214548368], [-60.23110967312342, 45.72048697781746], [-60.2310918090016, 45.72047844360653], [-60.23107199947025, 45.72046897110554], [-60.23096927608401, 45.720467370694685], [-60.23091174173506, 45.7204757593132], [-60.23085278397238, 45.720484347403314], [-60.23077078605692, 45.72049292564875], [-60.230699070949925, 45.72050041211497], [-60.23059430504392, 45.720525566918965], [-60.23055601937556, 45.72053475533574], [-60.23040226124962, 45.72055172765824], [-60.23029904304412, 45.72058611880164], [-60.23024551687668, 45.720595045377124], [-60.230195385013445, 45.72060341520565], [-60.230168120426875, 45.72060905444204], [-60.230156435602474, 45.72061147125561], [-60.230033093646185, 45.72060999982113]]}, "properties": {"OBJECTID": 18387, "FEAT_CODE": "WACOIS10", "FEAT_DESC": "Coastal Island - Water to the right line", "RIVNAME_1": " ", "RIVNAME_2": " ", "ZVALUE": 0.6, "FID": null, "SHAPE_Length": 181.84527477591658}}, {"type": "Feature", "id": 21330, "geometry": {"type": "LineString", "coordinates": [[-60.230033093646185, 45.72060999982113], [-60.2299381081536, 45.72060887426083], [-60.229860120322854, 45.72062678422008], [-60.22978212649376, 45.72067079699813], [-60.22975596151272, 45.72070616625223], [-60.22975593336502, 45.720718947046755], [-60.22975591108428, 45.720733168150105], [-60.22976272000988, 45.72076542208242], [-60.22976736170993, 45.72078745224957], [-60.22983064143365, 45.72083309284912], [-60.22987862053951, 45.72083369898865], [-60.22990769586358, 45.72083406244662], [-60.22993697615562, 45.720830281390896], [-60.22997236035594, 45.720825721324545], [-60.23004914083774, 45.72081274156794]]}, "properties": {"OBJECTID": 21330, "FEAT_CODE": "WACOIS10", "FEAT_DESC": "Coastal Island - Water to the right line", "RIVNAME_1": " ", "RIVNAME_2": " ", "ZVALUE": 0.6, "FID": null, "SHAPE_Length": 59.45976994943214}}, {"type": "Feature", "id": 23790, "geometry": {"type": "LineString", "coordinates": [[-60.22854590406982, 45.72080101132181], [-60.22852062793968, 45.72081839978949], [-60.22851383467713, 45.72082713690171], [-60.228506903276056, 45.72083606868288], [-60.22850729708638, 45.72085408032447], [-60.22852510602675, 45.72086086739883], [-60.22853252221568, 45.72086369374347], [-60.22862241161206, 45.720864975795934], [-60.22864857089261, 45.720855709681146], [-60.22865569479332, 45.72086106721579], [-60.22866096105961, 45.7208650114972], [-60.22866001785594, 45.720883035686946], [-60.22864634678282, 45.72090066089265], [-60.22864653106973, 45.720908883316284], [-60.22864674063751, 45.72091867253462], [-60.22867027466618, 45.72092480647337], [-60.228684800824134, 45.72092859749531], [-60.22872335031653, 45.72092863317652], [-60.22875310840382, 45.72090818509518], [-60.22877523052202, 45.72089298827708], [-60.22878479530955, 45.72087498434696], [-60.228789399916394, 45.720866329106556], [-60.22878528239286, 45.72085423077003], [-60.22877706063055, 45.720830025417925], [-60.22875223579542, 45.72081232083343], [-60.228687126799485, 45.72082964251273], [-60.22867876343838, 45.72082336378898], [-60.228674736635554, 45.72082034069954], [-60.22867495617285, 45.720804216164076], [-60.22867521956862, 45.72078434826033], [-60.228663324068016, 45.720775697527756], [-60.22863677846288, 45.72075641196779], [-60.228627263241826, 45.720756532021255], [-60.22861234755001, 45.720756718996626], [-60.228583285069035, 45.72077609480222], [-60.22854590406982, 45.72080101132181]]}, "properties": {"OBJECTID": 23790, "FEAT_CODE": "WACOIS10", "FEAT_DESC": "Coastal Island - Water to the right line", "RIVNAME_1": " ", "RIVNAME_2": " ", "ZVALUE": 0.6, "FID": null, "SHAPE_Length": 72.25655645073626}}, {"type": "Feature", "id": 23791, "geometry": {"type": "LineString", "coordinates": [[-60.22942899121878, 45.72040569780064], [-60.2293514544734, 45.72044072933824], [-60.229338175314794, 45.72044939910231], [-60.229336841200244, 45.720476369846935], [-60.22936251101465, 45.720476992834115], [-60.229397844229105, 45.72048333196925], [-60.229414733913366, 45.72048636116374], [-60.229429689123215, 45.720479658288895], [-60.22945284452696, 45.72046928396995], [-60.22953127692669, 45.72044238403684], [-60.2295396834831, 45.720438177533936], [-60.22958266703885, 45.720416628020295], [-60.22959304255088, 45.72040327023066], [-60.22959639081539, 45.720398967976415], [-60.2295959970955, 45.72038094733904], [-60.22958888510656, 45.720375608153994], [-60.229583606427056, 45.720371654612926], [-60.2295451017709, 45.720370720206155], [-60.22952719177046, 45.72037610924661], [-60.22942899121878, 45.72040569780064]]}, "properties": {"OBJECTID": 23791, "FEAT_CODE": "WACOIS10", "FEAT_DESC": "Coastal Island - Water to the right line", "RIVNAME_1": " ", "RIVNAME_2": " ", "ZVALUE": 0.6, "FID": null, "SHAPE_Length": 51.5326250936985}}, {"type": "Feature", "id": 51534, "geometry": {"type": "LineString", "coordinates": [[-60.238405543065944, 45.71728389606578], [-60.238544607744956, 45.7173067021919], [-60.23858916752022, 45.71733334298654], [-60.23863208424286, 45.71737767607625], [-60.23864221290155, 45.717401593809505], [-60.23865565433297, 45.717462576955135], [-60.23863205774367, 45.71750855059813], [-60.23858248142815, 45.717513292129205]]}, "properties": {"OBJECTID": 51534, "FEAT_CODE": "WALK20", "FEAT_DESC": "Lake - Water to the right line", "RIVNAME_1": " ", "RIVNAME_2": " ", "ZVALUE": 1.8, "FID": null, "SHAPE_Length": 40.59815510740406}}, {"type": "Feature", "id": 51535, "geometry": {"type": "LineString", "coordinates": [[-60.23858248142815, 45.717513292129205], [-60.238541324732154, 45.717494510549784], [-60.23846334707819, 45.71745892444189], [-60.23840758376162, 45.71740149905154], [-60.23836385320047, 45.717352825689694], [-60.2383488471687, 45.717310814863055], [-60.23834420740188, 45.71729780413054], [-60.238390755061864, 45.71728724677451], [-60.238405543065944, 45.71728389606578]]}, "properties": {"OBJECTID": 51535, "FEAT_CODE": "WALK20", "FEAT_DESC": "Lake - Water to the right line", "RIVNAME_1": " ", "RIVNAME_2": " ", "ZVALUE": 1.8, "FID": null, "SHAPE_Length": 36.51070875094007}}, {"type": "Feature", "id": 201249, "geometry": {"type": "LineString", "coordinates": [[-60.23942388163403, 45.72267575490146], [-60.239310091758774, 45.72261179626506], [-60.23927421221159, 45.72259433071557], [-60.23927118798673, 45.72259285342164], [-60.23926728260691, 45.72259022068879], [-60.23925875131941, 45.722584451742684], [-60.23919541583315, 45.72256581816005], [-60.23918632989146, 45.722561394951896], [-60.23915651213298, 45.72254687527903], [-60.23909273355309, 45.722537231960324], [-60.23897756875242, 45.722527245958936], [-60.23883673304346, 45.722516638968145], [-60.238563937026214, 45.72248743920169], [-60.23855422152093, 45.722486403106814]]}, "properties": {"OBJECTID": 201249, "FEAT_CODE": "WARV50", "FEAT_DESC": "River - Single Line", "RIVNAME_1": " ", "RIVNAME_2": " ", "ZVALUE": 9999, "FID": null, "SHAPE_Length": 72.8298672328135}}]}