{"type": "Feature", "properties": {"identity_key": "CAOED", "identity_lonlat": [-59.95559, 45.959241], "feature_ids_and_classes": [[126301, "WALK20"], [126302, "WALK20"], [126388, "WALK20"], [126389, "WALK20"], [154137, "WALKIS10"], [154138, "WALKIS10"], [154139, "WALKIS10"], [163587, "WARV10"], [166956, "WARV20"]]}, "geometry": {"type": "Polygon", "coordinates": [[[-59.96175579389811, 45.9624475307149], [-59.96175555824646, 45.96247542698077], [-59.961753256766784, 45.962480928243835], [-59.96174070363689, 45.962511034970305], [-59.96164859275321, 45.9625904912885], [-59.96163519996647, 45.962599144711014], [-59.9615053735887, 45.96266048669974], [-59.961360373486166, 45.96273943535202], [-59.961268891049095, 45.96278380489764], [-59.96120328221481, 45.96282706283292], [-59.961045461576326, 45.96295159203923], [-59.96100581566101, 45.96296852043906], [-59.960940649053086, 45.963003690157464], [-59.96084932700992, 45.96302106118185], [-59.96080236716536, 45.963025886746415], [-59.96077277407665, 45.96302892436872], [-59.96073358463639, 45.96303420876555], [-59.960655764335385, 45.963044711380675], [-59.96045901649333, 45.963065243181624], [-59.96042209958544, 45.96306909383372], [-59.960407265984294, 45.96307034608582], [-59.9603326325355, 45.963076621928664], [-59.96018929301459, 45.96310160839294], [-59.960014453149505, 45.96312061650712], [-59.95996986697034, 45.9631254599244], [-59.959762343852674, 45.96316763861686], [-59.95943774792845, 45.96322650109656], [-59.95933405526939, 45.96323454065468], [-59.9592183206466, 45.963250360149985], [-59.95908556258133, 45.96328455584693], [-59.958983987376655, 45.96331072512462], [-59.958840951038475, 45.96335371960567], [-59.958758345619714, 45.96338087999715], [-59.958737119336334, 45.96338785728998], [-59.95873315392188, 45.963390505915314], [-59.95869692997259, 45.96341468931336], [-59.95863493787568, 45.96345006738527], [-59.958605001329815, 45.96346714557319], [-59.95852178615497, 45.96354737637508], [-59.95851234291216, 45.96355648567223], [-59.95837891248378, 45.96370684519269], [-59.95829796831744, 45.96384150126755], [-59.958230640982016, 45.963939625698515], [-59.95820284164688, 45.96398530231012], [-59.95817674390703, 45.96402818899021], [-59.95814922014092, 45.96407001157926], [-59.95808241841808, 45.96417148922717], [-59.95794467266828, 45.964322822361055], [-59.957936843962365, 45.96433143457785], [-59.95781718076651, 45.96441914551814], [-59.95778157283323, 45.96443913265501], [-59.957581466190476, 45.96455147734363], [-59.95750137715469, 45.964580486038976], [-59.9574379460163, 45.96460345798895], [-59.95728200424473, 45.96464610661096], [-59.95726901638045, 45.96465229508637], [-59.9571905647465, 45.964689573945925], [-59.9571647956012, 45.96470736587096], [-59.95715166249606, 45.96471643972454], [-59.95711182438919, 45.964760382100756], [-59.95708482234356, 45.96483599840086], [-59.95708285489415, 45.964841517471996], [-59.957082477258744, 45.96489551230853], [-59.957053860610095, 45.96499375862663], [-59.95704871913028, 45.96500608773075], [-59.957039015146925, 45.965029366242156], [-59.95697129391987, 45.96518147532133], [-59.95694232396989, 45.96526261064116], [-59.95693229772141, 45.965275988656586], [-59.95691586558452, 45.96529791772974], [-59.95689040941894, 45.96531164056387], [-59.956850694235875, 45.96533307508118], [-59.956821243133035, 45.965340795887926], [-59.95678521868952, 45.96535023165551], [-59.95673639026728, 45.965366499785496], [-59.956707651090014, 45.9653760667043], [-59.956448691348974, 45.96539076598494], [-59.956420689824846, 45.96539040659263], [-59.95638421383972, 45.96538994730051], [-59.95635793183113, 45.9653982475114], [-59.956243433392125, 45.96548277317315], [-59.95622612196274, 45.96549554287779], [-59.95617433042333, 45.965522064712054], [-59.956134490949175, 45.965566006708066], [-59.95612552012218, 45.96558484928226], [-59.95607907383462, 45.965682440005864], [-59.95599679321276, 45.965888165244166], [-59.95590264820463, 45.96600446602281], [-59.95583698213382, 45.96604861942068], [-59.95576732134818, 45.966087472800915], [-59.9557584275773, 45.966092429141085], [-59.955748192286656, 45.966106080503394], [-59.95573196852297, 45.96612772693447], [-59.955704474578916, 45.96618189884129], [-59.955702880473815, 45.96618366550155], [-59.95558490409084, 45.96631462298109], [-59.9555189341958, 45.966340766462736], [-59.95545474591605, 45.96635795659784], [-59.95535591527916, 45.96636901145319], [-59.95531188881839, 45.96637394898431], [-59.955104540145534, 45.96638912141042], [-59.95497586017751, 45.96640549145514], [-59.95487166818996, 45.96642251446034], [-59.954754636987985, 45.96643829484998], [-59.954638352308415, 45.96646399592832], [-59.95461524665941, 45.966474378639724], [-59.95459865170593, 45.96648183872413], [-59.95445590680781, 45.96654283710945], [-59.954412726624156, 45.966571874048945], [-59.954390238969744, 45.96658698962672], [-59.95437537844833, 45.96662259649015], [-59.954375188263754, 45.96664959386373], [-59.9544197151865, 45.96668754092788], [-59.954450406383486, 45.96671370588654], [-59.95450487031718, 45.966753097083505], [-59.954513722132845, 45.96675949875113], [-59.95453756505887, 45.96676391506491], [-59.95456483253431, 45.96676896276576], [-59.954737298566236, 45.96663675043329], [-59.954788598882494, 45.96661921696682], [-59.95487940984594, 45.966610837977925], [-59.955038428959455, 45.96661317977865], [-59.95533080288549, 45.966617475371834], [-59.95537204002642, 45.96662292240076], [-59.95540769031731, 45.96662762638415], [-59.955423196855484, 45.9666348354904], [-59.955446708280014, 45.96664576836543], [-59.95547467596933, 45.96665311172631], [-59.95548488096655, 45.9666557870603], [-59.955498131514354, 45.96667989353624], [-59.95550951908785, 45.96670054802669], [-59.955515558831856, 45.96672386817214], [-59.95552124521178, 45.966745864775895], [-59.955520057035464, 45.96679083716905], [-59.95550285944328, 45.96691639001003], [-59.955472331661696, 45.9670964923671], [-59.95545918987544, 45.9671711457287], [-59.95544234480131, 45.96726672624172], [-59.95541342215532, 45.96734693533476], [-59.95531623920034, 45.96758917500621], [-59.955313205547164, 45.96771510550757], [-59.95532306113996, 45.967841370715824], [-59.955320533730955, 45.96785003410856], [-59.955294439120024, 45.967939625421195], [-59.95527802363453, 45.968074199881315], [-59.95528161955962, 45.96840004421382], [-59.9552816976973, 45.968407327955454], [-59.95532662887368, 45.96862364554662], [-59.95533478416869, 45.96870418627286], [-59.955336686725126, 45.968722922694454], [-59.95533867726492, 45.96873770110448], [-59.95534770460838, 45.96880422381475], [-59.95538337432277, 45.96893028627818], [-59.955417238884024, 45.96906620148667], [-59.95547888920507, 45.96916596326126], [-59.955541513572356, 45.96924773134704], [-59.955550465908864, 45.96927396440093], [-59.95556598888065, 45.969319490379746], [-59.95557073615618, 45.969330840974536], [-59.95557739941902, 45.969346797068056], [-59.95570267380307, 45.96951035177638], [-59.95575225865285, 45.969547686092426], [-59.955764515183375, 45.96958310704708], [-59.95578813264932, 45.96964674242558], [-59.95579586709348, 45.96966976570034], [-59.95581254576353, 45.96971940882462], [-59.95582356496214, 45.96980070092138], [-59.95582043128565, 45.96988162467526], [-59.95580871104807, 45.96990916070142], [-59.95575228236877, 45.97004182228004], [-59.95574186995443, 45.97008058117713], [-59.95573766272939, 45.97009633743179], [-59.955735687767486, 45.97017213461012], [-59.95573178657121, 45.97032119203505], [-59.955666797120486, 45.970329369117266], [-59.95558889300277, 45.97033719280668], [-59.955486740379754, 45.97031736743033], [-59.95542146165455, 45.970307517035465], [-59.95528656615728, 45.97028971663432], [-59.955267676194445, 45.97028722372284], [-59.955246469271735, 45.97028037563512], [-59.955152243448445, 45.970249942366465], [-59.955025426215094, 45.97018535484789], [-59.95492504511035, 45.97008546898942], [-59.95489731625634, 45.97006526970979], [-59.95481085128169, 45.9700023161877], [-59.9547217038846, 45.96995673462794], [-59.95464939987645, 45.96992789371836], [-59.95458147976866, 45.96990078983967], [-59.954364580351104, 45.969807696447916], [-59.95422387678653, 45.96976073924025], [-59.954155980948904, 45.969737200075734], [-59.95400726832298, 45.96968565455076], [-59.95385367620658, 45.96963835304502], [-59.9538027653613, 45.969626382816706], [-59.95377593989542, 45.96962007761587], [-59.95358299634651, 45.96960773809745], [-59.95338951134271, 45.96960526669657], [-59.95336637741317, 45.969610490933164], [-59.95335030129021, 45.969614121332036], [-59.95329586541803, 45.969627106077745], [-59.953207737704744, 45.969648120547006], [-59.95312984717695, 45.96965594291783], [-59.95282032257888, 45.969651282996594], [-59.95270403078896, 45.969676972913604], [-59.95261277003745, 45.969693447902465], [-59.95257435537445, 45.969711324312776], [-59.95250838003045, 45.969737465904636], [-59.95240434085735, 45.96979860372028], [-59.95227269234791, 45.9698688873593], [-59.952036639294235, 45.96998319702913], [-59.95190648318767, 45.97002651764771], [-59.95184824317024, 45.97003895010551], [-59.95179023858904, 45.97005132581341], [-59.95170639337553, 45.97005450583379], [-59.95160914751368, 45.97005819208935], [-59.951583369011615, 45.970057503829985], [-59.95147228348736, 45.9698943324313], [-59.951448115020256, 45.969872553221], [-59.951421856584346, 45.96984887303566], [-59.95138338071473, 45.96982084326572], [-59.951371786766394, 45.969809840731344], [-59.951345348590316, 45.96978473360043], [-59.9513215449514, 45.96974808576047], [-59.95132469892523, 45.9696175501782], [-59.95132763103054, 45.96949622550224], [-59.951357055836155, 45.96940700304814], [-59.951397636524405, 45.969326179188414], [-59.95141288314989, 45.969236578149584], [-59.951427142656264, 45.96916495237828], [-59.95143886139388, 45.9687872310969], [-59.95140676055947, 45.968525350378485], [-59.951407964778596, 45.96847920835471], [-59.95140910512243, 45.96843540483686], [-59.95138854893611, 45.9683621923965], [-59.9513864437539, 45.96835469251278], [-59.95137392539673, 45.96830035337419], [-59.95133640118289, 45.968255247443466], [-59.9512232031424, 45.968154124972244], [-59.95111365507251, 45.968084323679534], [-59.95102116706042, 45.96802540979943], [-59.950765552636206, 45.96793217573922], [-59.950598092260925, 45.967902501081696], [-59.95055022720993, 45.96790232980169], [-59.950520661099056, 45.967902233202416], [-59.95043913554705, 45.96792692318315], [-59.950351335556114, 45.96795351570322], [-59.95029074695365, 45.967984534323655], [-59.950247742378885, 45.96800655374036], [-59.95020808868515, 45.96802349617909], [-59.95019552106716, 45.968036103654214], [-59.950154810834206, 45.96807697802272], [-59.9500967040803, 45.96817301271573], [-59.95007388946857, 45.96821072875549], [-59.95005867060909, 45.96822084417509], [-59.94998145110544, 45.96827216525479], [-59.9498619099895, 45.9683565587966], [-59.9496927373448, 45.96847597157147], [-59.94961288573386, 45.96851974240525], [-59.94958879536207, 45.96853274402929], [-59.94954770608473, 45.968554895359176], [-59.94953462411933, 45.96858155729263], [-59.949506023410656, 45.96862895652025], [-59.94948065861222, 45.968671023705824], [-59.94943865643027, 45.96877791127644], [-59.949401707010736, 45.96882290921925], [-59.94935840591738, 45.968875676160295], [-59.949265229151514, 45.96897400468744], [-59.94911882254519, 45.9691248976933], [-59.94909827595033, 45.96912907409872], [-59.94907966162103, 45.96913285209198], [-59.94902192009857, 45.96913246126562], [-59.948989326908844, 45.96913223837779], [-59.948810770775026, 45.969093263788864], [-59.948771259459, 45.9690841071707], [-59.94874597593463, 45.969074421681114], [-59.948693238443866, 45.96901610016195], [-59.948671748993476, 45.968992339767496], [-59.94864586319125, 45.968977408686584], [-59.94860795468361, 45.968955531691336], [-59.94859554682114, 45.96894619927315], [-59.948591231594406, 45.96885186341972], [-59.948587332608625, 45.968766863533304], [-59.94860213897027, 45.96868535182368], [-59.9486210198981, 45.96864853904185], [-59.94868454647355, 45.968524639407896], [-59.94880699371696, 45.96829299041753], [-59.948818288927164, 45.96825656893827], [-59.94882111272723, 45.9682474635682], [-59.94883735097517, 45.968139887723694], [-59.948891510328814, 45.968023415340966], [-59.948916229961874, 45.967982051107604], [-59.94904076957866, 45.9677735898641], [-59.949122186583054, 45.96763085228221], [-59.94912286033909, 45.96759486702175], [-59.949163899656696, 45.967505964456876], [-59.949127402521185, 45.967441974519566], [-59.94910181806433, 45.967414288433105], [-59.9489778567776, 45.967250761472684], [-59.94894246809671, 45.96714335415238], [-59.948930288973116, 45.96710637737193], [-59.94891528895009, 45.96708503163322], [-59.94890514927609, 45.96707060238983], [-59.94881842240334, 45.96693417261294], [-59.9488072085606, 45.96687986803888], [-59.948808883204975, 45.96682590789001], [-59.948849959877855, 45.96673608834459], [-59.94893088082806, 45.96660235644512], [-59.948983929036075, 45.966576771560796], [-59.948987220539, 45.96657442029488], [-59.94899734832183, 45.96656722025062], [-59.949023010858745, 45.96655683499419], [-59.94906201914712, 45.966541054826784], [-59.94917994453244, 45.96646228945137], [-59.949234436964524, 45.96644142346546], [-59.949272237355096, 45.96642695207309], [-59.94936220420808, 45.966410454189464], [-59.94942718929063, 45.96640228958871], [-59.94960820623916, 45.966396324898135], [-59.949710931149376, 45.966406269959585], [-59.94981295706953, 45.966452199523324], [-59.949855740443304, 45.966457212813324], [-59.94990273147048, 45.96646269852307], [-59.95004498732107, 45.96646496851134], [-59.95007037939051, 45.96646537677483], [-59.95014825285282, 45.96645755604292], [-59.950162002012455, 45.96645444899152], [-59.950187461103674, 45.9664487024604], [-59.950226367860566, 45.96642183917723], [-59.9502541193391, 45.9663865771788], [-59.950306106059436, 45.966333069794516], [-59.95040070792669, 45.9662086760887], [-59.95041527982557, 45.96616638342211], [-59.95042834972275, 45.96612840703157], [-59.95047041000146, 45.96602062053723], [-59.95047257659198, 45.96595767268287], [-59.95039873565757, 45.965821588262514], [-59.9503356165756, 45.96574879589866], [-59.95024918903403, 45.96563038582205], [-59.95018607085068, 45.965557584396095], [-59.95013762300297, 45.96547618299081], [-59.95011340337192, 45.965449973711884], [-59.950112038886346, 45.96544849713265], [-59.95010047317576, 45.96537708172365], [-59.95007667211322, 45.965340433667414], [-59.95000095389659, 45.96528531519495], [-59.94993459237343, 45.96525183256847], [-59.94987286518923, 45.965220687907426], [-59.94984906434118, 45.96518403980829], [-59.9498488165154, 45.965168344761125], [-59.949848775361964, 45.96516603945219], [-59.949863144604166, 45.96513942086243], [-59.94999445779137, 45.96505112038342], [-59.95011169225118, 45.96500834785542], [-59.950255232768015, 45.96495637696817], [-59.95035764074288, 45.96494831135011], [-59.95037211535599, 45.96495666369076], [-59.95042144468183, 45.96498511872869], [-59.950497149554465, 45.96504024556826], [-59.95060016040464, 45.96506820810877], [-59.95065584503767, 45.9650831785396], [-59.950741343047135, 45.96510617281928], [-59.95081474309366, 45.96510762001761], [-59.95087027333757, 45.96510871595935], [-59.950890096475554, 45.965106167064754], [-59.95093396789899, 45.9651005160371], [-59.95096990138093, 45.96509110669063], [-59.95099944478314, 45.96508336285685], [-59.951043716069904, 45.965058676733605], [-59.95107800145888, 45.96503955646355], [-59.951157100865345, 45.96498586360844], [-59.951275801418205, 45.96491613557918], [-59.95132439246022, 45.96489974643659], [-59.95137967722012, 45.964881096780985], [-59.951392578156096, 45.96488144124875], [-59.95143776416333, 45.964910613291], [-59.95150601052897, 45.96495467632539], [-59.951596578285915, 45.9649741959973], [-59.95171538610859, 45.96497585586458], [-59.95173844528063, 45.9649761924729], [-59.95176681868659, 45.964966482028025], [-59.95178974540668, 45.96495865134772], [-59.951809937845326, 45.96495454601027], [-59.95182890301404, 45.96495069593089], [-59.95186280715565, 45.96492487763893], [-59.95193395614006, 45.96487069296894], [-59.95197936004858, 45.964851932255236], [-59.95203830028242, 45.964827583339215], [-59.952101745618286, 45.964842490213044], [-59.95211602982227, 45.96484585079569], [-59.95214122969651, 45.964857036448784], [-59.95224328850346, 45.9649023526696], [-59.95231245864577, 45.96493571090369], [-59.95239543565928, 45.96497572020213], [-59.952408177293265, 45.964978967566985], [-59.95243489541792, 45.9649857742783], [-59.95246348254536, 45.96498604227113], [-59.95248648419955, 45.964986251181394], [-59.952511170535786, 45.964982103653085], [-59.95253730323088, 45.96497770669785], [-59.95259082865381, 45.964943132054294], [-59.952628512437784, 45.96489288718622], [-59.95265767334605, 45.96485400788536], [-59.95266010937446, 45.964845603132716], [-59.95268634696045, 45.96475486409459], [-59.95280022570424, 45.96460220726031], [-59.952806160885764, 45.964594246923674], [-59.95280929209306, 45.96459222429948], [-59.95284630455189, 45.964568315837404], [-59.95297714434702, 45.96448900011044], [-59.95313425286262, 45.964401384416014], [-59.95325349271081, 45.96432175881856], [-59.9532546804624, 45.96427635438131], [-59.95325584664352, 45.96423181344674], [-59.953250905628735, 45.96422118664311], [-59.95324314939046, 45.964204472168966], [-59.95317983753219, 45.96415867868073], [-59.953039833066576, 45.96407573533159], [-59.95296393605125, 45.964047607505364], [-59.95287411550968, 45.964038009758475], [-59.95269948358738, 45.964154257055206], [-59.952610211482984, 45.96421368301632], [-59.952570320917, 45.96425852249518], [-59.952565623697254, 45.96443841349683], [-59.95255135429239, 45.96451003918445], [-59.95254535525834, 45.96468989543325], [-59.95251914783063, 45.96474410092383], [-59.95249238520516, 45.96476138823453], [-59.95240113305067, 45.9647778542789], [-59.952272949521365, 45.96478523370285], [-59.95216895110387, 45.96477525694904], [-59.95206727806445, 45.96474643145693], [-59.951990683591404, 45.964696673401995], [-59.95194016140467, 45.964663839803094], [-59.95187734353446, 45.96460905796201], [-59.95176262253837, 45.964535788848124], [-59.9515978303007, 45.96443418031263], [-59.95148459035599, 45.964333948001865], [-59.951459100611025, 45.96428197175149], [-59.9514358396522, 45.964234537412814], [-59.95137252930353, 45.96418874295855], [-59.95118196308389, 45.96408644561675], [-59.95108024200218, 45.96405852703844], [-59.95105515152494, 45.96402185374925], [-59.95101975443672, 45.96395686767176], [-59.951005908335695, 45.96393143063886], [-59.95100741336514, 45.963880751211185], [-59.95101043113485, 45.963778546483674], [-59.95100609685556, 45.963481394681224], [-59.950999137236906, 45.96339212771175], [-59.950996251861476, 45.963355120294025], [-59.950960883490296, 45.96324707503425], [-59.950888223909125, 45.96306600932439], [-59.95083504510784, 45.963014841614], [-59.95081221902252, 45.96299288207411], [-59.95073651700782, 45.96293774650078], [-59.950700040242964, 45.962876457818425], [-59.95068807043026, 45.96285634533395], [-59.95065072923817, 45.96278424156422], [-59.950614425091295, 45.962693254753574], [-59.950553282813786, 45.96258452098798], [-59.95048668920504, 45.9624643635592], [-59.95044290024285, 45.962385354888966], [-59.95042288935136, 45.96236078821581], [-59.950405417023916, 45.962339349622624], [-59.950389420533334, 45.96233380989365], [-59.95038007346843, 45.96233057196204], [-59.95027880235264, 45.96224775966234], [-59.950267779840594, 45.96216645784598], [-59.95028302572197, 45.96207685685772], [-59.95031096803522, 45.96198097039056], [-59.950311648989924, 45.96197844134659], [-59.95031617726726, 45.96182571933937], [-59.950321195560825, 45.961818004663385], [-59.95035705491928, 45.96176290535636], [-59.95037321281107, 45.961736361470315], [-59.95038400867674, 45.96171862118024], [-59.95048079374663, 45.961602494412524], [-59.95058434819619, 45.961478249601036], [-59.95072905783371, 45.961381305222815], [-59.95089959073062, 45.961284150201216], [-59.95103056752131, 45.96117873795737], [-59.951057884485785, 45.9611515648824], [-59.95108482448356, 45.96110728017116], [-59.95108765035584, 45.96100903064402], [-59.95108767497058, 45.961008347238796], [-59.95107663853551, 45.96092704511777], [-59.951069377324174, 45.96090744544093], [-59.95105304260563, 45.96086340925221], [-59.951030249428705, 45.96083310686443], [-59.95097847189018, 45.960764208997766], [-59.95096128970155, 45.96073231927649], [-59.95095387632148, 45.96071854806149], [-59.95085210077611, 45.9606447236034], [-59.9508312502034, 45.96064086346764], [-59.95080099667862, 45.96063525807398], [-59.950761566347545, 45.96063460106628], [-59.950710738432946, 45.9606337386586], [-59.950593668711214, 45.96065042282243], [-59.95047709295745, 45.9606581102353], [-59.950456430723676, 45.9606519958546], [-59.95035008502848, 45.960620514766156], [-59.95019653385647, 45.96057320932262], [-59.950160327672585, 45.96056766077335], [-59.95013254291921, 45.96056339926451], [-59.95011490965345, 45.96055712270964], [-59.95008064393326, 45.96054491135477], [-59.95002909582787, 45.96054353435946], [-59.94985586228004, 45.96054677335176], [-59.9497319538089, 45.96054909763889], [-59.949371364097715, 45.960534963266205], [-59.94931976666323, 45.96053448471439], [-59.949207068214236, 45.96048005173075], [-59.949205358537554, 45.96047922297605], [-59.94916689007752, 45.960451192609504], [-59.949155978078124, 45.96041489773734], [-59.94909267386997, 45.96036910214785], [-59.94905338239976, 45.96034642324254], [-59.948965065326085, 45.96029548578487], [-59.948856420060594, 45.96022625539695], [-59.94876307425326, 45.960166785627365], [-59.948699313725406, 45.960135882987586], [-59.948686390415766, 45.96012962407317], [-59.948684387226464, 45.960128265418675], [-59.94866026616163, 45.960111824336884], [-59.94856689121507, 45.95998195817625], [-59.94856195170503, 45.95997508454556], [-59.94848812272305, 45.95983899908223], [-59.9484459693392, 45.95979302134722], [-59.94843820040351, 45.95978455995036], [-59.948427908456296, 45.95977269181403], [-59.94837507751938, 45.959711766327345], [-59.9483122815082, 45.959656983055545], [-59.948236585946994, 45.95960185495967], [-59.94823679180327, 45.95957485798609], [-59.94825694587959, 45.95953572104073], [-59.94826422706465, 45.95952158634267], [-59.94835837606018, 45.959405291876514], [-59.948426207989456, 45.9592981948624], [-59.948465747682754, 45.95923624585995], [-59.94853357918483, 45.95912914876893], [-59.94855594337447, 45.959099575709104], [-59.94861429707279, 45.95902239603256], [-59.94866936948018, 45.95891849518924], [-59.94870932368247, 45.958843118944806], [-59.94873677098511, 45.95878984750592], [-59.94874402249506, 45.95877953733429], [-59.94883055431098, 45.95865644130077], [-59.94888501693123, 45.95855798755559], [-59.94904614809912, 45.95832647172415], [-59.94905330449536, 45.95831930027927], [-59.94909941715047, 45.9582729901122], [-59.94917895275811, 45.958211209509436], [-59.94942821834634, 45.95804325372352], [-59.94950775375123, 45.95798146388445], [-59.94967704911767, 45.957930181817446], [-59.94980632890703, 45.9578997384987], [-59.94989669939023, 45.957878453541895], [-59.95002812999617, 45.957835160243704], [-59.950390364522434, 45.957751569526295], [-59.95046861973228, 45.957733515843685], [-59.95052734132714, 45.95772406722853], [-59.95072772335365, 45.95769183155779], [-59.951385372697594, 45.957701292766835], [-59.95145064925778, 45.95771113645735], [-59.951553345704596, 45.95772107913624], [-59.951581359648536, 45.957725373424246], [-59.951617333683295, 45.95773088832633], [-59.95173662273069, 45.95777475692218], [-59.951770398033, 45.95778717971327], [-59.95178289419272, 45.95779628013819], [-59.95180886607574, 45.95781520920024], [-59.95199631132128, 45.957997529645034], [-59.95204672893308, 45.95804297962343], [-59.95211101956893, 45.9580707982666], [-59.95217451484213, 45.95808959481575], [-59.9522418933352, 45.958102536440336], [-59.95227795827331, 45.958109457688465], [-59.95230666783765, 45.95810272635273], [-59.95231587160853, 45.958100568809456], [-59.952320422786755, 45.9580961808805], [-59.95234312416184, 45.95807429378282], [-59.952344505288785, 45.95800232404175], [-59.952329248896405, 45.9579788476877], [-59.95232069225304, 45.95796568509838], [-59.952291697750276, 45.957950329805506], [-59.95198961497277, 45.95779033187812], [-59.951812399252255, 45.957680291131524], [-59.95178898428961, 45.95766485964867], [-59.95167289316403, 45.95758835848254], [-59.95160979357513, 45.957515576256725], [-59.9515348636141, 45.95745636640115], [-59.951458882381345, 45.95739632735243], [-59.95137099786013, 45.95730487256142], [-59.951340761435986, 45.95726607271214], [-59.95132156814352, 45.9572414470022], [-59.95127942515199, 45.95721125802908], [-59.95127065897851, 45.95720497539686], [-59.95124833634569, 45.957186107650635], [-59.95111897888172, 45.95707672267798], [-59.95108658462341, 45.95705302253095], [-59.95103087810323, 45.95701226432668], [-59.95089119626309, 45.956947328497336], [-59.95069942723147, 45.95689090231026], [-59.95057164535325, 45.956844285557764], [-59.95051117015019, 45.95682034829208], [-59.95043018239622, 45.9567883024174], [-59.9503773106306, 45.956760328775324], [-59.95034239740001, 45.95674185361971], [-59.950073647511346, 45.95663026527236], [-59.94993299356254, 45.95658330395067], [-59.94991050219204, 45.95657551145161], [-59.949907652668124, 45.956574526245106], [-59.949893485393886, 45.956567667179776], [-59.949830971876175, 45.95653738352001], [-59.94978490814338, 45.95653654895804], [-59.949727834259825, 45.9565355192418], [-59.94962345449411, 45.95657953490946], [-59.94957725221241, 45.956584277075606], [-59.949546896894674, 45.95658738142436], [-59.949505682431806, 45.956594119994485], [-59.94949480900064, 45.9565958996706], [-59.949491347678396, 45.95659618522616], [-59.9494040632694, 45.95660337601288], [-59.949261723730146, 45.956610373795236], [-59.94887533817972, 45.956596448619166], [-59.94883869372388, 45.956596108411055], [-59.948823744419826, 45.95659596993444], [-59.94880331998761, 45.95658132881749], [-59.94879767109868, 45.95657727149719], [-59.94865749931777, 45.956521320655746], [-59.94859469407457, 45.956466528264244], [-59.94849421689608, 45.95639275434362], [-59.948442322321554, 45.95637426578837], [-59.94818607892853, 45.95631700321051], [-59.94811164918039, 45.956289415368445], [-59.948110182057846, 45.95628887210579], [-59.94808454619151, 45.95627490163164], [-59.94795733112615, 45.95620558799714], [-59.94791931164362, 45.95616945044202], [-59.94788391416397, 45.956126461327685], [-59.947844307516185, 45.95607834621909], [-59.94778813979121, 45.95603124650683], [-59.94775671897897, 45.95600489818335], [-59.94771889189118, 45.95594178121629], [-59.94765776261467, 45.955833037128876], [-59.94791567831891, 45.955836331628205], [-59.94803124354544, 45.955846621494544], [-59.9480762379872, 45.955861973524485], [-59.948197197729044, 45.955903262263035], [-59.948287749584466, 45.95592278418908], [-59.94832936421452, 45.95593623661469], [-59.948403135179596, 45.95596007136462], [-59.94845348037663, 45.95597269499255], [-59.94847951266316, 45.95597921429187], [-59.94850533393977, 45.95597900432617], [-59.94860459705308, 45.95597761587365], [-59.948815288506324, 45.95597467776693], [-59.948990389617286, 45.95598322736575], [-59.949059824934274, 45.95598662195905], [-59.94914951100925, 45.9559995944632], [-59.949265956020085, 45.95601643218607], [-59.94941821821886, 45.9560637044941], [-59.94945281966227, 45.95607633006728], [-59.94957256427708, 45.95612003310178], [-59.9496146003766, 45.956125584588925], [-59.949649436016095, 45.95613018761985], [-59.94969308276244, 45.956130849654706], [-59.94972680136807, 45.95613135444447], [-59.949778093272755, 45.95611382299938], [-59.94989224449844, 45.9560373142122], [-59.95002863596866, 45.95594589999356], [-59.950151152978876, 45.955893052581914], [-59.95025069661299, 45.95585012236292], [-59.950283980646724, 45.955839031313296], [-59.950328240568474, 45.955824291063806], [-59.950457646236586, 45.95582624435289], [-59.950482983388255, 45.95582662406407], [-59.950513756095255, 45.95582578082176], [-59.95071562109239, 45.95582023623928], [-59.95077960672537, 45.95583004584343], [-59.95086547450215, 45.9558516908314], [-59.95089543798375, 45.95585924164986], [-59.95093315840919, 45.95587735056509], [-59.95100767358933, 45.95597744952159], [-59.95109704847305, 45.956041941925584], [-59.951159171491426, 45.95613270903286], [-59.95116921737408, 45.95615164500853], [-59.95120713295061, 45.95622309795165], [-59.9512328169354, 45.956257599896304], [-59.951281636179864, 45.95632319640389], [-59.95131529849481, 45.95634729939172], [-59.951332545066855, 45.95635965900149], [-59.95136359109585, 45.95636442134253], [-59.95139653144341, 45.9563694682772], [-59.95141671344327, 45.9563697281332], [-59.95146101115035, 45.95637028986115], [-59.95152995434553, 45.95635374197505], [-59.951565641844795, 45.9563451809512], [-59.951577005281905, 45.95634128996522], [-59.951616920526185, 45.956327648326614], [-59.951644715090836, 45.95629148702245], [-59.9517642719689, 45.95615876650605], [-59.95181822065173, 45.956069298448504], [-59.95189980298855, 45.955899560642166], [-59.95191466185781, 45.95586395401142], [-59.95196978746286, 45.95572951315656], [-59.95203662128011, 45.955640388975276], [-59.95207154072841, 45.95560113246526], [-59.95207650571767, 45.95559554948073], [-59.95215603417949, 45.95553376570091], [-59.95215958838342, 45.95553084530111], [-59.952327674047005, 45.95539253399448], [-59.952419101466276, 45.95534907020737], [-59.95249750946171, 45.95530840012816], [-59.95258911935953, 45.95526089970308], [-59.95265329543683, 45.95524371085269], [-59.952849373840124, 45.95517423717558], [-59.95287855823129, 45.955159291610684], [-59.952901169869065, 45.95514771695131], [-59.95300745438669, 45.955068645881774], [-59.95307428571942, 45.95497952102246], [-59.95308884102664, 45.95492590447675], [-59.95307732227016, 45.95485359044791], [-59.95306732835746, 45.95482217187463], [-59.953054206385076, 45.954780966928695], [-59.95302889755472, 45.954760318676236], [-59.952965274834725, 45.95470838713453], [-59.95292303701362, 45.954677827192995], [-59.95290197413393, 45.954662584714946], [-59.95277419481918, 45.954615979482455], [-59.952741154638005, 45.95460877007963], [-59.952595669005035, 45.95457701148516], [-59.95248077631276, 45.954530740874226], [-59.9524547026512, 45.95451204326012], [-59.952444742830764, 45.95449671002324], [-59.95244280371788, 45.954493714992914], [-59.95244672875009, 45.954353496820666], [-59.95245085143097, 45.95420591224153], [-59.95254443984727, 45.954099500220195], [-59.952796535837585, 45.95383260344057], [-59.95286231765538, 45.953762352427425], [-59.95308873891455, 45.95353977392844], [-59.95310007985187, 45.95352898755353], [-59.95315408920662, 45.95347761197739], [-59.953175838771884, 45.95343539343051], [-59.95320896901048, 45.9533710755093], [-59.95325052053626, 45.95327226609532], [-59.95325268273759, 45.95320931797597], [-59.95326841308512, 45.953110737597115], [-59.953294176328306, 45.95302850942538], [-59.95331064755173, 45.95297594305721], [-59.95332438633232, 45.952936021947636], [-59.95333827711302, 45.952895681853185], [-59.953419659935626, 45.95275293107695], [-59.95350035870691, 45.95264617431608], [-59.95360589108969, 45.952557181689045], [-59.95375125454998, 45.95242424753101], [-59.953989213947686, 45.95220287514873], [-59.95407040409427, 45.95208712125621], [-59.9541135613848, 45.952048407907], [-59.95422919183777, 45.9519446527006], [-59.954234006079474, 45.95192462826397], [-59.95424423787033, 45.9518820482485], [-59.95425246543989, 45.951567239490615], [-59.954228363603455, 45.95151259154378], [-59.95421286128116, 45.95148443742817], [-59.954203719755974, 45.95146783004848], [-59.9541406104365, 45.95139504890182], [-59.95412942931173, 45.95138528174297], [-59.95407780516626, 45.95134025949506], [-59.954042035585914, 45.951329674343135], [-59.95401431679531, 45.95132146416229], [-59.95394984283575, 45.951320644165776], [-59.95387199111644, 45.95132846805285], [-59.95378205009051, 45.95134497017263], [-59.95372862336342, 45.95134412076538], [-59.95361444738055, 45.95134229760358], [-59.95360102028354, 45.9513518402588], [-59.95357415868035, 45.951372707531746], [-59.95352149965578, 45.951413624375554], [-59.95350225185017, 45.951417539200115], [-59.95348235190803, 45.95142158063379], [-59.953378680798615, 45.95142961532426], [-59.953185258638214, 45.95142715413963], [-59.953063500546776, 45.9513871184736], [-59.95295583700601, 45.951351725223745], [-59.952853835449105, 45.95130579899296], [-59.95284843022306, 45.95129353961325], [-59.952829734611555, 45.951251159773484], [-59.952829925603474, 45.95122415336952], [-59.952839094260916, 45.95121249896761], [-59.95284379649067, 45.95120652189882], [-59.9528783502423, 45.951183042827466], [-59.952896069316445, 45.95117100456057], [-59.95306602356667, 45.95108374070718], [-59.95313197604709, 45.95105759815942], [-59.9533401409534, 45.95097944623552], [-59.95339218755962, 45.950968278889015], [-59.953418485133795, 45.95096263501914], [-59.95365294777639, 45.95087529142413], [-59.95375677195101, 45.95084114915083], [-59.95397766653264, 45.95078943721646], [-59.95401237163246, 45.95078507060903], [-59.95410762455908, 45.95077310242366], [-59.95416845819991, 45.95076193511786], [-59.954197552174406, 45.950756590688925], [-59.95447097019443, 45.9506882862781], [-59.954527899214696, 45.95067584451871], [-59.954548038062576, 45.95067144024103], [-59.95467798279185, 45.95065510444367], [-59.9548331785955, 45.9506484428119], [-59.95487108640947, 45.950639552936636], [-59.95503984372657, 45.950587222457415], [-59.95509292811404, 45.95057076251921], [-59.95526649802522, 45.950530675173475], [-59.95527458797727, 45.95052880271804], [-59.95527962208593, 45.95052782986176], [-59.95549500037089, 45.95048607582019], [-59.955585734998216, 45.95047860334558], [-59.95565039765083, 45.95045241594805], [-59.95572972548903, 45.95041762770529], [-59.955793336229554, 45.95038214132054], [-59.955886788899605, 45.950330006933854], [-59.955990835573274, 45.95026797497566], [-59.9559967963452, 45.95025691885731], [-59.956005197688256, 45.95024135538309], [-59.9560175375405, 45.95020218871615], [-59.95603331477734, 45.95015209667022], [-59.95603399228824, 45.95011641742604], [-59.956034677514914, 45.95008012633068], [-59.95606246592167, 45.95004396376667], [-59.95607101985045, 45.95002985348954], [-59.9560823265176, 45.95001119017193], [-59.95608789347049, 45.95000213973603], [-59.95608939614458, 45.949999677565806], [-59.95610393838651, 45.94998554691912], [-59.956235238250166, 45.94985777014648], [-59.95627733573968, 45.94980207014775], [-59.956315940594514, 45.94975100246373], [-59.956449087051986, 45.94958172681825], [-59.956486753189516, 45.949543784271086], [-59.95652829808233, 45.94950193073291], [-59.95679086527013, 45.94932532150231], [-59.95681817384947, 45.94929813779646], [-59.95684358065894, 45.949270102320696], [-59.95685800046226, 45.949254195149265], [-59.95685811719624, 45.949249472822444], [-59.956861519766576, 45.94911927643028], [-59.95683648357841, 45.94909743916245], [-59.95679871370134, 45.94906449748702], [-59.956781542253665, 45.94902557922983], [-59.95677461029146, 45.94900985002187], [-59.956764564510344, 45.94891057307367], [-59.9567602255255, 45.948894147907666], [-59.95675280403752, 45.94886615551349], [-59.95677784101948, 45.94886300650354], [-59.95681775469847, 45.94885798580022], [-59.95690756454392, 45.94886758021333], [-59.95704494671555, 45.94890453587818], [-59.957048710781926, 45.948905545281896], [-59.957162751198936, 45.948943678868], [-59.957277447947405, 45.949016951088126], [-59.95736724526207, 45.94902654480428], [-59.95741976747518, 45.94900994278965], [-59.9574938338329, 45.94899765920718], [-59.95752263740823, 45.948992882245214], [-59.95756276730342, 45.94896694910271], [-59.95756943587311, 45.94896416552748], [-59.95777141060699, 45.94887980010149], [-59.95790171291124, 45.94880947415321], [-59.957954284473274, 45.94879196412297], [-59.95803262429911, 45.9487751496217], [-59.95816077032494, 45.94876776277031], [-59.95827664149859, 45.948796034097775], [-59.958314613889414, 45.948833067057414], [-59.9583186186622, 45.94884264262557], [-59.958326022100024, 45.94886037348412], [-59.95833559024766, 45.94890149217464], [-59.95834900432246, 45.948959094840305], [-59.95838132882691, 45.94901845239815], [-59.95839824760488, 45.94904951495368], [-59.9584360335145, 45.94911352740486], [-59.95846032632008, 45.94914117705754], [-59.95857421643244, 45.949205416643785], [-59.958688929015416, 45.94927867885789], [-59.958880001470796, 45.94937107646885], [-59.95898244758943, 45.94940890840541], [-59.95903205161044, 45.94942133661981], [-59.95905882018784, 45.94942804413771], [-59.95916004893616, 45.94944238731746], [-59.959199664853635, 45.94944799683514], [-59.95939387697362, 45.94945947869654], [-59.95944497303689, 45.94946893118656], [-59.95974083654544, 45.949509203884645], [-59.95981720956735, 45.94952833911906], [-59.959882192466786, 45.9495287823156], [-59.959907499576936, 45.94952895211758], [-59.96004883665592, 45.94953991604233], [-59.96009993242722, 45.94954937723138], [-59.96017611875874, 45.949595509754324], [-59.960227483228444, 45.94962387978986], [-59.96037960064822, 45.94969723606738], [-59.96053343660953, 45.94976253714047], [-59.96061050114914, 45.949810789943754], [-59.96062201655166, 45.949818000128545], [-59.96062947504391, 45.94982341915992], [-59.9606592446041, 45.94984509356587], [-59.96067655024667, 45.94985142278611], [-59.96068579783179, 45.94985480124613], [-59.96074620452141, 45.949874509925024], [-59.96079991729472, 45.949892042202414], [-59.960927972016734, 45.94995665646861], [-59.96099147427267, 45.94997544832152], [-59.96106784840139, 45.9499945827444], [-59.96109020509748, 45.95001047921561], [-59.9611062361302, 45.95002218394524], [-59.961131138552624, 45.9500403713715], [-59.961146859181234, 45.95005161779201], [-59.96118206146837, 45.95007682997056], [-59.961231939166076, 45.950132162476166], [-59.961307797992184, 45.950255557665145], [-59.96134332207568, 45.9503133433683], [-59.96135439580621, 45.95032768838432], [-59.96145538356123, 45.95045853887726], [-59.961541812495334, 45.95057695872106], [-59.9615579745038, 45.950650916624106], [-59.961565549269025, 45.95068559139071], [-59.96156204109221, 45.9508205105051], [-59.961562258544326, 45.950828094992154], [-59.96156833126064, 45.95103579777137], [-59.96160446115453, 45.95115377006461], [-59.96162377356718, 45.95134330145312], [-59.96165850260275, 45.951448671285185], [-59.96167136325007, 45.95148768109221], [-59.961674769100206, 45.95152166885451], [-59.961682214501856, 45.9515959888258], [-59.961691113138365, 45.95162958270622], [-59.961693979901554, 45.95164039698457], [-59.96172931344588, 45.95174934720599], [-59.9617501888243, 45.95177983947407], [-59.96176634424818, 45.95180343751417], [-59.96178035528082, 45.95181363025775], [-59.96180482640387, 45.95183146402243], [-59.961844253140356, 45.9518627469506], [-59.96194333997055, 45.951941359582854], [-59.962057252752814, 45.95200559625236], [-59.96211557843219, 45.95201999233943], [-59.96213490567624, 45.95202476397578], [-59.962180999664, 45.95203182293209], [-59.96219890220007, 45.952034567467344], [-59.962215789081675, 45.952043378538775], [-59.962287965977055, 45.952081041178936], [-59.96231113922742, 45.95208533005723], [-59.962339077382524, 45.95209050177242], [-59.96254538826887, 45.95209329030296], [-59.96263617450566, 45.95208490450315], [-59.962704415984774, 45.952068286191455], [-59.96273949059818, 45.95205975937268], [-59.96284316246081, 45.9520517071874], [-59.96303703028544, 45.95204606308419], [-59.96317935723709, 45.95203904778165], [-59.96323751172472, 45.95203651718076], [-59.96334621519644, 45.95203178465957], [-59.96338535473464, 45.95203222257121], [-59.963462280376184, 45.952033071359764], [-59.963486074388584, 45.952037808548354], [-59.96351461798179, 45.95204347312099], [-59.96353945547739, 45.95206122624698], [-59.96355015548297, 45.95207770330324], [-59.963551358143924, 45.95207954445437], [-59.963554716792, 45.952081838979744], [-59.96356504061696, 45.9520889091641], [-59.9635623989279, 45.952160845545706], [-59.96354785452762, 45.95221446371932], [-59.96348036660284, 45.95233958057211], [-59.963426134439054, 45.95241104495611], [-59.963343414687344, 45.9525057928623], [-59.963240292595685, 45.95262392226427], [-59.96320173946719, 45.95267506565021], [-59.96311924687348, 45.95278452678818], [-59.96307967958876, 45.95284737123718], [-59.96305126586439, 45.952918631094164], [-59.963035552888606, 45.953017213258015], [-59.96298044394828, 45.953151659904215], [-59.962860578630014, 45.95326727340061], [-59.96282124454474, 45.9533022393941], [-59.962811496381576, 45.95330564341952], [-59.96279493298085, 45.95331144038723], [-59.96257339407176, 45.95339826448797], [-59.96256843453042, 45.953403299023584], [-59.962547437687505, 45.95342456744593], [-59.96250591053846, 45.953463291338565], [-59.96248080865663, 45.953486709746706], [-59.96244093452908, 45.95353154415074], [-59.96232159453254, 45.953637279143784], [-59.962278884498154, 45.95366600756529], [-59.9621903023822, 45.95372559443273], [-59.96208428949058, 45.95382358301866], [-59.962022429954, 45.953871171603815], [-59.961992685694945, 45.95389405234123], [-59.961965906399044, 45.953920999330926], [-59.96186022305754, 45.95402734024358], [-59.96178070783276, 45.95408912123596], [-59.96171438198726, 45.954169281810316], [-59.96162107868614, 45.95424862542799], [-59.96161031300758, 45.954261426139546], [-59.96156854114553, 45.954311205193605], [-59.96150123191216, 45.95440933212691], [-59.9615005383573, 45.95440997973085], [-59.961434601486765, 45.95447145577355], [-59.96142103765412, 45.95450709810583], [-59.96141986790967, 45.95455207111196], [-59.96142168941451, 45.9545569890358], [-59.96144348640619, 45.95461570546676], [-59.96153290773236, 45.95474629299159], [-59.961542670442554, 45.954760558086285], [-59.96169290678887, 45.954915770001655], [-59.96175652111336, 45.95497956852264], [-59.96186989896284, 45.95505369201905], [-59.961928078852985, 45.9550953478156], [-59.96194565122214, 45.95510792150601], [-59.961972091778705, 45.95513224321973], [-59.96199602603434, 45.95515425703323], [-59.962046754548055, 45.95521772152083], [-59.96209668713106, 45.95527214597958], [-59.962121475901, 45.95529080719262], [-59.962117475168654, 45.955434740966844], [-59.962108134340866, 45.95548967649865], [-59.9621022650411, 45.95552431752631], [-59.96210128189846, 45.95554229301966], [-59.96202253543078, 45.9556131044535], [-59.961968310898946, 45.9556845683259], [-59.9619530860818, 45.95577417147477], [-59.9619115482727, 45.95587297537122], [-59.96191091318885, 45.95590699959507], [-59.9619101926225, 45.95594494590416], [-59.961915805871314, 45.95619621829769], [-59.96192733637458, 45.956268531713384], [-59.96196267236935, 45.95637749085888], [-59.96196119803508, 45.95640444510357], [-59.96197543874137, 45.956475813533444], [-59.961984494603506, 45.9565211756303], [-59.96199504153718, 45.95661147351534], [-59.96202143262175, 45.956657710903755], [-59.96203154772715, 45.95667545064638], [-59.96205277356426, 45.95672623101963], [-59.962092029138574, 45.95682016402247], [-59.96210727306004, 45.95684912923772], [-59.962153985117936, 45.95693792312435], [-59.96218083460165, 45.95697130149113], [-59.96219023537647, 45.956982991660595], [-59.96224319406317, 45.957021286069306], [-59.96225354704287, 45.957028780181204], [-59.962546928054124, 45.957186008150074], [-59.96260944361675, 45.95722276546711], [-59.96264747458114, 45.95725888040308], [-59.9626720785099, 45.95730453904428], [-59.96267109549048, 45.957322514541495], [-59.96265802267502, 45.95734917824712], [-59.96260476778534, 45.957402657554525], [-59.962487336410035, 45.95747334024516], [-59.96238222931726, 45.95750744732264], [-59.962287429611315, 45.95756451061349], [-59.96226479744184, 45.9575781297706], [-59.96225075889832, 45.95758280572541], [-59.96221221916771, 45.95759563260218], [-59.962061732283495, 45.95765270820193], [-59.962030367264894, 45.957664600815626], [-59.9619900389151, 45.957683464582786], [-59.9618992382038, 45.95772591761002], [-59.96176861340762, 45.95777824684854], [-59.96172922663708, 45.95781410213137], [-59.9616767272723, 45.95785752018682], [-59.96162227056667, 45.95792916671771], [-59.961516553582484, 45.95804516336002], [-59.96150298881138, 45.95808080566236], [-59.96150033715579, 45.958176215828374], [-59.96149898738047, 45.95822471234607], [-59.9615015679035, 45.95828440247245], [-59.96150639741999, 45.95839592518325], [-59.961516328125626, 45.95852130090077], [-59.96150171772317, 45.95857581710212], [-59.96147428262919, 45.9586290919203], [-59.96140685934516, 45.95867989839375], [-59.96136927847773, 45.958708204916285], [-59.96136733298607, 45.95870908922529], [-59.961329611367105, 45.9587260509523], [-59.96127781574244, 45.958752575004624], [-59.96123817197477, 45.958769521547815], [-59.96118608402867, 45.95877803613321], [-59.96109749324566, 45.958777226378395], [-59.96108290456251, 45.95877709010836], [-59.961019206119055, 45.95878528658984], [-59.96094036050554, 45.958811099505986], [-59.96080905358221, 45.958899412777406], [-59.96074241675667, 45.958961535824265], [-59.96066134752707, 45.95912230169331], [-59.960631756921785, 45.95923852468344], [-59.96057732700517, 45.95933698486949], [-59.96053681675414, 45.95941691385695], [-59.96050584317456, 45.959586222845644], [-59.96049077715537, 45.95966861132914], [-59.960433512871084, 45.959866005025724], [-59.96040865018739, 45.959960436813766], [-59.960391152077946, 45.960026892085395], [-59.96033148881158, 45.96014454658735], [-59.960323154797685, 45.960160994234464], [-59.96032263467727, 45.96016295156729], [-59.960308555604364, 45.960215510572716], [-59.96028393202123, 45.96026689776806], [-59.96025318936644, 45.96033104722698], [-59.960211657625685, 45.9604298506195], [-59.960182836220625, 45.96055509477647], [-59.96018162923213, 45.96055733984935], [-59.960168486047365, 45.96058171517985], [-59.96012352732087, 45.96061226408165], [-59.96009073944752, 45.96063455022926], [-59.960055311115404, 45.9606675850516], [-59.960024099165246, 45.960696681756225], [-59.95998489592847, 45.960705547853784], [-59.95992022398814, 45.96073171944458], [-59.959636496689114, 45.960727755825985], [-59.95953297515265, 45.96071059781796], [-59.95952012146178, 45.96070846436464], [-59.959301383950795, 45.96069633865314], [-59.959204179420695, 45.960698637337764], [-59.95906877508964, 45.96070184471886], [-59.95887482771591, 45.96070838008143], [-59.958831003530115, 45.96071395441238], [-59.95874616189741, 45.96072475474704], [-59.95873398437899, 45.960730541936826], [-59.95865473010272, 45.96076822347036], [-59.95861544722095, 45.9608028113222], [-59.95861405043668, 45.960804043230866], [-59.9585790146677, 45.96085133635188], [-59.95856109202049, 45.96087553917788], [-59.9585528431382, 45.9608972544431], [-59.95854752458504, 45.96091118104917], [-59.95853345195352, 45.96095581118205], [-59.958531327470915, 45.961018166280816], [-59.95853130787015, 45.96101875981285], [-59.958551900199105, 45.9612083255924], [-59.9585758712928, 45.961289071440156], [-59.958586789640115, 45.96132536556461], [-59.95858814940109, 45.96134271936431], [-59.958596651812435, 45.961451639756945], [-59.95860423065268, 45.96147420867894], [-59.958608858934745, 45.96148796820863], [-59.958670015623525, 45.96159670702726], [-59.95875742667276, 45.961697144316325], [-59.95883350173475, 45.96176938605393], [-59.95889893125097, 45.961813783684214], [-59.959010203665244, 45.96188929399648], [-59.959251933819694, 45.96200014153391], [-59.95948220456377, 45.96208458101545], [-59.9595240878729, 45.962105516166176], [-59.95968570394938, 45.962186308796554], [-59.959720942675744, 45.96220154943845], [-59.959750016213846, 45.96221412367713], [-59.95982905846797, 45.96223361794467], [-59.95994229199358, 45.96226155622466], [-59.9599923422666, 45.962277596190404], [-59.960031091317155, 45.96229001393494], [-59.96006320756612, 45.96229934780401], [-59.96009588300654, 45.96230884056539], [-59.96011315828473, 45.962312963845605], [-59.96013410286988, 45.96231795888645], [-59.96036622659818, 45.962321437639524], [-59.96058595469793, 45.96231558602582], [-59.960713452987655, 45.9623441822959], [-59.96081805559915, 45.962368532650316], [-59.96091863108285, 45.96239194764146], [-59.96099364873166, 45.96239278328804], [-59.96103480646637, 45.96239326671089], [-59.96107287574679, 45.96240325378813], [-59.96123940448003, 45.96244998985417], [-59.96124887088284, 45.962452474001374], [-59.9612775754645, 45.962460006572094], [-59.96130278073726, 45.96246898514475], [-59.96132948019835, 45.96247848952206], [-59.96140684215458, 45.96247964831115], [-59.96151141105768, 45.96240862445976], [-59.96155105740267, 45.962391677893606], [-59.961640260184915, 45.96239249457074], [-59.96165425650173, 45.9623926240051], [-59.961944812770724, 45.962153733195315], [-59.961984202628464, 45.96211787793478], [-59.9620505371936, 45.962037735502065], [-59.96209086109816, 45.96198480350152], [-59.96220977778479, 45.96188715830461], [-59.962262851355966, 45.961860676836444], [-59.962316259792665, 45.96185379003441], [-59.96232654129944, 45.96185246142957], [-59.962523574338014, 45.96185517411135], [-59.962958470323606, 45.96186117147061], [-59.96301056095653, 45.961852656145496], [-59.963050297453584, 45.96184277709865], [-59.96307598142803, 45.961836394614565], [-59.96314070292823, 45.9618093134726], [-59.9632287687777, 45.96177803775212], [-59.96331047718515, 45.961749023099394], [-59.96336307202738, 45.961731520204864], [-59.963385256316876, 45.961726826735564], [-59.96340093713276, 45.96172352644033], [-59.963582000459766, 45.96171664073264], [-59.963639503937934, 45.961732103237395], [-59.963723183903845, 45.961754598399445], [-59.96374887736191, 45.961762203288], [-59.963786687589426, 45.961773388680236], [-59.963850803231885, 45.96182819847214], [-59.96387999623269, 45.961828686734236], [-59.96403132637783, 45.96183119858605], [-59.964212575293615, 45.96179731435613], [-59.96435905025215, 45.961772010163386], [-59.96440671148263, 45.96176377247082], [-59.964427910209466, 45.96175680239114], [-59.964510537363736, 45.96172962047], [-59.964547790089945, 45.96171535447533], [-59.964602812544804, 45.961694279218264], [-59.96465059464266, 45.96168406445707], [-59.964719033898405, 45.961669466381295], [-59.96478468780595, 45.96162530753925], [-59.96483794539786, 45.96157181830953], [-59.964882584576166, 45.961519927120726], [-59.96489169410854, 45.96150934129149], [-59.96490725675751, 45.96147584890282], [-59.96494581248871, 45.96139286916311], [-59.96499711634601, 45.961308527122256], [-59.96499969664405, 45.96130429331955], [-59.965041600092015, 45.96126277929758], [-59.96508020201295, 45.96122452580697], [-59.96514702219254, 45.96113539456185], [-59.965186409282076, 45.96109953812117], [-59.965209039460134, 45.961084316190046], [-59.96525206164312, 45.9610553879682], [-59.96530384526984, 45.961028852797334], [-59.96535642594919, 45.96101134860715], [-59.96543496587177, 45.960967531879724], [-59.9654705610123, 45.96095453564783], [-59.96555216757063, 45.96092474261174], [-59.965603245839006, 45.96091134775598], [-59.96561763537403, 45.96090758079918], [-59.96564585440696, 45.96089919492041], [-59.965734394844894, 45.96087288032824], [-59.965761151568074, 45.96085558975306], [-59.96585262734176, 45.96081121642535], [-59.96593068844416, 45.960776387451105], [-59.965956633195425, 45.96075007443404], [-59.96599651052049, 45.9607052299211], [-59.96600169414033, 45.96069279352069], [-59.966011361885876, 45.960669621288055], [-59.966102972365476, 45.96059914896322], [-59.96611903868915, 45.960616659431146], [-59.96615291309549, 45.960653580810025], [-59.96617752130792, 45.96069923878116], [-59.96617587642162, 45.960753208989125], [-59.966124131142244, 45.96077881849057], [-59.966088702395474, 45.96079775088754], [-59.96599252019333, 45.96084913699019], [-59.96591446031164, 45.960883966039034], [-59.96573304369496, 45.96094485097242], [-59.965707818196385, 45.960952776378186], [-59.96548484424562, 45.961022862441865], [-59.96541453124734, 45.96105783403455], [-59.965380051369266, 45.96107498226574], [-59.965274029257806, 45.96117297349683], [-59.96522211038017, 45.96122559753234], [-59.96515596612094, 45.96127874441217], [-59.965128668707024, 45.961305921373665], [-59.96511545264614, 45.96136614559225], [-59.96511492051713, 45.96136856166893], [-59.965087500216455, 45.961421837727684], [-59.965047117544614, 45.96147566930635], [-59.9649533545132, 45.961609089288785], [-59.964888655814384, 45.961664110605014], [-59.96485996091153, 45.96168851410372], [-59.96482057268827, 45.96172437940066], [-59.96475490629079, 45.961768528930136], [-59.9646515364845, 45.961794574539844], [-59.964468862558675, 45.961854532955265], [-59.96441513589422, 45.96186606572792], [-59.96439050579616, 45.96187135143064], [-59.96424845973246, 45.96189637738445], [-59.9640024177928, 45.96191143726391], [-59.96396331648354, 45.96191536599003], [-59.96392455221027, 45.9619192676616], [-59.96379637617218, 45.96192666023377], [-59.963761498612804, 45.96191423871269], [-59.96374447106614, 45.9619081783966], [-59.963706299968706, 45.9618981625013], [-59.96369071117817, 45.96188962920961], [-59.96365617509951, 45.961870727147144], [-59.96357998232041, 45.961824596884405], [-59.96356608812326, 45.96182000599612], [-59.963553348014514, 45.96181578782942], [-59.963476465432755, 45.961805642426185], [-59.96333411339633, 45.96181265746663], [-59.96331221182502, 45.96181996868268], [-59.96330913570199, 45.961820993969376], [-59.963293062815666, 45.9618286312196], [-59.96321770544393, 45.961864466385066], [-59.963180478562556, 45.961878723632076], [-59.9631254286583, 45.96189981547477], [-59.96308372709462, 45.96191353063367], [-59.963021602157276, 45.96193395719775], [-59.9628921372664, 45.96194131447104], [-59.96270573789236, 45.96193200867635], [-59.96266045718617, 45.96192975102499], [-59.96258670934141, 45.961928599222865], [-59.9624154467747, 45.961925942201944], [-59.96234997734972, 45.9619430931327], [-59.96230014350063, 45.961965322440534], [-59.96227192533526, 45.961977919897784], [-59.96223153906005, 45.96203175938538], [-59.96217295073756, 45.962078831997005], [-59.96216540440526, 45.9620848957855], [-59.96215693276872, 45.962096785486374], [-59.96215282178702, 45.962102571643314], [-59.96213943018083, 45.962111207155054], [-59.96207306772176, 45.962183131149224], [-59.96203241654402, 45.962227179627476], [-59.96194779330657, 45.96229458530349], [-59.96175579389811, 45.9624475307149]], [[-59.95138140711531, 45.966213263982134], [-59.951353643542895, 45.96624852593151], [-59.95135865693563, 45.96625195409411], [-59.951367340141424, 45.966257892463524], [-59.95145455949556, 45.966337493295406], [-59.95146689986175, 45.966348758779006], [-59.95150487998685, 45.96638577611746], [-59.95152928630213, 45.9664029622611], [-59.95154340297402, 45.966412907038915], [-59.95158747078245, 45.9664135705748], [-59.95162078275361, 45.9664140729368], [-59.95162778169998, 45.96641048845845], [-59.951672577217245, 45.96638755324764], [-59.951712420767294, 45.96634361291758], [-59.95171382615, 45.966294740000784], [-59.951715283773005, 45.96624468037059], [-59.95167978339686, 45.96620293187157], [-59.951653438420884, 45.966171922750384], [-59.95153502008765, 45.96618992200569], [-59.95138140711531, 45.966213263982134]], [[-59.95211293095141, 45.96588986291898], [-59.95203524979917, 45.965870687674524], [-59.95201228694322, 45.96587047070876], [-59.95198364732188, 45.965870210203015], [-59.951979017625625, 45.96587460502007], [-59.95191828045029, 45.96593237097041], [-59.951842665107904, 45.96593152240291], [-59.9518021870941, 45.965931071813515], [-59.9518779439677, 45.96598529903131], [-59.951929497209015, 45.96598667531776], [-59.95198250609389, 45.96600832427687], [-59.95201912887937, 45.966023280211225], [-59.952109396957745, 45.966024780835035], [-59.95214875942284, 45.965989828326016], [-59.9521498427038, 45.96595434001973], [-59.95215041786123, 45.965935867695066], [-59.952125312991484, 45.96589919426866], [-59.95211895439271, 45.96589440710993], [-59.95211293095141, 45.96588986291898]], [[-59.954125177383084, 45.955677222452394], [-59.954140251024434, 45.95568591433767], [-59.95418897358824, 45.95571402757259], [-59.9542350444919, 45.95572860481134], [-59.9542790346498, 45.955742532470964], [-59.95431240120747, 45.955762162273444], [-59.954341542436886, 45.9557793031354], [-59.95441890756209, 45.95578046676959], [-59.9544451728175, 45.95577215755538], [-59.95449794092333, 45.95572766988237], [-59.95448567096751, 45.95570973697346], [-59.95447285113971, 45.955691006323754], [-59.95442223128049, 45.95567254549325], [-59.95430636197088, 45.95564425234082], [-59.954125177383084, 45.955677222452394]]]}}