{ "type": "FeatureCollection", "features": [{"type":"Feature","geometry":{"type":"Point","coordinates":[-65.47156816684722,44.643516409712404]},"properties":{"gaz_map":"021A11","admin_loc":"Annapolis","concise_ds":"Lake","orig_narr":null,"objectid":"1647","generic_cd":"951","locn_narr":"SE. of Annapolis Royal","county":"Annapolis","generic_tm":"Lake","cgndb_key":"CAODU","tmod_date":"20130205","concise_cd":"LAKE","status_cd":"1348","ordec_date":"19510906","jurr_narr":null,"fmod_date":"20151125","nad83_lon":"-65.471566","nts_map":"021A11,C.4000,C.4001,C.4003,C.4006,C.4012","status_ds":"Official - Official","decis_date":"19510906","nad83_lat":"44.643514","geoname":"Grand Lake"}},{"type":"Feature","geometry":{"type":"Point","coordinates":[-61.02049765285291,45.562581937387414]},"properties":{"gaz_map":"011F11","admin_loc":"Richmond","concise_ds":"Unincorporated area","orig_narr":"Application altered 17 April 2008 on 11F11 from 45º33'15\"-61º01'12\" to 45º33'45\"-61º02'46\" on 11F11.","objectid":"3974","generic_cd":"121","locn_narr":"Isle Madame","county":"Richmond","generic_tm":"Community (2)","cgndb_key":"CBUTV","tmod_date":"20130205","concise_cd":"UNP","status_cd":"1348","ordec_date":"20040211","jurr_narr":"Application altered 17 April 2008 on 11F11 from 45º33'15\"-61º01'12\" to 45º33'45\"-61º02'46\" on 11F11.","fmod_date":"20250522","nad83_lon":"-61.020494","nts_map":"011F11,C.4000,C.4001,C.4002,C.4003,C.4006,C.4013,C.4279,C.4307,C.4308,C.4335","status_ds":"Official - Official","decis_date":"20040211","nad83_lat":"45.562582","geoname":"Grand Lake"}},{"type":"Feature","geometry":{"type":"Point","coordinates":[-63.62992387646979,44.49112603245957]},"properties":{"gaz_map":"011D05","admin_loc":"Halifax","concise_ds":"Lake","orig_narr":null,"objectid":"4959","generic_cd":"951","locn_narr":"S. of Halifax","county":"Halifax","generic_tm":"Lake","cgndb_key":"CAODX","tmod_date":"20130205","concise_cd":"LAKE","status_cd":"1348","ordec_date":"19530305","jurr_narr":null,"fmod_date":"20151125","nad83_lon":"-63.62992","nts_map":"011D05,C.4000,C.4001,C.4003,C.4006,C.4012,C.4013,C.4237,C.4320,C.4385,C.8007","status_ds":"Official - Official","decis_date":"19530305","nad83_lat":"44.491124","geoname":"Grand Lake"}},{"type":"Feature","geometry":{"type":"Point","coordinates":[-63.591519816731115,44.892196898821595]},"properties":{"gaz_map":"011D13","admin_loc":"Halifax Regional Municipality","concise_ds":"Unincorporated area","orig_narr":"Grand Lake Station was approved 2 Nov. 1921 on 11D/13.\n\nName changed from Grand Lake Station to Grand Lake following the NS Civic Address Review and on advice from HRM, 26 February 2007.  (D.Wills)","objectid":"4483","generic_cd":"121","locn_narr":null,"county":"Halifax","generic_tm":"Community (2)","cgndb_key":"CCAAS","tmod_date":"20130527","concise_cd":"UNP","status_cd":"1348","ordec_date":"20070226","jurr_narr":"Grand Lake Station was approved 2 Nov. 1921 on 11D/13.\n\nName changed from Grand Lake Station to Grand Lake following the NS Civic Address Review and on advice from HRM, 26 February 2007.(D.Wills)\n\nCoordinates refined from 44 53 29.004 N 63 35 31.9992 W t","fmod_date":"20151125","nad83_lon":"-63.591517","nts_map":"011D13,C.4000,C.4001,C.4003,C.4006,C.4013","status_ds":"Official - Official","decis_date":"20070226","nad83_lat":"44.892195","geoname":"Grand Lake"}},{"type":"Feature","geometry":{"type":"Point","coordinates":[-63.327082545866546,44.721144568994255]},"properties":{"gaz_map":"011D11","admin_loc":"Halifax","concise_ds":"Lake","orig_narr":null,"objectid":"7963","generic_cd":"951","locn_narr":"NE. of Halifax","county":"Halifax","generic_tm":"Lake","cgndb_key":"CAOEF","tmod_date":"20130205","concise_cd":"LAKE","status_cd":"1348","ordec_date":"19211004","jurr_narr":null,"fmod_date":"20151125","nad83_lon":"-63.327079","nts_map":"011D11,C.4000,C.4001,C.4003,C.4006,C.4012,C.4013,C.4236,C.4320,C.8007","status_ds":"Official - Official","decis_date":"19211004","nad83_lat":"44.721143","geoname":"Grand Lake"}},{"type":"Feature","geometry":{"type":"Point","coordinates":[-61.05000375636981,45.55000004964752]},"properties":{"gaz_map":"011F11","admin_loc":"Richmond","concise_ds":"Lake","orig_narr":"Approval on 11F/NW.","objectid":"11513","generic_cd":"951","locn_narr":"Isle Madame","county":"Richmond","generic_tm":"Lake","cgndb_key":"CAOEC","tmod_date":"20130205","concise_cd":"LAKE","status_cd":"1348","ordec_date":"19410429","jurr_narr":null,"fmod_date":"20151125","nad83_lon":"-61.05","nts_map":"011F11,C.4000,C.4001,C.4002,C.4003,C.4006,C.4013,C.4307,C.4308,C.4335","status_ds":"Official - Official","decis_date":"19410429","nad83_lat":"45.55","geoname":"Grand Lake"}},{"type":"Feature","geometry":{"type":"Point","coordinates":[-59.9555965562096,45.959238759320655]},"properties":{"gaz_map":"011G13","admin_loc":"Cape Breton","concise_ds":"Lake","orig_narr":null,"objectid":"10895","generic_cd":"951","locn_narr":"S. of Mira Bay","county":"Cape Breton","generic_tm":"Lake","cgndb_key":"CAOED","tmod_date":"20130205","concise_cd":"LAKE","status_cd":"1348","ordec_date":"19240704","jurr_narr":null,"fmod_date":"20151125","nad83_lon":"-59.95559","nts_map":"011G13,C.4000,C.4001,C.4002,C.4003,C.4006,C.4013,C.4015,C.4045,C.4375","status_ds":"Official - Official","decis_date":"19240704","nad83_lat":"45.959241","geoname":"Grand Lake"}},{"type":"Feature","geometry":{"type":"Point","coordinates":[-62.59600315431424,44.91975056676647]},"properties":{"gaz_map":"011D15","admin_loc":"Halifax","concise_ds":"Lake","orig_narr":null,"objectid":"16980","generic_cd":"951","locn_narr":"W. of Sheet Harbour","county":"Halifax","generic_tm":"Lake","cgndb_key":"CAOEA","tmod_date":"20130205","concise_cd":"LAKE","status_cd":"1348","ordec_date":"19391212","jurr_narr":null,"fmod_date":"20151125","nad83_lon":"-62.595998","nts_map":"011D15,C.4000,C.4001,C.4003,C.4006,C.4013,C.4227,C.4236","status_ds":"Official - Official","decis_date":"19391212","nad83_lat":"44.919749","geoname":"Grand Lake"}},{"type":"Feature","geometry":{"type":"Point","coordinates":[-63.15364025981714,44.89595673559362]},"properties":{"gaz_map":"011D14","admin_loc":"Halifax","concise_ds":"Lake","orig_narr":null,"objectid":"16736","generic_cd":"951","locn_narr":"W. of Lake Charlotte","county":"Halifax","generic_tm":"Lake","cgndb_key":"CAOEB","tmod_date":"20130205","concise_cd":"LAKE","status_cd":"1348","ordec_date":"19211014","jurr_narr":null,"fmod_date":"20151125","nad83_lon":"-63.153636","nts_map":"011D14,C.4000,C.4001,C.4003,C.4006,C.4013,C.4236","status_ds":"Official - Official","decis_date":"19211014","nad83_lat":"44.895955","geoname":"Grand Lake"}},{"type":"Feature","geometry":{"type":"Point","coordinates":[-60.128224350137764,46.16458740914168]},"properties":{"gaz_map":"011K01","admin_loc":"Cape Breton","concise_ds":"Lake","orig_narr":null,"objectid":"18301","generic_cd":"951","locn_narr":"E. of Sydney","county":"Cape Breton","generic_tm":"Lake","cgndb_key":"CAODY","tmod_date":"20130205","concise_cd":"LAKE","status_cd":"1348","ordec_date":"19361203","jurr_narr":null,"fmod_date":"20151125","nad83_lon":"-60.128218","nts_map":"011K01,C.4000,C.4001,C.4002,C.4003,C.4006,C.4013,C.4015,C.4022,C.4045,C.4375","status_ds":"Official - Official","decis_date":"19361203","nad83_lat":"46.164587","geoname":"Grand Lake"}}], "crs" : { "type": "name", "properties": { "name": "urn:ogc:def:crs:OGC:1.3:CRS84" } } }