{ "type": "FeatureCollection", "features": [{"type":"Feature","geometry":{"type":"Point","coordinates":[-60.30720313890567,46.06925196297727]},"properties":{"gaz_map":"011K01","admin_loc":"Cape Breton","concise_ds":"Lake","orig_narr":"Blackett Lake was adopted 6 May 1924 on 11K/1 and confirmed 3 December 1953 on 11K/1. Changed to Blacketts Lake 14 January 1954 on 11K/1.","objectid":"3159","generic_cd":"951","locn_narr":"SW. of Sydney","county":"Cape Breton","generic_tm":"Lake","cgndb_key":"CADXP","tmod_date":"20130205","concise_cd":"LAKE","status_cd":"1348","ordec_date":"19540114","jurr_narr":null,"fmod_date":"20151125","nad83_lon":"-60.307198","nts_map":"011K01","status_ds":"Official - Official","decis_date":"19540114","nad83_lat":"46.069253","geoname":"Blacketts Lake"}},{"type":"Feature","geometry":{"type":"Point","coordinates":[-60.32432304982094,46.06658199540903]},"properties":{"gaz_map":"011K01","admin_loc":"Cape Breton","concise_ds":"Unincorporated area","orig_narr":"Blackett Lake was adopted 6 May 1924 on 11K/1. Changed to Blacketts Lake 3 December 1953 on 11K/1.\r\n\r\nGeneric altered to Community, August 2005.   (D.Wills)\r\n\r\nAltered application on May 21, 2013.","objectid":"20750","generic_cd":"121","locn_narr":"SW. of Sydney","county":"Cape Breton","generic_tm":"Community (2)","cgndb_key":"CADXO","tmod_date":"20191018","concise_cd":"UNP","status_cd":"1348","ordec_date":"19531203","jurr_narr":"Blackett Lake was adopted 6 May 1924 on 11K/1. Changed to Blacketts Lake 3 December 1953 on 11K/1.\r\nBlacketts Lake (Dispersed Rural Community) became Blacketts Lake (Community) by decision 26-June-2007 at 46 04 35 -60 17 53 on 011K01.\r\nAltered applicatio","fmod_date":"20151125","nad83_lon":"-60.324318","nts_map":"011K01","status_ds":"Official - Official","decis_date":"20130521","nad83_lat":"46.066583","geoname":"Blacketts Lake"}},{"type":"Feature","geometry":{"type":"Point","coordinates":[-60.56764477452704,45.798814553024776]},"properties":{"gaz_map":"011F15","admin_loc":"Richmond; Cape Breton","concise_ds":"Lake","orig_narr":"Lake Uist was approved 6 March 1952 on 11 F/15. Application altered to 45 48 - 60 34 on 20 January 1955 on 11 F/15.","objectid":"1307","generic_cd":"951","locn_narr":"N. of Loch Lomond","county":"Richmond; Cape Breton","generic_tm":"Lake","cgndb_key":"CBMSG","tmod_date":"20130205","concise_cd":"LAKE","status_cd":"1348","ordec_date":"19550120","jurr_narr":null,"fmod_date":"20151125","nad83_lon":"-60.567642","nts_map":"011F15","status_ds":"Official - Official","decis_date":"19550120","nad83_lat":"45.798815","geoname":"Lake Uist"}},{"type":"Feature","geometry":{"type":"Point","coordinates":[-60.63299337643461,45.778821020053186]},"properties":{"gaz_map":"011F15","admin_loc":"Richmond","concise_ds":"Unincorporated area","orig_narr":"Lake Uist was approved 2 November 1950 on 11 F/15. Named after North Uist in Scotland by people who emmigrated from Scotland three generations ago. (A. McDonald Pm 1906) \r\n\r\n Lake Uist was approved 2 November 1950 on 11 F/15. Application altered 18 April","objectid":"21241","generic_cd":"121","locn_narr":"E. of Bras d'Or Lake","county":"Richmond","generic_tm":"Community (2)","cgndb_key":"CATIG","tmod_date":"20191121","concise_cd":"UNP","status_cd":"1348","ordec_date":"19501102","jurr_narr":"Lake Uist was approved 2 November 1950 on 11 F/15. \r\nLake Uist (Locality) became Lake Uist (Community) by decision 26-June-2007 at 45 46 52 -60 37 26 on 011F15.\r\n(1) Named after North Uist in Scotland by people who emmigrated from Scotland three generati","fmod_date":"20151125","nad83_lon":"-60.63299","nts_map":"011F15","status_ds":"Official - Official","decis_date":"20070626","nad83_lat":"45.778821","geoname":"Lake Uist"}},{"type":"Feature","geometry":{"type":"Point","coordinates":[-60.355213989379074,45.91388564853474]},"properties":{"gaz_map":"011F16","admin_loc":"Cape Breton","concise_ds":"Lake","orig_narr":"McAdam Lake was adopted 2 December 1924 on 11F/16. Changed to MacAdams Lake 20 February 1976 on 11F/16.","objectid":"18081","generic_cd":"951","locn_narr":"E. of Bras d'Or Lake","county":"Cape Breton","generic_tm":"Lake","cgndb_key":"CAWDM","tmod_date":"20130205","concise_cd":"LAKE","status_cd":"1348","ordec_date":"19760220","jurr_narr":null,"fmod_date":"20151125","nad83_lon":"-60.35521","nts_map":"011F16","status_ds":"Official - Official","decis_date":"19760220","nad83_lat":"45.913887","geoname":"MacAdams Lake"}}], "crs" : { "type": "name", "properties": { "name": "urn:ogc:def:crs:OGC:1.3:CRS84" } } }