{ "type": "FeatureCollection", "features": [{"type":"Feature","geometry":{"type":"Point","coordinates":[-60.56764477452704,45.798814553024776]},"properties":{"gaz_map":"011F15","admin_loc":"Richmond; Cape Breton","concise_ds":"Lake","orig_narr":"Lake Uist was approved 6 March 1952 on 11 F/15. Application altered to 45 48 - 60 34 on 20 January 1955 on 11 F/15.","objectid":"1307","generic_cd":"951","locn_narr":"N. of Loch Lomond","county":"Richmond; Cape Breton","generic_tm":"Lake","cgndb_key":"CBMSG","tmod_date":"20130205","concise_cd":"LAKE","status_cd":"1348","ordec_date":"19550120","jurr_narr":null,"fmod_date":"20151125","nad83_lon":"-60.567642","nts_map":"011F15","status_ds":"Official - Official","decis_date":"19550120","nad83_lat":"45.798815","geoname":"Lake Uist"}},{"type":"Feature","geometry":{"type":"Point","coordinates":[-60.46846168497962,45.845986307411096]},"properties":{"gaz_map":"011F16","admin_loc":"Cape Breton","concise_ds":"Lake","orig_narr":null,"objectid":"1886","generic_cd":"951","locn_narr":"E. of Bras d'Or Lake","county":"Cape Breton","generic_tm":"Lake","cgndb_key":"CAYBH","tmod_date":"20130205","concise_cd":"LAKE","status_cd":"1348","ordec_date":"19241202","jurr_narr":null,"fmod_date":"20151125","nad83_lon":"-60.468458","nts_map":"011F16","status_ds":"Official - Official","decis_date":"19241202","nad83_lat":"45.845987","geoname":"McCuish Lake"}},{"type":"Feature","geometry":{"type":"Point","coordinates":[-60.49650740590816,45.83518936900577]},"properties":{"gaz_map":"011F16","admin_loc":"Cape Breton","concise_ds":"Lake","orig_narr":null,"objectid":"2081","generic_cd":"951","locn_narr":"E. of Bras d'Or Lake","county":"Cape Breton","generic_tm":"Lake","cgndb_key":"CBAGP","tmod_date":"20130205","concise_cd":"LAKE","status_cd":"1348","ordec_date":"19241202","jurr_narr":null,"fmod_date":"20151125","nad83_lon":"-60.496504","nts_map":"011F16","status_ds":"Official - Official","decis_date":"19241202","nad83_lat":"45.83519","geoname":"Morrison Lake"}},{"type":"Feature","geometry":{"type":"Point","coordinates":[-60.57280351202513,45.85807375647022]},"properties":{"gaz_map":"011F15","admin_loc":"Cape Breton","concise_ds":"Lake","orig_narr":null,"objectid":"4694","generic_cd":"951","locn_narr":"S. of East Bay","county":"Cape Breton","generic_tm":"Lake","cgndb_key":"CAWEZ","tmod_date":"20130205","concise_cd":"LAKE","status_cd":"1348","ordec_date":"19760223","jurr_narr":null,"fmod_date":"20151125","nad83_lon":"-60.5728","nts_map":"011F15","status_ds":"Official - Official","decis_date":"19760223","nad83_lat":"45.858074","geoname":"MacCormicks Lake"}},{"type":"Feature","geometry":{"type":"Point","coordinates":[-60.49684186447068,45.798800295217426]},"properties":{"gaz_map":"011F16","admin_loc":"Cape Breton","concise_ds":"Lake","orig_narr":"Formerly approved as McCuish Lake 2 Dec. 1924. Changed to MacCuishs Lake 20 Feb. 1976 on 11F/16.","objectid":"3344","generic_cd":"951","locn_narr":"E. of Bras d'Or Lake","county":"Cape Breton","generic_tm":"Lake","cgndb_key":"CAWFH","tmod_date":"20130205","concise_cd":"LAKE","status_cd":"1348","ordec_date":"19760220","jurr_narr":null,"fmod_date":"20151125","nad83_lon":"-60.496839","nts_map":"011F16","status_ds":"Official - Official","decis_date":"19760220","nad83_lat":"45.798801","geoname":"MacCuishs Lake"}},{"type":"Feature","geometry":{"type":"Point","coordinates":[-60.4491166760634,45.851359226380254]},"properties":{"gaz_map":"011F16","admin_loc":"Cape Breton","concise_ds":"Lake","orig_narr":null,"objectid":"3476","generic_cd":"951","locn_narr":"E. of Bras d'Or Lake","county":"Cape Breton","generic_tm":"Lake","cgndb_key":"CATCD","tmod_date":"20130205","concise_cd":"LAKE","status_cd":"1348","ordec_date":"19241202","jurr_narr":null,"fmod_date":"20151125","nad83_lon":"-60.449113","nts_map":"011F16","status_ds":"Official - Official","decis_date":"19241202","nad83_lat":"45.85136","geoname":"Klondyke Lake"}},{"type":"Feature","geometry":{"type":"Point","coordinates":[-60.43734386169357,45.79723104829778]},"properties":{"gaz_map":"011F16","admin_loc":"Cape Breton","concise_ds":"Lake","orig_narr":null,"objectid":"3129","generic_cd":"951","locn_narr":"E. of Bras d'Or Lake","county":"Cape Breton","generic_tm":"Lake","cgndb_key":"CAKAT","tmod_date":"20130205","concise_cd":"LAKE","status_cd":"1348","ordec_date":"19241202","jurr_narr":null,"fmod_date":"20151125","nad83_lon":"-60.437341","nts_map":"011F16","status_ds":"Official - Official","decis_date":"19241202","nad83_lat":"45.797232","geoname":"Duck Lake"}},{"type":"Feature","geometry":{"type":"Point","coordinates":[-60.54099680538061,45.811304419808685]},"properties":{"gaz_map":"011F15","admin_loc":"Cape Breton","concise_ds":"Lake","orig_narr":"Enon Lake was adopted 6 March 1952 on 11 F/15 at 45 48 - 60 34. Name changed to Lake Uist 20 January 1955 on 11 F/15. At the same time Enon Lake was adopted 20 January 1955 on 11 F/15 at 45 49 - 60 33 (esentially making this an altered application). For","objectid":"3188","generic_cd":"951","locn_narr":"E. of Bras d'Or Lake","county":"Cape Breton","generic_tm":"Lake","cgndb_key":"CALIG","tmod_date":"20130205","concise_cd":"LAKE","status_cd":"1348","ordec_date":"19550120","jurr_narr":null,"fmod_date":"20151125","nad83_lon":"-60.540994","nts_map":"011F15","status_ds":"Official - Official","decis_date":"19550120","nad83_lat":"45.811305","geoname":"Enon Lake"}},{"type":"Feature","geometry":{"type":"Point","coordinates":[-60.63044665787004,45.8203311253138]},"properties":{"gaz_map":"011F15","admin_loc":"Cape Breton; Richmond","concise_ds":"Lake","orig_narr":"Rear Irish Cove Lakes was approved 23 February 1976 on 11 F/15.","objectid":"6879","generic_cd":"952","locn_narr":"E. of Bras d'Or Lake","county":"Cape Breton; Richmond","generic_tm":"Lakes","cgndb_key":"CBFJP","tmod_date":"20130205","concise_cd":"LAKE","status_cd":"1348","ordec_date":"19760223","jurr_narr":null,"fmod_date":"20151125","nad83_lon":"-60.630443","nts_map":"011F15","status_ds":"Official - Official","decis_date":"19760223","nad83_lat":"45.820331","geoname":"Rear Irish Cove Lakes"}},{"type":"Feature","geometry":{"type":"Point","coordinates":[-60.59626767375506,45.84454396397331]},"properties":{"gaz_map":"011F15","admin_loc":"Cape Breton","concise_ds":"Lake","orig_narr":null,"objectid":"6235","generic_cd":"952","locn_narr":"E. of Bras d'Or Lake","county":"Cape Breton","generic_tm":"Lakes","cgndb_key":"CAZCB","tmod_date":"20130205","concise_cd":"LAKE","status_cd":"1348","ordec_date":"19760223","jurr_narr":null,"fmod_date":"20151125","nad83_lon":"-60.596264","nts_map":"011F15","status_ds":"Official - Official","decis_date":"19760223","nad83_lat":"45.844544","geoname":"Middle Cape Lakes"}},{"type":"Feature","geometry":{"type":"Point","coordinates":[-60.46209842469018,45.81199725682589]},"properties":{"gaz_map":"011F16","admin_loc":"Cape Breton","concise_ds":"Lake","orig_narr":null,"objectid":"9781","generic_cd":"951","locn_narr":"E. of Bras d'Or Lake","county":"Cape Breton","generic_tm":"Lake","cgndb_key":"CAIVN","tmod_date":"20130205","concise_cd":"LAKE","status_cd":"1348","ordec_date":"19241202","jurr_narr":null,"fmod_date":"20151125","nad83_lon":"-60.462095","nts_map":"011F16","status_ds":"Official - Official","decis_date":"19241202","nad83_lat":"45.811998","geoname":"Dam Lake"}},{"type":"Feature","geometry":{"type":"Point","coordinates":[-60.45542966852847,45.78075709294648]},"properties":{"gaz_map":"011F16","admin_loc":"Cape Breton","concise_ds":"Lake","orig_narr":"McLeod Lake was adopted 2 December 1924 on 11F/16. Changed to MacLeod Lake 20 February 1976 on 11F/16.","objectid":"9570","generic_cd":"951","locn_narr":"E. of Bras d'Or Lake","county":"Cape Breton","generic_tm":"Lake","cgndb_key":"CAWWY","tmod_date":"20130205","concise_cd":"LAKE","status_cd":"1348","ordec_date":"19760220","jurr_narr":null,"fmod_date":"20151125","nad83_lon":"-60.455427","nts_map":"011F16","status_ds":"Official - Official","decis_date":"19760220","nad83_lat":"45.780758","geoname":"MacLeod Lake"}},{"type":"Feature","geometry":{"type":"Point","coordinates":[-60.492510817348105,45.790632275705526]},"properties":{"gaz_map":"011F15","admin_loc":"Cape Breton","concise_ds":"Lake","orig_narr":"Formerly approved as Powder Horn Lake 2 Dec. 1924 on 11F/16. Changed to Powderhorn Lake 2 Nov. 1950 on 11F/15.","objectid":"9322","generic_cd":"951","locn_narr":"E. of Loch Lomond","county":"Cape Breton","generic_tm":"Lake","cgndb_key":"CBEQB","tmod_date":"20130205","concise_cd":"LAKE","status_cd":"1348","ordec_date":"19501102","jurr_narr":null,"fmod_date":"20151125","nad83_lon":"-60.492508","nts_map":"011F15,011F16","status_ds":"Official - Official","decis_date":"19501102","nad83_lat":"45.790633","geoname":"Powderhorn Lake"}},{"type":"Feature","geometry":{"type":"Point","coordinates":[-60.57618202171374,45.80675967988348]},"properties":{"gaz_map":"011F15","admin_loc":"Cape Breton","concise_ds":"Lake","orig_narr":null,"objectid":"9746","generic_cd":"951","locn_narr":"N. of Lake Uist","county":"Cape Breton","generic_tm":"Lake","cgndb_key":"CAEVW","tmod_date":"20130205","concise_cd":"LAKE","status_cd":"1348","ordec_date":"19550120","jurr_narr":null,"fmod_date":"20151125","nad83_lon":"-60.576179","nts_map":"011F15","status_ds":"Official - Official","decis_date":"19550120","nad83_lat":"45.80676","geoname":"Boyd Lake"}},{"type":"Feature","geometry":{"type":"Point","coordinates":[-60.447644277456035,45.80999516809142]},"properties":{"gaz_map":"011F16","admin_loc":"Cape Breton","concise_ds":"Lake","orig_narr":null,"objectid":"9153","generic_cd":"951","locn_narr":"E. of Bras d'Or Lake","county":"Cape Breton","generic_tm":"Lake","cgndb_key":"CAQCN","tmod_date":"20130205","concise_cd":"LAKE","status_cd":"1348","ordec_date":"19241202","jurr_narr":null,"fmod_date":"20151125","nad83_lon":"-60.447641","nts_map":"011F16","status_ds":"Official - Official","decis_date":"19241202","nad83_lat":"45.809996","geoname":"Heifer Lake"}},{"type":"Feature","geometry":{"type":"Point","coordinates":[-60.45394767645807,45.88012424692722]},"properties":{"gaz_map":"011F16","admin_loc":"Cape Breton","concise_ds":"Lake","orig_narr":null,"objectid":"8180","generic_cd":"952","locn_narr":"E. of Bras d'Or Lake","county":"Cape Breton","generic_tm":"Lakes","cgndb_key":"CASHQ","tmod_date":"20130205","concise_cd":"LAKE","status_cd":"1348","ordec_date":"19241202","jurr_narr":null,"fmod_date":"20151125","nad83_lon":"-60.453944","nts_map":"011F16","status_ds":"Official - Official","decis_date":"19241202","nad83_lat":"45.880125","geoname":"Johnston Lakes"}},{"type":"Feature","geometry":{"type":"Point","coordinates":[-60.46594749171104,45.81470128190015]},"properties":{"gaz_map":"011F16","admin_loc":"Cape Breton","concise_ds":"Lake","orig_narr":null,"objectid":"8367","generic_cd":"951","locn_narr":"E. of Bras d'Or Lake","county":"Cape Breton","generic_tm":"Lake","cgndb_key":"CAIEQ","tmod_date":"20130205","concise_cd":"LAKE","status_cd":"1348","ordec_date":"19241202","jurr_narr":null,"fmod_date":"20151125","nad83_lon":"-60.465944","nts_map":"011F16","status_ds":"Official - Official","decis_date":"19241202","nad83_lat":"45.814702","geoname":"Cranberry Lake"}},{"type":"Feature","geometry":{"type":"Point","coordinates":[-60.59604016247683,45.79175483474455]},"properties":{"gaz_map":"011F15","admin_loc":"Richmond","concise_ds":"Lake","orig_narr":null,"objectid":"12350","generic_cd":"951","locn_narr":"W. of Lake Uist","county":"Richmond","generic_tm":"Lake","cgndb_key":"CBAGQ","tmod_date":"20130205","concise_cd":"LAKE","status_cd":"1348","ordec_date":"19760223","jurr_narr":null,"fmod_date":"20151125","nad83_lon":"-60.596037","nts_map":"011F15","status_ds":"Official - Official","decis_date":"19760223","nad83_lat":"45.791755","geoname":"Morrison Lake"}},{"type":"Feature","geometry":{"type":"Point","coordinates":[-60.46995268620389,45.83097831013678]},"properties":{"gaz_map":"011F16","admin_loc":"Cape Breton","concise_ds":"Lake","orig_narr":"McDonald Lake was adopted 2 December 1924 on 11F/16. Changed to MacDonald Lake 20 February 1976 on 11F/16.","objectid":"12218","generic_cd":"951","locn_narr":"E. of Bras d'Or Lake","county":"Cape Breton","generic_tm":"Lake","cgndb_key":"CAWGN","tmod_date":"20130205","concise_cd":"LAKE","status_cd":"1348","ordec_date":"19760220","jurr_narr":null,"fmod_date":"20151125","nad83_lon":"-60.469949","nts_map":"011F16","status_ds":"Official - Official","decis_date":"19760220","nad83_lat":"45.830979","geoname":"MacDonald Lake"}},{"type":"Feature","geometry":{"type":"Point","coordinates":[-60.44141364212768,45.857985188248755]},"properties":{"gaz_map":"011F16","admin_loc":"Cape Breton","concise_ds":"Lake","orig_narr":"McDonald Lake was adopted 2 December 1924 on 11F/16. Changed to Little MacDonald Lake 20 February 1976 on 11F/16.","objectid":"10488","generic_cd":"951","locn_narr":"E. of Bras d'Or Lake","county":"Cape Breton","generic_tm":"Lake","cgndb_key":"CAUMM","tmod_date":"20130205","concise_cd":"LAKE","status_cd":"1348","ordec_date":"19760220","jurr_narr":null,"fmod_date":"20151125","nad83_lon":"-60.44141","nts_map":"011F16","status_ds":"Official - Official","decis_date":"19760220","nad83_lat":"45.857986","geoname":"Little MacDonald Lake"}},{"type":"Feature","geometry":{"type":"Point","coordinates":[-60.40809255711322,45.87087899570291]},"properties":{"gaz_map":"011F16","admin_loc":"Cape Breton","concise_ds":"Lake","orig_narr":null,"objectid":"10345","generic_cd":"951","locn_narr":"E. of Bras d'Or Lake","county":"Cape Breton","generic_tm":"Lake","cgndb_key":"CBCOL","tmod_date":"20130205","concise_cd":"LAKE","status_cd":"1348","ordec_date":"19241202","jurr_narr":null,"fmod_date":"20151125","nad83_lon":"-60.408089","nts_map":"011F16","status_ds":"Official - Official","decis_date":"19241202","nad83_lat":"45.87088","geoname":"Otter Lake"}},{"type":"Feature","geometry":{"type":"Point","coordinates":[-60.463803003265774,45.78908920418745]},"properties":{"gaz_map":"011F16","admin_loc":"Cape Breton","concise_ds":"Lake","orig_narr":"Island Lake was adopted 2 December 1924 on 11F/16. Changed to Big Island Lake 20 February 1976 on 11F/16.","objectid":"14879","generic_cd":"951","locn_narr":"E. of Bras d'Or Lake","county":"Cape Breton","generic_tm":"Lake","cgndb_key":"CADGC","tmod_date":"20130205","concise_cd":"LAKE","status_cd":"1348","ordec_date":"19760220","jurr_narr":null,"fmod_date":"20151125","nad83_lon":"-60.4638","nts_map":"011F16","status_ds":"Official - Official","decis_date":"19760220","nad83_lat":"45.78909","geoname":"Big Island Lake"}},{"type":"Feature","geometry":{"type":"Point","coordinates":[-60.48750664660398,45.870655403870025]},"properties":{"gaz_map":"011F16","admin_loc":"Cape Breton","concise_ds":"Lake","orig_narr":"McNeill Lakes was adopted 2 December 1924 on 11F/16. Changed to MacNeil Lakes 20 February 1976 on 11F/16.","objectid":"13069","generic_cd":"952","locn_narr":"E. of Bras d'Or Lake","county":"Cape Breton","generic_tm":"Lakes","cgndb_key":"CAXAG","tmod_date":"20130205","concise_cd":"LAKE","status_cd":"1348","ordec_date":"19760220","jurr_narr":null,"fmod_date":"20151125","nad83_lon":"-60.487503","nts_map":"011F16","status_ds":"Official - Official","decis_date":"19760220","nad83_lat":"45.870656","geoname":"MacNeil Lakes"}},{"type":"Feature","geometry":{"type":"Point","coordinates":[-60.603786821680764,45.87750397392049]},"properties":{"gaz_map":"011F15","admin_loc":"Cape Breton","concise_ds":"Lake","orig_narr":"Formerly approved as Lochan Fad 2 Nov. 1950 on 11F/15. Changed to MacPhersons Pond 23 Feb. 1976 on 11F/15.","objectid":"17228","generic_cd":"953","locn_narr":"East Bay","county":"Cape Breton","generic_tm":"Pond (1)","cgndb_key":"CAXCJ","tmod_date":"20130205","concise_cd":"LAKE","status_cd":"1348","ordec_date":"19760223","jurr_narr":null,"fmod_date":"20151125","nad83_lon":"-60.603783","nts_map":"011F15","status_ds":"Official - Official","decis_date":"19760223","nad83_lat":"45.877504","geoname":"MacPhersons Pond"}},{"type":"Feature","geometry":{"type":"Point","coordinates":[-60.503606578950034,45.861421455622285]},"properties":{"gaz_map":"011F15","admin_loc":"Cape Breton","concise_ds":"Lake","orig_narr":null,"objectid":"17563","generic_cd":"951","locn_narr":"E. of Bras d'Or Lake","county":"Cape Breton","generic_tm":"Lake","cgndb_key":"CANLB","tmod_date":"20130205","concise_cd":"LAKE","status_cd":"1348","ordec_date":"19501103","jurr_narr":null,"fmod_date":"20151125","nad83_lon":"-60.503603","nts_map":"011F15,011F16","status_ds":"Official - Official","decis_date":"19501103","nad83_lat":"45.861422","geoname":"Gaspereaux Lake"}},{"type":"Feature","geometry":{"type":"Point","coordinates":[-60.549308938330256,45.81733549203266]},"properties":{"gaz_map":"011F15","admin_loc":"Cape Breton","concise_ds":"Lake","orig_narr":"Monroe Lake was adopted 20 January 1955 on 11F/15. Changed to Munroe Lake 23 February 1976 on 11F/15.","objectid":"16315","generic_cd":"951","locn_narr":"N. of Lake Uist","county":"Cape Breton","generic_tm":"Lake","cgndb_key":"CBARW","tmod_date":"20130205","concise_cd":"LAKE","status_cd":"1348","ordec_date":"19760223","jurr_narr":null,"fmod_date":"20151125","nad83_lon":"-60.549306","nts_map":"011F15","status_ds":"Official - Official","decis_date":"19760223","nad83_lat":"45.817336","geoname":"Munroe Lake"}},{"type":"Feature","geometry":{"type":"Point","coordinates":[-60.60059017343458,45.7867688492303]},"properties":{"gaz_map":"011F15","admin_loc":"Richmond","concise_ds":"Lake","orig_narr":null,"objectid":"16535","generic_cd":"951","locn_narr":"N. of Loch Lomond","county":"Richmond","generic_tm":"Lake","cgndb_key":"CAGPR","tmod_date":"20130205","concise_cd":"LAKE","status_cd":"1348","ordec_date":"19760223","jurr_narr":null,"fmod_date":"20151125","nad83_lon":"-60.600587","nts_map":"011F15","status_ds":"Official - Official","decis_date":"19760223","nad83_lat":"45.786769","geoname":"Cemetery Lake"}},{"type":"Feature","geometry":{"type":"Point","coordinates":[-60.51877242501786,45.85179747014527]},"properties":{"gaz_map":"011F15","admin_loc":"Cape Breton","concise_ds":"Lake","orig_narr":null,"objectid":"18421","generic_cd":"951","locn_narr":"E. of Bras d'Or Lake","county":"Cape Breton","generic_tm":"Lake","cgndb_key":"CAXAR","tmod_date":"20130205","concise_cd":"LAKE","status_cd":"1348","ordec_date":"19760223","jurr_narr":null,"fmod_date":"20151125","nad83_lon":"-60.518769","nts_map":"011F15","status_ds":"Official - Official","decis_date":"19760223","nad83_lat":"45.851798","geoname":"MacNeils Lake"}},{"type":"Feature","geometry":{"type":"Point","coordinates":[-60.778892490868486,45.86039262586433]},"properties":{"gaz_map":"011F15","admin_loc":"Cape Breton; Richmond; Victoria; Inverness","concise_ds":"Lake","orig_narr":"Bras d'Or Lake was adopted 2 December 1901 (map unspecified in Minute Book). Application of Bras d'Or Lake (NOT Great Bras d'Or) was revised 5 March 1912 on OBF 0099 and designated as that area of water between St. Peters Inlet and Barra Strait, with its","objectid":"22166","generic_cd":"951","locn_narr":"Cape Breton Island","county":"Cape Breton; Richmond; Victoria; Inverness","generic_tm":"Lake","cgndb_key":"CAEYO","tmod_date":"20130205","concise_cd":"LAKE","status_cd":"1348","ordec_date":"19120305","jurr_narr":null,"fmod_date":"20151125","nad83_lon":"-60.778889","nts_map":"011F15,011F14,011F16,011F10,011F11,011K01,C.4000,C.4001,C.4002,C.4003,C.4006,C.4013,C.4279","status_ds":"Official - Official","decis_date":"19530402","nad83_lat":"45.860392","geoname":"Bras d'Or Lake"}}], "crs" : { "type": "name", "properties": { "name": "urn:ogc:def:crs:OGC:1.3:CRS84" } } }