{
"type": "FeatureCollection",
"name": "regions",
"crs": { "type": "name", "properties": { "name": "urn:ogc:def:crs:EPSG::3857" } },
"features": [
{ "type": "Feature", "properties": { }, "geometry": { "type": "Polygon", "coordinates": [ [ [ -6843703.354125676676631, 5767389.566122259944677 ], [ -6843712.409869851544499, 5767410.213429568335414 ], [ -6843721.473649255931377, 5767430.84012944996357 ], [ -6843730.57524674013257, 5767451.514206836000085 ], [ -6843734.814630883745849, 5767461.86257647164166 ], [ -6843738.51257317699492, 5767472.416549885645509 ], [ -6843741.6591551983729, 5767483.14781978353858 ], [ -6843744.245937357656658, 5767494.02760333288461 ], [ -6843746.265981527045369, 5767505.026719369925559 ], [ -6843747.7138696545735, 5767516.115666659548879 ], [ -6843748.585718290880322, 5767527.264703030698001 ], [ -6843748.879189013503492, 5767538.44392513949424 ], [ -6843748.59349468909204, 5767549.623348684050143 ], [ -6843747.729401593096554, 5767560.772988819517195 ], [ -6843745.903867715038359, 5767578.392093907110393 ], [ -6843744.083808717317879, 5767595.983705541118979 ], [ -6843742.265969672240317, 5767613.579675950109959 ], [ -6843740.956036202609539, 5767623.84584076423198 ], [ -6843739.155705226585269, 5767634.03744878526777 ], [ -6843736.869112381711602, 5767644.131088309921324 ], [ -6843734.10151032730937, 5767654.103572681546211 ], [ -6843730.859256674535573, 5767663.931993559002876 ], [ -6843722.235563795082271, 5767688.109855328686535 ], [ -6843713.617734082974494, 5767712.269006851129234 ], [ -6843705.008135110139847, 5767736.402789791114628 ], [ -6843696.406983279623091, 5767760.51057815272361 ], [ -6843687.814474535174668, 5767784.591804603114724 ], [ -6843679.230779924429953, 5767808.645973043516278 ], [ -6843670.656042023561895, 5767832.672668940387666 ], [ -6843662.090371337719262, 5767856.671569525264204 ], [ -6843653.533843949437141, 5767880.642450594343245 ], [ -6843650.830808613449335, 5767887.810687718912959 ], [ -6843641.054983663372695, 5767912.404807419516146 ], [ -6843631.282971589826047, 5767936.98372126929462 ], [ -6843621.520993427373469, 5767961.53177398443222 ], [ -6843611.769009404815733, 5767986.049077328294516 ], [ -6843602.026940460316837, 5768010.535855198279023 ], [ -6843592.294671821407974, 5768034.992433413863182 ], [ -6843582.572056936100125, 5768059.41922815144062 ], [ -6843572.858922535553575, 5768083.816731606610119 ], [ -6843563.155073301866651, 5768108.185498391278088 ], [ -6843553.460296886973083, 5768132.526131186634302 ], [ -6843545.696634018793702, 5768152.014092681929469 ], [ -6843539.091770266182721, 5768171.233416480012238 ], [ -6843530.805059147998691, 5768195.345103210769594 ], [ -6843522.525735223665833, 5768219.433674653060734 ], [ -6843514.253572543151677, 5768243.499770818278193 ], [ -6843508.581610116176307, 5768260.000000000931323 ], [ -6843051.900588670745492, 5768260.000000000931323 ], [ -6843056.364559789188206, 5768247.019507287070155 ], [ -6843064.595002738758922, 5768223.08497442305088 ], [ -6843072.831403049640357, 5768199.131372538395226 ], [ -6843081.073967073112726, 5768175.158116549253464 ], [ -6843089.322904069907963, 5768151.164613205008209 ], [ -6843097.578370274044573, 5768127.150423933751881 ], [ -6843105.840605418197811, 5768103.114867572672665 ], [ -6843114.109820608049631, 5768079.057346648536623 ], [ -6843122.386232700198889, 5768054.977247281931341 ], [ -6843130.670075665228069, 5768030.873906102031469 ], [ -6843138.962266744114459, 5768006.744671750813723 ], [ -6843142.57258259318769, 5767997.007482040673494 ], [ -6843152.249561307020485, 5767972.716812028549612 ], [ -6843161.932298826053739, 5767948.406406897120178 ], [ -6843171.623986015096307, 5767924.068183716386557 ], [ -6843181.324834124185145, 5767899.70154276676476 ], [ -6843191.035069848410785, 5767875.305850808508694 ], [ -6843200.754873899742961, 5767850.880597097799182 ], [ -6843210.484422734938562, 5767826.425290432758629 ], [ -6843220.223856062628329, 5767801.939542391337454 ], [ -6843229.973285994492471, 5767777.423046009615064 ], [ -6843239.732773525640368, 5767752.875636129640043 ], [ -6843248.090367328375578, 5767731.849516753107309 ], [ -6843255.355520557612181, 5767711.496385895647109 ], [ -6843263.916597094386816, 5767687.510357301682234 ], [ -6843272.486791484057903, 5767663.496392787434161 ], [ -6843281.065981515683234, 5767639.454847878776491 ], [ -6843289.654007167555392, 5767615.386185971088707 ], [ -6843298.250750566832721, 5767591.290754105895758 ], [ -6843306.855968661606312, 5767567.169251606799662 ], [ -6843308.118437769822776, 5767563.630056340247393 ], [ -6843307.824581353925169, 5767562.960061023943126 ], [ -6843298.655953031033278, 5767542.015836046077311 ], [ -6843289.495202620513737, 5767521.049801496788859 ], [ -6843280.342513954266906, 5767500.06240083090961 ], [ -6843275.985380569472909, 5767489.289008365012705 ], [ -6843272.214150589890778, 5767478.296810177154839 ], [ -6843269.039746955037117, 5767467.11764392349869 ], [ -6843266.471363965421915, 5767455.783888792619109 ], [ -6843264.516440650448203, 5767444.328371720388532 ], [ -6843263.180639225058258, 5767432.784272314049304 ], [ -6843262.467828685417771, 5767421.185026748105884 ], [ -6843262.380073606967926, 5767409.56423092354089 ], [ -6843262.917628163471818, 5767397.955543156713247 ], [ -6843264.374239983037114, 5767378.088069966062903 ], [ -6843265.837457271292806, 5767358.174055855721235 ], [ -6843267.304540045559406, 5767338.249453716911376 ], [ -6843268.775354266166687, 5767318.314639649353921 ], [ -6843269.78690367564559, 5767307.990770112723112 ], [ -6843271.293094938620925, 5767297.727393362671137 ], [ -6843273.290452095679939, 5767287.54819502402097 ], [ -6843275.774365684017539, 5767277.476666455157101 ], [ -6843278.739103376865387, 5767267.536050536669791 ], [ -6843282.177823207341135, 5767257.749288030900061 ], [ -6843289.118366881273687, 5767239.416534075513482 ], [ -6843296.060685499571264, 5767221.077412452548742 ], [ -6843303.006957458332181, 5767202.726194807328284 ], [ -6843307.594837020151317, 5767191.55894570145756 ], [ -6843312.799668219871819, 5767180.665561304427683 ], [ -6843318.605180838145316, 5767170.080094157718122 ], [ -6843324.99322693515569, 5767159.835634264163673 ], [ -6843331.943837583065033, 5767149.964205640368164 ], [ -6843339.435285283252597, 5767140.496666212566197 ], [ -6843347.44415189139545, 5767131.462611358612776 ], [ -6843364.713785696774721, 5767113.046277474611998 ], [ -6843381.966341275721788, 5767094.63675716239959 ], [ -6843399.225066908635199, 5767076.209540586918592 ], [ -6843416.489776846021414, 5767057.765099157579243 ], [ -6843433.760298584587872, 5767039.303881967440248 ], [ -6843451.036463906988502, 5767020.826325966976583 ], [ -6843468.318110976368189, 5767002.332854335196316 ], [ -6843485.624068353325129, 5766983.803550858981907 ], [ -6843492.537273000925779, 5766976.733362149447203 ], [ -6843511.748578019440174, 5766957.965402304194868 ], [ -6843530.941953492350876, 5766939.20359995495528 ], [ -6843550.1412284206599, 5766920.424955423921347 ], [ -6843569.346240504644811, 5766901.629900095053017 ], [ -6843588.556828569620848, 5766882.818858230486512 ], [ -6843607.772847878746688, 5766863.99223224632442 ], [ -6843614.688878705725074, 5766857.21274696663022 ], [ -6843616.988545088097453, 5766851.638650873675942 ], [ -6843626.570927129127085, 5766828.409780795685947 ], [ -6843636.155185054056346, 5766805.174020549282432 ], [ -6843645.741224117577076, 5766781.931661622598767 ], [ -6843645.809775496833026, 5766781.765435731969774 ], [ -6843649.121613909490407, 5766761.36076186876744 ], [ -6843652.779870081692934, 5766738.824995208531618 ], [ -6843656.439159447327256, 5766716.285781538113952 ], [ -6843659.833357130177319, 5766695.381806000135839 ], [ -6843658.313552414998412, 5766671.995212027803063 ], [ -6843656.760141263715923, 5766648.062448107637465 ], [ -6843655.208284361287951, 5766624.126479814760387 ], [ -6843653.657876941375434, 5766600.187583151273429 ], [ -6843652.108815808780491, 5766576.246029029600322 ], [ -6843650.560999393463135, 5766552.302082954905927 ], [ -6843649.014327784068882, 5766528.35600564815104 ], [ -6843647.468702717684209, 5766504.408052996732295 ], [ -6843645.924027614295483, 5766480.45847518928349 ], [ -6843644.380207598209381, 5766456.507517956197262 ], [ -6843643.950226105749607, 5766439.892159667797387 ], [ -6843644.285836415365338, 5766413.306220667436719 ], [ -6843644.621751490980387, 5766386.716910297051072 ], [ -6843644.957813864573836, 5766360.127624848857522 ], [ -6843645.293901429511607, 5766333.539147727191448 ], [ -6843645.629908993840218, 5766306.951114742085338 ], [ -6843645.965722168795764, 5766280.364077096804976 ], [ -6843646.301231191493571, 5766253.778403400443494 ], [ -6843646.63633253145963, 5766227.194148568436503 ], [ -6843646.970920789055526, 5766200.611695190891623 ], [ -6843647.304930241778493, 5766174.028441607952118 ], [ -6843647.4037617566064, 5766169.668250537477434 ], [ -6843648.224627111107111, 5766144.621662545949221 ], [ -6843649.044580838643014, 5766119.580388132482767 ], [ -6843649.863641404546797, 5766094.541653677821159 ], [ -6843650.681727021932602, 5766069.505791200324893 ], [ -6843651.498764033429325, 5766044.472928810864687 ], [ -6843652.314677344635129, 5766019.443283133208752 ], [ -6843653.129393801093102, 5765994.417054491117597 ], [ -6843653.942841473966837, 5765969.394448624923825 ], [ -6843654.75495276786387, 5765944.375579787418246 ], [ -6843655.208892273716629, 5765930.368939878419042 ], [ -6844087.224679407663643, 5765930.368939878419042 ], [ -6844087.206182040274143, 5765933.34390215575695 ], [ -6844086.395112050697207, 5765958.3700678255409 ], [ -6844085.582295645959675, 5765983.410667816177011 ], [ -6844084.768175768665969, 5766008.453959261067212 ], [ -6844083.952823152765632, 5766033.499736287631094 ], [ -6844083.136310028843582, 5766058.547788550145924 ], [ -6844082.318710189312696, 5766083.597900673747063 ], [ -6844081.500098985619843, 5766108.649852411821485 ], [ -6844080.680553394369781, 5766133.703418218530715 ], [ -6844079.860152004286647, 5766158.758367596194148 ], [ -6844079.110408196225762, 5766181.634867997840047 ], [ -6844078.803767468780279, 5766206.039890532381833 ], [ -6844078.469063557684422, 5766232.63153650611639 ], [ -6844078.133867064490914, 5766259.223342972807586 ], [ -6844077.798282562755048, 5766285.814999444410205 ], [ -6844077.462416977621615, 5766312.406187605112791 ], [ -6844077.126379575580359, 5766338.996581972576678 ], [ -6844076.790282022207975, 5766365.585849384777248 ], [ -6844076.45424528233707, 5766392.173106449656188 ], [ -6844076.118378203362226, 5766418.758616798557341 ], [ -6844075.887759316712618, 5766437.027482465840876 ], [ -6844076.89580340590328, 5766452.666367338970304 ], [ -6844078.439290190115571, 5766476.597523943521082 ], [ -6844079.983597343787551, 5766500.525060776621103 ], [ -6844081.52881689183414, 5766524.448661556467414 ], [ -6844083.075045495294034, 5766548.36805063020438 ], [ -6844084.622379715554416, 5766572.282921075820923 ], [ -6844086.170918476767838, 5766596.192972674034536 ], [ -6844087.720762583427131, 5766620.097904405556619 ], [ -6844089.272013219073415, 5766643.997392412275076 ], [ -6844090.824774272739887, 5766667.891126712784171 ], [ -6844092.379775810986757, 5766691.788392865099013 ], [ -6844092.827696176245809, 5766703.97667827270925 ], [ -6844092.586748959496617, 5766716.170811218209565 ], [ -6844091.65770285576582, 5766728.331888767890632 ], [ -6844090.043521798215806, 5766740.421113447286189 ], [ -6844086.383292368613183, 5766762.961204567924142 ], [ -6844082.724280977621675, 5766785.496098230592906 ], [ -6844079.066369894891977, 5766808.026822149753571 ], [ -6844075.409648219123483, 5766830.553135583177209 ], [ -6844071.754211782477796, 5766853.074761836789548 ], [ -6844068.09967580717057, 5766875.594391029328108 ], [ -6844065.756455755792558, 5766887.800516059622169 ], [ -6844062.714830941520631, 5766899.851602606475353 ], [ -6844058.984878527931869, 5766911.707724378444254 ], [ -6844054.578956170007586, 5766923.329601018689573 ], [ -6844044.988547109998763, 5766946.58477536868304 ], [ -6844035.396938255056739, 5766969.840639161877334 ], [ -6844025.806939125061035, 5766993.090318534523249 ], [ -6844016.218667925335467, 5767016.333465015515685 ], [ -6844006.632245305925608, 5767039.569723171181977 ], [ -6843997.047794542275369, 5767062.798730114474893 ], [ -6843992.638403682969511, 5767072.764425772242248 ], [ -6843987.731845278292894, 5767082.494970582425594 ], [ -6843982.34061613958329, 5767091.965581230819225 ], [ -6843976.478447514586151, 5767101.152136444114149 ], [ -6843970.160270115360618, 5767110.031238429248333 ], [ -6843963.402176093310118, 5767118.580272460356355 ], [ -6843956.221378047019243, 5767126.777464485727251 ], [ -6843948.636165185831487, 5767134.60193657875061 ], [ -6843929.370375306345522, 5767153.497130149044096 ], [ -6843910.068774404935539, 5767172.417663102038205 ], [ -6843890.770287664607167, 5767191.325096059590578 ], [ -6843871.4750118823722, 5767210.219075520522892 ], [ -6843852.183045361191034, 5767229.099240961484611 ], [ -6843832.894487810321152, 5767247.965224518440664 ], [ -6843813.609441034495831, 5767266.816650024615228 ], [ -6843797.865573906339705, 5767282.197204936295748 ], [ -6843783.915771956555545, 5767297.13310869038105 ], [ -6843766.555674632079899, 5767315.710542721673846 ], [ -6843749.198989403434098, 5767334.274229642935097 ], [ -6843731.845815333537757, 5767352.823809773661196 ], [ -6843714.496253895573318, 5767371.358913662843406 ], [ -6843701.471489256247878, 5767385.265521828085184 ], [ -6843703.354125676676631, 5767389.566122259944677 ] ] ] } }
]
}
