{
"type": "FeatureCollection",
"name": "regions",
"crs": { "type": "name", "properties": { "name": "urn:ogc:def:crs:EPSG::3857" } },
"features": [
{ "type": "Feature", "properties": { }, "geometry": { "type": "Polygon", "coordinates": [ [ [ -6843006.440163344144821, 5768235.767007080838084 ], [ -6843072.636564735323191, 5768073.406993792392313 ], [ -6843109.225601648911834, 5767978.74298997502774 ], [ -6843112.233839720487595, 5767971.367509751580656 ], [ -6843113.523605813272297, 5767968.36490635946393 ], [ -6843135.250989437103271, 5767905.703844987787306 ], [ -6843173.845648402348161, 5767792.478992364369333 ], [ -6843174.743368490599096, 5767789.898916494101286 ], [ -6843220.710357224568725, 5767660.432827863842249 ], [ -6843220.907110732980072, 5767659.88104628957808 ], [ -6843232.279353177174926, 5767628.124611718580127 ], [ -6843237.448375188745558, 5767615.048259600996971 ], [ -6843250.512456277385354, 5767584.908686015754938 ], [ -6843255.020541328005493, 5767575.17790715675801 ], [ -6843265.025106626562774, 5767554.917703363113105 ], [ -6843269.541429960168898, 5767546.269523072056472 ], [ -6843274.443791183643043, 5767537.834177600219846 ], [ -6843285.853213555179536, 5767519.18525712005794 ], [ -6843287.152966549620032, 5767517.087800774723291 ], [ -6843356.646184540353715, 5767406.36219372227788 ], [ -6843408.749860456213355, 5767320.108642244711518 ], [ -6843413.038875557482243, 5767313.005740112625062 ], [ -6843415.883402990177274, 5767308.425239256583154 ], [ -6843486.135560046881437, 5767198.388786713592708 ], [ -6843539.236677790060639, 5767110.241436312906444 ], [ -6843540.625700617209077, 5767107.967531780712306 ], [ -6843563.397596773691475, 5767071.200596977956593 ], [ -6843568.259438142180443, 5767062.284328418783844 ], [ -6843568.367529576644301, 5767061.957953702658415 ], [ -6843570.202309256419539, 5767056.508439159952104 ], [ -6843579.334904986433685, 5767013.730200474150479 ], [ -6843587.08036882802844, 5766964.735580961219966 ], [ -6843587.152939412742853, 5766964.747053503058851 ], [ -6843587.986941161565483, 5766959.426730450242758 ], [ -6843590.319819116033614, 5766948.365094877779484 ], [ -6843590.432120892219245, 5766947.943302029743791 ], [ -6843590.459202040918171, 5766946.66090134344995 ], [ -6843591.289078628644347, 5766935.386443221010268 ], [ -6843592.204508348368108, 5766928.149990748614073 ], [ -6843592.141441762447357, 5766928.141589245758951 ], [ -6843593.440958080813289, 5766918.386661160737276 ], [ -6843606.342128972522914, 5766819.419733396731317 ], [ -6843606.466961449943483, 5766818.478279785253108 ], [ -6843613.65254236664623, 5766765.186156262643635 ], [ -6843614.713533723726869, 5766758.185936615802348 ], [ -6843619.646980265155435, 5766728.886528788134456 ], [ -6843633.401588348671794, 5766611.940885990858078 ], [ -6843634.177422488108277, 5766606.04542844556272 ], [ -6843654.05509324837476, 5766469.553558690473437 ], [ -6843664.444376975297928, 5766388.650327848270535 ], [ -6843669.201057667843997, 5766317.824217032641172 ], [ -6843668.017848605290055, 5766248.783526171930134 ], [ -6843661.316209618002176, 5766147.335322784259915 ], [ -6843652.759717538952827, 5766037.726926171220839 ], [ -6843648.520877463743091, 5765983.493426078930497 ], [ -6843644.818958906456828, 5765938.368469098582864 ], [ -6844078.136733106337488, 5765938.368469098582864 ], [ -6844078.975899687036872, 5765948.597585511393845 ], [ -6844079.042331983335316, 5765949.426975655369461 ], [ -6844083.314382494427264, 5766004.085384014993906 ], [ -6844091.973602516576648, 5766115.009710034355521 ], [ -6844092.158943955786526, 5766117.5817756569013 ], [ -6844099.293137537315488, 5766225.577912551350892 ], [ -6844099.731052069924772, 5766236.111300583928823 ], [ -6844101.160470152273774, 5766319.518379717133939 ], [ -6844101.12490529473871, 5766328.60794813465327 ], [ -6844100.706834769807756, 5766337.68796663172543 ], [ -6844094.901681907474995, 5766424.125637457706034 ], [ -6844093.628294387832284, 5766437.15964649990201 ], [ -6844082.172208938747644, 5766526.370255233719945 ], [ -6844081.676875183358788, 5766529.985449008643627 ], [ -6844061.964771676808596, 5766665.340435860678554 ], [ -6844047.930082368664443, 5766784.667409969493747 ], [ -6844047.163487697020173, 5766789.981920815072954 ], [ -6844046.410828934982419, 5766795.298423216678202 ], [ -6844041.1734220655635, 5766826.403031025081873 ], [ -6844034.524398550391197, 5766875.715756966732442 ], [ -6844021.645402823574841, 5766974.512575526721776 ], [ -6844021.566146184690297, 5766975.113974434323609 ], [ -6844020.22657916136086, 5766985.169546489603817 ], [ -6844019.627365893684328, 5766989.354225553572178 ], [ -6844019.594588309526443, 5766989.568184108473361 ], [ -6844017.590756091289222, 5767000.694133844226599 ], [ -6844016.058574811555445, 5767007.221617222763598 ], [ -6844015.661240932531655, 5767015.040649372152984 ], [ -6844014.497398495674133, 5767026.285540295764804 ], [ -6844014.495717176236212, 5767026.298469740897417 ], [ -6844013.649848639965057, 5767032.171118059195578 ], [ -6844005.001560815609992, 5767086.876630867831409 ], [ -6844002.891596835106611, 5767098.241921278648078 ], [ -6843989.969476916827261, 5767158.770772717893124 ], [ -6843987.045729829929769, 5767170.773414069786668 ], [ -6843983.44037423375994, 5767182.589213130995631 ], [ -6843977.999734942801297, 5767198.748560906387866 ], [ -6843972.689801843836904, 5767215.051329167559743 ], [ -6843969.391066454350948, 5767224.43896355945617 ], [ -6843965.663360417820513, 5767233.664663661271334 ], [ -6843961.514599225483835, 5767242.708839423023164 ], [ -6843956.953592443838716, 5767251.552286250516772 ], [ -6843939.699749772436917, 5767283.194596904329956 ], [ -6843933.693807273171842, 5767293.519023668020964 ], [ -6843908.477639080956578, 5767334.232419053092599 ], [ -6843854.614471355453134, 5767423.644765177741647 ], [ -6843851.653273575007915, 5767428.418708703480661 ], [ -6843781.340324886143208, 5767538.550379610620439 ], [ -6843778.43533034529537, 5767543.361249106004834 ], [ -6843725.349881035275757, 5767631.240055724047124 ], [ -6843723.417443750426173, 5767634.378228345885873 ], [ -6843653.600485088303685, 5767745.619661020115018 ], [ -6843647.930524497292936, 5767754.887320744805038 ], [ -6843644.6239656759426, 5767761.583419333212078 ], [ -6843636.490567308850586, 5767780.347629146650434 ], [ -6843627.588600859977305, 5767805.205938005819917 ], [ -6843582.176635062322021, 5767933.10880375187844 ], [ -6843543.839589103125036, 5768045.577899092808366 ], [ -6843543.470595181919634, 5768046.651169453747571 ], [ -6843519.011418208479881, 5768117.190633197315037 ], [ -6843513.398443064652383, 5768131.673134882934391 ], [ -6843510.613735411316156, 5768138.155994601547718 ], [ -6843474.748026128858328, 5768230.948588417842984 ], [ -6843473.288854711689055, 5768234.623382405377924 ], [ -6843462.942460114136338, 5768260.000000000931323 ], [ -6842996.187897879630327, 5768260.000000000931323 ], [ -6843006.440163344144821, 5768235.767007080838084 ] ] ] } }
]
}
