{
"type": "FeatureCollection",
"name": "regions",
"crs": { "type": "name", "properties": { "name": "urn:ogc:def:crs:EPSG::3857" } },
"features": [
{ "type": "Feature", "properties": { }, "geometry": { "type": "Polygon", "coordinates": [ [ [ -6815786.684065000154078, 5745895.320009740069509 ], [ -6815895.366379699669778, 5745826.477516690269113 ], [ -6816003.977513009682298, 5745757.309589839540422 ], [ -6816112.521508400328457, 5745687.856412380002439 ], [ -6816221.001266920007765, 5745618.146307759918272 ], [ -6816329.419096600264311, 5745548.201324899680912 ], [ -6816437.776944749988616, 5745478.039604820311069 ], [ -6816546.076518850401044, 5745407.676616449840367 ], [ -6816654.319357560016215, 5745337.125885849818587 ], [ -6816762.506875850260258, 5745266.399463219568133 ], [ -6816870.640395419672132, 5745195.508240169845521 ], [ -6816978.721166050061584, 5745124.462175199761987 ], [ -6817086.750381019897759, 5745053.27045962959528 ], [ -6817194.729188569821417, 5744981.941643339581788 ], [ -6817302.658700590021908, 5744910.483732270076871 ], [ -6817410.539999130181968, 5744838.904265530407429 ], [ -6817518.374141530133784, 5744767.210377490147948 ], [ -6817626.162164229899645, 5744695.40884845983237 ], [ -6817733.905085730366409, 5744623.50614667031914 ], [ -6817841.603908780030906, 5744551.50846328958869 ], [ -6817949.259621890261769, 5744479.421742239966989 ], [ -6818056.873200380243361, 5744407.251705469563603 ], [ -6818164.445606979541481, 5744335.003874870017171 ], [ -6818271.977791929617524, 5744262.683591299690306 ], [ -6818379.47069283016026, 5744190.296031270176172 ], [ -6818486.925234099850059, 5744117.846221700310707 ], [ -6818594.342326140031219, 5744045.339053169824183 ], [ -6818701.722864230163395, 5743972.779291730374098 ], [ -6818809.067727110348642, 5743900.171589819714427 ], [ -6818916.377775279805064, 5743827.520496170036495 ], [ -6819023.653849090449512, 5743754.830465120263398 ], [ -6819130.896766579709947, 5743682.105865360237658 ], [ -6819238.107320950366557, 5743609.350988269783556 ], [ -6819345.286277860403061, 5743536.570056010037661 ], [ -6819452.434372480027378, 5743463.767229430377483 ], [ -6819559.552306190133095, 5743390.946615969762206 ], [ -6819666.640743089839816, 5743318.112277580425143 ], [ -6819773.700306160375476, 5743245.268238849937916 ], [ -6819880.731573149561882, 5743172.4184954399243 ], [ -6819987.735072170384228, 5743099.567022760398686 ], [ -6820094.711276900023222, 5743026.717785379849374 ], [ -6820201.660601560026407, 5742953.874746800400317 ], [ -6820308.583395360037684, 5742881.04188016988337 ], [ -6820415.479936679825187, 5742808.223179739899933 ], [ -6820522.350426710210741, 5742735.42267342004925 ], [ -6820629.194982670247555, 5742662.644436459988356 ], [ -6820736.013630470260978, 5742589.892606589943171 ], [ -6820842.806296699680388, 5742517.171400589868426 ], [ -6820949.572800089605153, 5742444.485132830217481 ], [ -6821056.312841990031302, 5742371.838235680013895 ], [ -6821163.025996129959822, 5742299.235282530076802 ], [ -6821269.71169720031321, 5742226.681013359688222 ], [ -6821376.369228290393949, 5742154.1803636001423 ], [ -6821482.99770681001246, 5742081.738496650010347 ], [ -6821589.596068750135601, 5742009.360840789973736 ], [ -6821696.163050809875131, 5741937.053131150081754 ], [ -6821802.697170039638877, 5741864.821457830257714 ], [ -6821909.196700350381434, 5741792.672321310266852 ], [ -6822015.659645279869437, 5741720.612696790136397 ], [ -6822122.083705849945545, 5741648.650109480135143 ], [ -6822228.466242520138621, 5741576.792723489925265 ], [ -6822334.804229220375419, 5741505.04944812040776 ], [ -6822441.094197300262749, 5741433.430066320113838 ], [ -6822547.332166040316224, 5741361.945392429828644 ], [ -6822653.513554819859564, 5741290.607469299808145 ], [ -6822759.633070000447333, 5741219.429819639772177 ], [ -6822865.684555579908192, 5741148.427774400450289 ], [ -6822971.660790160298347, 5741077.618914850056171 ], [ -6823077.553201249800622, 5741007.023689810186625 ], [ -6823183.351444239728153, 5740936.666317890398204 ], [ -6823289.042744800448418, 5740866.576188829727471 ], [ -6823394.610783640295267, 5740796.790228430181742 ], [ -6823500.033559899777174, 5740727.357413950376213 ], [ -6823605.278347210027277, 5740658.349409580230713 ], [ -6823710.281193899922073, 5740589.903735919855535 ], [ -6823830.462241220287979, 5740596.93996976967901 ], [ -6823950.369115480221808, 5740604.614103890024126 ], [ -6824070.072835359722376, 5740612.779313039965928 ], [ -6824189.612715680152178, 5740621.355369529686868 ], [ -6824309.017191720195115, 5740630.284806500189006 ], [ -6824428.308944090269506, 5740639.522127619944513 ], [ -6824547.507070629857481, 5740649.029233610257506 ], [ -6824666.628220840357244, 5740658.773033239878714 ], [ -6824785.687265500426292, 5740668.724033559672534 ], [ -6824904.697725979611278, 5740678.855437230318785 ], [ -6825023.672066180035472, 5740689.142529889941216 ], [ -6825142.621900550089777, 5740699.562245779670775 ], [ -6825261.558147629722953, 5740710.09284926019609 ], [ -6825380.491146979853511, 5740720.713695139624178 ], [ -6825499.43075046967715, 5740731.405044740065932 ], [ -6825618.386395270004869, 5740742.147922390140593 ], [ -6825737.367163309827447, 5740752.92400251980871 ], [ -6825856.381830769591033, 5740763.715520019643009 ], [ -6825975.438909970223904, 5740774.505199040286243 ], [ -6826094.546685590408742, 5740785.276196509599686 ], [ -6826213.713246369734406, 5740796.01205778028816 ], [ -6826332.946513569913805, 5740806.6966822296381 ], [ -6826452.254266950301826, 5740817.314297369681299 ], [ -6826571.644168839789927, 5740827.849440209567547 ], [ -6826691.123786980286241, 5740838.286944850347936 ], [ -6826810.700616619549692, 5740848.611935529857874 ], [ -6826930.382102220319211, 5740858.809824479743838 ], [ -6827050.175659109838307, 5740868.866313950158656 ], [ -6827170.088695660233498, 5740878.767401860095561 ], [ -6827290.128636079840362, 5740888.499390739947557 ], [ -6827410.302944320254028, 5740898.048899269662797 ], [ -6827530.619149499572814, 5740907.402876229956746 ], [ -6827651.084873089566827, 5740916.548616229556501 ], [ -6827771.707858430221677, 5740925.473776919767261 ], [ -6827892.49600294046104, 5740934.166397109627724 ], [ -6828013.457393700256944, 5740942.614915530197322 ], [ -6828134.600346810184419, 5740950.808189540170133 ], [ -6828255.933451370336115, 5740958.735513529740274 ], [ -6828377.465618919581175, 5740966.386636409908533 ], [ -6828499.206139059737325, 5740973.751777719706297 ], [ -6828621.164742539636791, 5740980.821641869843006 ], [ -6828743.351673009805381, 5740987.587430070154369 ], [ -6828865.777768620289862, 5740994.040849319659173 ], [ -6828988.454555329866707, 5741000.17411812953651 ], [ -6829111.394353089854121, 5741005.979968479834497 ], [ -6829234.610396759584546, 5741011.451643659733236 ], [ -6829358.116972530260682, 5741016.582891900092363 ], [ -6829481.929569999687374, 5741021.367955869995058 ], [ -6829606.065047759562731, 5741025.801558920182288 ], [ -6829730.541806199587882, 5741029.878889859654009 ], [ -6829855.379954249598086, 5741033.595590029843152 ], [ -6829980.601443749852479, 5741036.947749629616737 ], [ -6830106.230125459842384, 5741039.931925280019641 ], [ -6830232.291649719700217, 5741042.545198479667306 ], [ -6830358.813095579855144, 5741044.785304419696331 ], [ -6830485.822172050364316, 5741046.650870679877698 ], [ -6830613.345824610441923, 5741048.14180769957602 ], [ -6830741.408151459880173, 5741049.25987539999187 ], [ -6830870.027747269719839, 5741050.009396850131452 ], [ -6830999.214938079938293, 5741050.398003780283034 ], [ -6831128.969679599627852, 5741050.43722178041935 ], [ -6831259.280873250216246, 5741050.142707020044327 ], [ -6831390.127378010191023, 5741049.534064919687808 ], [ -6831521.480326349847019, 5741048.634347169660032 ], [ -6831653.30595150962472, 5741047.46942303981632 ], [ -6831785.568194040097296, 5741046.067405560053885 ], [ -6831918.230691339820623, 5741044.4582285201177 ], [ -6832051.258082609623671, 5741042.673388400115073 ], [ -6832184.616746650077403, 5741040.745818129740655 ], [ -6832318.275141710415483, 5741038.709846469573677 ], [ -6832452.203897059895098, 5741036.601200689561665 ], [ -6832586.3757648402825, 5741034.457019929774106 ], [ -6832720.765502610243857, 5741032.315855709835887 ], [ -6832855.349728019908071, 5741030.217642529867589 ], [ -6832990.106768890284002, 5741028.203626300208271 ], [ -6833125.016520259901881, 5741026.316240970045328 ], [ -6833260.060313500463963, 5741024.598925920203328 ], [ -6833395.220798949711025, 5741023.095878980122507 ], [ -6833530.481841679662466, 5741021.851741390302777 ], [ -6833665.828429169952869, 5741020.911213980056345 ], [ -6833801.246589239686728, 5741020.318606779910624 ], [ -6833936.723316839896142, 5741020.11732761003077 ], [ -6834072.24650804977864, 5741020.349319890141487 ], [ -6834207.804900210350752, 5741021.054463650099933 ], [ -6834343.388017049990594, 5741022.269958649761975 ], [ -6834478.986118050292134, 5741024.029712 ], [ -6834614.590151259675622, 5741026.363755740225315 ], [ -6834750.191709220409393, 5741029.297721030190587 ], [ -6834885.782987420447171, 5741032.852395090274513 ], [ -6835021.356745240278542, 5741037.043384299613535 ], [ -6835156.906268879771233, 5741041.880901950411499 ], [ -6835292.425336389802396, 5741047.369692389853299 ], [ -6835427.908184410072863, 5741053.509095709770918 ], [ -6835563.349476750008762, 5741060.293248649686575 ], [ -6835698.744274459779263, 5741067.711409539915621 ], [ -6835834.088007509708405, 5741075.748389010317624 ], [ -6835969.376447780057788, 5741084.385062930174172 ], [ -6836104.605683409608901, 5741093.598941979929805 ], [ -6836239.77209435030818, 5741103.364771489985287 ], [ -6836374.872329000383615, 5741113.655136830173433 ], [ -6836509.903281919658184, 5741124.441052599810064 ], [ -6836644.86207256000489, 5741135.692517540417612 ], [ -6836779.746024820022285, 5741147.379021730273962 ], [ -6836914.552647659555078, 5741159.469996710307896 ], [ -6837049.279616479761899, 5741171.935203249566257 ], [ -6837183.924755410291255, 5741184.745055120438337 ], [ -6837318.48602048959583, 5741197.870879730209708 ], [ -6837452.961483749561012, 5741211.285118949599564 ], [ -6837587.34931808989495, 5741224.961474600248039 ], [ -6837721.647783149965107, 5741238.875004350207746 ], [ -6837855.855212000198662, 5741253.002173979766667 ], [ -6837989.969998720102012, 5741267.320872079581022 ], [ -6838123.990586900152266, 5741281.810393299907446 ], [ -6838257.91545884963125, 5741296.451395570300519 ], [ -6838391.743125679902732, 5741311.225836490280926 ], [ -6838525.472118110395968, 5741326.11689331009984 ], [ -6838659.100977820344269, 5741341.108870510011911 ], [ -6838792.62824947014451, 5741356.187098319642246 ], [ -6838926.052473110146821, 5741371.3378247898072 ], [ -6839059.372176880016923, 5741386.548103969544172 ], [ -6839192.585870030336082, 5741401.805681579746306 ], [ -6839325.692035839892924, 5741417.09887966979295 ], [ -6839458.689124600030482, 5741432.416481159627438 ], [ -6839591.575546129606664, 5741447.747614559717476 ], [ -6839724.349662009626627, 5741463.081639300100505 ], [ -6839857.009777099825442, 5741478.408031109720469 ], [ -6839989.554130109958351, 5741493.716267259791493 ], [ -6840121.980883169919252, 5741508.995710520073771 ], [ -6840254.288109949789941, 5741524.235490719787776 ], [ -6840386.473782040178776, 5741539.424382110126317 ], [ -6840518.535753300413489, 5741554.55067437980324 ], [ -6840650.471741640008986, 5741569.602034419775009 ], [ -6840782.279307610355318, 5741584.565355090424418 ], [ -6840913.955829169601202, 5741599.426586160436273 ], [ -6841045.498471490107477, 5741614.170540880411863 ], [ -6841176.904150529764593, 5741628.780669399537146 ], [ -6841308.169488379731774, 5741643.238787109963596 ], [ -6841439.290757570415735, 5741657.524740429595113 ], [ -6841570.263810290023685, 5741671.615985150448978 ], [ -6841701.083985899575055, 5741685.487038959749043 ], [ -6841831.745986480265856, 5741699.108747700229287 ], [ -6841962.243702979758382, 5741712.447264039888978 ], [ -6842092.569960329681635, 5741725.462558270432055 ], [ -6842222.716120350174606, 5741738.106111490167677 ], [ -6842352.671408980153501, 5741750.317032599821687 ], [ -6842482.421627059578896, 5741762.01466315984726 ], [ -6842611.946103939786553, 5741773.081195499747992 ], [ -6842741.205305090174079, 5741783.29122603032738 ], [ -6842778.079658539965749, 5741897.983266389928758 ], [ -6842814.717118670232594, 5742011.753789329901338 ], [ -6842851.154422310180962, 5742124.83030925039202 ], [ -6842887.409799509681761, 5742237.335608080029488 ], [ -6842923.495107639580965, 5742349.356666499748826 ], [ -6842959.418816789984703, 5742460.961672400124371 ], [ -6842995.187273309566081, 5742572.207267479971051 ], [ -6843030.805357459932566, 5742683.142369450069964 ], [ -6843066.276868630200624, 5742793.810466250404716 ], [ -6843101.604768250137568, 5742904.251126389950514 ], [ -6843136.791339759714901, 5743014.501070720143616 ], [ -6843171.838295740075409, 5743124.594986679963768 ], [ -6843206.746847780421376, 5743234.566191470250487 ], [ -6843241.517747210338712, 5743344.447215359658003 ], [ -6843276.151299149729311, 5743454.270362109877169 ], [ -6843310.647347809746861, 5743564.068305320106447 ], [ -6843345.005224330350757, 5743673.874799099750817 ], [ -6843379.22363680973649, 5743783.725636029615998 ], [ -6843413.300455040298402, 5743893.660125040449202 ], [ -6843447.23226667009294, 5744003.723771260119975 ], [ -6843481.013288799673319, 5744113.974424700252712 ], [ -6843514.630863229744136, 5744224.506956620141864 ], [ -6843542.771252560429275, 5744337.603407859802246 ], [ -6843570.754512660205364, 5744451.016612320207059 ], [ -6843598.597720310091972, 5744564.679106430150568 ], [ -6843626.311069100163877, 5744678.561111929826438 ], [ -6843653.902479849755764, 5744792.645660020411015 ], [ -6843681.378753650002182, 5744906.922483219765127 ], [ -6843708.746075130067766, 5745021.385431629605591 ], [ -6843736.010287770070136, 5745136.031123409979045 ], [ -6843763.177067420445383, 5745250.858144979923964 ], [ -6843790.25204337015748, 5745365.866533599793911 ], [ -6843817.240889529697597, 5745481.057419420219958 ], [ -6843844.149397360160947, 5745596.432764369994402 ], [ -6843870.983536710031331, 5745711.995163129642606 ], [ -6843897.749508179724216, 5745827.747686030343175 ], [ -6843924.453789000399411, 5745943.693751679733396 ], [ -6843951.103173569776118, 5746059.837021769955754 ], [ -6843977.704809170216322, 5746176.181313529610634 ], [ -6844004.266226880252361, 5746292.730527159757912 ], [ -6844030.795367670245469, 5746409.488586730323732 ], [ -6844057.300603279843926, 5746526.459394060075283 ], [ -6844083.790751310065389, 5746643.646795650012791 ], [ -6844110.275084190070629, 5746761.054563120007515 ], [ -6844136.763331349939108, 5746878.686387980356812 ], [ -6844163.265674039721489, 5746996.545891690067947 ], [ -6844189.792732399888337, 5747114.636651759967208 ], [ -6844216.355544390156865, 5747232.962245140224695 ], [ -6844242.96553631965071, 5747351.526309199631214 ], [ -6844269.634484879672527, 5747470.332620799541473 ], [ -6844296.374470669776201, 5747589.385193170048296 ], [ -6844323.197823270224035, 5747708.688389640301466 ], [ -6844350.117057830095291, 5747828.247052310034633 ], [ -6844377.144802680239081, 5747948.066642589867115 ], [ -6844404.293717309832573, 5748068.153388880193233 ], [ -6844431.576398340053856, 5748188.514434809796512 ], [ -6844459.00527030043304, 5748309.157979190349579 ], [ -6844486.592455030418932, 5748430.093396009877324 ], [ -6844514.349611270241439, 5748551.331319870427251 ], [ -6844542.28773245960474, 5748672.883678929880261 ], [ -6844570.416887739673257, 5748794.763655169866979 ], [ -6844598.745889419689775, 5748916.985550089739263 ], [ -6844627.281871669925749, 5749039.564535579644144 ], [ -6844656.029771770350635, 5749162.516275770030916 ], [ -6844684.991719949990511, 5749285.856417560018599 ], [ -6844714.166367179714143, 5749409.599967059679329 ], [ -6844743.548209870234132, 5749533.760593079961836 ], [ -6844773.127000509761274, 5749658.34992425981909 ], [ -6844802.887351229786873, 5749783.376922509633005 ], [ -6844832.808632739819586, 5749908.847416309639812 ], [ -6844862.865237060002983, 5750034.763855510391295 ], [ -6844893.027215410023928, 5750161.125311209820211 ], [ -6844923.261237430386245, 5750287.927698800340295 ], [ -6844953.531766690313816, 5750415.164166269823909 ], [ -6844983.802323290146887, 5750542.825571750290692 ], [ -6845014.036709699779749, 5750670.900977210141718 ], [ -6845044.200103670358658, 5750799.378102039918303 ], [ -6845074.259958339855075, 5750928.243703500367701 ], [ -6845104.186684619635344, 5751057.48387205041945 ], [ -6845133.954118000343442, 5751187.084245029836893 ], [ -6845163.539789670147002, 5751317.030150909908116 ], [ -6845192.925030959770083, 5751447.306699560023844 ], [ -6845222.094943470321596, 5751577.898833770304918 ], [ -6845251.038266509771347, 5751708.79135463014245 ], [ -6845279.747170530259609, 5751839.968931060284376 ], [ -6845308.217001410201192, 5751971.416100139729679 ], [ -6845336.445996079593897, 5752103.117263260297477 ], [ -6845364.434986050240695, 5752235.056680769659579 ], [ -6845392.187101360410452, 5752367.218466740101576 ], [ -6845419.707484349608421, 5752499.586584489792585 ], [ -6845447.003019790165126, 5752632.14484332036227 ], [ -6845474.082085319794714, 5752764.876896030269563 ], [ -6845500.954324739985168, 5752897.766237329691648 ], [ -6845527.630444769747555, 5753030.79620268009603 ], [ -6845554.12203521002084, 5753163.949967450462282 ], [ -6845580.441411539912224, 5753297.210546 ], [ -6845606.60147855989635, 5753430.560790680348873 ], [ -6845632.615613330155611, 5753563.983390220440924 ], [ -6845658.497565669938922, 5753697.460867639631033 ], [ -6845684.261374509893358, 5753830.975577149540186 ], [ -6845709.921298219822347, 5753964.509699909947813 ], [ -6845735.49175756983459, 5754098.045238300226629 ], [ -6845760.987289849668741, 5754231.564008230343461 ], [ -6845786.422513079829514, 5754365.047629170119762 ], [ -6845811.812099229544401, 5754498.477511149831116 ], [ -6845837.170756040140986, 5754631.834838129580021 ], [ -6845862.513216650113463, 5754765.100546790286899 ], [ -6845887.854237159714103, 5754898.255299739539623 ], [ -6845913.208602010272443, 5755031.279451670125127 ], [ -6845938.591137680225074, 5755164.153006760403514 ], [ -6845964.016735520213842, 5755296.855565119534731 ], [ -6845989.500384920276701, 5755429.366255319677293 ], [ -6846015.057218819856644, 5755561.663649080321193 ], [ -6846040.702574229799211, 5755693.725652869790792 ], [ -6846066.452071879990399, 5755825.529368939809501 ], [ -6846092.321720859967172, 5755957.050915339961648 ], [ -6846118.328057060018182, 5756088.265189140103757 ], [ -6846144.488329050131142, 5756219.145549239590764 ], [ -6846170.820753219537437, 5756349.66338049992919 ], [ -6846197.344874739646912, 5756479.78747558966279 ], [ -6846224.082100310362875, 5756609.48312016017735 ], [ -6846251.056530109606683, 5756738.710659679956734 ], [ -6846278.296366860158741, 5756867.423066159710288 ], [ -6846305.836610600352287, 5756995.561274410225451 ], [ -6846333.725410809740424, 5757123.043172799982131 ], [ -6846362.049854329787195, 5757249.718868150375783 ], [ -6846373.008095679804683, 5757380.00548390019685 ], [ -6846384.39424708019942, 5757509.518355459906161 ], [ -6846396.12718814983964, 5757638.399528689682484 ], [ -6846408.164953390136361, 5757766.722913660109043 ], [ -6846420.478825439698994, 5757894.539248360320926 ], [ -6846433.046962800435722, 5758021.887165959924459 ], [ -6846445.851703519932926, 5758148.797884429804981 ], [ -6846458.878161340020597, 5758275.297654179856181 ], [ -6846472.113401650451124, 5758401.409200630150735 ], [ -6846485.54591813031584, 5758527.152645429596305 ], [ -6846499.165281590074301, 5758652.546129669994116 ], [ -6846512.961894770152867, 5758777.606253559701145 ], [ -6846526.926816039718688, 5758902.348396919667721 ], [ -6846541.051629950292408, 5759026.786958579905331 ], [ -6846555.328350660391152, 5759150.935538919642568 ], [ -6846569.74934921041131, 5759274.807080900296569 ], [ -6846584.307298350147903, 5759398.413980630226433 ], [ -6846598.995130649767816, 5759521.768174660392106 ], [ -6846613.806006629951298, 5759644.881209580227733 ], [ -6846628.733290730044246, 5759767.764297800138593 ], [ -6846643.770533129572868, 5759890.428362520411611 ], [ -6846658.911456289701164, 5760012.884074339643121 ], [ -6846674.149944899603724, 5760135.141881080344319 ], [ -6846689.480038650333881, 5760257.2120326096192 ], [ -6846704.895926839672029, 5760379.104601579718292 ], [ -6846720.391944480128586, 5760500.829501160420477 ], [ -6846735.962569340132177, 5760622.39650066010654 ], [ -6846751.602419570088387, 5760743.81523962970823 ], [ -6846767.306251520290971, 5760865.095241080038249 ], [ -6846783.068957669660449, 5760986.245924370363355 ], [ -6846798.885564129799604, 5761107.276618240401149 ], [ -6846814.75122787989676, 5761228.19657438993454 ], [ -6846830.661233290098608, 5761349.014982010237873 ], [ -6846846.610987950116396, 5761469.740983639843762 ], [ -6846862.59601762983948, 5761590.383692819625139 ], [ -6846878.611960159614682, 5761710.952213710173965 ], [ -6846894.654558329842985, 5761831.455663310363889 ], [ -6846910.719651429913938, 5761951.903196499682963 ], [ -6846926.803165540099144, 5762072.30403446033597 ], [ -6846942.901102250441909, 5762192.667496980167925 ], [ -6846959.009525829926133, 5762313.003039149567485 ], [ -6846975.124548519961536, 5762433.320293210446835 ], [ -6846991.242313830181956, 5762553.629116309806705 ], [ -6847007.358977530151606, 5762673.939645090140402 ], [ -6847023.470686090178788, 5762794.262358309701085 ], [ -6847039.573552049696445, 5762914.608148880302906 ], [ -6847055.663625979796052, 5763034.988406989723444 ], [ -6847071.736864269711077, 5763155.415116759948432 ], [ -6847087.789092009887099, 5763275.900968819856644 ], [ -6847103.815959869883955, 5763396.459492820315063 ], [ -6847119.812893600203097, 5763517.105214430019259 ], [ -6847135.775034310296178, 5763637.853843119926751 ], [ -6847151.6971669299528, 5763758.722499599680305 ], [ -6847167.573633179999888, 5763879.729994890280068 ], [ -6847183.398224179632962, 5764000.897178459912539 ], [ -6847199.164044699631631, 5764122.247381170280278 ], [ -6847214.863337719812989, 5764243.806992460042238 ], [ -6847230.4872504202649, 5764365.606234500184655 ], [ -6847246.02551038004458, 5764487.680239249952137 ], [ -6847261.465955969877541, 5764610.070617450401187 ], [ -6847276.793811679817736, 5764732.827887429855764 ], [ -6847291.990471639670432, 5764856.015562820248306 ], [ -6847307.0311861904338, 5764979.717940170317888 ], [ -6847321.879626830108464, 5765104.058414859697223 ], [ -6847336.465858779847622, 5765229.273758689872921 ], [ -6847221.320576819591224, 5765292.743631259538233 ], [ -6847105.921516899950802, 5765357.181560119614005 ], [ -6846990.338687590323389, 5765422.348143099807203 ], [ -6846874.609728559851646, 5765488.113082409836352 ], [ -6846758.761176490224898, 5765554.38346750009805 ], [ -6846642.81370466016233, 5765621.086110630072653 ], [ -6846526.784348379820585, 5765688.160049050115049 ], [ -6846410.687671840190887, 5765755.55261802021414 ], [ -6846294.536461239680648, 5765823.217122370377183 ], [ -6846178.342173130251467, 5765891.111334330402315 ], [ -6846062.115243510343134, 5765959.196461919695139 ], [ -6845945.865311980247498, 5766027.43640466965735 ], [ -6845829.601391480304301, 5766095.79719393979758 ], [ -6845713.332001769915223, 5766164.246556679718196 ], [ -6845597.065278160385787, 5766232.753563810139894 ], [ -6845480.809063159860671, 5766301.288337729871273 ], [ -6845364.570986299775541, 5766369.821801110170782 ], [ -6845248.358536119572818, 5766438.325454169884324 ], [ -6845132.179127120412886, 5766506.771170569583774 ], [ -6845016.040164380334318, 5766575.13100397028029 ], [ -6844899.949107900261879, 5766643.376998170278966 ], [ -6844783.913538820110261, 5766711.480994080193341 ], [ -6844667.941229930147529, 5766779.414426799863577 ], [ -6844552.04022288043052, 5766847.148104649968445 ], [ -6844436.218915659934282, 5766914.651960659772158 ], [ -6844320.486164369620383, 5766981.894763830117881 ], [ -6844204.851405509747565, 5767048.843772989697754 ], [ -6844089.324807239696383, 5767115.464308150112629 ], [ -6843973.917462849989533, 5767181.719201860018075 ], [ -6843858.641647269949317, 5767247.568070620298386 ], [ -6843798.125172443687916, 5767281.943597005680203 ], [ -6843797.865573906339705, 5767282.197204936295748 ], [ -6843783.915771956555545, 5767297.13310869038105 ], [ -6843766.555674632079899, 5767315.710542721673846 ], [ -6843749.198989403434098, 5767334.274229642935097 ], [ -6843731.845815333537757, 5767352.823809773661196 ], [ -6843714.496253895573318, 5767371.358913662843406 ], [ -6843701.471489256247878, 5767385.265521828085184 ], [ -6843703.354125676676631, 5767389.566122259944677 ], [ -6843712.409869851544499, 5767410.213429568335414 ], [ -6843721.473649255931377, 5767430.84012944996357 ], [ -6843730.57524674013257, 5767451.514206836000085 ], [ -6843734.814630883745849, 5767461.86257647164166 ], [ -6843738.51257317699492, 5767472.416549885645509 ], [ -6843741.6591551983729, 5767483.14781978353858 ], [ -6843744.245937357656658, 5767494.02760333288461 ], [ -6843746.265981527045369, 5767505.026719369925559 ], [ -6843747.7138696545735, 5767516.115666659548879 ], [ -6843748.585718290880322, 5767527.264703030698001 ], [ -6843748.879189013503492, 5767538.44392513949424 ], [ -6843748.59349468909204, 5767549.623348684050143 ], [ -6843747.729401593096554, 5767560.772988819517195 ], [ -6843745.903867715038359, 5767578.392093907110393 ], [ -6843744.083808717317879, 5767595.983705541118979 ], [ -6843742.265969672240317, 5767613.579675950109959 ], [ -6843740.956036202609539, 5767623.84584076423198 ], [ -6843739.155705226585269, 5767634.03744878526777 ], [ -6843736.869112381711602, 5767644.131088309921324 ], [ -6843734.10151032730937, 5767654.103572681546211 ], [ -6843730.859256674535573, 5767663.931993559002876 ], [ -6843722.235563795082271, 5767688.109855328686535 ], [ -6843713.617734082974494, 5767712.269006851129234 ], [ -6843705.008135110139847, 5767736.402789791114628 ], [ -6843696.406983279623091, 5767760.51057815272361 ], [ -6843687.814474535174668, 5767784.591804603114724 ], [ -6843679.230779924429953, 5767808.645973043516278 ], [ -6843670.656042023561895, 5767832.672668940387666 ], [ -6843662.090371337719262, 5767856.671569525264204 ], [ -6843653.533843949437141, 5767880.642450594343245 ], [ -6843650.830808613449335, 5767887.810687718912959 ], [ -6843641.054983663372695, 5767912.404807419516146 ], [ -6843631.282971589826047, 5767936.98372126929462 ], [ -6843621.520993427373469, 5767961.53177398443222 ], [ -6843611.769009404815733, 5767986.049077328294516 ], [ -6843602.026940460316837, 5768010.535855198279023 ], [ -6843592.294671821407974, 5768034.992433413863182 ], [ -6843582.572056936100125, 5768059.41922815144062 ], [ -6843572.858922535553575, 5768083.816731606610119 ], [ -6843563.155073301866651, 5768108.185498391278088 ], [ -6843553.460296886973083, 5768132.526131186634302 ], [ -6843545.696634018793702, 5768152.014092681929469 ], [ -6843539.091770266182721, 5768171.233416480012238 ], [ -6843530.805059147998691, 5768195.345103210769594 ], [ -6843522.525735223665833, 5768219.433674653060734 ], [ -6843514.253572543151677, 5768243.499770818278193 ], [ -6843508.581610116176307, 5768260.000000000931323 ], [ -6843051.900588670745492, 5768260.000000000931323 ], [ -6843056.364559789188206, 5768247.019507287070155 ], [ -6843064.595002738758922, 5768223.08497442305088 ], [ -6843072.831403049640357, 5768199.131372538395226 ], [ -6843081.073967073112726, 5768175.158116549253464 ], [ -6843089.322904069907963, 5768151.164613205008209 ], [ -6843097.578370274044573, 5768127.150423933751881 ], [ -6843105.840605418197811, 5768103.114867572672665 ], [ -6843114.109820608049631, 5768079.057346648536623 ], [ -6843122.386232700198889, 5768054.977247281931341 ], [ -6843130.670075665228069, 5768030.873906102031469 ], [ -6843138.962266744114459, 5768006.744671750813723 ], [ -6843142.57258259318769, 5767997.007482040673494 ], [ -6843152.249561307020485, 5767972.716812028549612 ], [ -6843161.932298826053739, 5767948.406406897120178 ], [ -6843171.623986015096307, 5767924.068183716386557 ], [ -6843181.324834124185145, 5767899.70154276676476 ], [ -6843191.035069848410785, 5767875.305850808508694 ], [ -6843200.754873899742961, 5767850.880597097799182 ], [ -6843210.484422734938562, 5767826.425290432758629 ], [ -6843220.223856062628329, 5767801.939542391337454 ], [ -6843229.973285994492471, 5767777.423046009615064 ], [ -6843239.732773525640368, 5767752.875636129640043 ], [ -6843248.090367328375578, 5767731.849516753107309 ], [ -6843255.355520557612181, 5767711.496385895647109 ], [ -6843263.916597094386816, 5767687.510357301682234 ], [ -6843272.486791484057903, 5767663.496392787434161 ], [ -6843281.065981515683234, 5767639.454847878776491 ], [ -6843289.654007167555392, 5767615.386185971088707 ], [ -6843298.250750566832721, 5767591.290754105895758 ], [ -6843306.855968661606312, 5767567.169251606799662 ], [ -6843308.118437769822776, 5767563.630056340247393 ], [ -6843307.824581353925169, 5767562.960061023943126 ], [ -6843305.448986480012536, 5767557.533404850400984 ], [ -6843284.811830909922719, 5767568.901117620058358 ], [ -6843170.732518070377409, 5767631.04783243034035 ], [ -6843057.007568519562483, 5767692.119234260171652 ], [ -6842932.03574323002249, 5767699.479970970191061 ], [ -6842807.446810780093074, 5767705.708278710022569 ], [ -6842683.158571329899132, 5767711.033193539828062 ], [ -6842559.127136760391295, 5767715.574207030236721 ], [ -6842435.321716589853168, 5767719.4134063096717 ], [ -6842311.718419750221074, 5767722.613216419704258 ], [ -6842188.29763360042125, 5767725.223910289816558 ], [ -6842065.042659780010581, 5767727.287524210289121 ], [ -6841941.938913189806044, 5767728.840163069777191 ], [ -6841818.973412569612265, 5767729.913472450338304 ], [ -6841696.134437530301511, 5767730.535634930245578 ], [ -6841573.411287830211222, 5767730.73207485023886 ], [ -6841450.794108769856393, 5767730.52597413957119 ], [ -6841328.273761440068483, 5767729.938660309650004 ], [ -6841205.84172432962805, 5767728.989904990419745 ], [ -6841083.490017529577017, 5767727.698157840408385 ], [ -6840961.211143639869988, 5767726.080732639878988 ], [ -6840838.998041080310941, 5767724.153957369737327 ], [ -6840716.844047090038657, 5767721.933296550065279 ], [ -6840594.74286787956953, 5767719.433451909571886 ], [ -6840472.68855457007885, 5767716.668446039780974 ], [ -6840350.675483450293541, 5767713.651692260056734 ], [ -6840228.698339680209756, 5767710.396053490228951 ], [ -6840106.75210352987051, 5767706.913892189972103 ], [ -6839984.832038629800081, 5767703.217112899757922 ], [ -6839862.93368158955127, 5767699.317198700271547 ], [ -6839741.052832660265267, 5767695.225242779590189 ], [ -6839619.185546959750354, 5767690.951975779607892 ], [ -6839497.328126089647412, 5767686.507789740338922 ], [ -6839375.477109789848328, 5767681.902759240008891 ], [ -6839253.629267489537597, 5767677.146660109981894 ], [ -6839131.781589520163834, 5767672.248986179940403 ], [ -6839009.931277999654412, 5767667.218964479863644 ], [ -6838888.07573707960546, 5767662.065568960271776 ], [ -6838766.212562760338187, 5767656.797533139586449 ], [ -6838644.339531989768147, 5767651.423361740075052 ], [ -6838522.454591150395572, 5767645.951341549865901 ], [ -6838400.555843980051577, 5767640.389551510103047 ], [ -6838278.641538970172405, 5767634.745872150175273 ], [ -6838156.710056100040674, 5767629.027994460426271 ], [ -6838034.759893390350044, 5767623.243428199552 ], [ -6837912.789652889594436, 5767617.399509579874575 ], [ -6837790.798026639968157, 5767611.503408449701965 ], [ -6837668.783782429993153, 5767605.562134889885783 ], [ -6837546.745749670080841, 5767599.582545089535415 ], [ -6837424.68280535005033, 5767593.571346759796143 ], [ -6837302.593860439956188, 5767587.53510363958776 ], [ -6837180.477846619673073, 5767581.480239420197904 ], [ -6837058.333703639917076, 5767575.413040800020099 ], [ -6836936.16036744043231, 5767569.339659780263901 ], [ -6836813.956759059801698, 5767563.266114990226924 ], [ -6836691.721774440258741, 5767557.198292270302773 ], [ -6836569.454275369644165, 5767551.141944220289588 ], [ -6836447.153081430122256, 5767545.102688919752836 ], [ -6836324.816963110119104, 5767539.086007660254836 ], [ -6836202.444636220112443, 5767533.097241880372167 ], [ -6836080.034757319837809, 5767527.141589160077274 ], [ -6835957.585920499637723, 5767521.224098470062017 ], [ -6835835.09665525984019, 5767515.349664649926126 ], [ -6835712.565425430424511, 5767509.523022259585559 ], [ -6835589.990629140287638, 5767503.748738880269229 ], [ -6835467.37059967033565, 5767498.031208040192723 ], [ -6835344.703607089817524, 5767492.374641769565642 ], [ -6835221.987860349938273, 5767486.783063139766455 ], [ -6835099.221509990282357, 5767481.260298790410161 ], [ -6834976.402650839649141, 5767475.809971739538014 ], [ -6834853.52932486962527, 5767470.435494589619339 ], [ -6834730.599523680284619, 5767465.140063470229506 ], [ -6834607.611190529540181, 5767459.926652769558132 ], [ -6834484.562221639789641, 5767454.798011059872806 ], [ -6834361.450466440059245, 5767449.756658259779215 ], [ -6834238.273726579733193, 5767444.804884410463274 ], [ -6834115.029753410257399, 5767439.944750189781189 ], [ -6833991.716243799775839, 5767435.178089389577508 ], [ -6833868.3308339798823, 5767430.506513530388474 ], [ -6833744.871091320179403, 5767425.931418729946017 ], [ -6833621.334504010155797, 5767421.453994990326464 ], [ -6833497.718468439765275, 5767417.075237840414047 ], [ -6833374.020274509675801, 5767412.795962420292199 ], [ -6833250.237088980153203, 5767408.616819900460541 ], [ -6833126.365937139838934, 5767404.538315869867802 ], [ -6833002.403683150187135, 5767400.56083067972213 ], [ -6832878.347009969875216, 5767396.684640940278769 ], [ -6832754.192399349994957, 5767392.90994188003242 ], [ -6832629.936113179661334, 5767389.236869540065527 ], [ -6832505.574177499860525, 5767385.665521989576519 ], [ -6832381.102370549924672, 5767382.195978379808366 ], [ -6832256.516216949559748, 5767378.828314339742064 ], [ -6832131.810989829711616, 5767375.56261243019253 ], [ -6832006.981723380275071, 5767372.398965680040419 ], [ -6831882.023238009773195, 5767369.337472629733384 ], [ -6831756.930180629715323, 5767366.37822203990072 ], [ -6831631.697082229889929, 5767363.521265470422804 ], [ -6831506.318434519693255, 5767360.766576469875872 ], [ -6831380.788786949589849, 5767358.113995290361345 ], [ -6831255.102864409796894, 5767355.563158920034766 ], [ -6831129.255704630166292, 5767353.113416819833219 ], [ -6831003.242813009768724, 5767350.7637341003865 ], [ -6830877.060330850072205, 5767348.512585080228746 ], [ -6830750.705211129970849, 5767346.357841 ], [ -6830624.175394480116665, 5767344.29665766004473 ], [ -6830497.469976450316608, 5767342.325369000434875 ], [ -6830370.589356379583478, 5767340.439393729902804 ], [ -6830243.535358180291951, 5767338.63316204957664 ], [ -6830116.311313680373132, 5767336.900069150142372 ], [ -6829988.922101230360568, 5767335.232460579834878 ], [ -6829861.374134480021894, 5767333.62165343016386 ], [ -6829733.675299249589443, 5767332.057994400151074 ], [ -6829605.834840170107782, 5767330.53095365036279 ], [ -6829477.863201609812677, 5767329.029251 ], [ -6829349.771830789744854, 5767327.541008589789271 ], [ -6829221.57295283023268, 5767326.05392288044095 ], [ -6829093.279329029843211, 5767324.555447700433433 ], [ -6828964.90400971006602, 5767323.03297999035567 ], [ -6828836.460092449560761, 5767321.474040470086038 ], [ -6828707.960495189763606, 5767319.866442220285535 ], [ -6828579.417751669883728, 5767318.198441970162094 ], [ -6828450.843834630213678, 5767316.458870049566031 ], [ -6828322.250009849667549, 5767314.637237040325999 ], [ -6828193.646722420118749, 5767312.723816050216556 ], [ -6828065.043514500372112, 5767310.709701489657164 ], [ -6827936.448972770012915, 5767308.586845619603992 ], [ -6827807.870702859945595, 5767306.348075060173869 ], [ -6827679.315327039919794, 5767303.987090039998293 ], [ -6827550.788501679897308, 5767301.49844910018146 ], [ -6827422.294950620271266, 5767298.877542049624026 ], [ -6827293.838510840199888, 5767296.120553920045495 ], [ -6827165.422187239862978, 5767293.22442237008363 ], [ -6827037.048213469795883, 5767290.18679070007056 ], [ -6826908.718116359785199, 5767287.005958270281553 ], [ -6826780.432781980372965, 5767283.680829989723861 ], [ -6826652.192521389573812, 5767280.210865980014205 ], [ -6826523.997135009616613, 5767276.596032470464706 ], [ -6826395.845974420197308, 5767272.836754599586129 ], [ -6826267.738001010380685, 5767268.933871660381556 ], [ -6826139.671840930357575, 5767264.888595060445368 ], [ -6826011.645836009643972, 5767260.70246937032789 ], [ -6825883.658090660348535, 5767256.377336249686778 ], [ -6825755.706514519639313, 5767251.915301599539816 ], [ -6825627.788861160166562, 5767247.318705519661307 ], [ -6825499.902762839570642, 5767242.590095279738307 ], [ -6825372.045761460438371, 5767237.732200839556754 ], [ -6825244.215336210094392, 5767232.747913029976189 ], [ -6825116.408927679993212, 5767227.640264020301402 ], [ -6824988.623959230259061, 5767222.412409920245409 ], [ -6824860.857855389826, 5767217.067615459673107 ], [ -6824733.108057780191302, 5767211.609240340068936 ], [ -6824605.372038760222495, 5767206.040727320127189 ], [ -6824477.647312929853797, 5767200.365591679699719 ], [ -6824349.931446789763868, 5767194.587412069551647 ], [ -6824222.222066620364785, 5767188.709822470322251 ], [ -6824094.516864899545908, 5767182.736505259759724 ], [ -6823966.813605319708586, 5767176.671185189858079 ], [ -6823839.110126519575715, 5767170.517624160274863 ], [ -6823711.404344740323722, 5767164.279616840183735 ], [ -6823583.69425543025136, 5767157.960986809805036 ], [ -6823455.977933979593217, 5767151.565583430230618 ], [ -6823328.253535539843142, 5767145.097279139794409 ], [ -6823200.519294160418212, 5767138.559967270120978 ], [ -6823072.773521089926362, 5767131.957560329698026 ], [ -6822945.014602510258555, 5767125.29398859012872 ], [ -6822817.240996579639614, 5767118.573199129663408 ], [ -6822689.451229769736528, 5767111.799155189655721 ], [ -6822561.643892680294812, 5767104.975835870020092 ], [ -6822433.817635130137205, 5767098.107236140407622 ], [ -6822305.971160640008748, 5767091.197367190383375 ], [ -6822178.103220120072365, 5767084.250257140025496 ], [ -6822050.212604849599302, 5767077.269952059723437 ], [ -6821922.298138610087335, 5767070.260517429560423 ], [ -6821794.358668800443411, 5767063.226040029898286 ], [ -6821666.393056469969451, 5767056.170630279928446 ], [ -6821538.400165170431137, 5767049.098425160162151 ], [ -6821410.378848199732602, 5767042.013591820374131 ], [ -6821282.327934180386364, 5767034.920331910252571 ], [ -6821154.246210530400276, 5767027.822886859998107 ], [ -6821026.132404400035739, 5767020.725544359534979 ], [ -6820897.985160499811172, 5767013.632646130397916 ], [ -6820769.803015179932117, 5767006.548597459681332 ], [ -6820641.584365690127015, 5766999.477879010140896 ], [ -6820513.327433389611542, 5766992.425061300396919 ], [ -6820385.030219240114093, 5766985.394822879694402 ], [ -6820256.690448950044811, 5766978.391973299905658 ], [ -6820128.305504459887743, 5766971.421482560224831 ], [ -6819999.872336549684405, 5766964.48851955961436 ], [ -6819871.387350600212812, 5766957.598503299988806 ], [ -6819742.84625305980444, 5766950.757173 ], [ -6819614.243837400339544, 5766943.970687280409038 ], [ -6819485.573671899735928, 5766937.24577082041651 ], [ -6819356.827615889720619, 5766930.589943929575384 ], [ -6819227.995005309581757, 5766924.011912330053747 ], [ -6819099.061101100407541, 5766917.522314289584756 ], [ -6818970.003440910018981, 5766911.135484740138054 ], [ -6818840.777048390358686, 5766904.876624709926546 ], [ -6818782.458932089619339, 5766793.176687950268388 ], [ -6818723.962377279996872, 5766681.548538500443101 ], [ -6818665.33588137011975, 5766569.96931707020849 ], [ -6818606.606279449537396, 5766458.426739440299571 ], [ -6818547.792981069535017, 5766346.912193089723587 ], [ -6818488.911477940157056, 5766235.419039010070264 ], [ -6818429.974833769723773, 5766123.941892679780722 ], [ -6818370.994465519674122, 5766012.476248949766159 ], [ -6818311.980607659555972, 5765901.018260939978063 ], [ -6818252.942612580023706, 5765789.564598700031638 ], [ -6818193.88915781956166, 5765678.112353240139782 ], [ -6818134.828396639786661, 5765566.658968440257013 ], [ -6818075.768072050064802, 5765455.202190949581563 ], [ -6818016.715606699697673, 5765343.740032220259309 ], [ -6817957.678176149725914, 5765232.270739019848406 ], [ -6817898.662770730443299, 5765120.792769930325449 ], [ -6817839.676249399781227, 5765009.304776369594038 ], [ -6817780.725388250313699, 5764897.80558679997921 ], [ -6817721.816925480030477, 5764786.29419341031462 ], [ -6817662.957604490220547, 5764674.769740699790418 ], [ -6817604.154216470196843, 5764563.231515220366418 ], [ -6817545.413643539883196, 5764451.678936409763992 ], [ -6817486.74290398042649, 5764340.111547919921577 ], [ -6817428.149200620129704, 5764228.52900923974812 ], [ -6817369.639974069781601, 5764116.931087220087647 ], [ -6817311.222962769679725, 5764005.317647119984031 ], [ -6817252.906272060237825, 5763893.688642949797213 ], [ -6817194.698455659672618, 5763782.044106219895184 ], [ -6817136.608613960444927, 5763670.384132700040936 ], [ -6817078.646515290252864, 5763558.708866049535573 ], [ -6817020.822749550454319, 5763447.018476810306311 ], [ -6816963.148928210139275, 5763335.313134679570794 ], [ -6816905.637953310273588, 5763223.592970410361886 ], [ -6816848.304393139667809, 5763111.858021359890699 ], [ -6816791.165032289922237, 5763000.108150159940124 ], [ -6816734.239727599546313, 5762888.342915680259466 ], [ -6816677.552855170331895, 5762776.561351450160146 ], [ -6816621.136077749542892, 5762664.76153651997447 ], [ -6816565.034870569594204, 5762552.939574910327792 ], [ -6816509.335029060021043, 5762441.085428699851036 ], [ -6816501.072814020328224, 5762315.411578780040145 ], [ -6816493.234496239572763, 5762189.683498090133071 ], [ -6816485.730042120441794, 5762063.917283300310373 ], [ -6816478.511182, 5761938.122679360210896 ], [ -6816471.543916040100157, 5761812.307426580227911 ], [ -6816464.801746159791946, 5761686.478346680290997 ], [ -6816458.262805949896574, 5761560.641818230040371 ], [ -6816451.908359330147505, 5761434.804040520451963 ], [ -6816445.721911530010402, 5761308.971205919981003 ], [ -6816439.688636040315032, 5761183.149628490209579 ], [ -6816433.794980980455875, 5761057.345851760357618 ], [ -6816428.028384120203555, 5760931.566748850047588 ], [ -6816422.377056749537587, 5760805.819623360410333 ], [ -6816416.829812429845333, 5760680.112317900173366 ], [ -6816411.375924830324948, 5760554.45333634968847 ], [ -6816406.005004280246794, 5760428.851985479705036 ], [ -6816400.706885400228202, 5760303.318540900014341 ], [ -6816395.471521079540253, 5760177.864439410157502 ], [ -6816390.288881409913301, 5760052.502491690218449 ], [ -6816385.148862229660153, 5759927.247088059782982 ], [ -6816380.041221260093153, 5759802.114323600195348 ], [ -6816374.955584100447595, 5759677.121874970383942 ], [ -6816369.881601169705391, 5759552.288316209800541 ], [ -6816364.809366529807448, 5759427.63144594989717 ], [ -6816359.730153770186007, 5759303.165413239970803 ], [ -6816354.637287680059671, 5759178.897332689724863 ], [ -6816349.526677520014346, 5759054.825201219879091 ], [ -6816344.396618680097163, 5758930.938617380335927 ], [ -6816339.247005400247872, 5758807.221758070401847 ], [ -6816334.078457410447299, 5758683.656688099727035 ], [ -6816328.891709449701011, 5758560.225669009611011 ], [ -6816323.687305820174515, 5758436.912304430268705 ], [ -6816318.465499069541693, 5758313.701907849870622 ], [ -6816313.226250889711082, 5758190.581481600180268 ], [ -6816307.969273149967194, 5758067.539544809609652 ], [ -6816302.694078490138054, 5757944.565925669856369 ], [ -6816297.400028400123119, 5757821.651565190404654 ], [ -6816292.086374510079622, 5757698.788347579538822 ], [ -6816286.752292769961059, 5757575.968958970159292 ], [ -6816281.396911139599979, 5757453.186771390028298 ], [ -6816276.019331960007548, 5757330.435747859999537 ], [ -6816270.618649870157242, 5757207.710364550352097 ], [ -6816265.193966340273619, 5757085.00554640032351 ], [ -6816259.744401370175183, 5756962.316613730043173 ], [ -6816254.26910294033587, 5756839.639237299561501 ], [ -6816248.767254630103707, 5756716.969400320202112 ], [ -6816243.238081879913807, 5756594.30336594954133 ], [ -6816237.680856839753687, 5756471.637649269774556 ], [ -6816232.094902420416474, 5756348.968992879614234 ], [ -6816226.479595289565623, 5756226.294345499947667 ], [ -6816220.834368240088224, 5756103.610842970199883 ], [ -6816215.158711940050125, 5755980.915791340172291 ], [ -6816209.45217601954937, 5755858.206651570275426 ], [ -6816203.71436978969723, 5755735.481025789864361 ], [ -6816197.94496238976717, 5755612.736644590273499 ], [ -6816192.143682640045881, 5755489.971355440095067 ], [ -6816186.310318459756672, 5755367.183111949823797 ], [ -6816180.444715949706733, 5755244.36996382009238 ], [ -6816174.546778189949691, 5755121.530047469772398 ], [ -6816168.616463679820299, 5754998.661577199585736 ], [ -6816162.653784530237317, 5754875.762836799956858 ], [ -6816156.658804380334914, 5754752.83217156957835 ], [ -6816150.631636019796133, 5754629.867980680428445 ], [ -6816144.572438769973814, 5754506.868709860369563 ], [ -6816138.481415630318224, 5754383.832844270393252 ], [ -6816132.358810110017657, 5754260.758901660330594 ], [ -6816126.204902850091457, 5754137.645425640046597 ], [ -6816120.020007999613881, 5754014.490979130379856 ], [ -6816113.804469229653478, 5753891.294137880206108 ], [ -6816107.558655610308051, 5753768.053484049625695 ], [ -6816101.282956990413368, 5753644.767599820159376 ], [ -6816094.977779259905219, 5753521.435060979798436 ], [ -6816088.64353904966265, 5753398.0544303804636 ], [ -6816082.280658129602671, 5753274.624251290224493 ], [ -6816075.889557270333171, 5753151.14304050989449 ], [ -6816069.470649559982121, 5753027.60928107984364 ], [ -6816063.024333000183105, 5752904.021414609625936 ], [ -6816056.550982220098376, 5752780.377832939848304 ], [ -6816050.050939179956913, 5752656.676868850365281 ], [ -6816043.524502459913492, 5752532.916785719804466 ], [ -6816036.971914649941027, 5752409.095765450038016 ], [ -6816030.393347459845245, 5752285.211894249543548 ], [ -6816023.788883339613676, 5752161.263145229779184 ], [ -6816017.15849267039448, 5752037.247356710024178 ], [ -6816010.502004230394959, 5751913.162204249761999 ], [ -6816003.819066439755261, 5751789.005163690075278 ], [ -6815997.109095280058682, 5751664.773461359553039 ], [ -6815990.371204010210931, 5751540.46400681976229 ], [ -6815983.604112390428782, 5751416.073305600322783 ], [ -6815976.806048910133541, 5751291.597365389578044 ], [ -6815969.974724190309644, 5751167.031670729629695 ], [ -6815963.107620130293071, 5751042.371462989598513 ], [ -6815956.20297610014677, 5750917.612693820148706 ], [ -6815949.261201259680092, 5750792.753390409983695 ], [ -6815942.285204390063882, 5750667.793974299915135 ], [ -6815935.279183629900217, 5750542.736091500148177 ], [ -6815928.247367739677429, 5750417.581395340152085 ], [ -6815921.193499620072544, 5750292.331046760082245 ], [ -6815914.120781029574573, 5750166.98565972968936 ], [ -6815907.031953689642251, 5750041.54537826962769 ], [ -6815899.929390709847212, 5749916.009963070042431 ], [ -6815892.815169230103493, 5749790.37885928992182 ], [ -6815885.691123309545219, 5749664.65124490018934 ], [ -6815878.558881860226393, 5749538.826063719578087 ], [ -6815871.419895860366523, 5749412.902047569863498 ], [ -6815864.27545814961195, 5749286.877730269916356 ], [ -6815857.126718020066619, 5749160.751455659978092 ], [ -6815849.974692010320723, 5749034.521380919963121 ], [ -6815842.820272079668939, 5748908.185476009733975 ], [ -6815835.664231649599969, 5748781.741519530303776 ], [ -6815828.507230170071125, 5748655.18709150981158 ], [ -6815821.349816369824111, 5748528.519562840461731 ], [ -6815814.192430569790304, 5748401.736081359907985 ], [ -6815807.035406080074608, 5748274.83355417009443 ], [ -6815799.878969799727201, 5748147.80862579960376 ], [ -6815792.723242060281336, 5748020.657651240006089 ], [ -6815785.568235659971833, 5747893.376663110218942 ], [ -6815778.413854040205479, 5747765.961331410333514 ], [ -6815771.25988844037056, 5747638.406913979910314 ], [ -6815764.10601381957531, 5747510.708195160143077 ], [ -6815756.951783229596913, 5747382.859408830292523 ], [ -6815749.796620080247521, 5747254.854140530340374 ], [ -6815742.639807590283453, 5747126.685200829990208 ], [ -6815735.480474229902029, 5746998.34445776976645 ], [ -6815728.317573229782283, 5746869.822608860209584 ], [ -6815721.149853040464222, 5746741.108860240317881 ], [ -6815713.975812800228596, 5746612.190454360097647 ], [ -6815706.793631879612803, 5746483.051932780072093 ], [ -6815699.60104900971055, 5746353.673887440003455 ], [ -6815692.395129079930484, 5746224.030570459552109 ], [ -6815685.171709920279682, 5746094.084255400113761 ], [ -6815677.923148170113564, 5745963.762330669909716 ], [ -6815786.684065000154078, 5745895.320009740069509 ] ] ] } }
]
}
