{
"type": "FeatureCollection",
"name": "regions",
"crs": { "type": "name", "properties": { "name": "urn:ogc:def:crs:EPSG::3857" } },
"features": [
{ "type": "Feature", "properties": { }, "geometry": { "type": "Polygon", "coordinates": [ [ [ -6842959.955534324981272, 5768604.295934626832604 ], [ -6842962.949919121339917, 5768583.726846266537905 ], [ -6842964.440813238732517, 5768574.801702041178942 ], [ -6842966.304329217411578, 5768565.946857439354062 ], [ -6842971.721420977264643, 5768542.640932189300656 ], [ -6842977.154734686017036, 5768519.287381560541689 ], [ -6842982.593547304160893, 5768495.93169404566288 ], [ -6842988.037681641057134, 5768472.573961802758276 ], [ -6842993.486960301175714, 5768449.214275912381709 ], [ -6842998.941205829381943, 5768425.852726483717561 ], [ -6843004.400240709073842, 5768402.489403121173382 ], [ -6843009.863887568935752, 5768379.124394592829049 ], [ -6843015.331969449296594, 5768355.757788433693349 ], [ -6843020.804309826344252, 5768332.389671327546239 ], [ -6843026.280732715502381, 5768309.020129112526774 ], [ -6843028.844578146934509, 5768299.137363290414214 ], [ -6843031.872710753232241, 5768289.386836299672723 ], [ -6843035.358360682614148, 5768279.790346928872168 ], [ -6843039.293735234998167, 5768270.369349592365324 ], [ -6843043.916134457103908, 5768260.000000000931323 ], [ -6843516.773163702338934, 5768260.000000000931323 ], [ -6843509.973288919776678, 5768275.246564612723887 ], [ -6843500.438913113437593, 5768296.624950021505356 ], [ -6843490.90592226292938, 5768318.001002644188702 ], [ -6843481.374506705440581, 5768339.374503466300666 ], [ -6843471.844789401628077, 5768360.745388358831406 ], [ -6843462.316855497658253, 5768382.113681793212891 ], [ -6843452.790905060246587, 5768403.479154360480607 ], [ -6843443.267058701254427, 5768424.84175856038928 ], [ -6843442.083342840895057, 5768427.497168227098882 ], [ -6843441.291504035703838, 5768430.876180786639452 ], [ -6843435.834604614414275, 5768454.178349711000919 ], [ -6843430.382577689364552, 5768477.476335835643113 ], [ -6843424.935603003017604, 5768500.770032806321979 ], [ -6843419.493856970220804, 5768524.059349255636334 ], [ -6843414.057513458654284, 5768547.344204988330603 ], [ -6843408.626752288080752, 5768570.624493901617825 ], [ -6843403.201744895428419, 5768593.900144787505269 ], [ -6843397.782667969353497, 5768617.171062492765486 ], [ -6843392.477223519235849, 5768639.974983134306967 ], [ -6843464.009355019778013, 5768642.513739470392466 ], [ -6843587.630311549641192, 5768646.770096999593079 ], [ -6843711.404896950349212, 5768650.906809150241315 ], [ -6843835.318403390236199, 5768654.92886202968657 ], [ -6843959.357215579599142, 5768658.840871980413795 ], [ -6844083.508704810403287, 5768662.647145980037749 ], [ -6844207.761137809604406, 5768666.351732949726284 ], [ -6844332.103597519919276, 5768669.958467870019376 ], [ -6844456.52591339033097, 5768673.471009760163724 ], [ -6844581.018599590286613, 5768676.892874830402434 ], [ -6844705.572799569927156, 5768680.227465360425413 ], [ -6844830.180235849693418, 5768683.478095389902592 ], [ -6844954.8331642402336, 5768686.648013539612293 ], [ -6845079.524331499822438, 5768689.740423670038581 ], [ -6845204.246935930103064, 5768692.75850380025804 ], [ -6845328.994590300135314, 5768695.705423819832504 ], [ -6845453.761286520399153, 5768698.584362369962037 ], [ -6845578.541361779905856, 5768701.398523320443928 ], [ -6845703.329465350136161, 5768704.151152430102229 ], [ -6845828.120525930076838, 5768706.845554689876735 ], [ -6845952.909718659706414, 5768709.485112920403481 ], [ -6846077.692431339994073, 5768712.073308589868248 ], [ -6846202.464228870347142, 5768714.613745849579573 ], [ -6846327.220814780332148, 5768717.110180259682238 ], [ -6846451.957988199777901, 5768719.566554440185428 ], [ -6846576.671593789942563, 5768721.987043759785593 ], [ -6846701.357460710220039, 5768724.37611731979996 ], [ -6846826.011324009858072, 5768726.738622659817338 ], [ -6846950.628716950304806, 5768729.079909550026059 ], [ -6847075.204811570234597, 5768731.406022289767861 ], [ -6847199.734158609993756, 5768733.724024940282106 ], [ -6847324.210201689973474, 5768736.042623129673302 ], [ -6847448.624147860333323, 5768738.37363085988909 ], [ -6847572.960413370281458, 5768740.737929250113666 ], [ -6847594.047372739762068, 5768866.111773739568889 ], [ -6847615.16403567045927, 5768991.526148700155318 ], [ -6847636.324962199665606, 5769116.961210589855909 ], [ -6847657.537523330189288, 5769242.406216920353472 ], [ -6847678.806415719911456, 5769367.85360352974385 ], [ -6847700.134776080027223, 5769493.297522420063615 ], [ -6847721.524656750261784, 5769618.733218329958618 ], [ -6847742.977277610450983, 5769744.156699789687991 ], [ -6847764.493178360164165, 5769869.564542010426521 ], [ -6847786.0723194796592, 5769994.953757939860225 ], [ -6847807.714154429733753, 5770120.321708399802446 ], [ -6847829.417684320360422, 5770245.666035979986191 ], [ -6847851.181501519866288, 5770370.984614649787545 ], [ -6847873.003825830295682, 5770496.275509989820421 ], [ -6847894.882535779848695, 5770621.536946999840438 ], [ -6847916.815196339972317, 5770746.767283510416746 ], [ -6847938.799084180034697, 5770871.964987929910421 ], [ -6847960.831211109645665, 5770997.128620309755206 ], [ -6847982.908346280455589, 5771122.256816259585321 ], [ -6848005.027037340216339, 5771247.348273109644651 ], [ -6848027.183631019666791, 5771372.401738059706986 ], [ -6848049.374293180182576, 5771497.415998079814017 ], [ -6848071.595028500072658, 5771622.389871380291879 ], [ -6848093.841699980199337, 5771747.322200239636004 ], [ -6848116.110048339702189, 5771872.211845150217414 ], [ -6848138.395711280405521, 5771997.057680149562657 ], [ -6848160.694242769852281, 5772121.858589240349829 ], [ -6848183.001132329925895, 5772246.613463849760592 ], [ -6848205.3118243701756, 5772371.321201260201633 ], [ -6848227.621737450361252, 5772495.980703920125961 ], [ -6848249.926283639855683, 5772620.590879569761455 ], [ -6848272.220887790434062, 5772745.150642110034823 ], [ -6848294.501006750389934, 5772869.65891321003437 ], [ -6848316.762148399837315, 5772994.114624430425465 ], [ -6848338.999890490435064, 5773118.516720009967685 ], [ -6848361.20989918988198, 5773242.864159950055182 ], [ -6848383.387947189621627, 5773367.155923649668694 ], [ -6848405.529931269586086, 5773491.391013659536839 ], [ -6848427.631889330223203, 5773615.568459769710898 ], [ -6848449.690016530454159, 5773739.687323180027306 ], [ -6848471.700680630281568, 5773863.746700679883361 ], [ -6848493.660436309874058, 5773987.745728810317814 ], [ -6848515.56603834964335, 5774111.683587930165231 ], [ -6848537.414453569799662, 5774235.559506040066481 ], [ -6848559.202871450223029, 5774359.372762340120971 ], [ -6848580.928713330067694, 5774483.122690510004759 ], [ -6848602.589640060439706, 5774606.808681569993496 ], [ -6848624.183558150194585, 5774730.430186349898577 ], [ -6848645.708624379709363, 5774853.986717419698834 ], [ -6848667.163248710334301, 5774977.477850699797273 ], [ -6848688.5460957698524, 5775100.903226389549673 ], [ -6848709.856084659695625, 5775224.262549580074847 ], [ -6848731.092387420125306, 5775347.555590230040252 ], [ -6848752.254426009953022, 5775470.782182790338993 ], [ -6848773.341868050396442, 5775593.9422252997756 ], [ -6848794.354621309787035, 5775717.035678129643202 ], [ -6848815.292827179655433, 5775840.062562280334532 ], [ -6848836.156853229738772, 5775963.022957460023463 ], [ -6848856.947284890338778, 5776085.916999760083854 ], [ -6848877.664916560053825, 5776208.74487916007638 ], [ -6848898.310742139816284, 5776331.506836829707026 ], [ -6848918.885945219546556, 5776454.203162260353565 ], [ -6848939.391889019869268, 5776576.834190390072763 ], [ -6848959.83010611962527, 5776699.400298519991338 ], [ -6848980.202288339845836, 5776821.901903379708529 ], [ -6849000.510276519693434, 5776944.339458130300045 ], [ -6849020.75605059042573, 5777066.713449410162866 ], [ -6849040.941719920374453, 5777189.024394510313869 ], [ -6849061.069513879716396, 5777311.272838640026748 ], [ -6849081.14177292957902, 5777433.459352330304682 ], [ -6849101.160940010100603, 5777555.584528950043023 ], [ -6849121.129552490077913, 5777677.648982389830053 ], [ -6849141.050234589725733, 5777799.653344919905066 ], [ -6849160.925690240226686, 5777921.598265210166574 ], [ -6849180.758696629665792, 5778043.484406519681215 ], [ -6849200.552098089829087, 5778165.312445010058582 ], [ -6849220.308800639584661, 5778287.083068329840899 ], [ -6849240.031767000444233, 5778408.796974220313132 ], [ -6849259.724012129940093, 5778530.454869420267642 ], [ -6849279.38859928958118, 5778652.05746862012893 ], [ -6849299.028636559844017, 5778773.605493560433388 ], [ -6849318.64727380964905, 5778895.099672379903495 ], [ -6849338.247700260020792, 5779016.540738919749856 ], [ -6849357.833142319694161, 5779137.929432310163975 ], [ -6849377.406861949712038, 5779259.26649652980268 ], [ -6849396.972155489958823, 5779380.552680210210383 ], [ -6849416.532352790236473, 5779501.788736400194466 ], [ -6849436.090816820040345, 5779622.975422499701381 ], [ -6849444.683818787336349, 5779676.192855592817068 ], [ -6849592.558243489824235, 5779676.192855592817068 ], [ -6849592.789960407651961, 5779677.716855011880398 ], [ -6849596.191354122944176, 5779700.085311163216829 ], [ -6849599.592877402901649, 5779722.452011468820274 ], [ -6849602.994528727605939, 5779744.816807602532208 ], [ -6849606.396345282904804, 5779767.179805378429592 ], [ -6849609.798350838944316, 5779789.541022291406989 ], [ -6849613.200546310283244, 5779811.90032537933439 ], [ -6849616.602986408397555, 5779834.257934832014143 ], [ -6849620.005656546913087, 5779856.61361534614116 ], [ -6849623.408613152801991, 5779878.967597900889814 ], [ -6849626.811849514953792, 5779901.319698352366686 ], [ -6849630.215411742217839, 5779923.670079334639013 ], [ -6849633.619300752878189, 5779946.018606402911246 ], [ -6849637.023547881282866, 5779968.365344514138997 ], [ -6849640.428182841278613, 5779990.710347826592624 ], [ -6849643.833220998756588, 5780013.053575835190713 ], [ -6849647.238676346838474, 5780035.394979041069746 ], [ -6849650.644582614302635, 5780057.734636888839304 ], [ -6849654.050964691676199, 5780080.072570703923702 ], [ -6849657.458386702463031, 5780102.412336808629334 ], [ -6849658.87202007509768, 5780113.650634253397584 ], [ -6849659.688908054493368, 5780124.872113291174173 ], [ -6849517.232624987140298, 5780124.872113291174173 ], [ -6849533.97719116974622, 5780228.195123639889061 ], [ -6849553.59778010006994, 5780349.101749359630048 ], [ -6849573.241152170114219, 5780469.964438820257783 ], [ -6849592.910968069918454, 5780590.783990619704127 ], [ -6849612.610935989767313, 5780711.561210280284286 ], [ -6849632.344815479591489, 5780832.296910819597542 ], [ -6849652.116421819664538, 5780952.991913479752839 ], [ -6849671.929631009697914, 5781073.647048350423574 ], [ -6849691.788385399617255, 5781194.263155209831893 ], [ -6849711.69670011010021, 5781314.841084360145032 ], [ -6849731.658670149743557, 5781435.381697529926896 ], [ -6849751.678478620015085, 5781555.885868879966438 ], [ -6849771.7604058701545, 5781676.354486069642007 ], [ -6849791.908839919604361, 5781796.788451449945569 ], [ -6849812.128288229927421, 5781917.188683340325952 ], [ -6849832.423391180112958, 5782037.556117420084774 ], [ -6849852.798937380313873, 5782157.891708269715309 ], [ -6849873.259881310164928, 5782278.196431109681726 ], [ -6849893.811363629996777, 5782398.471283629536629 ], [ -6849914.458734700456262, 5782518.717288199812174 ], [ -6849935.207582130096853, 5782638.935494200326502 ], [ -6849956.063763069920242, 5782759.126980800181627 ], [ -6849977.033442569896579, 5782879.292860119603574 ], [ -6849998.123139480128884, 5782999.434280860237777 ], [ -6850019.339781990274787, 5783119.552432700060308 ], [ -6850040.690775670111179, 5783239.648551479913294 ], [ -6850062.184088059701025, 5783359.723925559781492 ], [ -6850083.82835553959012, 5783479.77990369964391 ], [ -6850105.633021109737456, 5783599.817905110307038 ], [ -6850127.608516110107303, 5783719.839432519860566 ], [ -6850149.76650702022016, 5783839.846089759841561 ], [ -6850172.120242429897189, 5783959.839606350287795 ], [ -6850194.685063499957323, 5784079.821873350068927 ], [ -6850217.47920048981905, 5784199.794999280013144 ], [ -6850240.525121970102191, 5784319.761404350399971 ], [ -6850263.852117549628019, 5784439.724000790156424 ], [ -6850287.502391270361841, 5784559.686617749743164 ], [ -6850311.555817400105298, 5784679.655727090314031 ], [ -6850238.563335999846458, 5784774.190952699631453 ], [ -6850165.947986519895494, 5784868.728512030094862 ], [ -6850093.628699170425534, 5784963.263086100108922 ], [ -6850021.562036319635808, 5785057.791991460137069 ], [ -6849949.717496640048921, 5785152.313458819873631 ], [ -6849878.071435780264437, 5785246.826209340244532 ], [ -6849806.604489129967988, 5785341.329275069758296 ], [ -6849735.300224830396473, 5785435.821905139833689 ], [ -6849664.144347930327058, 5785530.30351047962904 ], [ -6849593.124189830385149, 5785624.773628279566765 ], [ -6849522.228360610082746, 5785719.231898039579391 ], [ -6849451.446501170285046, 5785813.678044449537992 ], [ -6849380.769100139848888, 5785908.111864879727364 ], [ -6849310.187354410067201, 5786002.533219980075955 ], [ -6849239.693060440011322, 5786096.942026380449533 ], [ -6849169.278527569957078, 5786191.33825103007257 ], [ -6849098.936507759615779, 5786285.721906729973853 ], [ -6849028.660137539729476, 5786380.093048510141671 ], [ -6848958.442889540456235, 5786474.451770760118961 ], [ -6848888.278531240299344, 5786568.798204960301518 ], [ -6848818.161089730449021, 5786663.132517780177295 ], [ -6848748.084820889867842, 5786757.454909670166671 ], [ -6848678.044182499870658, 5786851.765613730065525 ], [ -6848608.033810240216553, 5786946.064894840121269 ], [ -6848538.048496229574084, 5787040.35304911993444 ], [ -6848468.083169549703598, 5787134.630403550341725 ], [ -6848398.132878409698606, 5787228.897315819747746 ], [ -6848328.192773640155792, 5787323.15417439956218 ], [ -6848258.25809330958873, 5787417.401398750022054 ], [ -6848188.324148129671812, 5787511.639439820311964 ], [ -6848118.386307599954307, 5787605.868780629709363 ], [ -6848048.439986609853804, 5787700.089937079697847 ], [ -6847978.480632349848747, 5787794.303459020331502 ], [ -6847908.503711510449648, 5787888.5099314795807 ], [ -6847838.504697410389781, 5787982.709976119920611 ], [ -6847768.479057139717042, 5788076.90425300039351 ], [ -6847698.422238440252841, 5788171.093462600372732 ], [ -6847628.329656160436571, 5788265.278348159976304 ], [ -6847558.196678220294416, 5788359.459698439575732 ], [ -6847488.018610870465636, 5788453.638350839726627 ], [ -6847417.790682979859412, 5788547.8151950603351 ], [ -6847347.508029200136662, 5788641.991177340038121 ], [ -6847277.165671720169485, 5788736.167305430397391 ], [ -6847206.758500239811838, 5788830.344654249958694 ], [ -6847136.281249799765646, 5788924.524372730404139 ], [ -6847065.728476040065289, 5789018.707691710442305 ], [ -6846995.094527180306613, 5789112.895933330059052 ], [ -6846924.373511989600956, 5789207.090522229671478 ], [ -6846853.559262909926474, 5789301.292998990043998 ], [ -6846782.645292789675295, 5789395.505036319606006 ], [ -6846711.624743909575045, 5789489.728458830155432 ], [ -6846640.490326710045338, 5789583.965267309919 ], [ -6846569.234245439991355, 5789678.217669 ], [ -6846497.848106189630926, 5789772.488115600310266 ], [ -6846426.322801239788532, 5789866.779352130368352 ], [ -6846354.648360569961369, 5789961.094480330124497 ], [ -6846282.81375627964735, 5790055.437043280340731 ], [ -6846210.806637680158019, 5790149.811141120269895 ], [ -6846138.612959099933505, 5790244.221594640053809 ], [ -6846066.216432970017195, 5790338.6741872895509 ], [ -6845993.597676619887352, 5790433.176043800078332 ], [ -6845920.732767649926245, 5790527.736273010261357 ], [ -6845847.590479009784758, 5790622.367199869826436 ], [ -6845774.125756439752877, 5790717.08727330993861 ], [ -6845700.253220389597118, 5790811.932881370186806 ], [ -6845583.892834260128438, 5790851.500794920139015 ], [ -6845467.091873030178249, 5790891.205489750020206 ], [ -6845349.936620060354471, 5790931.00660908035934 ], [ -6845232.473104749806225, 5790970.881711590103805 ], [ -6845114.73358291015029, 5791010.81445799022913 ], [ -6844996.7430554702878, 5791050.791697249747813 ], [ -6844878.522032430395484, 5791090.802226210013032 ], [ -6844760.087977879680693, 5791130.836136270314455 ], [ -6844641.456164260394871, 5791170.884422509931028 ], [ -6844522.640221250243485, 5791210.938727700151503 ], [ -6844403.652510300278664, 5791250.991162749938667 ], [ -6844284.504392679780722, 5791291.034172910265625 ], [ -6844165.206428769975901, 5791331.060432890430093 ], [ -6844045.76853107009083, 5791371.062760390341282 ], [ -6843926.200085200369358, 5791411.034041360020638 ], [ -6843806.510048209689558, 5791450.967162529937923 ], [ -6843686.707030409947038, 5791490.854947799816728 ], [ -6843566.799365379847586, 5791530.690095939673483 ], [ -6843446.795171399600804, 5791570.465117570012808 ], [ -6843326.702406619675457, 5791610.172269630245864 ], [ -6843206.528920110315084, 5791649.80348586011678 ], [ -6843086.282499980181456, 5791689.350302159786224 ], [ -6842965.970919749699533, 5791728.803776299580932 ], [ -6842845.601983360014856, 5791768.154402289539576 ], [ -6842725.183568749576807, 5791807.392021750099957 ], [ -6842604.723668579943478, 5791846.505737929604948 ], [ -6842484.230425110086799, 5791885.483843349851668 ], [ -6842363.712153039872646, 5791924.313781959936023 ], [ -6842243.177340029738843, 5791962.982180329971015 ], [ -6842122.634608220309019, 5792001.47500239033252 ], [ -6842002.092614030465484, 5792039.777902450412512 ], [ -6841881.559860290028155, 5792077.876861579716206 ], [ -6841761.044402919709682, 5792115.759165340103209 ], [ -6841640.553463499993086, 5792153.414686580188572 ], [ -6841520.093010219745338, 5792190.837269449606538 ], [ -6841399.667421470396221, 5792228.025843620300293 ], [ -6841279.279352529905736, 5792264.984875510446727 ], [ -6841158.929860980249941, 5792301.723976209759712 ], [ -6841038.618742300197482, 5792338.256824339739978 ], [ -6840918.344957119785249, 5792374.599789500236511 ], [ -6840798.10703403968364, 5792410.770635839551687 ], [ -6840677.903381139971316, 5792446.787522329948843 ], [ -6840557.732492350041866, 5792482.668346099555492 ], [ -6840437.593065209686756, 5792518.430374659597874 ], [ -6840317.48405596986413, 5792554.090082430280745 ], [ -6840197.404695649631321, 5792589.66311542969197 ], [ -6840077.354484120383859, 5792625.164328359998763 ], [ -6839957.333173300139606, 5792660.607857899740338 ], [ -6839837.340746230445802, 5792696.007211020216346 ], [ -6839717.377395610325038, 5792731.375356390140951 ], [ -6839597.443503799848258, 5792766.724812890402973 ], [ -6839477.539625040255487, 5792802.067732860334218 ], [ -6839357.666470349766314, 5792837.415979309938848 ], [ -6839237.824894960038364, 5792872.781197399832308 ], [ -6839118.015888329595327, 5792908.17488113977015 ], [ -6838998.240566530264914, 5792943.60843622032553 ], [ -6838878.500166740268469, 5792979.093240209855139 ], [ -6838758.796044060029089, 5793014.640701109543443 ], [ -6838639.129670109599829, 5793050.262315720319748 ], [ -6838519.502633890137076, 5793085.969728750176728 ], [ -6838399.916644490323961, 5793121.774794179946184 ], [ -6838280.373536149971187, 5793157.689640140160918 ], [ -6838160.875275529921055, 5793193.72673907969147 ], [ -6838041.423971699550748, 5793229.898984920233488 ], [ -6837922.021889110095799, 5793266.219779780134559 ], [ -6837802.671464229933918, 5793302.703132829628885 ], [ -6837683.375326469540596, 5793339.363775379955769 ], [ -6837564.136324579827487, 5793376.217296889983118 ], [ -6837444.957559959962964, 5793413.280308759771287 ], [ -6837325.842429, 5793450.570645229890943 ], [ -6837206.794677480123937, 5793488.107614800333977 ], [ -6837087.818471569567919, 5793525.912322039715946 ], [ -6836968.918492499738932, 5793564.00809009000659 ], [ -6836850.100065910257399, 5793602.421032380312681 ], [ -6836731.369344829581678, 5793641.180854960344732 ], [ -6836612.733579849824309, 5793680.322035210207105 ], [ -6836494.201542019844055, 5793719.885660289786756 ], [ -6836375.784240630455315, 5793759.922540419735014 ], [ -6836257.496299180202186, 5793800.499168599955738 ], [ -6836139.359204489737749, 5793841.711783160455525 ], [ -6836021.414513779804111, 5793883.74350718036294 ], [ -6835900.097524220123887, 5793916.507131470367312 ], [ -6835778.968724899925292, 5793950.078434949740767 ], [ -6835657.983294799923897, 5793984.267240010201931 ], [ -6835537.116512780077755, 5794018.970401859842241 ], [ -6835416.35052040964365, 5794054.114551610313356 ], [ -6835295.671062019653618, 5794089.642 ], [ -6835175.066101489588618, 5794125.50475940015167 ], [ -6835054.52509824000299, 5794161.661417629569769 ], [ -6834934.038578529842198, 5794198.075288689695299 ], [ -6834813.597859480418265, 5794234.713224129751325 ], [ -6834693.1948601603508, 5794271.544801039621234 ], [ -6834572.821965919807553, 5794308.541740570217371 ], [ -6834452.471927160397172, 5794345.677475259639323 ], [ -6834332.137781219556928, 5794382.926816529594362 ], [ -6834211.812790210358799, 5794420.265691840089858 ], [ -6834091.490390339866281, 5794457.67093142028898 ], [ -6833971.164149359799922, 5794495.120091149583459 ], [ -6833850.827730040065944, 5794532.591301839798689 ], [ -6833730.474857949651778, 5794570.063138159923255 ], [ -6833610.099292320199311, 5794607.514501900412142 ], [ -6833489.694799060001969, 5794644.924515659920871 ], [ -6833369.255124989897013, 5794682.27242365013808 ], [ -6833248.773972749710083, 5794719.537496949546039 ], [ -6833128.244975670240819, 5794756.698940860107541 ], [ -6833007.661671970039606, 5794793.735802209936082 ], [ -6832887.017477749846876, 5794830.6268743397668 ], [ -6832766.305657999590039, 5794867.350597780197859 ], [ -6832645.519295030273497, 5794903.884953959845006 ], [ -6832524.65125325974077, 5794940.207349410280585 ], [ -6832403.694139500148594, 5794976.294487159699202 ], [ -6832282.640257259830832, 5795012.122221199795604 ], [ -6832161.48155349958688, 5795047.665389070287347 ], [ -6832040.209555519744754, 5795082.89761590026319 ], [ -6831918.815295189619064, 5795117.791080979630351 ], [ -6831797.289216290228069, 5795152.316234869882464 ], [ -6831675.621059340424836, 5795186.44144994020462 ], [ -6831553.799715669825673, 5795220.132579590193927 ], [ -6831431.813038360327482, 5795253.352389469742775 ], [ -6831309.647590840235353, 5795286.059803339652717 ], [ -6831187.288302170112729, 5795318.208870960399508 ], [ -6831064.717975590378046, 5795349.747298879548907 ], [ -6830941.916552799753845, 5795380.614252570085227 ], [ -6830818.859937489964068, 5795410.73684384021908 ], [ -6830695.51793123036623, 5795440.023969249799848 ], [ -6830571.850053270347416, 5795468.353832189925015 ], [ -6830447.794507930055261, 5795495.541009720414877 ], [ -6830366.483611480332911, 5795494.680843279697001 ], [ -6830280.695803619921207, 5795493.11153632029891 ], [ -6830194.674849330447614, 5795490.858739010058343 ], [ -6830065.853337300010026, 5795472.870820400305092 ], [ -6829936.690735770389438, 5795453.902195519767702 ], [ -6829807.233839079737663, 5795434.093533749692142 ], [ -6829677.517002469860017, 5795413.548429699614644 ], [ -6829547.567582719959319, 5795392.349643079563975 ], [ -6829417.408447279594839, 5795370.566587530076504 ], [ -6829287.059348650276661, 5795348.259432000108063 ], [ -6829156.537761859595776, 5795325.481599819846451 ], [ -6829025.859433949925005, 5795302.281408229842782 ], [ -6828895.0387646201998, 5795278.703204710036516 ], [ -6828764.089081410318613, 5795254.788188460282981 ], [ -6828633.022845280356705, 5795230.575025210157037 ], [ -6828501.851808619685471, 5795206.100320310331881 ], [ -6828370.587139340117574, 5795181.398991479538381 ], [ -6828239.239520249888301, 5795156.504568739794195 ], [ -6828107.819229859858751, 5795131.44943973980844 ], [ -6827976.336208789609373, 5795106.265053779818118 ], [ -6827844.800114979967475, 5795080.982093759812415 ], [ -6827713.220369749702513, 5795055.630622999742627 ], [ -6827581.606196260079741, 5795030.240212160162628 ], [ -6827449.966651660390198, 5795004.84005059953779 ], [ -6827318.310653449967504, 5794979.459045520052314 ], [ -6827186.647000909782946, 5794954.125912330113351 ], [ -6827054.984391720034182, 5794928.869259309954941 ], [ -6826923.331434110179543, 5794903.717670200392604 ], [ -6826791.696654509752989, 5794878.699788879603148 ], [ -6826660.088500640355051, 5794853.844411220401525 ], [ -6826528.515339899808168, 5794829.180590930394828 ], [ -6826396.985452589578927, 5794804.737767909653485 ], [ -6826265.507019420154393, 5794780.54593085963279 ], [ -6826134.088102320209146, 5794756.635829670354724 ], [ -6826002.73661733046174, 5794733.039259199984372 ], [ -6825871.46029722969979, 5794709.789444889873266 ], [ -6825740.266640700399876, 5794686.921574960462749 ], [ -6825609.162842540070415, 5794664.473548489622772 ], [ -6825478.155695820227265, 5794642.487052570097148 ], [ -6825347.251449720002711, 5794621.009168050251901 ], [ -6825216.455591790378094, 5794600.094888740219176 ], [ -6825085.772487279959023, 5794579.811386119574308 ], [ -6824955.204704670235515, 5794560.246143730357289 ], [ -6824824.751458180136979, 5794541.526064760051668 ], [ -6824694.402384770102799, 5794523.894823339767754 ], [ -6824600.387394909746945, 5794430.842711980454624 ], [ -6824506.419327120296657, 5794338.943349359557033 ], [ -6824412.531133750453591, 5794247.941785300150514 ], [ -6824318.746394939720631, 5794157.703504920005798 ], [ -6824225.085747780278325, 5794068.134450590237975 ], [ -6824131.568509650416672, 5793979.161223740316927 ], [ -6824038.213406040333211, 5793890.72260660957545 ], [ -6823945.038992170244455, 5793802.765063379891217 ], [ -6823852.063946110196412, 5793715.240028030239046 ], [ -6823759.307304359972477, 5793628.102121939882636 ], [ -6823666.788673520088196, 5793541.307907000184059 ], [ -6823574.528435749933124, 5793454.814971059560776 ], [ -6823482.547957420349121, 5793368.581232069991529 ], [ -6823390.869804039597511, 5793282.564393269829452 ], [ -6823299.517958230338991, 5793196.72150972019881 ], [ -6823208.518028300255537, 5793111.008646439760923 ], [ -6823117.897420279681683, 5793025.380628639832139 ], [ -6823027.685423630289733, 5792939.790908769704401 ], [ -6822937.91312597040087, 5792854.191607809625566 ], [ -6822848.613027029670775, 5792768.533829879947007 ], [ -6822759.818174660205841, 5792682.768390730023384 ], [ -6822671.560630530118942, 5792596.847116130404174 ], [ -6822583.869150860235095, 5792510.724802169948816 ], [ -6822496.766209499910474, 5792424.361727209761739 ], [ -6822410.264889819547534, 5792337.726270680315793 ], [ -6822324.366530030034482, 5792250.796892849728465 ], [ -6822239.059982559643686, 5792163.562750710174441 ], [ -6822154.32278897985816, 5792076.022696340456605 ], [ -6822070.123798940330744, 5791988.183054300025105 ], [ -6821986.426317590288818, 5791900.05494911968708 ], [ -6821903.19095933996141, 5791811.651874739676714 ], [ -6821820.377782619558275, 5791722.987864320166409 ], [ -6821737.947651740163565, 5791634.07630567997694 ], [ -6821655.862971159629524, 5791544.929280170239508 ], [ -6821574.087986329570413, 5791455.557261279784143 ], [ -6821492.58881776034832, 5791365.969032510183752 ], [ -6821411.333346540108323, 5791276.171724219806492 ], [ -6821330.291026149876416, 5791186.170905849896371 ], [ -6821249.432663939893246, 5791095.970695690251887 ], [ -6821168.730195259675384, 5791005.57386733032763 ], [ -6821088.156460849568248, 5790914.981941910460591 ], [ -6821007.684990850277245, 5790824.195260480046272 ], [ -6820927.289794240146875, 5790733.213033859618008 ], [ -6820846.945150169543922, 5790642.033368160016835 ], [ -6820766.625395299866796, 5790550.653264 ], [ -6820686.304699529893696, 5790459.068586699664593 ], [ -6820605.956819790415466, 5790367.274002600461245 ], [ -6820525.554817670024931, 5790275.262873929925263 ], [ -6820445.070720610208809, 5790183.027099769562483 ], [ -6820364.475095380097628, 5790090.556882640346885 ], [ -6820283.736483580432832, 5789997.840386169962585 ], [ -6820202.820612099952996, 5789904.863222509622574 ], [ -6820121.689215109683573, 5789811.607653169892728 ], [ -6820040.298129869624972, 5789718.051261080428958 ], [ -6819958.593868819996715, 5789624.164520530030131 ], [ -6819876.506435059942305, 5789529.905658080242574 ], [ -6819793.931175050325692, 5789435.207616900093853 ], [ -6819710.701831810176373, 5789339.95868244022131 ], [ -6819626.76005772035569, 5789244.124550839886069 ], [ -6819542.259503929875791, 5789147.823292030021548 ], [ -6819457.317072680220008, 5789051.146277549676597 ], [ -6819372.002313829958439, 5788954.150564050301909 ], [ -6819286.36320521030575, 5788856.877470520325005 ], [ -6819200.43618218973279, 5788759.359814129769802 ], [ -6819114.250569559633732, 5788661.625114699825644 ], [ -6819027.830901769921184, 5788563.697277979925275 ], [ -6818941.198289950378239, 5788465.597591759636998 ], [ -6818854.371296959929168, 5788367.34536718018353 ], [ -6818767.366533130407333, 5788268.958378380164504 ], [ -6818680.199081409722567, 5788170.453179 ], [ -6818592.88281287997961, 5788071.845339519903064 ], [ -6818505.430628660134971, 5787973.149631380103528 ], [ -6818417.854650829918683, 5787874.380174580030143 ], [ -6818330.166377250105143, 5787775.550559390336275 ], [ -6818242.376810439862311, 5787676.673949750140309 ], [ -6818154.496567769907415, 5787577.763173840008676 ], [ -6818066.535978220403194, 5787478.830805799923837 ], [ -6817978.505169989541173, 5787379.889241919852793 ], [ -6817890.414152310229838, 5787280.950774190016091 ], [ -6817802.27289441972971, 5787182.027663799934089 ], [ -6817714.091404739767313, 5787083.132217249833047 ], [ -6817625.879813070409, 5786984.276868170127273 ], [ -6817537.648459459654987, 5786885.47426825016737 ], [ -6817449.407993840053678, 5786786.737392160110176 ], [ -6817361.169492250308394, 5786688.079662489704788 ], [ -6817272.944597530178726, 5786589.515104049816728 ], [ -6817184.74569667968899, 5786491.058540780097246 ], [ -6817096.586153410375118, 5786392.725857259705663 ], [ -6817008.480627450160682, 5786294.534360350109637 ], [ -6816920.445536459796131, 5786196.503305570222437 ], [ -6816832.499768869951367, 5786098.654712559655309 ], [ -6816744.665882869623601, 5786001.014740370213985 ], [ -6816656.972391899675131, 5785903.616313179954886 ], [ -6816569.459144599735737, 5785806.505306860432029 ], [ -6816482.199158379808068, 5785709.765666919760406 ], [ -6816483.95497319009155, 5785583.259697579778731 ], [ -6816486.009037129580975, 5785457.0352903297171 ], [ -6816488.293010939843953, 5785331.015826320275664 ], [ -6816490.771470949985087, 5785205.162569420412183 ], [ -6816493.420235710218549, 5785079.449725629761815 ], [ -6816496.221033420413733, 5784953.858303760178387 ], [ -6816499.159243649803102, 5784828.373513120226562 ], [ -6816502.222719590179622, 5784702.983404150232673 ], [ -6816505.401094369590282, 5784577.678066159598529 ], [ -6816508.685338119976223, 5784452.449113310314715 ], [ -6816512.067458310164511, 5784327.289335410110652 ], [ -6816515.540287829935551, 5784202.192449619993567 ], [ -6816519.097330049611628, 5784077.152917699888349 ], [ -6816522.732642429880798, 5783952.165807410143316 ], [ -6816526.440747030079365, 5783827.226684969849885 ], [ -6816530.216560539789498, 5783702.331529729999602 ], [ -6816534.055338719859719, 5783577.476665389724076 ], [ -6816537.952631619758904, 5783452.65870350971818 ], [ -6816541.904247229918838, 5783327.87449648976326 ], [ -6816545.906221590004861, 5783203.121097950264812 ], [ -6816549.954794090241194, 5783078.395728689618409 ], [ -6816554.046386909671128, 5782953.695747289806604 ], [ -6816558.177587809972465, 5782829.018624260090292 ], [ -6816562.345135659910738, 5782704.361919020302594 ], [ -6816566.545908349566162, 5782579.723259129561484 ], [ -6816570.776912489905953, 5782455.100321319885552 ], [ -6816575.035274860449135, 5782330.49081389978528 ], [ -6816579.318235149607062, 5782205.892460130155087 ], [ -6816583.623140020295978, 5782081.302982400171459 ], [ -6816587.947438079863787, 5781956.720086850225925 ], [ -6816592.288675939664245, 5781832.141448239795864 ], [ -6816596.644495050422847, 5781707.5646947696805 ], [ -6816601.012629269622266, 5781582.98739274032414 ], [ -6816605.390903240069747, 5781458.407030710019171 ], [ -6816609.777231380343437, 5781333.821003000251949 ], [ -6816614.169617529958487, 5781209.226592269726098 ], [ -6816618.56615527998656, 5781084.620950859971344 ], [ -6816622.965028890408576, 5780960.001080660149455 ], [ -6816627.364514869637787, 5780835.363811150193214 ], [ -6816631.76298428978771, 5780710.705775099806488 ], [ -6816636.158905729651451, 5780586.023381689563394 ], [ -6816640.550849120132625, 5780461.312786280177534 ], [ -6816644.937490330077708, 5780336.569856319576502 ], [ -6816649.317616829648614, 5780211.790132580325007 ], [ -6816653.690134390257299, 5780086.968784679658711 ], [ -6816658.054075120016932, 5779962.10055982042104 ], [ -6816662.408607030287385, 5779837.179723270237446 ], [ -6816666.753045369870961, 5779712.199988629668951 ], [ -6816671.086866199970245, 5779587.15443572960794 ], [ -6816675.40972276031971, 5779462.035412980243564 ], [ -6816679.721465200185776, 5779336.834420380182564 ], [ -6816684.022164690308273, 5779211.541967939585447 ], [ -6816688.312143200077116, 5779086.147402389906347 ], [ -6816692.592010820284486, 5778960.638692630454898 ], [ -6816696.862712959758937, 5778835.002160149626434 ], [ -6816701.125591539777815, 5778709.222134799696505 ], [ -6816705.382465469650924, 5778583.280506590381265 ], [ -6816709.63573929015547, 5778457.156129090115428 ], [ -6816713.888553460128605, 5778330.824004240334034 ], [ -6816718.144998479634523, 5778204.254135549999774 ], [ -6816722.410429430194199, 5778077.409863250330091 ], [ -6816726.691940139979124, 5777950.245379010215402 ], [ -6816730.999082050286233, 5777822.701987669803202 ], [ -6816735.344873120076954, 5777694.702884630300105 ], [ -6816739.746648780070245, 5777566.148726480081677 ], [ -6816744.224068789742887, 5777436.927649210207164 ], [ -6816748.78860680013895, 5777306.968576739542186 ], [ -6816753.430325149558485, 5777176.308319569565356 ], [ -6816758.122649299912155, 5777045.067157129757106 ], [ -6816762.83673601038754, 5776913.375637370161712 ], [ -6816767.54756473004818, 5776781.343445410020649 ], [ -6816772.234029879793525, 5776649.058762709610164 ], [ -6816776.877849450334907, 5776516.593637039884925 ], [ -6816781.462645839899778, 5776384.00847306009382 ], [ -6816785.973313529975712, 5776251.355061739683151 ], [ -6816790.395591010339558, 5776118.678570809774101 ], [ -6816794.715762290172279, 5775986.018878280185163 ], [ -6816798.920439840294421, 5775853.411495399661362 ], [ -6816802.996399760246277, 5775720.888229640200734 ], [ -6816806.93045128043741, 5775588.477680119685829 ], [ -6816810.70932924002409, 5775456.205623709596694 ], [ -6816814.319602279923856, 5775324.09532967954874 ], [ -6816817.747591589577496, 5775192.167827989906073 ], [ -6816820.979296649806201, 5775060.442148230038583 ], [ -6816824.00032517965883, 5774928.935541139915586 ], [ -6816826.795825090259314, 5774797.663690419867635 ], [ -6816829.350416540168226, 5774666.640920760110021 ], [ -6816831.648122319951653, 5774535.880405490286648 ], [ -6816833.672295089811087, 5774405.394376220181584 ], [ -6816835.405539999715984, 5774275.194336109794676 ], [ -6816836.829631160013378, 5774145.291277199983597 ], [ -6816837.925421140156686, 5774015.695902059786022 ], [ -6816838.672742189839482, 5773886.418849470093846 ], [ -6816839.050299339927733, 5773757.470923179760575 ], [ -6816839.03555557038635, 5773628.863322249613702 ], [ -6816838.604611329734325, 5773500.607870279811323 ], [ -6816837.732082920148969, 5773372.71723897010088 ], [ -6816836.390987630002201, 5773245.205159110017121 ], [ -6816834.552649729885161, 5773118.086606970056891 ], [ -6816832.186649139970541, 5772991.377948739565909 ], [ -6816829.260846469551325, 5772865.09701544046402 ], [ -6816825.741533200256526, 5772739.263069899752736 ], [ -6816821.593773449771106, 5772613.896612539887428 ], [ -6816816.782020290382206, 5772489.018960270099342 ], [ -6816811.271096180193126, 5772364.651527189649642 ], [ -6816805.027609840035439, 5772240.81475006043911 ], [ -6816798.021820889785886, 5772117.526649660430849 ], [ -6816790.229849180206656, 5771994.801111049950123 ], [ -6816781.635969120077789, 5771872.646090259775519 ], [ -6816772.234588360413909, 5771751.062067369930446 ], [ -6816762.031472669914365, 5771630.041096240282059 ], [ -6816751.043908379971981, 5771509.566697499714792 ], [ -6816739.29976443015039, 5771389.614625659771264 ], [ -6816726.835705599747598, 5771270.154310319572687 ], [ -6816713.694980359636247, 5771151.150634420104325 ], [ -6816699.925207319669425, 5771032.565712059848011 ], [ -6816685.57646081969142, 5770914.360426760278642 ], [ -6816670.699796980246902, 5770796.495618459768593 ], [ -6816655.346233270131052, 5770678.932909400202334 ], [ -6816639.566122050397098, 5770561.635217580012977 ], [ -6816623.408831790089607, 5770444.567027679644525 ], [ -6816606.922652959823608, 5770327.694487039931118 ], [ -6816590.154861180111766, 5770210.985382130369544 ], [ -6816573.151889739558101, 5770094.409036089666188 ], [ -6816555.959580860100687, 5769977.936154609546065 ], [ -6816538.623500630259514, 5769861.538636329583824 ], [ -6816521.189315300434828, 5769745.189355250447989 ], [ -6816503.703239619731903, 5769628.8619151301682 ], [ -6816486.212582330219448, 5769512.530368669889867 ], [ -6816468.766435150057077, 5769396.16888474021107 ], [ -6816451.416586400009692, 5769279.751333300024271 ], [ -6816434.218806689605117, 5769163.250731100328267 ], [ -6816417.234793609939516, 5769046.638437929563224 ], [ -6816400.535399089567363, 5768929.882862909696996 ], [ -6816384.206730860285461, 5768812.947067749686539 ], [ -6816368.364450329914689, 5768695.783217229880393 ], [ -6816353.211673149839044, 5768578.310242019593716 ], [ -6816486.570721440017223, 5768578.754338409751654 ], [ -6816620.372485370375216, 5768579.196550419554114 ], [ -6816754.417028940282762, 5768579.716674939729273 ], [ -6816888.594024879857898, 5768580.359445869922638 ], [ -6817022.82464902009815, 5768581.156852840445936 ], [ -6817157.047340599820018, 5768582.133570330217481 ], [ -6817291.211804689839482, 5768583.309216800145805 ], [ -6817425.275900989770889, 5768584.699507240206003 ], [ -6817559.203816049732268, 5768586.316917460411787 ], [ -6817692.964890950359404, 5768588.171102490276098 ], [ -6817826.532814890146255, 5768590.269181439653039 ], [ -6817959.885035829618573, 5768592.615946089848876 ], [ -6818093.002305739559233, 5768595.214025090448558 ], [ -6818225.868312110193074, 5768598.064022259786725 ], [ -6818358.469366390258074, 5768601.164639550261199 ], [ -6818490.794131379574537, 5768604.512791070155799 ], [ -6818622.833376459777355, 5768608.103711679577827 ], [ -6818754.579753800295293, 5768611.931061809882522 ], [ -6818886.027591650374234, 5768615.987029219977558 ], [ -6819017.172702370211482, 5768620.262427610345185 ], [ -6819148.012204269878566, 5768624.74679196998477 ], [ -6819278.544356480240822, 5768629.428469999693334 ], [ -6819408.768407000228763, 5768634.294709299691021 ], [ -6819538.684453659690917, 5768639.331740040332079 ], [ -6819668.293318109586835, 5768644.524852950125933 ], [ -6819797.596432710066438, 5768649.858472630381584 ], [ -6819926.595740140415728, 5768655.316226569935679 ], [ -6820055.293605480343103, 5768660.881010039709508 ], [ -6820183.692740430124104, 5768666.535047709941864 ], [ -6820311.796139099635184, 5768672.259952509775758 ], [ -6820439.607025139965117, 5768678.03678264003247 ], [ -6820567.128809460438788, 5768683.846097559668124 ], [ -6820694.365058219991624, 5768689.66801397036761 ], [ -6820821.319470539689064, 5768695.482262849807739 ], [ -6820947.995865469798446, 5768701.268248380161822 ], [ -6821074.398177919909358, 5768707.005109990015626 ], [ -6821200.53046299982816, 5768712.671788450330496 ], [ -6821326.396908650174737, 5768718.247096929699183 ], [ -6821452.001856120303273, 5768723.709798119962215 ], [ -6821577.349828040227294, 5768729.038688059896231 ], [ -6821702.445563839748502, 5768734.212687619961798 ], [ -6821827.294062240049243, 5768739.210942000150681 ], [ -6821951.900630249641836, 5768744.012928940355778 ], [ -6822076.270938459783792, 5768748.598575489595532 ], [ -6822200.41108183003962, 5768752.948383529670537 ], [ -6822324.327645310200751, 5768757.043563360348344 ], [ -6822448.027773260138929, 5768760.866174680180848 ], [ -6822571.519241509959102, 5768764.399273510091007 ], [ -6822694.810530490241945, 5768767.627063440158963 ], [ -6822817.910897759720683, 5768770.535048780031502 ], [ -6822940.830447790212929, 5768773.110186969861388 ], [ -6823063.580196700058877, 5768775.341036929748952 ], [ -6823186.172129530459642, 5768777.217899669893086 ], [ -6823308.619247170165181, 5768778.732947420328856 ], [ -6823430.935600440017879, 5768779.880336999893188 ], [ -6823553.136308539658785, 5768780.656303550116718 ], [ -6823675.23755938000977, 5768781.05923075042665 ], [ -6823797.256589859724045, 5768781.089694250375032 ], [ -6823919.211644190363586, 5768780.750475520268083 ], [ -6824041.121909409761429, 5768780.046544199809432 ], [ -6824163.007427610456944, 5768778.985008089803159 ], [ -6824284.888985199853778, 5768777.57503070961684 ], [ -6824406.787980400025845, 5768775.827717619948089 ], [ -6824528.726270760409534, 5768773.755973460152745 ], [ -6824650.726003269664943, 5768771.374332830309868 ], [ -6824772.809430100023746, 5768768.698768690228462 ], [ -6824894.998713719658554, 5768765.746482529677451 ], [ -6825017.315725180320442, 5768762.535681230016053 ], [ -6825139.781839880160987, 5768759.085345360450447 ], [ -6825262.417734979651868, 5768755.414994039572775 ], [ -6825385.243192619644105, 5768751.544451099820435 ], [ -6825508.276913000270724, 5768747.493617200292647 ], [ -6825631.536341030150652, 5768743.28225199971348 ], [ -6825755.03750978037715, 5768738.929770120419562 ], [ -6825878.794903540052474, 5768734.455054010264575 ], [ -6826002.821342850103974, 5768729.876286179758608 ], [ -6826127.127892930060625, 5768725.210802770219743 ], [ -6826251.723796750418842, 5768720.474969499744475 ], [ -6826376.616432960145175, 5768715.684080869890749 ], [ -6826501.811298379674554, 5768710.852282349951565 ], [ -6826627.312014400027692, 5768705.992515079677105 ], [ -6826753.120355810038745, 5768701.116482210345566 ], [ -6826879.236300219781697, 5768696.234635139815509 ], [ -6827005.658096180297434, 5768691.3561781803146 ], [ -6827132.382347339764237, 5768686.489089479669929 ], [ -6827259.404110319912434, 5768681.640156099572778 ], [ -6827386.717003700323403, 5768676.815021200105548 ], [ -6827514.313325529918075, 5768672.018240950070322 ], [ -6827642.18417708016932, 5768667.253349260427058 ], [ -6827770.319590420462191, 5768662.522928370162845 ], [ -6827898.708658030256629, 5768657.828683470375836 ], [ -6828027.339662480168045, 5768653.171519859693944 ], [ -6828156.200204810127616, 5768648.551621270366013 ], [ -6828285.277330249547958, 5768643.968528250232339 ], [ -6828414.557650440372527, 5768639.421215640380979 ], [ -6828544.027461170218885, 5768634.908168430440128 ], [ -6828673.672855190001428, 5768630.427455389872193 ], [ -6828803.479829669930041, 5768625.976800030097365 ], [ -6828933.434387990273535, 5768621.553648630157113 ], [ -6829063.52263567969203, 5768617.155234900303185 ], [ -6829193.73087043967098, 5768612.778641420416534 ], [ -6829324.045666189864278, 5768608.420857310295105 ], [ -6829454.453951080329716, 5768604.07883242983371 ], [ -6829584.943079479970038, 5768599.749527639709413 ], [ -6829715.500897980295122, 5768595.429961370304227 ], [ -6829846.115805289708078, 5768591.117252090014517 ], [ -6829976.776806189678609, 5768586.808656870387495 ], [ -6830107.473559349775314, 5768582.501605720259249 ], [ -6830238.196419199928641, 5768578.193731769919395 ], [ -6830368.936471809633076, 5768573.882897179573774 ], [ -6830499.685564880259335, 5768569.56721469014883 ], [ -6830630.436331950128078, 5768565.24506494961679 ], [ -6830761.182211129926145, 5768560.915109469555318 ], [ -6830891.917458419688046, 5768556.57629940006882 ], [ -6831022.637156220152974, 5768552.227880270220339 ], [ -6831153.337217300198972, 5768547.869392749853432 ], [ -6831284.014384710229933, 5768543.500669839791954 ], [ -6831414.666228460147977, 5768539.121830550022423 ], [ -6831545.291139340028167, 5768534.733270609751344 ], [ -6831675.888320930302143, 5768530.335650400258601 ], [ -6831806.45778036955744, 5768525.929880489595234 ], [ -6831937.000318960286677, 5768521.517105299979448 ], [ -6832067.517523430287838, 5768517.098685120232403 ], [ -6832198.011758949607611, 5768512.676176999695599 ], [ -6832328.486164979636669, 5768508.251314910128713 ], [ -6832458.944655129685998, 5768503.825989469885826 ], [ -6832589.391922540031374, 5768499.402227720245719 ], [ -6832719.833452169783413, 5768494.982173359952867 ], [ -6832850.27554218005389, 5768490.56806770991534 ], [ -6832980.725336549803615, 5768486.16223200969398 ], [ -6833111.190872309729457, 5768481.767051399685442 ], [ -6833241.681145460344851, 5768477.384961250238121 ], [ -6833372.206201570108533, 5768473.018436590209603 ], [ -6833502.777259740047157, 5768468.669985660351813 ], [ -6833633.406882760114968, 5768464.342149130068719 ], [ -6833764.109214279800653, 5768460.037507199682295 ], [ -6833894.90031677018851, 5768455.758698330260813 ], [ -6834025.798670140095055, 5768451.508456050418317 ], [ -6834156.825944099575281, 5768447.289675519801676 ], [ -6834288.008280630223453, 5768443.105534610338509 ], [ -6834419.378648719750345, 5768438.959727110341191 ], [ -6834550.981867229565978, 5768434.856971469707787 ], [ -6834682.88756897021085, 5768430.804333190433681 ], [ -6834815.208997690118849, 5768426.813146919943392 ], [ -6834947.977184600196779, 5768422.886206549592316 ], [ -6835081.080039010383189, 5768419.01157843042165 ], [ -6835214.43567583989352, 5768415.180295090191066 ], [ -6835347.994024789892137, 5768411.386559770442545 ], [ -6835481.71923763025552, 5768407.626006850041449 ], [ -6835615.582930169999599, 5768403.895081209950149 ], [ -6835749.561105540022254, 5768400.190809619612992 ], [ -6835883.632454720325768, 5768396.510731739923358 ], [ -6836017.777267860248685, 5768392.852914519608021 ], [ -6836151.976648369804025, 5768389.21602077037096 ], [ -6836286.211886020377278, 5768385.599418709985912 ], [ -6836420.463914030231535, 5768382.003325999714434 ], [ -6836554.712807970121503, 5768378.428984239697456 ], [ -6836688.937300880439579, 5768374.878860849887133 ], [ -6836823.114298780448735, 5768371.356875180266798 ], [ -6836957.218386019580066, 5768367.868645690381527 ], [ -6837091.221313109621406, 5768364.421754390001297 ], [ -6837225.091460440307856, 5768361.026025149971247 ], [ -6837358.793270469643176, 5768357.693813240155578 ], [ -6837492.28663768991828, 5768354.440305150114 ], [ -6837625.526239519938827, 5768351.283831279724836 ], [ -6837758.460781309753656, 5768348.246199459768832 ], [ -6837891.032113020308316, 5768345.35306503996253 ], [ -6838023.17415087018162, 5768342.634365839883685 ], [ -6838154.811498800292611, 5768340.124868170358241 ], [ -6838285.857599659822881, 5768337.864900389686227 ], [ -6838416.212131340056658, 5768335.901402209885418 ], [ -6838545.757140030153096, 5768334.289516510441899 ], [ -6838674.350930030457675, 5768333.095159670338035 ], [ -6838801.817588159814477, 5768332.399508279748261 ], [ -6838927.926734070293605, 5768332.307787169702351 ], [ -6839052.345419890247285, 5768332.970318810082972 ], [ -6839174.441930539906025, 5768334.66876775957644 ], [ -6839292.870822969824076, 5768341.982173389755189 ], [ -6839408.999303979799151, 5768350.327033460140228 ], [ -6839523.479362539947033, 5768359.419172470457852 ], [ -6839636.665400370024145, 5768369.104898399673402 ], [ -6839748.810921849682927, 5768379.274340979754925 ], [ -6839860.117249339818954, 5768389.839932329952717 ], [ -6839970.75445989985019, 5768400.727121000178158 ], [ -6840080.872633540071547, 5768411.869354389607906 ], [ -6840190.608852920122445, 5768423.2049317099154 ], [ -6840300.092127170413733, 5768434.67476634029299 ], [ -6840409.447300620377064, 5768446.220583969727159 ], [ -6840518.798580070026219, 5768457.783267189748585 ], [ -6840628.273161989636719, 5768469.30111956037581 ], [ -6840738.005419209599495, 5768480.707825140096247 ], [ -6840848.142100210301578, 5768491.929878080263734 ], [ -6840958.84865340963006, 5768502.883428949862719 ], [ -6841070.314733570441604, 5768513.471543779596686 ], [ -6841182.749202019535005, 5768523.586832909844816 ], [ -6841296.340288359671831, 5768533.131896429695189 ], [ -6841411.173407959751785, 5768542.061425910331309 ], [ -6841527.188796039670706, 5768550.403936870396137 ], [ -6841644.24229533970356, 5768558.230734970420599 ], [ -6841762.182678489945829, 5768565.6164216902107 ], [ -6841880.882505670189857, 5768572.623163919895887 ], [ -6842000.240070099942386, 5768579.29974917974323 ], [ -6842120.174035659991205, 5768585.684375610202551 ], [ -6842240.618145049549639, 5768591.807402759790421 ], [ -6842361.517280450090766, 5768597.693407280370593 ], [ -6842482.824702199548483, 5768603.362632860429585 ], [ -6842604.50011876039207, 5768608.832011830061674 ], [ -6842726.508316759951413, 5768614.115897170267999 ], [ -6842848.818167979829013, 5768619.22659876011312 ], [ -6842957.150194083340466, 5768623.599504212848842 ], [ -6842959.955534324981272, 5768604.295934626832604 ] ] ] } }
]
}
