{"type": "FeatureCollection", "features": [{"type": "Feature", "id": 13861, "geometry": {"type": "LineString", "coordinates": [[-60.91430793295174, 45.87093331948565], [-60.91447534624628, 45.87100492587099], [-60.9146390384721, 45.87107785018404], [-60.91489493201481, 45.87119770407126], [-60.9149996019461, 45.871241288124665], [-60.915088691654276, 45.87127839519418], [-60.91520194664258, 45.871337734018155], [-60.915227991132, 45.87135140444759], [-60.91524581646946, 45.87136193661567], [-60.91534473305483, 45.87142052755239], [-60.915452142541376, 45.871494925654936], [-60.915483401722746, 45.87152006810669], [-60.915510582716976, 45.87154194086808], [-60.91560115250424, 45.87162424916679], [-60.91566533088412, 45.87168700326809], [-60.91572201586047, 45.871752365814444], [-60.9157444193982, 45.87178553725314], [-60.91577502710274, 45.87183086535382], [-60.91582319007528, 45.87191600894081], [-60.91583572309157, 45.87193817238618], [-60.915861777201634, 45.87198846677807], [-60.915892674077206, 45.87204812026873]]}, "properties": {"OBJECTID": 13861, "FEAT_CODE": "WACO20", "FEAT_DESC": "Coast - Water to the right line", "RIVNAME_1": " ", "RIVNAME_2": " ", "ZVALUE": 0.2, "FID": null, "SHAPE_Length": 179.87842352285585}}, {"type": "Feature", "id": 13862, "geometry": {"type": "LineString", "coordinates": [[-60.92478443702188, 45.86496427095859], [-60.92471204672575, 45.864962838698915], [-60.92435138670581, 45.86496078559249], [-60.92393141126991, 45.86497291847939], [-60.92379680186398, 45.86497680824845], [-60.92372793413646, 45.86498249596663], [-60.92359132310072, 45.86499377470966], [-60.92330660470422, 45.86502820166391], [-60.92299841641927, 45.865035198941555], [-60.92288248961694, 45.86503489099164], [-60.922611315724296, 45.86505156106223], [-60.92243061379768, 45.86509507817729], [-60.922185806006205, 45.865130228270296], [-60.92204406307119, 45.865165452753196], [-60.92192711764401, 45.86519211848855], [-60.92186010039098, 45.86519170024931], [-60.921849835178506, 45.865191621490496], [-60.921809574705215, 45.86519333717191], [-60.92165755237406, 45.86519982383169], [-60.92160037551974, 45.86521191549395], [-60.921449791581736, 45.865243747101914], [-60.92129550852804, 45.865269741723225], [-60.921219238196855, 45.86527872248457], [-60.9210768178734, 45.8652954639418], [-60.920925554569024, 45.8653012793864], [-60.92087038525418, 45.865303407414864], [-60.92075377415618, 45.86532108630546], [-60.92059869407821, 45.86534529233241], [-60.920418136271884, 45.86537348064358], [-60.92012249808056, 45.865389699382554], [-60.9200173647474, 45.865399809893475], [-60.919941479025844, 45.865407104667895], [-60.91981227323903, 45.86545155542189], [-60.91951590793027, 45.86552176372255], [-60.919393339248046, 45.865547847397295], [-60.91930941898675, 45.86556570626344], [-60.918934706903784, 45.865698390998496], [-60.91870069874285, 45.86582373767303], [-60.91862337290615, 45.865859231615325], [-60.918480997337824, 45.865876438687415], [-60.918326711614895, 45.86590242024656], [-60.91825517669332, 45.865933600121494], [-60.91818395640086, 45.86596463267367], [-60.91805541981183, 45.865991092177275], [-60.91797137694362, 45.86600289033419], [-60.91787015723225, 45.86601235014775], [-60.9177576722779, 45.866020560421006], [-60.917639495275765, 45.86601697486436], [-60.91759719501524, 45.866014988575984], [-60.91750817023649, 45.866010809277704], [-60.91742147372915, 45.86600534925433], [-60.91740873585481, 45.86600454995734], [-60.91730739955594, 45.86599436755582], [-60.9171573654301, 45.865994808984006], [-60.91705614285266, 45.8660029629178], [-60.91702884679736, 45.86600732553025], [-60.91694745121503, 45.866020332304565], [-60.916842569601144, 45.866041587384636], [-60.916733937609514, 45.86606287297298], [-60.91664132493217, 45.86608399161242], [-60.91657095974665, 45.86610004354124], [-60.916512870321306, 45.866114780225054], [-60.916471715822446, 45.86612522642446], [-60.916353791802216, 45.86616488365253], [-60.91625272310609, 45.86619924080256], [-60.91619147870385, 45.86622771788265], [-60.916170435131974, 45.866237486787384], [-60.91609938584353, 45.86627699984502], [-60.9160847388852, 45.866286255386605], [-60.916009698452896, 45.86633361621187], [-60.91592813485966, 45.86639107379221], [-60.91592192902588, 45.86639544292238], [-60.91591856932965, 45.866397775814484], [-60.91578744679651, 45.86648886481512], [-60.91561861800748, 45.866603936571344], [-60.915615590587954, 45.866605996495544], [-60.91548670211148, 45.866694164678165], [-60.9154737956181, 45.866704072954676], [-60.91538215127835, 45.8667743972233], [-60.915281349487636, 45.86685462609297], [-60.91519735531585, 45.866924324779205], [-60.915105936203176, 45.867005831839336], [-60.91500898066038, 45.86710307904347], [-60.91497744310003, 45.86713229575574], [-60.91494367696468, 45.8671635689467], [-60.91487851518724, 45.86724368298897], [-60.91480407439711, 45.86734349220175], [-60.91472964417144, 45.86744197845069], [-60.91470893596327, 45.86746721645691], [-60.914647729138906, 45.86754181311754], [-60.91460601137459, 45.8675924186048], [-60.91456762582405, 45.86763901658757], [-60.914489467389394, 45.86774277203754], [-60.914416773275, 45.86782030908251], [-60.91439688414025, 45.86784189869087], [-60.91434782430925, 45.86789519624727], [-60.914275117255876, 45.86797272396362], [-60.9142670999377, 45.8679831444155], [-60.91421555330269, 45.8680502126187], [-60.91419934695578, 45.86807288652586], [-60.914107653234794, 45.868201236541644], [-60.91406311567106, 45.868279998607164], [-60.91398685134843, 45.868391618927475], [-60.913932991537834, 45.86847124577027], [-60.913927345354416, 45.86847958533166], [-60.913893893021694, 45.868533419757426], [-60.91386228157469, 45.868579376157285], [-60.91384508293079, 45.868596883473934], [-60.913811931169974, 45.86863063374466], [-60.913744865901556, 45.86870815615251], [-60.91369460987421, 45.86877513067814], [-60.913658126777, 45.86882386926755], [-60.91364248978562, 45.86884474434743], [-60.91362798487941, 45.868870140466804], [-60.91359977331954, 45.868919570170036], [-60.91359928193767, 45.868920650282014], [-60.91356461224177, 45.86899700918834]]}, "properties": {"OBJECTID": 13862, "FEAT_CODE": "WACO20", "FEAT_DESC": "Coast - Water to the right line", "RIVNAME_1": " ", "RIVNAME_2": " ", "ZVALUE": 0.2, "FID": null, "SHAPE_Length": 1066.6574324145438}}, {"type": "Feature", "id": 13866, "geometry": {"type": "LineString", "coordinates": [[-60.915892674077206, 45.87204812026873], [-60.91592284686345, 45.872111288821145], [-60.91594018574388, 45.872147590067165], [-60.91599340991282, 45.872262798322815], [-60.91602398089503, 45.87235185118244], [-60.91605461838093, 45.87245532439966], [-60.91606540432332, 45.872497338533336], [-60.91608153440199, 45.872560115820995], [-60.916095431370394, 45.872626101623595], [-60.91610277262429, 45.87266099634141], [-60.9161220992261, 45.87275269724882], [-60.91615085303504, 45.87285486696562], [-60.91616814550862, 45.87292102271256], [-60.91619583743398, 45.87300024821003], [-60.916228075114574, 45.873057837894], [-60.91628400038435, 45.873149432383], [-60.916333269085186, 45.87322469511626], [-60.91639940802354, 45.87330642206467], [-60.91644007338641, 45.873356766830966], [-60.916480736267914, 45.8734123499554], [-60.91653182321643, 45.87348103923876], [-60.91658288808874, 45.87354446267536], [-60.91663572459906, 45.87359151909356], [-60.916643186153664, 45.873597010617914], [-60.91669511509768, 45.87363525675246], [-60.91677706001888, 45.87368679533174], [-60.91701988515839, 45.87391265051629], [-60.91717234247773, 45.87403964059477], [-60.91724952293187, 45.87411215362956], [-60.917326411424305, 45.87415765913476], [-60.917339302268, 45.874160621399405], [-60.91736475218791, 45.87416645886863], [-60.917425430996424, 45.874169545389954], [-60.91755766897092, 45.87417627673225], [-60.917609176195946, 45.87417721578419], [-60.91763000625972, 45.874172546137515], [-60.91768714279338, 45.87415973567804], [-60.917736332649056, 45.874139237719994], [-60.91775128092705, 45.8741330027091], [-60.917766265938845, 45.87412612931498], [-60.91782864471895, 45.87409751008192], [-60.917855091118646, 45.87407909067153], [-60.91803666692749, 45.87390958670697], [-60.918137008805516, 45.8738405349906], [-60.918141148421924, 45.8738376852084], [-60.918167350806776, 45.87375714732273], [-60.91818207597867, 45.873604412500335], [-60.91815643521549, 45.87353193941671]]}, "properties": {"OBJECTID": 13866, "FEAT_CODE": "WACO20", "FEAT_DESC": "Coast - Water to the right line", "RIVNAME_1": " ", "RIVNAME_2": " ", "ZVALUE": 0.2, "FID": null, "SHAPE_Length": 379.6085062597351}}, {"type": "Feature", "id": 13887, "geometry": {"type": "LineString", "coordinates": [[-60.914221925865995, 45.86917491566889], [-60.91439154647761, 45.86904930262065], [-60.91454764258376, 45.86890634100866], [-60.9145621617846, 45.868901214667396], [-60.91459856395748, 45.86888836920552], [-60.91463786364749, 45.868871085271216], [-60.91469578115862, 45.86883899300738], [-60.91470233350003, 45.86883535933002], [-60.914755186408826, 45.86881603660888], [-60.914896971829, 45.86876420662049], [-60.91493464733381, 45.868755893659596], [-60.914937112953204, 45.86875576765515], [-60.914947556511905, 45.86875522924063], [-60.9150499852351, 45.868756306933825], [-60.9150634699563, 45.86875644507141], [-60.91520578285387, 45.868775244019425], [-60.91538580495476, 45.868784830222594], [-60.915501079395526, 45.86880313532454], [-60.9157708701075, 45.868858462699514], [-60.91592532888305, 45.86893148673069], [-60.91597619192571, 45.86894952514992], [-60.915988731561455, 45.86895874566739], [-60.91607883711638, 45.86899548348351], [-60.91627134174222, 45.8690503086535], [-60.91636111107282, 45.8690960498376], [-60.91650174429869, 45.86915982014947], [-60.91656643509073, 45.869187102260256], [-60.91677148071287, 45.86925114706065], [-60.916990444832166, 45.869287534074445], [-60.91714468369263, 45.86929755636773], [-60.917490093049466, 45.86930816587311], [-60.9175050346585, 45.86930862730847], [-60.91769922225609, 45.869318468127425], [-60.91795692670834, 45.86928356274394], [-60.91812374919114, 45.86926680191781], [-60.918279009562426, 45.869249821122814], [-60.91833391966259, 45.86923231638307], [-60.91844722156578, 45.869196191180016], [-60.91857971153089, 45.86916480788042], [-60.91874360653848, 45.86912598603064], [-60.918809511824676, 45.86910558516003], [-60.919001702595, 45.86904607280169], [-60.919183087282676, 45.86896328540221], [-60.91919700764101, 45.8689569324645], [-60.91928656734255, 45.86893966245589], [-60.91946015285345, 45.8689101248382], [-60.91954459200352, 45.86889575859677], [-60.919586675444634, 45.86888152090545], [-60.91962288629241, 45.868869282406614], [-60.91976435962381, 45.86880705385561], [-60.91982679457763, 45.868785716123675], [-60.91997186759827, 45.868736117883884], [-60.9201132849591, 45.868709899779965], [-60.92025502524798, 45.86867467765539], [-60.920314728798175, 45.86866334373202], [-60.92034587174961, 45.868657430245804], [-60.920604242759445, 45.86860452957264], [-60.920709733783866, 45.868570483103596], [-60.92082333693203, 45.86853380297986], [-60.92085442888594, 45.86852683534178], [-60.920901294305125, 45.86851632950492], [-60.921120702172026, 45.86847171915379], [-60.921163352452055, 45.86846471877971], [-60.92122439786051, 45.86845470490698], [-60.92132462399186, 45.868438824520645], [-60.92144344918123, 45.86841998824373], [-60.92158520048382, 45.86838477366833], [-60.92165887115468, 45.86836787872573], [-60.92189448808186, 45.86831388604481], [-60.922062271794374, 45.86830613767655], [-60.922178888803344, 45.8682884575585], [-60.922290111629415, 45.86826478372458], [-60.922385385830154, 45.86824450998295], [-60.922655274917965, 45.868227817074256], [-60.92277372382613, 45.868217325241815], [-60.92284919081605, 45.86821064201889], [-60.92285858206245, 45.86821067779162], [-60.92291360169224, 45.86821091326874], [-60.9231845087293, 45.86816723544544], [-60.923236667929174, 45.86815018236886], [-60.92329318816493, 45.868138149956906], [-60.923404215111255, 45.86811452548044], [-60.92345883834807, 45.86811260231488], [-60.92362353341057, 45.868106811662265], [-60.92363507441013, 45.86810343917312], [-60.92371341264205, 45.86808054326396], [-60.923722944494436, 45.86808060852369], [-60.92379068596308, 45.86808104783016], [-60.92392628143815, 45.868074061734404], [-60.923958515182214, 45.86807239742951], [-60.92409992948072, 45.86804616533017], [-60.92424229625121, 45.86802895109007], [-60.924371452578065, 45.86802049733638], [-60.92442283648904, 45.86802079202749], [-60.92473213239714, 45.868022550717704], [-60.92488264403106, 45.868010119035596], [-60.924937622084215, 45.86800558239763], [-60.9252217369191, 45.867953138962164], [-60.92549231921306, 45.86791845048806], [-60.92554597528131, 45.86790996523081], [-60.92566079144317, 45.867891807813535], [-60.92576693031615, 45.867857543418076], [-60.92587987637068, 45.86782108034797], [-60.925909474658205, 45.86781302212412], [-60.925944956206415, 45.867803360585185], [-60.92604617899939, 45.86776304818209], [-60.92610058293449, 45.86774138118067], [-60.92629358137566, 45.86767917999108], [-60.92642312239999, 45.867625718274525], [-60.926487583127745, 45.86758999451334], [-60.92677251532826, 45.86741155190245], [-60.927005475787574, 45.86731407195326], [-60.92716004627435, 45.86731507701021], [-60.927205057992396, 45.86731520980494], [-60.92745634542552, 45.86731595340818], [-60.927701360912685, 45.86734470093247], [-60.92781730559245, 45.86734500430663], [-60.92784461566881, 45.8673499641206], [-60.92812574110011, 45.8674010116668], [-60.92824611071313, 45.86743999087913], [-60.92826704008932, 45.86744677001329]]}, "properties": {"OBJECTID": 13887, "FEAT_CODE": "WACO20", "FEAT_DESC": "Coast - Water to the right line", "RIVNAME_1": " ", "RIVNAME_2": " ", "ZVALUE": 0.2, "FID": null, "SHAPE_Length": 1170.24920108645}}, {"type": "Feature", "id": 13889, "geometry": {"type": "LineString", "coordinates": [[-60.91650056460681, 45.87174209701823], [-60.9164632805366, 45.8717054230296], [-60.91624619515187, 45.87151514796602], [-60.91607881910602, 45.87144278880693], [-60.91586194372265, 45.87131553088725], [-60.91573292015964, 45.87125197166351], [-60.91568271497359, 45.87121594370515], [-60.915631292653714, 45.871143899626], [-60.91556800386579, 45.87104462780268], [-60.915517624307256, 45.87094470946116], [-60.91544142594221, 45.87084611104137], [-60.91530023310142, 45.87072832489277], [-60.91514711604652, 45.870619321638884], [-60.91501935675426, 45.870555784675744], [-60.91492924977715, 45.87051903700709], [-60.91478867344224, 45.87041926291829]]}, "properties": {"OBJECTID": 13889, "FEAT_CODE": "WACO20", "FEAT_DESC": "Coast - Water to the right line", "RIVNAME_1": " ", "RIVNAME_2": " ", "ZVALUE": 0.2, "FID": null, "SHAPE_Length": 202.29124881100745}}, {"type": "Feature", "id": 13890, "geometry": {"type": "LineString", "coordinates": [[-60.91815643521549, 45.87353193941671], [-60.918144230538644, 45.87351371553136], [-60.91804328025919, 45.873425225593785], [-60.91792714535057, 45.87332344373472], [-60.917893101290794, 45.873287252318306], [-60.91787632096209, 45.873269413032276], [-60.91781298188046, 45.87320615345228], [-60.91781386711945, 45.87304415664836], [-60.917750179766756, 45.87298988240065], [-60.9177250984716, 45.87297143272762], [-60.91769903232849, 45.872944855446775], [-60.91763540148126, 45.87285458828742], [-60.91758464765241, 45.872764546858235], [-60.9175369309753, 45.87273013122092], [-60.91745792220624, 45.87267313827227], [-60.91741965207382, 45.872628336975666], [-60.917419708824255, 45.87259233513144], [-60.91730458348194, 45.87246602606698], [-60.91721582928355, 45.87239330200551], [-60.917152479049115, 45.872330041845274], [-60.91708789827734, 45.87223075632807], [-60.917037367719345, 45.87220373276052], [-60.916922233463175, 45.872112525948594], [-60.9168836279581, 45.87207671907184], [-60.91684575547988, 45.872043364745984], [-60.9167813497646, 45.871986646651074], [-60.91676584748224, 45.87196945155687], [-60.916756592895595, 45.87195919295716], [-60.91669324366765, 45.871895932555134], [-60.916603526885034, 45.87181418973152], [-60.91650056460681, 45.87174209701823]]}, "properties": {"OBJECTID": 13890, "FEAT_CODE": "WACO20", "FEAT_DESC": "Coast - Water to the right line", "RIVNAME_1": " ", "RIVNAME_2": " ", "ZVALUE": 0.2, "FID": null, "SHAPE_Length": 242.26341152912224}}, {"type": "Feature", "id": 13891, "geometry": {"type": "LineString", "coordinates": [[-60.91478867344224, 45.87041926291829], [-60.91469991288601, 45.870346536754575], [-60.914636231281364, 45.870292269846054], [-60.91458475261581, 45.870256227148055], [-60.91445664538059, 45.87020168392076], [-60.91440545770794, 45.870192648625164], [-60.91426413837406, 45.8701468646589], [-60.91407136687582, 45.87006503806986], [-60.913917858476815, 45.870001029624156], [-60.913827416493696, 45.86997327568626], [-60.913764013778085, 45.86994601555244], [-60.91368577441615, 45.86993648583048], [-60.91367387496839, 45.86991016637828], [-60.91367359740314, 45.869883159136045], [-60.9137008474742, 45.869774748114864], [-60.913727331379846, 45.869721227509864], [-60.91372743663643, 45.869649223637374], [-60.913740708079125, 45.86960446242183], [-60.913858193243584, 45.869460796517174], [-60.91391012522448, 45.869415841305816], [-60.9139626377892, 45.86938979819596], [-60.91405295250806, 45.86931764166107], [-60.914131981847525, 45.869237178310854], [-60.914221925865995, 45.86917491566889]]}, "properties": {"OBJECTID": 13891, "FEAT_CODE": "WACO20", "FEAT_DESC": "Coast - Water to the right line", "RIVNAME_1": " ", "RIVNAME_2": " ", "ZVALUE": 0.2, "FID": null, "SHAPE_Length": 201.74540599332397}}, {"type": "Feature", "id": 13892, "geometry": {"type": "LineString", "coordinates": [[-60.91356461224177, 45.86899700918834], [-60.913537017178676, 45.86908882555116], [-60.9134944506367, 45.86918855007627], [-60.913491040444505, 45.86919910863649], [-60.913457619360564, 45.86930268150645], [-60.913457440610465, 45.86930332629329], [-60.913444294223794, 45.86935024993659], [-60.91343740888153, 45.869374822145126], [-60.913424733516074, 45.869452185840714], [-60.91341204523598, 45.86952954929808], [-60.91338440378935, 45.86961088792639], [-60.91337673646435, 45.86963879411434], [-60.913366038500975, 45.86967778783332], [-60.91335554551503, 45.869702357134486], [-60.913347538529706, 45.869721094377574], [-60.91334691729047, 45.869729084672336], [-60.91334405358056, 45.86976565630351], [-60.913348484726555, 45.86979253241099], [-60.913353777063925, 45.8698246266696], [-60.91335576680373, 45.86984237644467], [-60.91336170716712, 45.86989536422124], [-60.91336214176222, 45.86996979914824], [-60.91336218300689, 45.869976613449815], [-60.91336221650692, 45.86998363462657], [-60.913362691283865, 45.87006181458777], [-60.9133668350567, 45.87012734355238], [-60.91337729500498, 45.870183852168196], [-60.9133804135543, 45.870200704489584], [-60.913407110159035, 45.87027402604603], [-60.91344459693216, 45.87035373720638], [-60.913450815017256, 45.87036695585042], [-60.9134550406136, 45.8703724784802], [-60.913501866928115, 45.870433656728956], [-60.913573664753585, 45.870513400562274], [-60.913647231743404, 45.870581340713926], [-60.91372786911877, 45.870640769266195], [-60.91373580615159, 45.870646620696796], [-60.91374191321185, 45.87065007151189], [-60.913828054333614, 45.87069878165043], [-60.91395361217629, 45.87076533998689], [-60.91398052298586, 45.87077960257095], [-60.91417057011439, 45.87086818409753], [-60.91430793295174, 45.87093331948565]]}, "properties": {"OBJECTID": 13892, "FEAT_CODE": "WACO20", "FEAT_DESC": "Coast - Water to the right line", "RIVNAME_1": " ", "RIVNAME_2": " ", "ZVALUE": 0.2, "FID": null, "SHAPE_Length": 248.13360355174058}}, {"type": "Feature", "id": 23685, "geometry": {"type": "LineString", "coordinates": [[-60.92542852714181, 45.87541308221618], [-60.92521825983633, 45.875355168707806], [-60.92519766049611, 45.8753494931076], [-60.92512012008733, 45.87528597965034], [-60.92497980919665, 45.875213225185604], [-60.92491611198355, 45.87515896378627], [-60.92483953781401, 45.875104468404835], [-60.924762293908685, 45.87506796223356], [-60.92472435118848, 45.87501416864412], [-60.924698984128796, 45.87496870417434], [-60.92464816450019, 45.87491467659616], [-60.92454550190882, 45.8748687077126], [-60.92440378766621, 45.874867932757695], [-60.92430003446489, 45.87488584891447], [-60.924261403390865, 45.87488514688126], [-60.92417109233034, 45.87495731149559], [-60.92414399808406, 45.87499282195059], [-60.92414394562133, 45.87502882385835], [-60.92415599556139, 45.87515504386471], [-60.92418100793991, 45.875244614512646], [-60.92419211819549, 45.875361816718616], [-60.92419605508838, 45.87536717168537], [-60.924205587551306, 45.875380053932396], [-60.92430679341612, 45.87553399621989], [-60.92439529804095, 45.875614837826944], [-60.92448531512964, 45.87572358205914], [-60.924587677738515, 45.87577764618129], [-60.92470321925929, 45.8758238490172], [-60.92483098896536, 45.875887375253505], [-60.92501066223068, 45.87594194347007], [-60.92507441229049, 45.875960202913845], [-60.92529262754453, 45.876051473678984], [-60.92538242848473, 45.876097208272775], [-60.92556133018647, 45.87624176873972], [-60.925676572169486, 45.87629606578698], [-60.925702945018664, 45.876314546154504], [-60.92589620596413, 45.87631535544703], [-60.9260244283746, 45.87629788214188], [-60.92611560762484, 45.876271635477075], [-60.92612010717922, 45.8762715731624], [-60.926141395818206, 45.87627120363007], [-60.92619195224936, 45.87626312082968], [-60.926206168503164, 45.87622737608581], [-60.92613194144391, 45.87624374180943], [-60.926089234655265, 45.876253155202726], [-60.92603735734386, 45.87626210504458], [-60.925896592099036, 45.87627035889246], [-60.925882748904435, 45.87626110680572], [-60.92578039700371, 45.876207044045856], [-60.92576790589665, 45.87616181364472], [-60.92567984293441, 45.87603510449544], [-60.92564055944383, 45.87601728972591], [-60.92553956814226, 45.875926348530385], [-60.92546167110979, 45.87587272962044], [-60.925398624198245, 45.87583558166473], [-60.92533392130154, 45.87580830438082], [-60.92520508186939, 45.87580776427453], [-60.925128119804114, 45.875798265617796], [-60.92510237081438, 45.87576269509148], [-60.92502575661663, 45.87574420197061], [-60.92489696934097, 45.87570765960704], [-60.92474276277169, 45.87566165455095], [-60.92470476757149, 45.87564386286426], [-60.924589226417396, 45.87559766003491], [-60.924576420120644, 45.87552632169893], [-60.92457786441814, 45.87541833936689], [-60.92464616854757, 45.87541878837941], [-60.92465516081846, 45.87541884375596], [-60.92474498083424, 45.875463679132494], [-60.92482222526732, 45.875500185322316], [-60.924989360910445, 45.875510413291266], [-60.92499881145086, 45.87550992792231], [-60.92500227124135, 45.8755097567558], [-60.925105257067784, 45.87554673938038], [-60.92523305237807, 45.87561026563453], [-60.92525880677807, 45.8756107334448], [-60.925451395908354, 45.87562952371803], [-60.92552098414364, 45.87562283096071], [-60.925632446869784, 45.87561211026704], [-60.926031506357646, 45.875622957133885], [-60.9260952564107, 45.87564121600822], [-60.92609620939766, 45.87565023402556], [-60.92608152256742, 45.87576787671188], [-60.92610692458045, 45.875812441430504], [-60.92618450513627, 45.875839952083986], [-60.92624792077575, 45.87586720551426], [-60.92636281511827, 45.87593049627387], [-60.92650343911362, 45.87603025685096], [-60.92651693514408, 45.87604849427334], [-60.926516883855015, 45.876084505196815], [-60.926490408890864, 45.876138028870415], [-60.92641302694032, 45.876174427097084], [-60.92641168818101, 45.876210405646354], [-60.926425217356766, 45.87622775261019], [-60.926437760022864, 45.87623698102152], [-60.926463045966315, 45.87622996046271], [-60.926501561880855, 45.87621923775391], [-60.92654052893821, 45.87621093541279], [-60.92662633228871, 45.87621937760818], [-60.92663040236169, 45.87621977551447], [-60.92665649171678, 45.87621124837591], [-60.926737484675556, 45.876187930560036], [-60.92674767051029, 45.876185002098026], [-60.926748776061785, 45.876086013418465], [-60.9266966991657, 45.8760310638727], [-60.92658246030275, 45.875949793823054], [-60.926556388854976, 45.87592320948618], [-60.92651814262612, 45.87587751163538], [-60.926466985395685, 45.875832488463296], [-60.926455434306234, 45.87579626691311], [-60.926469816068916, 45.875652516571314], [-60.92649595613619, 45.875607987533336], [-60.926560528394695, 45.875500251075536], [-60.926574108356796, 45.87548159608874], [-60.92657526502549, 45.87534660637026], [-60.926590637394, 45.87517587184196], [-60.926616764251605, 45.87513134253362], [-60.92668096311397, 45.875068602796794], [-60.926707771980844, 45.875006084416924], [-60.9267220891473, 45.87489833571452], [-60.92668384345462, 45.874852637921244], [-60.926670966418015, 45.87485240418039], [-60.926644844579556, 45.8748618218045], [-60.926606175138495, 45.87489713172956], [-60.92659117557738, 45.87502286946028], [-60.9265530783802, 45.87507708225471], [-60.92650115096105, 45.875122043258], [-60.92647472743189, 45.87513956501025], [-60.92639599061357, 45.87524704427958], [-60.92636502861884, 45.875261864405886], [-60.9263579441065, 45.87526525506938], [-60.92626604612221, 45.875345493168254], [-60.92614653826421, 45.87537608599912], [-60.92605919065992, 45.875398441948214], [-60.92597244001322, 45.87543176253942], [-60.925942856106886, 45.87544313329845], [-60.92578825028048, 45.87544212597582], [-60.925548450298955, 45.875431578575636], [-60.92554383141597, 45.87543138668049], [-60.92553216126008, 45.87542953660023], [-60.92542852714181, 45.87541308221618]]}, "properties": {"OBJECTID": 23685, "FEAT_CODE": "WACOIS10", "FEAT_DESC": "Coastal Island - Water to the right line", "RIVNAME_1": " ", "RIVNAME_2": " ", "ZVALUE": 0.2, "FID": null, "SHAPE_Length": 1088.6133625261316}}, {"type": "Feature", "id": 23686, "geometry": {"type": "LineString", "coordinates": [[-60.92298367475876, 45.87137864175318], [-60.92298478656698, 45.871279654044336], [-60.92293430705889, 45.87121663113139], [-60.92290827270058, 45.87118915554085], [-60.922895698219634, 45.87118082622624], [-60.92285846376645, 45.87110814334587], [-60.92280703215049, 45.871036102339296], [-60.92276875873248, 45.870991302768815], [-60.9227433949997, 45.870945837893345], [-60.92274490856166, 45.870801853879804], [-60.92270773472161, 45.87065806634819], [-60.922683041633654, 45.87059461221034], [-60.92253063404386, 45.87043162744709], [-60.92244054203066, 45.870359783169754], [-60.92236298382317, 45.87033227034478], [-60.92232467835615, 45.87032257285284], [-60.922298557633106, 45.870331998508235], [-60.92224761723763, 45.87038507621169], [-60.922193625483054, 45.87052000495338], [-60.922193571866, 45.87055600686516], [-60.92217981073086, 45.87071776952325], [-60.92217834935313, 45.870825751596506], [-60.92216370230595, 45.87094249452424], [-60.922097061575215, 45.87114019815344], [-60.92208407802763, 45.87121196772374], [-60.9220174366602, 45.87140967128733], [-60.92191386314624, 45.87152659647327], [-60.92190065155348, 45.87153535682691], [-60.92180942403929, 45.87159761114145], [-60.92174488886989, 45.87166933377318], [-60.92170489783751, 45.871705509080556], [-60.921665838530245, 45.87178580485612], [-60.921652526422896, 45.87183146630435], [-60.921665046866856, 45.871875797652145], [-60.9217026156275, 45.87193948627738], [-60.92174088880028, 45.871984286194674], [-60.92178013432476, 45.87200301070368], [-60.92184354342327, 45.87203026648511], [-60.92189501595639, 45.872066296780154], [-60.92197530412152, 45.872066956428625], [-60.921985196851054, 45.87206703739892], [-60.9221014735809, 45.87205835189096], [-60.9221652847796, 45.87204061120969], [-60.922179167102605, 45.872013861587924], [-60.92224335394715, 45.871951133098115], [-60.92229623435254, 45.87191518306403], [-60.92254247353495, 45.87177295020658], [-60.92266979030043, 45.87169931770438], [-60.92269787960731, 45.87168306921872], [-60.92281457650375, 45.87159428421657], [-60.92286583303564, 45.871567314107075], [-60.922956441775085, 45.87148705525704], [-60.92297102747277, 45.871441416814875], [-60.92298367475876, 45.87137864175318]]}, "properties": {"OBJECTID": 23686, "FEAT_CODE": "WACOIS10", "FEAT_DESC": "Coastal Island - Water to the right line", "RIVNAME_1": " ", "RIVNAME_2": " ", "ZVALUE": 0.2, "FID": null, "SHAPE_Length": 470.3039125305227}}, {"type": "Feature", "id": 117484, "geometry": {"type": "LineString", "coordinates": [[-60.91678464158876, 45.87296688510013], [-60.91682254160633, 45.87302158064864], [-60.916835730819415, 45.8730479232806], [-60.91682074630701, 45.8731385572552], [-60.91680629628413, 45.87331830809221], [-60.91679296912805, 45.87339907149625], [-60.91679117372659, 45.87351604809381]]}, "properties": {"OBJECTID": 117484, "FEAT_CODE": "WALK20", "FEAT_DESC": "Lake - Water to the right line", "RIVNAME_1": " ", "RIVNAME_2": " ", "ZVALUE": 0.7, "FID": null, "SHAPE_Length": 62.0411717546052}}, {"type": "Feature", "id": 117485, "geometry": {"type": "LineString", "coordinates": [[-60.91679117372659, 45.87351604809381], [-60.91674099126862, 45.873480030031516], [-60.916715003344365, 45.87341655100757], [-60.91663883289348, 45.87331706286819], [-60.916587686752294, 45.87327201744006], [-60.91657553995908, 45.87321779156536], [-60.916576548684304, 45.87319080780763], [-60.91656345050408, 45.87312756385818], [-60.91661641622492, 45.87302052133211], [-60.91664224729629, 45.87298408953762], [-60.91668156218705, 45.87296680518525], [-60.91675054587371, 45.872967262320664], [-60.91675885492752, 45.8729673148595], [-60.91676234917143, 45.87296725257989], [-60.91678464158876, 45.87296688510013]]}, "properties": {"OBJECTID": 117485, "FEAT_CODE": "WALK20", "FEAT_DESC": "Lake - Water to the right line", "RIVNAME_1": " ", "RIVNAME_2": " ", "ZVALUE": 0.7, "FID": null, "SHAPE_Length": 76.77018880171312}}, {"type": "Feature", "id": 117486, "geometry": {"type": "LineString", "coordinates": [[-60.91454117707821, 45.870683919972265], [-60.91447683438918, 45.87066108943355], [-60.91441348921761, 45.8705978278233], [-60.91418239899969, 45.87050630102609], [-60.9140542584861, 45.870487759634656], [-60.913952404137554, 45.87035178870007], [-60.91394016818456, 45.870334454854536], [-60.91394062236682, 45.87025346563865]]}, "properties": {"OBJECTID": 117486, "FEAT_CODE": "WALK20", "FEAT_DESC": "Lake - Water to the right line", "RIVNAME_1": " ", "RIVNAME_2": " ", "ZVALUE": 0.7, "FID": null, "SHAPE_Length": 73.17223133220115}}, {"type": "Feature", "id": 117487, "geometry": {"type": "LineString", "coordinates": [[-60.91394062236682, 45.87025346563865], [-60.91395392746315, 45.870207804944734], [-60.91396747624125, 45.870190059943475], [-60.91399322795355, 45.87019053025006], [-60.91401801668356, 45.87021707606184], [-60.91405250889568, 45.87026080144502], [-60.914068438902724, 45.87028099296512], [-60.914082211062876, 45.87029377348334], [-60.91410704102536, 45.87031680974615], [-60.91415885602712, 45.870343858078186], [-60.914248671817944, 45.87035358986885], [-60.914403598992, 45.870345626984985], [-60.91447981978625, 45.870409123696795], [-60.914505546681326, 45.870444696255106], [-60.914543384248255, 45.870535394337836], [-60.9145941900767, 45.87058942621424], [-60.91461554723576, 45.870604388316]]}, "properties": {"OBJECTID": 117487, "FEAT_CODE": "WALK20", "FEAT_DESC": "Lake - Water to the right line", "RIVNAME_1": " ", "RIVNAME_2": " ", "ZVALUE": 0.7, "FID": null, "SHAPE_Length": 83.84118608870678}}, {"type": "Feature", "id": 118522, "geometry": {"type": "LineString", "coordinates": [[-60.915962808721105, 45.871478475203446], [-60.91603976306587, 45.87148797991426], [-60.916053287874504, 45.87150532804503], [-60.9160648188338, 45.871541541311785], [-60.916167804415515, 45.87157852303258], [-60.91616675088897, 45.87164150886139], [-60.916139861601856, 45.87174002622535], [-60.916094417539036, 45.87173998919091], [-60.91608832304599, 45.871739986008045]]}, "properties": {"OBJECTID": 118522, "FEAT_CODE": "WALK20", "FEAT_DESC": "Lake - Water to the right line", "RIVNAME_1": " ", "RIVNAME_2": " ", "ZVALUE": 0.7, "FID": null, "SHAPE_Length": 43.52411424106242}}, {"type": "Feature", "id": 118523, "geometry": {"type": "LineString", "coordinates": [[-60.91608832304599, 45.871739986008045], [-60.91601135546906, 45.87173048108931], [-60.91597313364579, 45.871684780108595], [-60.915974142944954, 45.87165778735935], [-60.916000010320005, 45.87158626255267], [-60.91593660469166, 45.871559003582455], [-60.91593733502483, 45.871505012579256], [-60.915962808721105, 45.871478475203446]]}, "properties": {"OBJECTID": 118523, "FEAT_CODE": "WALK20", "FEAT_DESC": "Lake - Water to the right line", "RIVNAME_1": " ", "RIVNAME_2": " ", "ZVALUE": 0.7, "FID": null, "SHAPE_Length": 38.48266527300501}}, {"type": "Feature", "id": 118524, "geometry": {"type": "LineString", "coordinates": [[-60.91461554723576, 45.870604388316], [-60.91464565617275, 45.87062546867633], [-60.91474770088163, 45.87065343378589], [-60.91481144138713, 45.87067169881272], [-60.91482392248472, 45.87071693027881]]}, "properties": {"OBJECTID": 118524, "FEAT_CODE": "WALK20", "FEAT_DESC": "Lake - Water to the right line", "RIVNAME_1": " ", "RIVNAME_2": " ", "ZVALUE": 0.7, "FID": null, "SHAPE_Length": 22.288335478370485}}, {"type": "Feature", "id": 118525, "geometry": {"type": "LineString", "coordinates": [[-60.91482392248472, 45.87071693027881], [-60.91464360428609, 45.87071543844315], [-60.91463127057044, 45.87071172998246], [-60.914554401842096, 45.87068860778892], [-60.91454117707821, 45.870683919972265]]}, "properties": {"OBJECTID": 118525, "FEAT_CODE": "WALK20", "FEAT_DESC": "Lake - Water to the right line", "RIVNAME_1": " ", "RIVNAME_2": " ", "ZVALUE": 0.7, "FID": null, "SHAPE_Length": 22.691950498136922}}]}