{"type": "FeatureCollection", "features": [{"type": "Feature", "id": 2332, "geometry": {"type": "LineString", "coordinates": [[-61.55277564760944, 46.04120603679393], [-61.55277588257435, 46.041197039390056], [-61.55276227678916, 46.041178596304455], [-61.55274966701488, 46.041161605892405], [-61.55270192443541, 46.04113391007996], [-61.552594346419795, 46.041071434930416], [-61.5525168032773, 46.04107135275314], [-61.552413631777455, 46.04106284552576], [-61.55238226224824, 46.04105650788348], [-61.55232363878742, 46.04104460474291], [-61.55224702170415, 46.0410140228263], [-61.55223282396856, 46.041008352716865], [-61.55222099656222, 46.04099605235565], [-61.55218123913401, 46.04095459690773], [-61.552090543009285, 46.040864343990435], [-61.55203895844498, 46.04081058811895], [-61.55202693413838, 46.0407810945157], [-61.55201344879299, 46.040748162252996], [-61.552013299907266, 46.040674717261645], [-61.552013099105466, 46.040613152114005], [-61.55202580929465, 46.04052240932483], [-61.55204620022138, 46.040464165228194], [-61.55205094556678, 46.04045072478586], [-61.55206293078659, 46.040432245863016], [-61.5521034718763, 46.04036948687477], [-61.55214223119952, 46.04036997797458], [-61.552179958752056, 46.04026155137805], [-61.55218947965173, 46.04024835144334], [-61.55225773729845, 46.040153632193025], [-61.552284046820525, 46.04013596475111], [-61.55232247763322, 46.04009955006459], [-61.55234831705859, 46.040099877414924], [-61.55241317414019, 46.04009079862065], [-61.55242448720275, 46.04008320160553], [-61.55242632886382, 46.04008196488203], [-61.55242550691805, 46.040063953707], [-61.55234761331804, 46.040027865448394], [-61.55230908926155, 46.040018377017155], [-61.552286496178255, 46.040022410969186], [-61.55225715194477, 46.040027619437815], [-61.55221860440011, 46.04001903071662], [-61.552089127186846, 46.03992918647125], [-61.55208249132125, 46.03992100204587], [-61.552037778546186, 46.03986643319782], [-61.551993385176374, 46.039819428699815], [-61.55198621844716, 46.03981177756467], [-61.55196178087326, 46.039728124360174], [-61.55196012258046, 46.03972234310196], [-61.55195374565633, 46.03968941089961], [-61.55193393378644, 46.03958700550545], [-61.55189550520687, 46.039524415888536], [-61.551843945559746, 46.03946976019343], [-61.55177862122161, 46.03939782930147]]}, "properties": {"OBJECTID": 2332, "FEAT_CODE": "WACO20", "FEAT_DESC": "Coast - Water to the right line", "RIVNAME_1": " ", "RIVNAME_2": " ", "ZVALUE": 0.4, "FID": null, "SHAPE_Length": 271.4609214116141}}, {"type": "Feature", "id": 2333, "geometry": {"type": "LineString", "coordinates": [[-61.549663145530886, 46.042503131581746], [-61.54974881375855, 46.04242987572613], [-61.54983104715576, 46.042359456336875], [-61.549921047171715, 46.042278695005415], [-61.55007640118385, 46.04216996164575], [-61.55013653504688, 46.04210934204894], [-61.550191890410474, 46.042053521998], [-61.550296125088394, 46.041972040929515], [-61.5503724975911, 46.041918107489444], [-61.55057953010843, 46.041810029011806], [-61.5506571941217, 46.04175611176187], [-61.55069163816786, 46.041723967248416], [-61.55073403657694, 46.041684183280836], [-61.55076506463392, 46.04165910572077], [-61.550811935550236, 46.041621268525454], [-61.55087726520192, 46.04159419583824], [-61.55101849560117, 46.04153118401565], [-61.551070669770525, 46.0415129447829], [-61.55128967860322, 46.041441018386834], [-61.55139379137333, 46.04141353704274], [-61.551429333018504, 46.04141848778342], [-61.55145817977993, 46.041422453608945], [-61.55154840824516, 46.04143169767751], [-61.5516925181915, 46.04143154416953], [-61.551742279077956, 46.04143145480994], [-61.55178080400924, 46.04144094344046], [-61.55179698436543, 46.04144987886862], [-61.55184577916369, 46.04147686836236], [-61.551869293507515, 46.041482116563536], [-61.55188432765613, 46.041485457218506], [-61.55191331330959, 46.04147916425665], [-61.55192332286156, 46.04147695100171], [-61.551942073364295, 46.041476558584165], [-61.5519491864346, 46.04147637870979], [-61.55197884649489, 46.04145911381455], [-61.55202661357393, 46.0414314579051], [-61.55206635599633, 46.04140919052714], [-61.55209088549922, 46.04139537074139], [-61.55212101037693, 46.04138999219957], [-61.552142824129426, 46.04138612841393], [-61.552246442781986, 46.04137754082915], [-61.55226478692286, 46.04137291303195], [-61.55228416936228, 46.04136811837847], [-61.55232508832522, 46.041360176419445], [-61.552375102987, 46.04135036958938], [-61.55240141304981, 46.041332702130326], [-61.552409935869264, 46.04130823906131], [-61.55241398114888, 46.04129685982467], [-61.5524527646277, 46.041296451086524], [-61.55251797506779, 46.04132337822767], [-61.55254252306598, 46.041323689174995], [-61.55255596461607, 46.041318729219356], [-61.552568621564, 46.0413141193391], [-61.55259387914964, 46.04129715853474], [-61.55260808653477, 46.041287618079735], [-61.55260764977123, 46.041269701792274], [-61.55260749951432, 46.04126060950569], [-61.55263301093858, 46.041224031080176], [-61.55267177086841, 46.04122452200739], [-61.5527624926693, 46.041214870568595], [-61.55277564760944, 46.04120603679393]]}, "properties": {"OBJECTID": 2333, "FEAT_CODE": "WACO20", "FEAT_DESC": "Coast - Water to the right line", "RIVNAME_1": " ", "RIVNAME_2": " ", "ZVALUE": 0.4, "FID": null, "SHAPE_Length": 308.7990047587616}}, {"type": "Feature", "id": 10186, "geometry": {"type": "LineString", "coordinates": [[-61.55177862122161, 46.03939782930147], [-61.551750434049026, 46.039358770422396], [-61.55171376729549, 46.03930790356803], [-61.551623756464124, 46.03919155782812], [-61.5515804889738, 46.03915095770588], [-61.55154680520222, 46.03911947942925], [-61.551295571912924, 46.038857263603575], [-61.551184485255405, 46.038741370341874], [-61.55117104976619, 46.038721399152244], [-61.55110612738386, 46.03862427188737], [-61.55108790996445, 46.03858947942596], [-61.551054429995936, 46.03852551219919], [-61.55098556910296, 46.038420864603644], [-61.55097736462655, 46.03840843004047], [-61.55093835170951, 46.03831883152555], [-61.550933652121756, 46.03830086116592], [-61.55091251695129, 46.03821949968781], [-61.55088630781766, 46.03808506159539], [-61.550873157216, 46.03799489098112], [-61.55087310034331, 46.0379476382402], [-61.550873045406824, 46.03785088340684], [-61.55084742660042, 46.03764444970223], [-61.55085966740368, 46.03757170181542], [-61.550912172876195, 46.03739235994852], [-61.5509242742695, 46.03727550839412], [-61.55092404654218, 46.037086497403145], [-61.55091996194834, 46.03702029276863], [-61.550911370306856, 46.036879327772816], [-61.5509109328682, 46.03683180018566], [-61.55091066837261, 46.036807315780536], [-61.550871656627955, 46.03671771723304], [-61.55085909249419, 46.03665455519387], [-61.55084590654698, 46.03657563459014], [-61.5508333781457, 46.036501222516186], [-61.55081999270019, 46.036420049280636], [-61.5508368018681, 46.03634555924018], [-61.55084630472664, 46.0363033779338], [-61.550884012098, 46.03609684721432], [-61.550923030864, 46.03598843733148], [-61.55092985990439, 46.03596449289584], [-61.55093583383955, 46.035943597747966], [-61.550980619681496, 46.03587657275492], [-61.551025940978164, 46.035808834502326], [-61.55111712786979, 46.03568218522289], [-61.55115500425583, 46.035647113932875], [-61.55115553276168, 46.03564667061442], [-61.55116868661014, 46.0356378370038], [-61.55119454746037, 46.03563726485001], [-61.551223011014706, 46.03563105544415], [-61.55123353862911, 46.03562875881277], [-61.55125834277385, 46.035619172859114], [-61.55125857793925, 46.03561017545243], [-61.55123342261011, 46.03558375540106], [-61.55123283625247, 46.035556746802385], [-61.551270225997925, 46.035530399680376], [-61.55128418313801, 46.03552049619392], [-61.55132343288056, 46.03550209297695], [-61.551328125916896, 46.03550053240329], [-61.55134950530137, 46.03549342312085], [-61.551348918887015, 46.035466414521686], [-61.55134308448768, 46.03546220037814], [-61.55133623541133, 46.03545725333969], [-61.5513066498577, 46.03544211762903], [-61.55128395101319, 46.03543048936764], [-61.551258584103984, 46.03541216698819], [-61.551249729515575, 46.03539495398999], [-61.551245055609506, 46.035385894344586], [-61.55123272648127, 46.03531373492366], [-61.55123062438777, 46.035310108117066], [-61.55120677329645, 46.035268403933344], [-61.551182380429765, 46.03520293184897], [-61.55118021030337, 46.03519696407772], [-61.551128655291365, 46.03514230807553], [-61.55106081596737, 46.03508771557911], [-61.5510514514613, 46.035080126515034], [-61.55105081729424, 46.03507966845438], [-61.55102608478774, 46.03506180408567], [-61.55096170384497, 46.03505288645482], [-61.550857510671555, 46.03503446532018], [-61.55079277885848, 46.03498954248801], [-61.55077531338206, 46.03498041060017], [-61.55074178701519, 46.0349627946576], [-61.55055992056561, 46.03490018535074], [-61.55050834291296, 46.03484642881691], [-61.55047146182283, 46.034794028737444], [-61.550457259465794, 46.034773777710406], [-61.55042691846084, 46.03475296194122], [-61.55040521143536, 46.034738015941], [-61.55038786799783, 46.03473410576751], [-61.55036666785199, 46.03472942663419], [-61.55027562928116, 46.0347021705556], [-61.55021195484509, 46.03466626119547], [-61.55014925328073, 46.03462280381584], [-61.550055835271344, 46.03455807574954], [-61.55000540616584, 46.034519724225255], [-61.54991392652752, 46.03445007042323], [-61.549849431547365, 46.03439614966617], [-61.54984293968692, 46.03439237712105], [-61.54975907643989, 46.03434280071555], [-61.549642558194265, 46.03425221802458], [-61.54959074660466, 46.03420745849066], [-61.549513925568924, 46.03408137796424], [-61.54950089263526, 46.03403621057724], [-61.549512996094926, 46.03391935913214], [-61.54952234132636, 46.033814083176814], [-61.54952580579253, 46.03377551547484], [-61.54951359999021, 46.03364935506494], [-61.54951535120788, 46.033626876315644], [-61.549525353220076, 46.0334964975996], [-61.54953317922395, 46.03345915530877], [-61.549538627551165, 46.03343366335371], [-61.549538306532746, 46.03342123873852], [-61.54953804201676, 46.033406654746514], [-61.54951188891759, 46.0333641109388], [-61.5494996202774, 46.03334406434072], [-61.54942174423369, 46.0332089699494], [-61.549389349977325, 46.033177777382846], [-61.54938393176249, 46.03317248837353], [-61.54937811989355, 46.03315261373157], [-61.54937087558564, 46.033128220708804], [-61.54937523508388, 46.03312458589055], [-61.54938276084403, 46.03311847115686], [-61.54946123454957, 46.033082565715425], [-61.54947333167313, 46.03306471849045], [-61.54943526027958, 46.03303813407539], [-61.54938274362561, 46.03302036666364], [-61.54926692860288, 46.03300179563274], [-61.54922838640605, 46.032993205955805], [-61.54907320853588, 46.03294803383429], [-61.54898240904341, 46.03291177935713], [-61.54895678497163, 46.03290335362352], [-61.5489314199805, 46.032885030742335], [-61.54891768121301, 46.032866855493815], [-61.54891780254775, 46.03281285467917], [-61.548907403995955, 46.03279049166095], [-61.54890556757283, 46.03278659817176], [-61.548853781480815, 46.03274093857561], [-61.54880427286555, 46.03270700838943], [-61.548776347975284, 46.03268775292388], [-61.548753012699464, 46.03266594562631], [-61.54873724448563, 46.0326512547343], [-61.548728554869754, 46.03264259400025], [-61.548710799885306, 46.03262481773823], [-61.54866007033554, 46.03258817186438], [-61.548594286921805, 46.03253423401489], [-61.548543533973735, 46.03249848783071], [-61.54842652679105, 46.032426798482156], [-61.54829730888411, 46.03232795270655], [-61.54825844158686, 46.03228245695755], [-61.54825189200564, 46.032271033252584], [-61.54820651931124, 46.032192693404525], [-61.548194430389465, 46.03211153627182], [-61.54818152098988, 46.032012367924665], [-61.548193853913176, 46.031985523433846], [-61.54824494850884, 46.03186016706497], [-61.54828252931437, 46.031782071066594], [-61.54832284434848, 46.03169824953802], [-61.548379208997446, 46.03162822247594], [-61.54843904518752, 46.03155391929469], [-61.54855548098466, 46.03140059151991], [-61.54856956316484, 46.03137601930364], [-61.5485812023724, 46.031355916253176], [-61.54861893029661, 46.03124749067602], [-61.54862562033655, 46.0312338050439], [-61.5486448871128, 46.03119381798914], [-61.548667150444636, 46.03115782916373], [-61.54868402058272, 46.0311304122156], [-61.54873365489344, 46.03106569972946], [-61.54877365398126, 46.03101364541577], [-61.54883763108965, 46.030919323726955], [-61.548877146598535, 46.03086105296187], [-61.54895503912678, 46.030699134937876], [-61.548980433632714, 46.030617553802884], [-61.548993707810844, 46.030554719588686], [-61.54896776555629, 46.03041038383248], [-61.54895518322288, 46.03038754305926], [-61.548928290217944, 46.03033877942616], [-61.54887695381002, 46.030276024777464], [-61.54884328229034, 46.03023446536327], [-61.5487605432797, 46.030132340145784], [-61.548683984070344, 46.03002615317236], [-61.54866952049325, 46.0300060785958], [-61.54861818468002, 46.02994332383441], [-61.5486123215763, 46.02992542857897], [-61.54859188652814, 46.029861986236384], [-61.54854217479957, 46.02978656150765], [-61.54851483799913, 46.029744902448506], [-61.548488630425226, 46.02970946800061], [-61.54848911709872, 46.02949346464434], [-61.54849797958003, 46.029357311198694], [-61.54850204979556, 46.029295620171084], [-61.548501791030056, 46.0292709557939], [-61.54850135084723, 46.02922360810931], [-61.54852013990586, 46.029157423836374], [-61.54853978403338, 46.0290881902854]]}, "properties": {"OBJECTID": 10186, "FEAT_CODE": "WACO20", "FEAT_DESC": "Coast - Water to the right line", "RIVNAME_1": " ", "RIVNAME_2": " ", "ZVALUE": 0.4, "FID": null, "SHAPE_Length": 1322.0211013098906}}, {"type": "Feature", "id": 12849, "geometry": {"type": "LineString", "coordinates": [[-61.534669364186364, 46.05389082506351], [-61.53505551937901, 46.05392430725249], [-61.53508337798, 46.05392673447088], [-61.535122759323905, 46.053928499361376], [-61.535470730125084, 46.05394429995687], [-61.53585853439977, 46.05394476923201], [-61.53597512537731, 46.05393546257551], [-61.53612919256432, 46.05392663588672], [-61.53629773635348, 46.053908094019505], [-61.53638869547087, 46.05389035829781], [-61.536426647145085, 46.05387284365034], [-61.53646567713282, 46.05386344312745], [-61.53658226785205, 46.053854135848006], [-61.53668629399003, 46.05384088740326], [-61.53672364958316, 46.053836145539805], [-61.536782381605796, 46.053824747102205], [-61.536905567267766, 46.05380067333864], [-61.5369389167432, 46.05379588011247], [-61.53696915047895, 46.05379158700781], [-61.537074208411276, 46.0537686310275], [-61.53717588256863, 46.05374653167084], [-61.53729294810357, 46.05371922901774], [-61.537409196371414, 46.053673915057715], [-61.53754319617064, 46.05362702809026], [-61.53761534798878, 46.05360185040544], [-61.53772865255925, 46.0535700889974], [-61.53774428101155, 46.053565698797], [-61.537860742335226, 46.05351228677601], [-61.538015676738425, 46.05342156533097], [-61.538247936625496, 46.053241829190235], [-61.53830036339451, 46.05321459867969], [-61.53835022180301, 46.0531622242781], [-61.53837747535047, 46.05313368170231], [-61.53846748792386, 46.0530292587116], [-61.538570835798446, 46.05290934555943], [-61.53859948238292, 46.052872090391666], [-61.5386752399659, 46.05277387518906], [-61.538701502067255, 46.052743699790234], [-61.53871390219113, 46.052729367772635], [-61.538817145101326, 46.05253988023064], [-61.53887135360822, 46.05242545870219], [-61.53889380664504, 46.052377953852876], [-61.53894588923436, 46.05231471718197], [-61.53904850079475, 46.052198124306514], [-61.53910685132784, 46.05211777699666], [-61.539139719000204, 46.05207238532001], [-61.53926880395328, 46.05188322771228], [-61.53934246780019, 46.051776074927275], [-61.53942338933784, 46.05165839442545], [-61.53959068226143, 46.05144182365519], [-61.53968155442944, 46.05128007833396], [-61.539745739399855, 46.051198995213696], [-61.540017379254586, 46.05094685566672], [-61.54016006833606, 46.05082987376901], [-61.54037419817084, 46.050680142864636], [-61.540572258524556, 46.05054172679737], [-61.54062084535467, 46.05052272650949], [-61.54066368481836, 46.050505992899076], [-61.54068885544229, 46.05049263378249], [-61.54071481559806, 46.05047874472078], [-61.540766527561395, 46.05047850504397], [-61.54110296243846, 46.05041619801362], [-61.54137431259578, 46.050371059977635], [-61.54154202549487, 46.050334499031244], [-61.54163192178498, 46.05030774519796], [-61.541673402266134, 46.05029351396808], [-61.54171018816676, 46.05028084287963], [-61.54170913280045, 46.050271829043815], [-61.541684472954465, 46.050226512505716], [-61.54167848591351, 46.050218245765954], [-61.54165828410417, 46.05019017681678], [-61.541644411936026, 46.05012789724133], [-61.54164525134381, 46.05004690464137], [-61.541644668914735, 46.05003465670771], [-61.541644432836314, 46.05002889345926], [-61.54164498154961, 46.050022780211634], [-61.54164619872164, 46.05001091525927], [-61.54165368940834, 46.049952238451056], [-61.54165761251712, 46.049921057239715], [-61.541658323041524, 46.04989406520241], [-61.541664978217966, 46.04988676983314], [-61.54168360891319, 46.04986648675451], [-61.5417475524661, 46.049794399782115], [-61.541852010693226, 46.04973984045431], [-61.54195463123634, 46.04968633762726], [-61.54212220964408, 46.04960567230451], [-61.542264762567804, 46.049542688234546], [-61.54244552231498, 46.04945229017942], [-61.542575152659495, 46.04938914089219], [-61.542648927789095, 46.04936092059527], [-61.542691363897205, 46.04934472110056], [-61.542742492615886, 46.04931747198494], [-61.54274701145985, 46.04931275941563], [-61.542794331239925, 46.04926323079179], [-61.542976428091094, 46.049136667460296], [-61.54309190032946, 46.04905641636748], [-61.54310265887546, 46.04904053287451], [-61.543104003101774, 46.049038569931206], [-61.54309603603481, 46.04902694788354], [-61.54309155456108, 46.0490204104815], [-61.54307876768567, 46.0490151172451], [-61.543026339866, 46.048993477942595], [-61.54297486589389, 46.048984721306304], [-61.542871596037465, 46.048930302344], [-61.542848193531206, 46.04893054395055], [-61.54283280722226, 46.04893070776513], [-61.54275490770588, 46.04889461294757], [-61.542741285003395, 46.04888669890723], [-61.542677244959016, 46.04884952072636], [-61.542626717880324, 46.048804774529394], [-61.542601933419306, 46.04875927658185], [-61.54258726193481, 46.04873226836285], [-61.542577427384046, 46.04868354093641], [-61.54257468120988, 46.04867000535688], [-61.542574572456076, 46.04862500211954], [-61.54259069057603, 46.04855770491194], [-61.542600695214816, 46.04851643080569], [-61.54261292590842, 46.04844458382942], [-61.542641788471464, 46.048394009831256], [-61.54266441832295, 46.04835433679082], [-61.542710946892655, 46.04828571731834], [-61.542780063870325, 46.04818390450029], [-61.54283149423637, 46.048095996688104], [-61.54283284791391, 46.048093673853366], [-61.54288444864902, 46.048048429946896]]}, "properties": {"OBJECTID": 12849, "FEAT_CODE": "WACO20", "FEAT_DESC": "Coast - Water to the right line", "RIVNAME_1": " ", "RIVNAME_2": " ", "ZVALUE": 0.4, "FID": null, "SHAPE_Length": 1074.8546530006886}}, {"type": "Feature", "id": 12850, "geometry": {"type": "LineString", "coordinates": [[-61.54288444864902, 46.048048429946896], [-61.54288827160783, 46.04804559857561], [-61.54289631463454, 46.0480395808814], [-61.542985964944066, 46.04797286119256], [-61.54307825138408, 46.04790419496067], [-61.54311411376176, 46.047882331263736], [-61.54318071862505, 46.04784159869052], [-61.54328424122022, 46.04778801615265], [-61.543452072114825, 46.04769745167059], [-61.54349037894758, 46.04768092923179], [-61.54355535766607, 46.04765286623614], [-61.54365948584846, 46.047625392152746], [-61.54380108602364, 46.04759839549449], [-61.54390424451068, 46.04760781035375], [-61.5440728766908, 46.04763425999707], [-61.54416311387209, 46.04764350999335], [-61.54421001783344, 46.04764905774687], [-61.544240429658075, 46.04765259530851], [-61.54438928683037, 46.04768392277292], [-61.54440882577017, 46.047688041819285], [-61.54440972790695, 46.04768814331432], [-61.54455053614004, 46.04770604749209], [-61.54468038097178, 46.04773290224688], [-61.54475793329581, 46.0477329898528], [-61.54480940641123, 46.04774174567725], [-61.54488695875, 46.04774183319572], [-61.54489498497729, 46.047736445172774], [-61.54490011649883, 46.0477330003709], [-61.54489929694831, 46.04771498919287], [-61.54486894014427, 46.04770443221789], [-61.544848060147785, 46.04769723604701], [-61.544782609800414, 46.04767930187472], [-61.54469918062948, 46.04767166913379], [-61.544679451011866, 46.04766988780522], [-61.54466717092327, 46.04766991141853], [-61.54462774164415, 46.047670129284356], [-61.54453774068839, 46.04765188229278], [-61.54449918912841, 46.04764329092969], [-61.544499425489825, 46.04763429356897], [-61.54452064733655, 46.04761863321475], [-61.544524472546435, 46.047615711813556], [-61.5447050728735, 46.04758021039767], [-61.544757018476865, 46.04757097152069], [-61.544796153231864, 46.04760657133751], [-61.544808602029526, 46.047624730608725], [-61.54500260502788, 46.04766950270068], [-61.54506721220628, 46.047670325306385], [-61.54522246564046, 46.047615599570456], [-61.54529967059255, 46.04757968090148], [-61.54535103262899, 46.04754343321174], [-61.5453916034474, 46.047494807629555], [-61.54540307961752, 46.04748109314068], [-61.54540797059694, 46.047467114819455], [-61.54541565371705, 46.047445251712574], [-61.545415556673845, 46.047301244532605], [-61.54546786317722, 46.047229007324276], [-61.54547497533212, 46.0472239676402], [-61.545506067253314, 46.04720159245124], [-61.54566153149545, 46.04713876846439], [-61.54582909684169, 46.047058097514714], [-61.54593263908743, 46.04700361188601], [-61.54597472728151, 46.046985787573625], [-61.54599668531438, 46.04697652657563], [-61.54606155142594, 46.04696745150513], [-61.546152496156814, 46.04694970781781], [-61.546163778434185, 46.04694337108981], [-61.54621677831659, 46.04691362411348], [-61.54625453168219, 46.04687873294631], [-61.54625519427001, 46.04687811134955], [-61.54625508249421, 46.04683310806662], [-61.54624400043046, 46.04681703642394], [-61.54624263339012, 46.04681494894704], [-61.54621726305517, 46.0467966254418], [-61.546215472967816, 46.046795882638364], [-61.546177655771025, 46.04677902084036], [-61.54608789181164, 46.0467517777095], [-61.546083651416204, 46.046750823720714], [-61.54604934064501, 46.04674318597295], [-61.54602267828524, 46.04672484598503], [-61.54600698886148, 46.04671195672994], [-61.54594548803651, 46.04666176213649], [-61.54593245531316, 46.04661659443851], [-61.54593281603458, 46.046553596420075], [-61.54594480580277, 46.04649074637509], [-61.545957851542504, 46.04643691013765], [-61.545967105431004, 46.04641920714884], [-61.54600957270456, 46.046337664105295], [-61.546036011661556, 46.04626599752482], [-61.54607410314523, 46.04619357915986], [-61.546177160359136, 46.04605898470961], [-61.54620265467312, 46.04602330756323], [-61.54625530676595, 46.045987075871736], [-61.5462805885433, 46.04595949633993], [-61.5462800046142, 46.04593248779084], [-61.54624181430589, 46.04586089899302], [-61.546241230395545, 46.04583389044352], [-61.54625474779995, 46.04576205941961], [-61.54627602694693, 46.04572938875789], [-61.546319388748955, 46.045662977598845], [-61.546364398351194, 46.045587947025005], [-61.54638426550162, 46.04555489836557], [-61.54640964751788, 46.04547421787095], [-61.546447737946544, 46.04540179935944], [-61.546526119072226, 46.04532089294086], [-61.54668088060913, 46.04518605471835], [-61.54672328221187, 46.04514636230177], [-61.546757733003076, 46.04511412997077], [-61.54683592270597, 46.04503556099958], [-61.54684800156672, 46.045023474092424], [-61.54701639004764, 46.04486180847266], [-61.54708137695796, 46.04479873210764], [-61.54713712264853, 46.044728247908076], [-61.54714554345883, 46.044717644524006], [-61.54728703249692, 46.04454663612064], [-61.547391252575, 46.044466057580586], [-61.54744164713111, 46.04440738570212], [-61.54746857476574, 46.04437613666847], [-61.54749467052571, 46.044347037144604], [-61.54755778471928, 46.04427646638825], [-61.54763569096264, 46.04421355391199], [-61.547769204485526, 46.04408537532684], [-61.547804074654366, 46.04405188705274], [-61.54788307100954, 46.04398187796213], [-61.54799726578263, 46.04388063474752], [-61.5480524242403, 46.04383741377128], [-61.54810019151212, 46.04380003910704], [-61.54817812003872, 46.04373622650247], [-61.548233275853725, 46.04369309540834], [-61.548281045235754, 46.043655630690836], [-61.54837210598335, 46.04358388444563], [-61.54845062655272, 46.04351224884645], [-61.54850054581251, 46.04346671100609], [-61.5485281863391, 46.043437810871986], [-61.54855237324898, 46.043412467015116], [-61.54857550446813, 46.0433978201928], [-61.54868116175197, 46.043331299307006], [-61.54875930101718, 46.0432593886392], [-61.54884977530522, 46.0431606334298], [-61.54889084876313, 46.04312218338461], [-61.54892662206934, 46.04308870623232], [-61.54904499361033, 46.04300056554432], [-61.54912039166131, 46.04294446048465], [-61.54927561126066, 46.04279162466547], [-61.54928264040132, 46.042784783611964], [-61.54934059314486, 46.04272854693412], [-61.54944330280296, 46.04265604766884], [-61.54948256800222, 46.0426323350744], [-61.54954704516939, 46.04259346183462], [-61.549663145530886, 46.042503131581746]]}, "properties": {"OBJECTID": 12850, "FEAT_CODE": "WACO20", "FEAT_DESC": "Coast - Water to the right line", "RIVNAME_1": " ", "RIVNAME_2": " ", "ZVALUE": 0.4, "FID": null, "SHAPE_Length": 992.2198612784883}}, {"type": "Feature", "id": 63719, "geometry": {"type": "LineString", "coordinates": [[-61.5490240410867, 46.034298188269666], [-61.54902947255223, 46.03428322658484], [-61.54903337937108, 46.03427220571209], [-61.549059635600564, 46.03425156819174], [-61.54910321615443, 46.03423556082557], [-61.54910530192714, 46.034234867277455], [-61.54916122281758, 46.034221356675495], [-61.549168349090564, 46.03422063711909], [-61.5492041119909, 46.03421695099642], [-61.54922787699738, 46.03421743272598], [-61.54924221398243, 46.0342177047506], [-61.54928132052849, 46.03422945172176], [-61.5493295577818, 46.034262645520016], [-61.5493363052806, 46.034271461558376], [-61.54936554996062, 46.03430945444748], [-61.54937929329272, 46.03433735011685], [-61.54938101282636, 46.03437040337794]]}, "properties": {"OBJECTID": 63719, "FEAT_CODE": "WALK20", "FEAT_DESC": "Lake - Water to the right line", "RIVNAME_1": " ", "RIVNAME_2": " ", "ZVALUE": 3.57, "FID": null, "SHAPE_Length": 42.31719298532815}}, {"type": "Feature", "id": 63720, "geometry": {"type": "LineString", "coordinates": [[-61.54938101282636, 46.03437040337794], [-61.54937391383192, 46.03438489389098], [-61.54936218006174, 46.03440859596813], [-61.54933134827874, 46.03443124556045], [-61.54928007109478, 46.0344401349967], [-61.54922150879734, 46.034436061360445], [-61.54921278081937, 46.03443379045606], [-61.54916387973254, 46.034421019066926], [-61.549090521943455, 46.03438975634078], [-61.54905618438993, 46.034363669234345], [-61.54902669601111, 46.03432018293367], [-61.549025188904544, 46.034308643297194], [-61.5490240410867, 46.034298188269666]]}, "properties": {"OBJECTID": 63720, "FEAT_CODE": "WALK20", "FEAT_DESC": "Lake - Water to the right line", "RIVNAME_1": " ", "RIVNAME_2": " ", "ZVALUE": 3.57, "FID": null, "SHAPE_Length": 39.74980973384173}}, {"type": "Feature", "id": 63723, "geometry": {"type": "LineString", "coordinates": [[-61.5419750988532, 46.03778746981688], [-61.542178916366275, 46.03773777797673], [-61.54238273352166, 46.037688085768266], [-61.54246514604634, 46.03784682374328]]}, "properties": {"OBJECTID": 63723, "FEAT_CODE": "WALK20", "FEAT_DESC": "Lake - Water to the right line", "RIVNAME_1": " ", "RIVNAME_2": " ", "ZVALUE": 44.71, "FID": null, "SHAPE_Length": 52.18225026423204}}, {"type": "Feature", "id": 63724, "geometry": {"type": "LineString", "coordinates": [[-61.54246514604634, 46.03784682374328], [-61.54207412022774, 46.03794362987006], [-61.5419750988532, 46.03778746981688]]}, "properties": {"OBJECTID": 63724, "FEAT_CODE": "WALK20", "FEAT_DESC": "Lake - Water to the right line", "RIVNAME_1": " ", "RIVNAME_2": " ", "ZVALUE": 44.71, "FID": null, "SHAPE_Length": 51.08737528033006}}, {"type": "Feature", "id": 212550, "geometry": {"type": "LineString", "coordinates": [[-61.5355667858037, 46.04321978867406], [-61.53565819551099, 46.043282162665925], [-61.53570974246811, 46.043336825480935], [-61.53582663277398, 46.04341806662576], [-61.53594200149931, 46.043498208109526], [-61.536071935670094, 46.04357007571793], [-61.5361224527137, 46.04361482473309], [-61.536129084434386, 46.043637770649816], [-61.53613547676626, 46.04365999346911], [-61.53613569409944, 46.043671336729936], [-61.53613639705181, 46.043723007906436], [-61.536149421139015, 46.043768176640484], [-61.53615785291333, 46.04378169521705], [-61.53623996164628, 46.04391244246509], [-61.536264875761255, 46.043947863073285], [-61.53630588201781, 46.043990600098155], [-61.53631644769279, 46.044001625889585], [-61.536322047168895, 46.0440049377481], [-61.53640807340785, 46.04405590169833], [-61.536441690848385, 46.04407010284381], [-61.53647198698482, 46.04408282138153], [-61.53651278769008, 46.04409909458815], [-61.536562796173136, 46.04411908585238], [-61.53658763156967, 46.04412813427431], [-61.536588399674855, 46.04412841412232], [-61.536591711497586, 46.04413025661041], [-61.53666607460132, 46.04417261064667], [-61.536705415581096, 46.04420011556311], [-61.536743829989646, 46.04426271007284], [-61.53674818350716, 46.044269156087786], [-61.53675627540208, 46.044280870191216], [-61.536795165092045, 46.04432547001423], [-61.536798535774814, 46.04433487356685], [-61.53682168978608, 46.04439781266739], [-61.53684658072894, 46.04443413288636], [-61.53688316863803, 46.04447780316803], [-61.53689920816783, 46.04449690932626], [-61.53693809812142, 46.044541509102174], [-61.536963699775946, 46.04459007890666], [-61.53697625170849, 46.04461400060492], [-61.536988825317614, 46.0446762641842], [-61.53698913454482, 46.04467923826752], [-61.53698987983067, 46.04468527806174], [-61.536989033891906, 46.044766270621125], [-61.536989375735224, 46.04480227650396], [-61.53701590089689, 46.04487461911192], [-61.53700284689854, 46.04492845424341], [-61.53700877318212, 46.04496345157633], [-61.53701515929022, 46.04500061488603], [-61.53701518334397, 46.04503886679288], [-61.53701513034013, 46.045099618653225], [-61.53701525138196, 46.045119511034], [-61.537015472197126, 46.04513562453417], [-61.536989155479915, 46.04515328835886], [-61.53697532639424, 46.045158151516134], [-61.53691218627097, 46.04518020406919], [-61.53687397943159, 46.04520761604411], [-61.53683568426269, 46.045287319059014], [-61.53682200552258, 46.04531585511113], [-61.53675758574132, 46.04540593403363], [-61.536746824081355, 46.04543657751561], [-61.536745006559364, 46.04544177446006], [-61.536744327251625, 46.04544302581407], [-61.53673137287761, 46.04546860100628], [-61.536731606391555, 46.04548912485277], [-61.536731714546555, 46.04550460688363], [-61.53673636254672, 46.04552437722428], [-61.536744501900664, 46.045558772879886], [-61.536822125850556, 46.04570287279898], [-61.53686098730527, 46.04584647635262], [-61.53691534723248, 46.046029699967214], [-61.53692508242595, 46.04606240596813], [-61.53693834523764, 46.0460985772757], [-61.536964315282326, 46.046143011611335], [-61.536997011965305, 46.04617745164138], [-61.53706744084389, 46.04625143634809], [-61.53715885718802, 46.04631380918711], [-61.53730114102622, 46.0463588323267], [-61.53741732165457, 46.04641342160454], [-61.53744753000394, 46.04643441909785], [-61.53748205555619, 46.04645835195684], [-61.5376243121069, 46.04660237845544], [-61.537740126506165, 46.04667577349628], [-61.53777940942242, 46.04670066717813], [-61.53778926137013, 46.046704483395985], [-61.53789582866879, 46.046746258644994], [-61.53793390368901, 46.04677284688933], [-61.53802448082286, 46.04681810758181], [-61.53805559783982, 46.046834076328715], [-61.53807676927798, 46.046844877621176], [-61.53812022454646, 46.04685371389492], [-61.53816676667609, 46.04686312966342], [-61.53821518053845, 46.04687508946092], [-61.53830931386041, 46.04689825449948], [-61.53836571387597, 46.046916166628776], [-61.5384246791864, 46.0469348315709], [-61.538450450437864, 46.0469378613021], [-61.53850328507258, 46.04694393727289], [-61.53863493922808, 46.046951021226945], [-61.538658173714126, 46.046952218395276], [-61.53878719621001, 46.046961068594044], [-61.53879620073628, 46.04696271379915], [-61.53889011528306, 46.046979485296035], [-61.53899363852593, 46.047024010711354], [-61.53902600079139, 46.047031984782016], [-61.53903216503351, 46.04703350365159], [-61.539054673942985, 46.047042611790886], [-61.53918819123773, 46.047096700873084], [-61.53931626537457, 46.04714153984131], [-61.53938066395971, 46.047174764339495], [-61.53947184158282, 46.04722183162959], [-61.53954117506805, 46.04728851049224], [-61.539575211222036, 46.047321256824176], [-61.53960643325228, 46.04734307673084], [-61.53965263213426, 46.0473753484517], [-61.53970515905153, 46.04739312041719], [-61.53971441852067, 46.04739980901614], [-61.53971784325639, 46.04740228288134], [-61.53976931521348, 46.0474110409636], [-61.53988332416088, 46.04741087770572], [-61.539898576090984, 46.04741089257919], [-61.54000197056968, 46.047411313606936], [-61.54005639788899, 46.04741092893921], [-61.540092467412684, 46.047410669728336], [-61.54013093392137, 46.047417551422505], [-61.54019538778007, 46.047429085268334], [-61.5402479149281, 46.04744685698683], [-61.54048044052218, 46.04750112923037], [-61.54062193572808, 46.04752723736584], [-61.54066748070798, 46.04753528932303], [-61.54072614863697, 46.04754566893402], [-61.54095856767554, 46.047554936982515], [-61.541191247391076, 46.0475543074768], [-61.54132074551529, 46.04754516013956], [-61.54141063734865, 46.04751840641512], [-61.5414628202598, 46.04750017169282], [-61.541518262168566, 46.04749070890276], [-61.54156539648725, 46.047482580117496], [-61.54183696865884, 46.04742844343506], [-61.54190078057039, 46.04741035690297], [-61.541942571682384, 46.047394059448564], [-61.541992200815976, 46.047374621851], [-61.5420296950426, 46.04736933999795], [-61.542057067995465, 46.04736554906781], [-61.5420776224084, 46.047365451294446], [-61.54210748492675, 46.04736529226366], [-61.542146272644906, 46.04736488707567], [-61.54218561861958, 46.047392390149575], [-61.54228739928888, 46.0474394104472], [-61.542301829996774, 46.04744607479904], [-61.54240488351957, 46.04750859186782], [-61.54241841492342, 46.04752487513156], [-61.54245749648517, 46.04757226555962], [-61.54245927471095, 46.047573458289165], [-61.54252223587543, 46.04761719311224], [-61.5425355945633, 46.04764004443012], [-61.54254821111177, 46.04766162622893], [-61.54256140606277, 46.04768087530668], [-61.54257310725329, 46.04769794524231], [-61.54259068981977, 46.04772238048769], [-61.54259929557066, 46.047734280730104], [-61.54263819236912, 46.0477788786229], [-61.54266300910516, 46.04781330652522], [-61.542676852570786, 46.047832473856005], [-61.54269214201979, 46.047870380397654], [-61.54270233105285, 46.0478958013802], [-61.542715943597074, 46.04796797794672], [-61.542735601311165, 46.04797740901273], [-61.54288444864902, 46.048048429946896]]}, "properties": {"OBJECTID": 212550, "FEAT_CODE": "WARV50", "FEAT_DESC": "River - Single Line", "RIVNAME_1": " ", "RIVNAME_2": " ", "ZVALUE": 9999, "FID": null, "SHAPE_Length": 934.1909101621021}}]}